{"type":"FeatureCollection","features":[{"type":"Feature","geometry":{"type":"Polygon","coordinates":[[[77.537167,28.506995],[77.537072,28.507095],[77.537002,28.507041],[77.537093,28.506939],[77.537167,28.506995]]]},"properties":{"objectid":13614,"plotmapid":"ZETA-02NULLMT1INSTL","allot_id":"MB_TOWER00016","allotted_p":"Yes","plotsizesq":0,"plot_no":"MT1","sector":"ZETA-02","block":"NULL","phase":"Phase 1","scheme_cod":"MB_TOWER00016","mplanduse":"V","ppt_type":"INSTL","ppt_full":"Institutional","authority":"GNIDA","category":"institutional","execution_stage":"allotted"}},{"type":"Feature","geometry":{"type":"Polygon","coordinates":[[[77.529176,28.50912],[77.5289,28.509254],[77.528349,28.509467],[77.528089,28.509544],[77.527857,28.509573],[77.52757,28.509506],[77.527083,28.508929],[77.528482,28.507971],[77.529176,28.50912]]]},"properties":{"objectid":53684,"plotmapid":"ZETA-01NULLHS-31INSTL","allot_id":"INS0326052","property_t":"Institutional","allotted_p":"Yes","plotsizesq":20283.01,"plot_size":"20283.01","plot_no":"HS-31","sector":"ZETA-01","block":"NULL","phase":"Phase 1","ppt_type":"INSTL","ppt_full":"Institutional","authority":"GNIDA","category":"institutional","execution_stage":"allotted"}}]}
