{"type":"FeatureCollection","features":[{"type":"Feature","geometry":{"type":"Polygon","coordinates":[[[77.579671,28.127249],[77.579554,28.1273],[77.579194,28.127566],[77.579108,28.12765],[77.579034,28.127794],[77.577824,28.127478],[77.579839,28.127139],[77.579671,28.127249]]]},"properties":{"objectid":1347,"label":"Logistics","area_ha":0.50925807,"class":"Logistics","total_percentage":0.00135661,"authority":"YEIDA","category":"logistics-masterplan","execution_stage":"planning"}},{"type":"Feature","geometry":{"type":"Polygon","coordinates":[[[77.586457,28.12925],[77.586439,28.129329],[77.586325,28.12937],[77.586225,28.12947],[77.586114,28.129793],[77.585286,28.129551],[77.585272,28.129513],[77.585195,28.129423],[77.585039,28.129326],[77.583618,28.128908],[77.583685,28.128767],[77.583693,28.128598],[77.583658,28.128489],[77.583553,28.128348],[77.583452,28.128278],[77.582934,28.128001],[77.582816,28.127955],[77.582709,28.127839],[77.582609,28.127769],[77.58243,28.12771],[77.582244,28.127713],[77.581463,28.126868],[77.582198,28.126743],[77.587253,28.126427],[77.587171,28.126651],[77.587156,28.12674],[77.587175,28.126827],[77.587254,28.126932],[77.586457,28.12925]]]},"properties":{"objectid":1347,"label":"Logistics","area_ha":12.30654473,"class":"Logistics","total_percentage":0.03278344,"authority":"YEIDA","category":"logistics-masterplan","execution_stage":"planning"}},{"type":"Feature","geometry":{"type":"Polygon","coordinates":[[[77.581498,28.137195],[77.580236,28.137234],[77.579288,28.137232],[77.578168,28.137254],[77.57643,28.13548],[77.575929,28.135017],[77.575826,28.134893],[77.575761,28.134783],[77.575684,28.134545],[77.575683,28.134309],[77.575788,28.133672],[77.576903,28.127625],[77.576927,28.127594],[77.576968,28.127589],[77.578848,28.128088],[77.578775,28.128248],[77.578761,28.12836],[77.57878,28.128472],[77.578865,28.128623],[77.579006,28.128736],[77.579582,28.128978],[77.579582,28.129107],[77.579645,28.129266],[77.579722,28.129357],[77.580042,28.129646],[77.579849,28.129782],[77.57973,28.129915],[77.579686,28.130021],[77.579675,28.130155],[77.579603,28.130212],[77.57953,28.130305],[77.579485,28.130411],[77.579472,28.130523],[77.579512,28.130689],[77.579576,28.130787],[77.579933,28.131113],[77.580102,28.131191],[77.580292,28.131209],[77.580475,28.131163],[77.581191,28.130717],[77.581319,28.130683],[77.581465,28.130675],[77.581586,28.130638],[77.582054,28.13037],[77.582274,28.130211],[77.58244,28.130205],[77.582615,28.13014],[77.583008,28.129815],[77.584174,28.130151],[77.584695,28.13032],[77.584886,28.130317],[77.585006,28.13028],[77.585112,28.130217],[77.585231,28.130084],[77.585308,28.129899],[77.58601,28.130105],[77.585306,28.132123],[77.585029,28.133899],[77.584417,28.136839],[77.584415,28.136926],[77.582606,28.137142],[77.581498,28.137195]]]},"properties":{"objectid":1347,"label":"Logistics","area_ha":71.99217890999999,"class":"Logistics","total_percentage":0.19178015,"authority":"YEIDA","category":"logistics-masterplan","execution_stage":"planning"}},{"type":"Feature","geometry":{"type":"Polygon","coordinates":[[[77.668721,28.183042],[77.668584,28.183574],[77.668445,28.185163],[77.659472,28.185338],[77.659394,28.185307],[77.659368,28.18525],[77.659027,28.171458],[77.659057,28.171392],[77.659098,28.171369],[77.659147,28.171367],[77.66653,28.172569],[77.672157,28.173665],[77.669979,28.179693],[77.668721,28.183042]],[[77.663719,28.181237],[77.663544,28.181303],[77.663408,28.181421],[77.663156,28.181808],[77.663112,28.181914],[77.663099,28.182027],[77.663118,28.182139],[77.663203,28.18229],[77.663292,28.182371],[77.663492,28.182501],[77.663527,28.182567],[77.663604,28.182657],[77.663806,28.182805],[77.663923,28.182851],[77.664048,28.182869],[77.664176,28.18286],[77.664331,28.182815],[77.664456,28.182834],[77.665448,28.182795],[77.665568,28.182757],[77.665724,28.182671],[77.665822,28.182596],[77.665895,28.182503],[77.665939,28.182397],[77.665952,28.182285],[77.665912,28.182119],[77.665733,28.181866],[77.665584,28.18175],[77.665558,28.18169],[77.665605,28.181608],[77.665634,28.181498],[77.665631,28.181385],[77.665597,28.181276],[77.665298,28.180888],[77.665156,28.180775],[77.66504,28.180729],[77.664914,28.180711],[77.664789,28.180719],[77.664624,28.180707],[77.664499,28.180731],[77.664334,28.180816],[77.664148,28.180883],[77.664051,28.180957],[77.6638,28.181229],[77.663719,28.181237]]]},"properties":{"objectid":1347,"label":"Logistics","area_ha":149.46521389,"class":"Logistics","total_percentage":0.39816079,"authority":"YEIDA","category":"logistics-masterplan","execution_stage":"planning"}},{"type":"Feature","geometry":{"type":"Polygon","coordinates":[[[77.736372,28.219689],[77.722135,28.211038],[77.735756,28.193027],[77.736792,28.193496],[77.738742,28.19455],[77.742486,28.196893],[77.744647,28.198535],[77.746352,28.200069],[77.747544,28.201247],[77.748952,28.202833],[77.749057,28.202977],[77.736372,28.219689]],[[77.733214,28.216216],[77.733395,28.216236],[77.733571,28.216199],[77.734018,28.215969],[77.734161,28.215857],[77.734226,28.21576],[77.734261,28.215651],[77.734255,28.215482],[77.734379,28.215313],[77.734431,28.215159],[77.734533,28.215071],[77.734752,28.214833],[77.73484,28.214689],[77.734864,28.214582],[77.734858,28.214472],[77.734823,28.214368],[77.73476,28.214273],[77.734605,28.214133],[77.734413,28.213995],[77.734285,28.213872],[77.734197,28.213817],[77.734099,28.213779],[77.734031,28.21363],[77.733908,28.213511],[77.733746,28.213439],[77.733626,28.213421],[77.733505,28.213428],[77.73339,28.213461],[77.73306,28.213636],[77.732964,28.21371],[77.732891,28.213803],[77.732847,28.213909],[77.732834,28.214021],[77.732857,28.214142],[77.732769,28.214248],[77.732718,28.21439],[77.732534,28.214393],[77.732014,28.213929],[77.731907,28.21387],[77.731787,28.213837],[77.731599,28.213838],[77.73148,28.213872],[77.731373,28.213932],[77.731203,28.21406],[77.731101,28.214199],[77.731068,28.214306],[77.731065,28.214417],[77.731118,28.214576],[77.731188,28.214667],[77.731557,28.215042],[77.732072,28.215739],[77.732173,28.215842],[77.732227,28.215972],[77.7323,28.216062],[77.732396,28.216134],[77.73257,28.216198],[77.732758,28.216202],[77.732915,28.216155],[77.733104,28.216172],[77.733214,28.216216]],[[77.736284,28.202157],[77.736112,28.202214],[77.73566,28.20252],[77.735575,28.202595],[77.73549,28.202734],[77.735464,28.20289],[77.735501,28.203045],[77.735558,28.203138],[77.735745,28.203329],[77.735579,28.203452],[77.735472,28.203578],[77.735411,28.20373],[77.735415,28.203891],[77.73532,28.203965],[77.735249,28.204058],[77.735206,28.204163],[77.735194,28.204274],[77.735234,28.204438],[77.735298,28.204535],[77.735545,28.204727],[77.735001,28.205023],[77.734904,28.205094],[77.734829,28.205185],[77.734769,28.205344],[77.734767,28.205456],[77.734797,28.205565],[77.734789,28.205589],[77.734701,28.205669],[77.734639,28.205765],[77.734592,28.205965],[77.734598,28.206061],[77.734648,28.2062],[77.734706,28.206295],[77.7348,28.206383],[77.734425,28.20659],[77.734331,28.206658],[77.734258,28.206744],[77.734195,28.206895],[77.734197,28.207056],[77.734233,28.207158],[77.734452,28.207477],[77.734536,28.207552],[77.734695,28.207627],[77.734713,28.207728],[77.734756,28.207823],[77.734967,28.20805],[77.735116,28.208152],[77.735234,28.20819],[77.735359,28.208201],[77.735483,28.208184],[77.735599,28.208142],[77.7357,28.208075],[77.736133,28.207693],[77.736192,28.207593],[77.736225,28.207427],[77.736296,28.207375],[77.736347,28.207355],[77.736549,28.207415],[77.736724,28.207407],[77.736895,28.207353],[77.737036,28.207261],[77.737134,28.207133],[77.737198,28.206933],[77.737283,28.20686],[77.737346,28.206772],[77.737395,28.206623],[77.737394,28.206518],[77.737637,28.206344],[77.737723,28.206219],[77.737753,28.206124],[77.737871,28.206132],[77.737987,28.206114],[77.738096,28.206074],[77.738191,28.206012],[77.738458,28.205792],[77.738538,28.205709],[77.738609,28.205558],[77.738615,28.205395],[77.738839,28.205246],[77.739018,28.205288],[77.739142,28.205284],[77.73926,28.205252],[77.739414,28.205161],[77.73968,28.204866],[77.739731,28.204771],[77.739757,28.204616],[77.739958,28.204551],[77.740231,28.204352],[77.740316,28.204214],[77.740344,28.204059],[77.740722,28.203784],[77.740798,28.203694],[77.740859,28.203534],[77.740861,28.203421],[77.740831,28.203312],[77.740771,28.203212],[77.740607,28.203005],[77.740448,28.202852],[77.740346,28.202798],[77.740232,28.202767],[77.740053,28.202766],[77.739939,28.202796],[77.739836,28.202849],[77.739242,28.203241],[77.739192,28.203216],[77.739176,28.203113],[77.739133,28.203016],[77.738697,28.202452],[77.738279,28.201858],[77.738155,28.201737],[77.73799,28.201664],[77.737807,28.201647],[77.737686,28.201669],[77.737343,28.201844],[77.737216,28.201853],[77.737096,28.201889],[77.73699,28.20195],[77.736638,28.202215],[77.736467,28.202157],[77.736284,28.202157]]]},"properties":{"objectid":1347,"label":"Logistics","area_ha":372.97551666,"class":"Logistics","total_percentage":0.9935704500000001,"authority":"YEIDA","category":"logistics-masterplan","execution_stage":"planning"}},{"type":"Feature","geometry":{"type":"Polygon","coordinates":[[[77.755733,28.231282],[77.737008,28.220075],[77.749543,28.203641],[77.749895,28.20412],[77.751924,28.2071],[77.752235,28.207671],[77.753781,28.211429],[77.756811,28.215542],[77.759032,28.21797],[77.760502,28.219405],[77.763827,28.221871],[77.755733,28.231282]],[[77.741217,28.221597],[77.741172,28.221696],[77.741158,28.221855],[77.741207,28.222009],[77.741272,28.222098],[77.74141,28.222202],[77.741825,28.222414],[77.74217,28.222653],[77.742349,28.222712],[77.742476,28.222717],[77.742601,28.222693],[77.742724,28.222637],[77.742914,28.222625],[77.743086,28.222552],[77.743429,28.22221],[77.743484,28.222133],[77.74355,28.221982],[77.743853,28.221781],[77.743931,28.221694],[77.743991,28.221567],[77.744186,28.221481],[77.744275,28.221399],[77.744339,28.221301],[77.744377,28.221134],[77.744343,28.220967],[77.744078,28.220524],[77.743983,28.220414],[77.744073,28.2203],[77.744108,28.220212],[77.744301,28.220059],[77.744398,28.219919],[77.744428,28.219812],[77.744428,28.219702],[77.744373,28.219545],[77.744301,28.219455],[77.744122,28.219283],[77.743967,28.219201],[77.74379,28.219172],[77.74367,28.219184],[77.743557,28.21922],[77.743442,28.219284],[77.74329,28.219006],[77.743128,28.218823],[77.743038,28.21875],[77.74293,28.2187],[77.742852,28.2186],[77.742554,28.218335],[77.742453,28.21828],[77.742341,28.218247],[77.742126,28.21822],[77.742013,28.218234],[77.741906,28.218269],[77.741226,28.218741],[77.741113,28.218694],[77.740929,28.218672],[77.740749,28.218711],[77.740642,28.218768],[77.739722,28.219587],[77.739657,28.219685],[77.739622,28.219794],[77.739629,28.219963],[77.739673,28.22007],[77.739745,28.220163],[77.740174,28.220495],[77.740341,28.22056],[77.740523,28.220568],[77.740469,28.220725],[77.740481,28.220889],[77.740527,28.220991],[77.740643,28.221119],[77.740903,28.221275],[77.741017,28.221326],[77.741206,28.22135],[77.741392,28.22131],[77.741217,28.221597]]]},"properties":{"objectid":1347,"label":"Logistics","area_ha":359.00991927,"class":"Logistics","total_percentage":0.95636743,"authority":"YEIDA","category":"logistics-masterplan","execution_stage":"planning"}},{"type":"Feature","geometry":{"type":"Polygon","coordinates":[[[77.77364,28.234687],[77.772723,28.234984],[77.771258,28.235581],[77.768441,28.238896],[77.756367,28.231661],[77.764414,28.222305],[77.765238,28.22291],[77.771512,28.226379],[77.77705,28.229901],[77.77899,28.231156],[77.777569,28.232749],[77.777663,28.232633],[77.777724,28.232495],[77.777729,28.232146],[77.777616,28.231697],[77.777557,28.231595],[77.777472,28.23151],[77.777306,28.231425],[77.77718,28.231401],[77.777041,28.231402],[77.776944,28.231282],[77.776848,28.231207],[77.776734,28.231155],[77.776609,28.231131],[77.776481,28.231135],[77.776302,28.231194],[77.776183,28.231163],[77.775998,28.231167],[77.775827,28.231229],[77.775676,28.231336],[77.775636,28.231301],[77.77546,28.231211],[77.775334,28.231189],[77.775322,28.23114],[77.775195,28.230949],[77.774911,28.230666],[77.774774,28.23057],[77.774666,28.230531],[77.774432,28.230511],[77.774309,28.230519],[77.774192,28.230554],[77.774032,28.230631],[77.773767,28.230611],[77.773627,28.230624],[77.773317,28.230543],[77.773152,28.23054],[77.772876,28.230628],[77.772769,28.230634],[77.772666,28.230659],[77.772524,28.230732],[77.77236,28.230671],[77.772183,28.230663],[77.772014,28.23071],[77.771842,28.230825],[77.771669,28.230867],[77.77151,28.230949],[77.771424,28.231028],[77.771324,28.231181],[77.771291,28.231285],[77.771286,28.231394],[77.77131,28.231533],[77.771391,28.231736],[77.771347,28.232026],[77.771371,28.232176],[77.771449,28.232311],[77.771649,28.232514],[77.771705,28.232638],[77.771795,28.232751],[77.771729,28.232878],[77.771672,28.233061],[77.771666,28.233164],[77.771687,28.233266],[77.771765,28.233404],[77.771845,28.233479],[77.772342,28.233843],[77.772444,28.2339],[77.772617,28.233942],[77.772737,28.23394],[77.772853,28.233912],[77.773029,28.233809],[77.773069,28.233802],[77.773263,28.233948],[77.773432,28.234003],[77.773695,28.234264],[77.773789,28.234333],[77.773956,28.234396],[77.774138,28.234402],[77.774255,28.234374],[77.77441,28.234288],[77.774595,28.234128],[77.77468,28.233996],[77.774708,28.233891],[77.774707,28.233782],[77.774652,28.233628],[77.774511,28.23347],[77.774558,28.233414],[77.775068,28.233289],[77.775216,28.233382],[77.77533,28.233416],[77.775451,28.233424],[77.775571,28.233408],[77.775733,28.233338],[77.775903,28.233202],[77.775992,28.233105],[77.77603,28.233104],[77.776272,28.233313],[77.776435,28.233378],[77.776614,28.233388],[77.776785,28.233344],[77.77696,28.233369],[77.776735,28.233608],[77.775804,28.234045],[77.774668,28.23432],[77.77364,28.234687]]]},"properties":{"objectid":1347,"label":"Logistics","area_ha":186.35039733,"class":"Logistics","total_percentage":0.49641931,"authority":"YEIDA","category":"logistics-masterplan","execution_stage":"planning"}},{"type":"Feature","geometry":{"type":"Polygon","coordinates":[[[77.785289,28.235164],[77.777538,28.244283],[77.769088,28.23928],[77.772041,28.235996],[77.772664,28.235712],[77.773755,28.235358],[77.775126,28.234883],[77.776086,28.23468],[77.777012,28.234249],[77.77747,28.234008],[77.777528,28.233963],[77.779611,28.231557],[77.785289,28.235164]]]},"properties":{"objectid":1347,"label":"Logistics","area_ha":108.84906427,"class":"Logistics","total_percentage":0.2899633,"authority":"YEIDA","category":"logistics-masterplan","execution_stage":"planning"}},{"type":"Feature","geometry":{"type":"Polygon","coordinates":[[[77.767752,28.240875],[77.776194,28.245871],[77.768698,28.254722],[77.760476,28.249425],[77.76796,28.2406],[77.767752,28.240875]]]},"properties":{"objectid":1347,"label":"Logistics","area_ha":120.47006083,"class":"Logistics","total_percentage":0.3209205,"authority":"YEIDA","category":"logistics-masterplan","execution_stage":"planning"}},{"type":"Feature","geometry":{"type":"Polygon","coordinates":[[[77.759413,28.25069],[77.767629,28.255985],[77.76052,28.264376],[77.760438,28.264433],[77.760369,28.264448],[77.7603,28.264441],[77.760237,28.264413],[77.752368,28.2593],[77.752306,28.259235],[77.752285,28.259152],[77.752325,28.259046],[77.759413,28.25069]]]},"properties":{"objectid":1347,"label":"Logistics","area_ha":117.85754511,"class":"Logistics","total_percentage":0.31396103000000003,"authority":"YEIDA","category":"logistics-masterplan","execution_stage":"planning"}}]}
