{"type":"FeatureCollection","features":[{"type":"Feature","geometry":{"type":"Polygon","coordinates":[[[77.518635,28.302589],[77.518123,28.303584],[77.51343,28.302019],[77.514376,28.29987],[77.519147,28.301592],[77.518635,28.302589]]]},"properties":{"objectid":1,"uniqueplotid":"PLNGMIXEDUSE1","plotmap_id":"SECTOR-24_19_MLU_MIXED USE","plotidentificationnumber":"19","plotno":"19","industrysector":"SECTOR-24","block":"MLU","plotsize":"30 ACRE","landuse_type":"MIXED USE","landuse_subcategory":"MIXED USE","investment":0,"employment":0,"landallotementstatus":"VACANT","landallotementtype":"VACANT","village_name":"Suhedi Mahuddinpur,Munjkheda","khasra_no":"897,898,900,899,116,142,118,125/339,143,140,128,133,132,126,130,115,114,119,147,125,134,131,136,121,113,146,145,139,123,122,135,137,127,120,148,117,129","longitude":77.51626931999999,"latitude":28.30174055,"authority":"YEIDA","category":"mixed-use","execution_stage":"vacant"}},{"type":"Feature","geometry":{"type":"Polygon","coordinates":[[[77.537167,28.289655],[77.536487,28.290355],[77.535897,28.290919],[77.534626,28.289898],[77.532815,28.287872],[77.534192,28.286773],[77.537167,28.289655]]]},"properties":{"objectid":2,"uniqueplotid":"PLNGMIXEDUSE2","plotmap_id":"SECTOR-24_4_MLU_MIXED USE","plotidentificationnumber":"4","plotno":"4","industrysector":"SECTOR-24","block":"MLU","plotsize":"85870 SQMT","plotsize_at_the_time_of_allotme":"85870 SQMT","landuse_type":"MIXED USE","landuse_subcategory":"MIXED USE","scheme_cod":"MLU","investment":0,"employment":0,"plot_total_employment":"500","projects_cost_in_lacs":40000,"plotstatus":"Allotted","landallotementstatus":"SOLD","landallotementtype":"ALLOTTED","nature_of_allottee":"PVT.LTD","allotmentid":"MLU0009","allotment_date":1400178600000,"rate_of_allotment":4950,"lease_deed":"Y","possession":"N","map_sanctioned_from_planning":"Y","village_name":"Kherli Bhav","khasra_no":"907,713,912,906,891,714,709,710,712,897,911,908,892,910,909M,893M,898,900,899,889,894M,913,663,901,903,902/1186,904,902,890M,905M","longitude":77.53494139,"latitude":28.288729999999997,"authority_recorded_allottee":"M/S. DHARAMPAL SATYAPAL LTD.","authority":"YEIDA","category":"mixed-use","execution_stage":"construction-or-map-approval"}},{"type":"Feature","geometry":{"type":"Polygon","coordinates":[[[77.529193,28.288325],[77.530452,28.289208],[77.528332,28.290905],[77.528096,28.291365],[77.524598,28.28996],[77.527524,28.287156],[77.529193,28.288325]]]},"properties":{"objectid":3,"uniqueplotid":"PLNGMIXEDUSE3","plotmap_id":"SECTOR-24_26_MLU_MIXED USE","plotidentificationnumber":"26","plotno":"26","industrysector":"SECTOR-24","block":"MLU","plotsize":"20150 SQMT","landuse_type":"MIXED USE","landuse_subcategory":"MIXED USE","investment":0,"employment":0,"landallotementstatus":"VACANT","landallotementtype":"VACANT","village_name":"Kadarpur,Kherli Bhav,Suhedi Mahuddinpur","khasra_no":"858,856,859,874,887,883,853,877,884,852,857,886,875,876,14,15,12,13,9,17,2,30,10,23,3,5,6,4,22,7,11,8,16,1,316,318,317,208,209,210,310,312,313,314,315,324,207","longitude":77.52738492,"latitude":28.289259790000003,"authority":"YEIDA","category":"mixed-use","execution_stage":"vacant"}},{"type":"Feature","geometry":{"type":"Polygon","coordinates":[[[77.527533,28.292455],[77.526712,28.294059],[77.524498,28.29317],[77.52458,28.29302],[77.525907,28.291801],[77.527533,28.292455]]]},"properties":{"objectid":4,"uniqueplotid":"PLNGMIXEDUSE4","plotmap_id":"SECTOR-24_25A_MLU_MIXED USE","plotidentificationnumber":"25A","plotno":"25A","industrysector":"SECTOR-24","block":"MLU","plotsize":"40900 SQMT","landuse_type":"MIXED USE","landuse_subcategory":"MIXED USE","investment":0,"employment":0,"landallotementstatus":"VACANT","landallotementtype":"VACANT","village_name":"Kherli Bhav","khasra_no":"850,848,847,840,837,851,846,845,836,854,834,833,841,842,838,832,843,839,849","longitude":77.52618906,"latitude":28.29295002,"authority":"YEIDA","category":"mixed-use","execution_stage":"vacant"}},{"type":"Feature","geometry":{"type":"Polygon","coordinates":[[[77.528096,28.291365],[77.527533,28.292455],[77.525907,28.291801],[77.526906,28.290887],[77.528096,28.291365]]]},"properties":{"objectid":5,"uniqueplotid":"PLNGMIXEDUSE5","plotmap_id":"SECTOR-24_25B_MLU_MIXED USE","plotidentificationnumber":"25B","plotno":"25B","industrysector":"SECTOR-24","block":"MLU","plotsize":"20150 SQMT","landuse_type":"MIXED USE","landuse_subcategory":"MIXED USE","investment":0,"employment":0,"landallotementstatus":"VACANT","landallotementtype":"VACANT","village_name":"Kherli Bhav,Suhedi Mahuddinpur","khasra_no":"856,848,853,851,854,852,857,875,209,206","longitude":77.52699846,"latitude":28.291686499999997,"authority":"YEIDA","category":"mixed-use","execution_stage":"vacant"}},{"type":"Feature","geometry":{"type":"Polygon","coordinates":[[[77.516018,28.304878],[77.516181,28.306367],[77.511684,28.305994],[77.512359,28.304461],[77.516018,28.304878]]]},"properties":{"objectid":6,"uniqueplotid":"PLNGMIXEDUSE6","plotmap_id":"SECTOR-24_18_MLU_MIXED USE","plotidentificationnumber":"18","plotno":"18","industrysector":"SECTOR-24","block":"MLU","plotsize":"68135 SQMT","landuse_type":"MIXED USE","landuse_subcategory":"MIXED USE","investment":0,"employment":0,"landallotementstatus":"VACANT","landallotementtype":"VACANT","village_name":"Fatehpur Atta,Suhedi Mahuddinpur","khasra_no":"1,8,9,29,13,21,12,11,20,6,3,7,4,2,5,468,N/F,570,439","longitude":77.51398019000001,"latitude":28.305430769999997,"authority":"YEIDA","category":"mixed-use","execution_stage":"vacant"}},{"type":"Feature","geometry":{"type":"Polygon","coordinates":[[[77.515306,28.307832],[77.515229,28.30855],[77.51396,28.308445],[77.514037,28.307727],[77.515306,28.307832]]]},"properties":{"objectid":7,"uniqueplotid":"PLNGMIXEDUSE7","plotmap_id":"SECTOR-24_16C_MLU_MIXED USE","plotidentificationnumber":"16C","plotno":"16C","industrysector":"SECTOR-24","block":"MLU","plotsize":"10000 SQMT","landuse_type":"MIXED USE","landuse_subcategory":"MIXED USE","investment":0,"employment":0,"landallotementstatus":"VACANT","landallotementtype":"VACANT","village_name":"Fatehpur Atta","khasra_no":"475,456,478,N/F,472,473,467,470,471,465","longitude":77.51463306000001,"latitude":28.30813821,"authority":"YEIDA","category":"mixed-use","execution_stage":"vacant"}},{"type":"Feature","geometry":{"type":"Polygon","coordinates":[[[77.529888,28.278277],[77.529894,28.278254],[77.532634,28.27894],[77.534147,28.281414],[77.532816,28.282496],[77.529662,28.279442],[77.529888,28.278277]]]},"properties":{"objectid":8,"uniqueplotid":"PLNGMIXEDUSE8","plotmap_id":"SECTOR-24_2_MLU_MIXED USE","plotidentificationnumber":"2","plotno":"2","industrysector":"SECTOR-24","block":"MLU","plotsize":"102900 SQMT","landuse_type":"MIXED USE","landuse_subcategory":"MIXED USE","investment":0,"employment":0,"landallotementstatus":"VACANT","landallotementtype":"VACANT","village_name":"Kadarpur","khasra_no":"540,193,544,189,541,194,174,133,177,180,191,581,112,190,116,196,195,182,197,200,528,162,161,578,579,122,121,539,113,114,115,181,580,176,134,132,175,173,192,119,542,543,188,120,178,179,527","longitude":77.53216348,"latitude":28.28044152,"authority":"YEIDA","category":"mixed-use","execution_stage":"vacant"}},{"type":"Feature","geometry":{"type":"Polygon","coordinates":[[[77.532816,28.282496],[77.531166,28.283837],[77.529182,28.281919],[77.529662,28.279442],[77.532816,28.282496]]]},"properties":{"objectid":9,"uniqueplotid":"PLNGMIXEDUSE9","plotmap_id":"SECTOR-24_3_MLU_MIXED USE","plotidentificationnumber":"3","plotno":"3","industrysector":"SECTOR-24","block":"MLU","plotsize":"82100 SQMT","landuse_type":"MIXED USE","landuse_subcategory":"MIXED USE","investment":0,"employment":0,"landallotementstatus":"VACANT","landallotementtype":"VACANT","village_name":"Kadarpur","khasra_no":"540,189,541,194,198,213,112,190,116,196,195,199,182,197,187,200,183,216,87,82,88,186,528,86,202,201,204,203,207,206,205,211,210,208,539,117,118,111,119,188,215,209,120,527","longitude":77.53093982,"latitude":28.28196234,"authority":"YEIDA","category":"mixed-use","execution_stage":"vacant"}},{"type":"Feature","geometry":{"type":"Polygon","coordinates":[[[77.525266,28.30896],[77.52351,28.309427],[77.523263,28.307204],[77.525063,28.30711],[77.525266,28.30896]]]},"properties":{"objectid":10,"uniqueplotid":"PLNGMIXEDUSE10","plotmap_id":"SECTOR-24_9A_MLU_MIXED USE","plotidentificationnumber":"9A","plotno":"9A","industrysector":"SECTOR-24","block":"MLU","plotsize":"40000 SQMT","plotsize_at_the_time_of_allotme":"40000 SQMT","landuse_type":"MIXED USE","landuse_subcategory":"MIXED USE","scheme_cod":"MLU","investment":0,"employment":0,"plot_total_employment":"4500","projects_cost_in_lacs":17917,"plotstatus":"Allotted","landallotementstatus":"SOLD","landallotementtype":"ALLOTTED","nature_of_allottee":"PVT.LTD","allotmentid":"MLU0045","allotment_date":1430159400000,"rate_of_allotment":6271,"lease_deed":"Y","possession":"N","units_under_construction":"UNDER CONSTRUCTION","physical_status_under_planing_o":"UNDER CONSTRUCTION","village_name":"Munjkheda","khasra_no":"956,976,953,971,959,960,964,972,975","longitude":77.52382709,"latitude":28.30814595,"authority_recorded_allottee":"M/s. NEWGEN SOFTWARE TECHNOLOGIES LTD.","authority":"YEIDA","category":"mixed-use","execution_stage":"construction-or-map-approval"}},{"type":"Feature","geometry":{"type":"Polygon","coordinates":[[[77.527294,28.309287],[77.525378,28.309981],[77.525063,28.30711],[77.526928,28.307013],[77.527051,28.307955],[77.527178,28.308708],[77.527294,28.309287]]]},"properties":{"objectid":11,"uniqueplotid":"PLNGMIXEDUSE11","plotmap_id":"SECTOR-24_9B_MLU_MIXED USE","plotidentificationnumber":"9B","plotno":"9B","industrysector":"SECTOR-24","block":"MLU","plotsize":"53400  SQMT","landuse_type":"MIXED USE","landuse_subcategory":"MIXED USE","investment":0,"employment":0,"landallotementstatus":"VACANT","landallotementtype":"VACANT","village_name":"Munjkheda","khasra_no":"981,978,854,593,971,982,973,970,965,979,964,980,985,974,972,594,969,595,975,855","longitude":77.52615168,"latitude":28.30843406,"authority":"YEIDA","category":"mixed-use","execution_stage":"vacant"}},{"type":"Feature","geometry":{"type":"Polygon","coordinates":[[[77.512325,28.308899],[77.512234,28.30975],[77.510146,28.309577],[77.510798,28.308054],[77.512402,28.308184],[77.512325,28.308899]]]},"properties":{"objectid":12,"uniqueplotid":"PLNGMIXEDUSE12","plotmap_id":"SECTOR-24_15_MLU_MIXED USE","plotidentificationnumber":"15","plotno":"15","industrysector":"SECTOR-24","block":"MLU","plotsize":"31660 SQMT","landuse_type":"MIXED USE","landuse_subcategory":"MIXED USE","investment":0,"employment":0,"landallotementstatus":"VACANT","landallotementtype":"VACANT","village_name":"Fatehpur Atta","khasra_no":"580,581,582,584,N/F,565,560,561,576,579,575,574,562,564,563,585","longitude":77.51138523,"latitude":28.30889033,"authority":"YEIDA","category":"mixed-use","execution_stage":"vacant"}},{"type":"Feature","geometry":{"type":"Polygon","coordinates":[[[77.519813,28.300297],[77.519147,28.301592],[77.514376,28.29987],[77.515463,28.297388],[77.520487,28.298976],[77.519813,28.300297]]]},"properties":{"objectid":13,"uniqueplotid":"PLNGMIXEDUSE13","plotmap_id":"SECTOR-24_20_MLU_MIXED USE","plotidentificationnumber":"20","plotno":"20","industrysector":"SECTOR-24","block":"MLU","plotsize":"40 ACRE","landuse_type":"MIXED USE","landuse_subcategory":"MIXED USE","investment":0,"employment":0,"landallotementstatus":"VACANT","landallotementtype":"VACANT","village_name":"Suhedi Mahuddinpur","khasra_no":"168,142,154,157,150,167,155,158,143,140,156,138,166,147,144,141,136,146,151,145,139,152,153,135,137,148","longitude":77.51744362,"latitude":28.299518839999998,"authority":"YEIDA","category":"mixed-use","execution_stage":"vacant"}},{"type":"Feature","geometry":{"type":"Polygon","coordinates":[[[77.520088,28.30697],[77.519471,28.308178],[77.516484,28.30793],[77.516721,28.306683],[77.520088,28.30697]]]},"properties":{"objectid":14,"uniqueplotid":"PLNGMIXEDUSE14","plotmap_id":"SECTOR-24_17E_MLU_MIXED USE","plotidentificationnumber":"17E","plotno":"17E","industrysector":"SECTOR-24","block":"MLU","plotsize":"43827 SQ.M.","landuse_type":"MIXED USE","landuse_subcategory":"MIXED USE","investment":0,"employment":0,"landallotementstatus":"VACANT","landallotementtype":"VACANT","village_name":"Fatehpur Atta,Munjkheda","khasra_no":"891,890,895,892,378,377,428,446,386,385,431,384,383,432,388,393,389,429,445,424,430,394","longitude":77.51852357,"latitude":28.307352310000002,"authority":"YEIDA","category":"mixed-use","execution_stage":"vacant"}},{"type":"Feature","geometry":{"type":"Polygon","coordinates":[[[77.521751,28.303711],[77.52124,28.304706],[77.518123,28.303584],[77.518635,28.302589],[77.521751,28.303711]]]},"properties":{"objectid":15,"uniqueplotid":"PLNGMIXEDUSE15","plotmap_id":"SECTOR-24_21B_MLU_MIXED USE","plotidentificationnumber":"21B","plotno":"21B","industrysector":"SECTOR-24","block":"MLU","plotsize":"40000 SQMT","landuse_type":"MIXED USE","landuse_subcategory":"MIXED USE","investment":0,"employment":0,"landallotementstatus":"VACANT","landallotementtype":"VACANT","village_name":"Munjkheda","khasra_no":"918,909,898,900,899,916,917,901,904,903","longitude":77.51993724,"latitude":28.30364765,"authority":"YEIDA","category":"mixed-use","execution_stage":"vacant"}},{"type":"Feature","geometry":{"type":"Polygon","coordinates":[[[77.522262,28.302716],[77.521751,28.303711],[77.518635,28.302589],[77.519147,28.301592],[77.522262,28.302716]]]},"properties":{"objectid":16,"uniqueplotid":"PLNGMIXEDUSE16","plotmap_id":"SECTOR-24_21C_MLU_MIXED USE","plotidentificationnumber":"21C","plotno":"21C","industrysector":"SECTOR-24","block":"MLU","plotsize":"40000 SQMT","landuse_type":"MIXED USE","landuse_subcategory":"MIXED USE","investment":0,"employment":0,"landallotementstatus":"VACANT","landallotementtype":"VACANT","village_name":"Suhedi Mahuddinpur,Munjkheda","khasra_no":"915,914,909,908,900,899,907,906,916,917,901,904,905,150,147,146,145,148,117,149","longitude":77.52044839999999,"latitude":28.30265164,"authority":"YEIDA","category":"mixed-use","execution_stage":"vacant"}},{"type":"Feature","geometry":{"type":"Polygon","coordinates":[[[77.522928,28.301419],[77.522262,28.302716],[77.519147,28.301592],[77.519813,28.300297],[77.522928,28.301419]]]},"properties":{"objectid":17,"uniqueplotid":"PLNGMIXEDUSE17","plotmap_id":"SECTOR-24_21D_MLU_MIXED USE","plotidentificationnumber":"21D","plotno":"21D","industrysector":"SECTOR-24","block":"MLU","plotsize":"52110 SQMT","landuse_type":"MIXED USE","landuse_subcategory":"MIXED USE","investment":0,"employment":0,"landallotementstatus":"VACANT","landallotementtype":"VACANT","village_name":"Suhedi Mahuddinpur,Munjkheda","khasra_no":"1058,915,909,987,908,1059,900,899,907,906,904,905,1060,910,912,1057,913,150,151,148,149","longitude":77.52103741,"latitude":28.30150622,"authority":"YEIDA","category":"mixed-use","execution_stage":"vacant"}},{"type":"Feature","geometry":{"type":"Polygon","coordinates":[[[77.523677,28.299959],[77.522928,28.301419],[77.519813,28.300297],[77.520531,28.298899],[77.523677,28.299959]]]},"properties":{"objectid":18,"uniqueplotid":"PLNGMIXEDUSE18","plotmap_id":"SECTOR-24_21E_MLU_MIXED USE","plotidentificationnumber":"21E","plotno":"21E","industrysector":"SECTOR-24","block":"MLU","plotsize":"57385 SQMT","landuse_type":"MIXED USE","landuse_subcategory":"MIXED USE","investment":0,"employment":0,"landallotementstatus":"VACANT","landallotementtype":"VACANT","village_name":"Suhedi Mahuddinpur,Munjkheda","khasra_no":"1062,1058,1064,987,908,1059,1061,1060,1063,1057,1056,168,150,167,169,166,151,149","longitude":77.52185467,"latitude":28.30014394,"authority":"YEIDA","category":"mixed-use","execution_stage":"vacant"}},{"type":"Feature","geometry":{"type":"Polygon","coordinates":[[[77.519471,28.308178],[77.518406,28.310262],[77.515076,28.309986],[77.515306,28.307832],[77.519471,28.308178]]]},"properties":{"objectid":19,"uniqueplotid":"PLNGMIXEDUSE19","plotmap_id":"SECTOR-24_17_MLU_MIXED USE","plotidentificationnumber":"17","plotno":"17","industrysector":"SECTOR-24","block":"MLU","plotsize":"88638 SQMT","plotsize_at_the_time_of_allotme":"88638 SQMT","plot_size_as_per_lease_plan":88638.79,"landuse_type":"MIXED USE","landuse_subcategory":"MIXED USE","scheme_cod":"FDI-MLU","investment":0,"employment":0,"plot_total_employment":"2275","projects_cost_in_lacs":64400,"plotstatus":"Allotted","landallotementstatus":"SOLD","landallotementtype":"ALLOTTED","nature_of_allottee":"PVT.LTD","allotmentid":"YINDFDI002","allotment_date":1730917800000,"rate_of_allotment":16694.8,"lease_deed":"Y","village_name":"Fatehpur Atta,Munjkheda","khasra_no":"890,889,888,378,382,377,374,319,372,371,456,375,376,N/F,454,472,369,387,370,386,366,385,373,384,381,383,470,471,465,464,418,420,388,393,392,390,391,397,367,389,368,419,457,455,425,395,417,426,421,423,424,422,394,396","longitude":77.51726128,"latitude":28.30888239,"authority_recorded_allottee":"MINDA CORPORATION LIMITED","authority":"YEIDA","category":"mixed-use","execution_stage":"lease-recorded"}},{"type":"Feature","geometry":{"type":"Polygon","coordinates":[[[77.515152,28.309268],[77.515076,28.309986],[77.513807,28.309881],[77.513884,28.309163],[77.515152,28.309268]]]},"properties":{"objectid":20,"uniqueplotid":"PLNGMIXEDUSE20","plotmap_id":"SECTOR-24_16A_MLU_MIXED USE","plotidentificationnumber":"16A","plotno":"16A","industrysector":"SECTOR-24","block":"MLU","plotsize":"10000 SQMT","landuse_type":"MIXED USE","landuse_subcategory":"MIXED USE","investment":0,"employment":0,"landallotementstatus":"VACANT","landallotementtype":"VACANT","village_name":"Fatehpur Atta","khasra_no":"483,474,478,479,472,473,416,471,417,482,480","longitude":77.5143676,"latitude":28.30962524,"authority":"YEIDA","category":"mixed-use","execution_stage":"vacant"}},{"type":"Feature","geometry":{"type":"Polygon","coordinates":[[[77.515229,28.30855],[77.515152,28.309268],[77.513884,28.309163],[77.51396,28.308445],[77.515229,28.30855]]]},"properties":{"objectid":21,"uniqueplotid":"PLNGMIXEDUSE21","plotmap_id":"SECTOR-24_16B_MLU_MIXED USE","plotidentificationnumber":"16B","plotno":"16B","industrysector":"SECTOR-24","block":"MLU","plotsize":"10000 SQMT","landuse_type":"MIXED USE","landuse_subcategory":"MIXED USE","investment":0,"employment":0,"landallotementstatus":"VACANT","landallotementtype":"VACANT","village_name":"Fatehpur Atta","khasra_no":"475,474,478,N/F,472,473,470,471,455,480","longitude":77.51455637,"latitude":28.3088562,"authority":"YEIDA","category":"mixed-use","execution_stage":"vacant"}},{"type":"Feature","geometry":{"type":"Polygon","coordinates":[[[77.513594,28.309004],[77.513503,28.309855],[77.512234,28.30975],[77.512325,28.308899],[77.513594,28.309004]]]},"properties":{"objectid":22,"uniqueplotid":"PLNGMIXEDUSE22","plotmap_id":"SECTOR-24_15A_MLU_MIXED USE","plotidentificationnumber":"15A","plotno":"15A","industrysector":"SECTOR-24","block":"MLU","plotsize":"11855 SQMT","landuse_type":"MIXED USE","landuse_subcategory":"MIXED USE","investment":0,"employment":0,"landallotementstatus":"VACANT","landallotementtype":"VACANT","village_name":"Fatehpur Atta","khasra_no":"565,559,557,560,561,562,482","longitude":77.51291395,"latitude":28.30937699,"authority":"YEIDA","category":"mixed-use","execution_stage":"vacant"}},{"type":"Feature","geometry":{"type":"Polygon","coordinates":[[[77.51367,28.308286],[77.513594,28.309004],[77.512325,28.308899],[77.512402,28.308184],[77.51367,28.308286]]]},"properties":{"objectid":23,"uniqueplotid":"PLNGMIXEDUSE23","plotmap_id":"SECTOR-24_15B_MLU_MIXED USE","plotidentificationnumber":"15B","plotno":"15B","industrysector":"SECTOR-24","block":"MLU","plotsize":"10000 SQMT","landuse_type":"MIXED USE","landuse_subcategory":"MIXED USE","investment":0,"employment":0,"landallotementstatus":"VACANT","landallotementtype":"VACANT","village_name":"Fatehpur Atta","khasra_no":"565,559,481,560,564,482,480","longitude":77.51299768,"latitude":28.308593669999997,"authority":"YEIDA","category":"mixed-use","execution_stage":"vacant"}},{"type":"Feature","geometry":{"type":"Polygon","coordinates":[[[77.511221,28.310073],[77.51108,28.311393],[77.509437,28.311257],[77.509978,28.30997],[77.511221,28.310073]]]},"properties":{"objectid":24,"uniqueplotid":"PLNGMIXEDUSE24","plotmap_id":"SECTOR-24_11F_MLU_MIXED USE","plotidentificationnumber":"11F","plotno":"11F","industrysector":"SECTOR-24","block":"MLU","plotsize":"20910 SQMT","landuse_type":"MIXED USE","landuse_subcategory":"MIXED USE","investment":0,"employment":0,"landallotementstatus":"VACANT","landallotementtype":"VACANT","village_name":"Fatehpur Atta","khasra_no":"547,550,586,584,548,549,N/F,552,578,585","longitude":77.51037484,"latitude":28.310692460000002,"authority":"YEIDA","category":"mixed-use","execution_stage":"vacant"}},{"type":"Feature","geometry":{"type":"Polygon","coordinates":[[[77.511083,28.311611],[77.510934,28.313013],[77.510257,28.312965],[77.510407,28.311555],[77.511083,28.311611]]]},"properties":{"objectid":25,"uniqueplotid":"PLNGMIXEDUSE25","plotmap_id":"SECTOR-24_12K_MLU_MIXED USE","plotidentificationnumber":"12K","plotno":"12K","industrysector":"SECTOR-24","block":"MLU","plotsize":"10420 SQMT","landuse_type":"MIXED USE","landuse_subcategory":"MIXED USE","investment":0,"employment":0,"landallotementstatus":"VACANT","landallotementtype":"VACANT","village_name":"Fatehpur Atta","khasra_no":"550,545,506,501,509,505,503,551","longitude":77.51071222,"latitude":28.31236029,"authority":"YEIDA","category":"mixed-use","execution_stage":"vacant"}},{"type":"Feature","geometry":{"type":"Polygon","coordinates":[[[77.512601,28.310188],[77.51246,28.311508],[77.51108,28.311393],[77.511221,28.310073],[77.512601,28.310188]]]},"properties":{"objectid":26,"uniqueplotid":"PLNGMIXEDUSE26","plotmap_id":"SECTOR-24_11E_MLU_MIXED USE","plotidentificationnumber":"11E","plotno":"11E","industrysector":"SECTOR-24","block":"MLU","plotsize":"20000 SQMT","landuse_type":"MIXED USE","landuse_subcategory":"MIXED USE","investment":0,"employment":0,"landallotementstatus":"VACANT","landallotementtype":"VACANT","village_name":"Fatehpur Atta","khasra_no":"550,N/F,493,558,494,495,577/1,555,496,578/1,552,577,578,553,551","longitude":77.51184029999999,"latitude":28.31079044,"authority":"YEIDA","category":"mixed-use","execution_stage":"vacant"}},{"type":"Feature","geometry":{"type":"Polygon","coordinates":[[[77.51176,28.311667],[77.51161,28.31307],[77.510934,28.313013],[77.511083,28.311611],[77.51176,28.311667]]]},"properties":{"objectid":27,"uniqueplotid":"PLNGMIXEDUSE27","plotmap_id":"SECTOR-24_12J_MLU_MIXED USE","plotidentificationnumber":"12J","plotno":"12J","industrysector":"SECTOR-24","block":"MLU","plotsize":"10420 SQMT","landuse_type":"MIXED USE","landuse_subcategory":"MIXED USE","investment":0,"employment":0,"landallotementstatus":"VACANT","landallotementtype":"VACANT","village_name":"Fatehpur Atta","khasra_no":"506,500,501,496,505,503,497,551","longitude":77.51134682,"latitude":28.31234013,"authority":"YEIDA","category":"mixed-use","execution_stage":"vacant"}},{"type":"Feature","geometry":{"type":"Polygon","coordinates":[[[77.512436,28.311723],[77.512287,28.313126],[77.51161,28.31307],[77.51176,28.311667],[77.512436,28.311723]]]},"properties":{"objectid":28,"uniqueplotid":"PLNGMIXEDUSE28","plotmap_id":"SECTOR-24_12I_MLU_MIXED USE","plotidentificationnumber":"12I","plotno":"12I","industrysector":"SECTOR-24","block":"MLU","plotsize":"10420 SQMT","landuse_type":"MIXED USE","landuse_subcategory":"MIXED USE","investment":0,"employment":0,"landallotementstatus":"VACANT","landallotementtype":"VACANT","village_name":"Fatehpur Atta","khasra_no":"494,495,500,501,496,503,497","longitude":77.5120233,"latitude":28.3123963,"authority":"YEIDA","category":"mixed-use","execution_stage":"vacant"}},{"type":"Feature","geometry":{"type":"Polygon","coordinates":[[[77.513981,28.310302],[77.51384,28.311622],[77.51246,28.311508],[77.512601,28.310188],[77.513981,28.310302]]]},"properties":{"objectid":29,"uniqueplotid":"PLNGMIXEDUSE29","plotmap_id":"SECTOR-24_11D_MLU_MIXED USE","plotidentificationnumber":"11D","plotno":"11D","industrysector":"SECTOR-24","block":"MLU","plotsize":"20000 SQMT","landuse_type":"MIXED USE","landuse_subcategory":"MIXED USE","investment":0,"employment":0,"landallotementstatus":"VACANT","landallotementtype":"VACANT","village_name":"Fatehpur Atta","khasra_no":"484,489,483,556,491,557,485,493,558,494,555,553,488,490","longitude":77.51322023,"latitude":28.31090502,"authority":"YEIDA","category":"mixed-use","execution_stage":"vacant"}},{"type":"Feature","geometry":{"type":"Polygon","coordinates":[[[77.513113,28.311779],[77.512963,28.313182],[77.512287,28.313126],[77.512436,28.311723],[77.513113,28.311779]]]},"properties":{"objectid":30,"uniqueplotid":"PLNGMIXEDUSE30","plotmap_id":"SECTOR-24_12H_MLU_MIXED USE","plotidentificationnumber":"12H","plotno":"12H","industrysector":"SECTOR-24","block":"MLU","plotsize":"10420 SQMT","landuse_type":"MIXED USE","landuse_subcategory":"MIXED USE","investment":0,"employment":0,"landallotementstatus":"VACANT","landallotementtype":"VACANT","village_name":"Fatehpur Atta","khasra_no":"497/1,493,496/1,494,495,500,501,496,498,497","longitude":77.51269978,"latitude":28.31245247,"authority":"YEIDA","category":"mixed-use","execution_stage":"vacant"}},{"type":"Feature","geometry":{"type":"Polygon","coordinates":[[[77.513789,28.311835],[77.51364,28.313238],[77.512963,28.313182],[77.513113,28.311779],[77.513789,28.311835]]]},"properties":{"objectid":31,"uniqueplotid":"PLNGMIXEDUSE31","plotmap_id":"SECTOR-24_12G_MLU_MIXED USE","plotidentificationnumber":"12G","plotno":"12G","industrysector":"SECTOR-24","block":"MLU","plotsize":"10420 SQMT","landuse_type":"MIXED USE","landuse_subcategory":"MIXED USE","investment":0,"employment":0,"landallotementstatus":"VACANT","landallotementtype":"VACANT","village_name":"Fatehpur Atta","khasra_no":"492,491,495/1,495/2,349,497/1,348,493,496/1,494,495,496,498,490","longitude":77.51337626,"latitude":28.31250865,"authority":"YEIDA","category":"mixed-use","execution_stage":"vacant"}},{"type":"Feature","geometry":{"type":"Polygon","coordinates":[[[77.515361,28.310417],[77.51522,28.311737],[77.51384,28.311622],[77.513981,28.310302],[77.515361,28.310417]]]},"properties":{"objectid":32,"uniqueplotid":"PLNGMIXEDUSE32","plotmap_id":"SECTOR-24_11C_MLU_MIXED USE","plotidentificationnumber":"11C","plotno":"11C","industrysector":"SECTOR-24","block":"MLU","plotsize":"20000 SQMT","landuse_type":"MIXED USE","landuse_subcategory":"MIXED USE","investment":0,"employment":0,"landallotementstatus":"VACANT","landallotementtype":"VACANT","village_name":"Fatehpur Atta","khasra_no":"484,489,483,408,407,413,478,N/F,485,479,486,414,412,416,415,409,418,406,417,488","longitude":77.51460015,"latitude":28.3110196,"authority":"YEIDA","category":"mixed-use","execution_stage":"vacant"}},{"type":"Feature","geometry":{"type":"Polygon","coordinates":[[[77.516855,28.310541],[77.51672,28.311861],[77.51522,28.311737],[77.515361,28.310417],[77.516855,28.310541]]]},"properties":{"objectid":33,"uniqueplotid":"PLNGMIXEDUSE33","plotmap_id":"SECTOR-24_11B_MLU_MIXED USE","plotidentificationnumber":"11B","plotno":"11B","industrysector":"SECTOR-24","block":"MLU","plotsize":"21700 SQMT","landuse_type":"MIXED USE","landuse_subcategory":"MIXED USE","investment":0,"employment":0,"landallotementstatus":"VACANT","landallotementtype":"VACANT","village_name":"Fatehpur Atta","khasra_no":"400,355,353/2,409,404,402,418,401,420,403,359,357/1,399,419,406,417,398,358,356","longitude":77.51603788,"latitude":28.31113936,"authority":"YEIDA","category":"mixed-use","execution_stage":"vacant"}},{"type":"Feature","geometry":{"type":"Polygon","coordinates":[[[77.516583,28.313189],[77.516002,28.313434],[77.515669,28.313407],[77.515819,28.312004],[77.516739,28.31208],[77.516583,28.313189]]]},"properties":{"objectid":34,"uniqueplotid":"PLNGMIXEDUSE34","plotmap_id":"SECTOR-24_12C_MLU_MIXED USE","plotidentificationnumber":"12C","plotno":"12C","industrysector":"SECTOR-24","block":"MLU","plotsize":"12940 SQMT","landuse_type":"MIXED USE","landuse_subcategory":"MIXED USE","investment":0,"employment":0,"landallotementstatus":"VACANT","landallotementtype":"VACANT","village_name":"Fatehpur Atta","khasra_no":"355,226,353,332,290,331,291,330,354,329,293,357,328","longitude":77.51622895,"latitude":28.31271959,"authority":"YEIDA","category":"mixed-use","execution_stage":"vacant"}},{"type":"Feature","geometry":{"type":"Polygon","coordinates":[[[77.518774,28.31141],[77.51672,28.311861],[77.516855,28.310541],[77.518411,28.31067],[77.518774,28.31141]]]},"properties":{"objectid":35,"uniqueplotid":"PLNGMIXEDUSE35","plotmap_id":"SECTOR-24_11A_MLU_MIXED USE","plotidentificationnumber":"11A","plotno":"11A","industrysector":"SECTOR-24","block":"MLU","plotsize":"20440 SQMT","landuse_type":"MIXED USE","landuse_subcategory":"MIXED USE","investment":0,"employment":0,"landallotementstatus":"VACANT","landallotementtype":"VACANT","village_name":"Fatehpur Atta","khasra_no":"324,319,320,366,323,322,321,325,362,359,357/1,397,360,326,363,364,365,361,358,356","longitude":77.51770629,"latitude":28.31116,"authority":"YEIDA","category":"mixed-use","execution_stage":"vacant"}},{"type":"Feature","geometry":{"type":"Polygon","coordinates":[[[77.517835,28.312659],[77.516583,28.313189],[77.516739,28.31208],[77.517546,28.311903],[77.517835,28.312659]]]},"properties":{"objectid":36,"uniqueplotid":"PLNGMIXEDUSE36","plotmap_id":"SECTOR-24_12B_MLU_MIXED USE","plotidentificationnumber":"12B","plotno":"12B","industrysector":"SECTOR-24","block":"MLU","plotsize":"10700 SQMT","landuse_type":"MIXED USE","landuse_subcategory":"MIXED USE","investment":0,"employment":0,"landallotementstatus":"VACANT","landallotementtype":"VACANT","village_name":"Fatehpur Atta","khasra_no":"226,307,306,325,308/2,326/1,326/2,359,327,292,326,291,308/1,329,293,357,358,328","longitude":77.51719111,"latitude":28.31251313,"authority":"YEIDA","category":"mixed-use","execution_stage":"vacant"}},{"type":"Feature","geometry":{"type":"Polygon","coordinates":[[[77.51912,28.312115],[77.517835,28.312659],[77.517546,28.311903],[77.518873,28.311612],[77.51912,28.312115]]]},"properties":{"objectid":37,"uniqueplotid":"PLNGMIXEDUSE37","plotmap_id":"SECTOR-24_12A_MLU_MIXED USE","plotidentificationnumber":"12A","plotno":"12A","industrysector":"SECTOR-24","block":"MLU","plotsize":"10160 SQMT","landuse_type":"MIXED USE","landuse_subcategory":"MIXED USE","investment":0,"employment":0,"landallotementstatus":"VACANT","landallotementtype":"VACANT","village_name":"Fatehpur Atta","khasra_no":"324,319,313,314,316/1,226,307,323,323/1,322,322/1,309,321,310,321/1,311,312,306,325,308/2,308/1","longitude":77.51832207999999,"latitude":28.31211179,"authority":"YEIDA","category":"mixed-use","execution_stage":"vacant"}},{"type":"Feature","geometry":{"type":"Polygon","coordinates":[[[77.519898,28.311806],[77.519341,28.312022],[77.518689,28.310693],[77.518973,28.310137],[77.519898,28.311806]]]},"properties":{"objectid":38,"uniqueplotid":"PLNGMIXEDUSE38","plotmap_id":"SECTOR-24_11_MLU_MIXED USE","plotidentificationnumber":"11","plotno":"11","industrysector":"SECTOR-24","block":"MLU","plotsize":"10174 SQMT","landuse_type":"MIXED USE","landuse_subcategory":"MIXED USE","investment":0,"employment":0,"landallotementstatus":"VACANT","landallotementtype":"VACANT","village_name":"Fatehpur Atta,Munjkheda","khasra_no":"878,882,875,879,883,887,877,319,315,316,318,317,316/2","longitude":77.51921532,"latitude":28.31107772,"authority":"YEIDA","category":"mixed-use","execution_stage":"vacant"}},{"type":"Feature","geometry":{"type":"Polygon","coordinates":[[[77.513747,28.307568],[77.51367,28.308286],[77.512402,28.308184],[77.512479,28.307463],[77.513747,28.307568]]]},"properties":{"objectid":39,"uniqueplotid":"PLNGMIXEDUSE39","plotmap_id":"SECTOR-24_15C_MLU_MIXED USE","plotidentificationnumber":"15C","plotno":"15C","industrysector":"SECTOR-24","block":"MLU","plotsize":"10000 SQMT","landuse_type":"MIXED USE","landuse_subcategory":"MIXED USE","investment":0,"employment":0,"landallotementstatus":"VACANT","landallotementtype":"VACANT","village_name":"Fatehpur Atta","khasra_no":"475,478,565,559,481,477,566,567,482,480","longitude":77.51304909000001,"latitude":28.30786909,"authority":"YEIDA","category":"mixed-use","execution_stage":"vacant"}},{"type":"Feature","geometry":{"type":"Polygon","coordinates":[[[77.513055,28.306379],[77.512935,28.307501],[77.512123,28.307433],[77.512243,28.306311],[77.513055,28.306379]]]},"properties":{"objectid":40,"uniqueplotid":"PLNGMIXEDUSE40","plotmap_id":"SECTOR-24_15F_MLU_MIXED USE","plotidentificationnumber":"15F","plotno":"15F","industrysector":"SECTOR-24","block":"MLU","plotsize":"10000 SQMT","landuse_type":"MIXED USE","landuse_subcategory":"MIXED USE","investment":0,"employment":0,"landallotementstatus":"VACANT","landallotementtype":"VACANT","village_name":"Fatehpur Atta","khasra_no":"570,476,569,477,566,567,568","longitude":77.51259093,"latitude":28.306888479999998,"authority":"YEIDA","category":"mixed-use","execution_stage":"vacant"}},{"type":"Feature","geometry":{"type":"Polygon","coordinates":[[[77.516721,28.306683],[77.516484,28.30793],[77.514037,28.307727],[77.514171,28.306471],[77.516721,28.306683]]]},"properties":{"objectid":41,"uniqueplotid":"PLNGMIXEDUSE41","plotmap_id":"SECTOR-24_16D_MLU_MIXED USE","plotidentificationnumber":"16D","plotno":"16D","industrysector":"SECTOR-24","block":"MLU","plotsize":"34430 SQMT","landuse_type":"MIXED USE","landuse_subcategory":"MIXED USE","investment":0,"employment":0,"landallotementstatus":"VACANT","landallotementtype":"VACANT","village_name":"Fatehpur Atta","khasra_no":"428,427,446,447,469,N/F,476,451,453,452,454,472,473,467,470,466,461,471,465,463,464,462,458,450,449,445,448,457,460,459,425,426,424,430","longitude":77.51558846,"latitude":28.30717365,"authority":"YEIDA","category":"mixed-use","execution_stage":"vacant"}},{"type":"Feature","geometry":{"type":"Polygon","coordinates":[[[77.512479,28.307463],[77.512402,28.308184],[77.510798,28.308054],[77.511101,28.307348],[77.512479,28.307463]]]},"properties":{"objectid":42,"uniqueplotid":"PLNGMIXEDUSE42","plotmap_id":"SECTOR-24_15D_MLU_MIXED USE","plotidentificationnumber":"15D","plotno":"15D","industrysector":"SECTOR-24","block":"MLU","plotsize":"11862 SQMT","landuse_type":"MIXED USE","landuse_subcategory":"MIXED USE","investment":0,"employment":0,"landallotementstatus":"VACANT","landallotementtype":"VACANT","village_name":"Fatehpur Atta","khasra_no":"565,566,567,568,575,574,564,563","longitude":77.51175553,"latitude":28.30774743,"authority":"YEIDA","category":"mixed-use","execution_stage":"vacant"}},{"type":"Feature","geometry":{"type":"Polygon","coordinates":[[[77.513867,28.306446],[77.513747,28.307568],[77.512935,28.307501],[77.513055,28.306379],[77.513867,28.306446]]]},"properties":{"objectid":43,"uniqueplotid":"PLNGMIXEDUSE43","plotmap_id":"SECTOR-24_15G_MLU_MIXED USE","plotidentificationnumber":"15G","plotno":"15G","industrysector":"SECTOR-24","block":"MLU","plotsize":"10000 SQMT","landuse_type":"MIXED USE","landuse_subcategory":"MIXED USE","investment":0,"employment":0,"landallotementstatus":"VACANT","landallotementtype":"VACANT","village_name":"Fatehpur Atta","khasra_no":"475,478,570,476,569,473,477","longitude":77.51341395,"latitude":28.306958769999998,"authority":"YEIDA","category":"mixed-use","execution_stage":"vacant"}},{"type":"Feature","geometry":{"type":"Polygon","coordinates":[[[77.512243,28.306311],[77.512123,28.307433],[77.511101,28.307348],[77.511569,28.306255],[77.512243,28.306311]]]},"properties":{"objectid":44,"uniqueplotid":"PLNGMIXEDUSE44","plotmap_id":"SECTOR-24_15E_MLU_MIXED USE","plotidentificationnumber":"15E","plotno":"15E","industrysector":"SECTOR-24","block":"MLU","plotsize":"10450  SQMT","landuse_type":"MIXED USE","landuse_subcategory":"MIXED USE","investment":0,"employment":0,"landallotementstatus":"VACANT","landallotementtype":"VACANT","village_name":"Fatehpur Atta","khasra_no":"572,570,569,568,564,563","longitude":77.51171046,"latitude":28.30685944,"authority":"YEIDA","category":"mixed-use","execution_stage":"vacant"}},{"type":"Feature","geometry":{"type":"Polygon","coordinates":[[[77.510407,28.311555],[77.510257,28.312965],[77.508764,28.312868],[77.509348,28.311467],[77.510407,28.311555]]]},"properties":{"objectid":45,"uniqueplotid":"PLNGMIXEDUSE45","plotmap_id":"SECTOR-24_12L_MLU_MIXED USE","plotidentificationnumber":"12L","plotno":"12L","industrysector":"SECTOR-24","block":"MLU","plotsize":"19820 SQMT","landuse_type":"MIXED USE","landuse_subcategory":"MIXED USE","investment":0,"employment":0,"landallotementstatus":"VACANT","landallotementtype":"VACANT","village_name":"Fatehpur Atta","khasra_no":"546,547,550,543,545","longitude":77.50974873999999,"latitude":28.31222036,"authority":"YEIDA","category":"mixed-use","execution_stage":"vacant"}},{"type":"Feature","geometry":{"type":"Polygon","coordinates":[[[77.514466,28.311892],[77.514316,28.313294],[77.51364,28.313238],[77.513789,28.311835],[77.514466,28.311892]]]},"properties":{"objectid":46,"uniqueplotid":"PLNGMIXEDUSE46","plotmap_id":"SECTOR-24_12F_MLU_MIXED USE","plotidentificationnumber":"12F","plotno":"12F","industrysector":"SECTOR-24","block":"MLU","plotsize":"10420 SQMT","landuse_type":"MIXED USE","landuse_subcategory":"MIXED USE","investment":0,"employment":0,"landallotementstatus":"VACANT","landallotementtype":"VACANT","village_name":"Fatehpur Atta","khasra_no":"492,489,491,350,351,N/F,495/1,353/2,349,488,490","longitude":77.51405272999999,"latitude":28.31256482,"authority":"YEIDA","category":"mixed-use","execution_stage":"vacant"}},{"type":"Feature","geometry":{"type":"Polygon","coordinates":[[[77.515142,28.311948],[77.514993,28.31335],[77.514316,28.313294],[77.514466,28.311892],[77.515142,28.311948]]]},"properties":{"objectid":47,"uniqueplotid":"PLNGMIXEDUSE47","plotmap_id":"SECTOR-24_12E_MLU_MIXED USE","plotidentificationnumber":"12E","plotno":"12E","industrysector":"SECTOR-24","block":"MLU","plotsize":"10420 SQMT","landuse_type":"MIXED USE","landuse_subcategory":"MIXED USE","investment":0,"employment":0,"landallotementstatus":"VACANT","landallotementtype":"VACANT","village_name":"Fatehpur Atta","khasra_no":"489,350,351,N/F,353/2,335,412,411,334,352,410,333,353,487,488","longitude":77.51472921,"latitude":28.31262099,"authority":"YEIDA","category":"mixed-use","execution_stage":"vacant"}},{"type":"Feature","geometry":{"type":"Polygon","coordinates":[[[77.515819,28.312004],[77.515669,28.313407],[77.514993,28.31335],[77.515142,28.311948],[77.515819,28.312004]]]},"properties":{"objectid":48,"uniqueplotid":"PLNGMIXEDUSE48","plotmap_id":"SECTOR-24_12D_MLU_MIXED USE","plotidentificationnumber":"12D","plotno":"12D","industrysector":"SECTOR-24","block":"MLU","plotsize":"10420 SQMT","landuse_type":"MIXED USE","landuse_subcategory":"MIXED USE","investment":0,"employment":0,"landallotementstatus":"VACANT","landallotementtype":"VACANT","village_name":"Fatehpur Atta","khasra_no":"355,226,353/2,411,334,352,410,409,333,353,332,294,403,406,354,293","longitude":77.51540569,"latitude":28.31267716,"authority":"YEIDA","category":"mixed-use","execution_stage":"vacant"}},{"type":"Feature","geometry":{"type":"Polygon","coordinates":[[[77.525171,28.297049],[77.523677,28.299959],[77.520531,28.298899],[77.52049,28.29898],[77.51546,28.297389],[77.515575,28.297125],[77.519217,28.29498],[77.519758,28.295217],[77.525171,28.297049]]]},"properties":{"objectid":49,"uniqueplotid":"PLNGMIXEDUSE49","plotmap_id":"SECTOR-24_22_MLU_MIXED USE","plotidentificationnumber":"22","plotno":"22","industrysector":"SECTOR-24","block":"MLU","plotsize":"272582 SQMT","landuse_type":"MIXED USE","landuse_subcategory":"MIXED USE","investment":0,"employment":0,"plotstatus":"Nonsaleble","landallotementstatus":"NONSALEBLE","landallotementtype":"NONSALEBLE","village_name":"Suhedi Mahuddinpur,Munjkheda","khasra_no":"1062,1064,1065,1099,1100,1063,1090,186,182,168,154,187,183,157,184,167,159,160,158,156,170,169,180,166,189,188,181,153,190,178,185,179,172,175,176,173,174,171","longitude":77.52013448,"latitude":28.29746192,"authority":"YEIDA","category":"mixed-use","execution_stage":"nonsaleble"}},{"type":"Feature","geometry":{"type":"Polygon","coordinates":[[[77.536802,28.28575],[77.53481,28.28737],[77.531166,28.283837],[77.534147,28.281414],[77.536802,28.28575]]]},"properties":{"objectid":50,"uniqueplotid":"PLNGMIXEDUSE50","plotmap_id":"SECTOR-24_1B_MLU_MIXED USE","plotidentificationnumber":"1B","plotno":"1B","industrysector":"SECTOR-24","block":"MLU","plotsize":"175417 SQMT","landuse_type":"MIXED USE","landuse_subcategory":"MIXED USE","investment":0,"employment":0,"plotstatus":"Nonsaleble","landallotementstatus":"NONSALEBLE","landallotementtype":"NONSALEBLE","village_name":"Kadarpur,Kherli Bhav","khasra_no":"954,952,965,968,964,953,967,902/1186,902,905M,955,948,949,956,968/1183,947,966,951,950,946,130,131,133,129,101,107,109,108,112,100,98,87,127,99,106,105,89,82,104,88,90,102,124,122,126,125,96,94,93,92,91,121,113,110,109/887,111,132,97,123,95","longitude":77.53394481000001,"latitude":28.28426515,"authority":"YEIDA","category":"mixed-use","execution_stage":"nonsaleble"}}]}
