{"type":"FeatureCollection","features":[{"type":"Feature","geometry":{"type":"Polygon","coordinates":[[[77.492225,28.536041],[77.495447,28.53825],[77.494913,28.539687],[77.494649,28.540492],[77.494409,28.541304],[77.494051,28.542179],[77.487657,28.538008],[77.490273,28.536583],[77.491282,28.5354],[77.492225,28.536041]]]},"properties":{"objectid":325,"plotmapid":"SPORT CITY 2NULLSC02DCOMM","plotsizesq":0,"plot_size":"253692.32 SQMT","plot_no":"SC02D","sector":"SPORT CITY 2","block":"NULL","phase":"Phase 1","ppt_type":"COMM","ppt_full":"Commercial","authority":"GNIDA","category":"commercial","execution_stage":"unknown"}},{"type":"Feature","geometry":{"type":"Polygon","coordinates":[[[77.496741,28.529111],[77.499618,28.531124],[77.49936,28.531388],[77.499116,28.531668],[77.49871,28.532168],[77.498093,28.533016],[77.494887,28.530742],[77.496325,28.528822],[77.496741,28.529111]]]},"properties":{"objectid":341,"plotmapid":"SPORT CITY 2NULLSC02BCOMM","plotsizesq":0,"plot_size":"101175.18","plot_no":"SC02B","sector":"SPORT CITY 2","block":"NULL","phase":"Phase 1","mplanduse":"V","ppt_type":"COMM","ppt_full":"Commercial","authority":"GNIDA","category":"commercial","execution_stage":"unknown"}},{"type":"Feature","geometry":{"type":"Polygon","coordinates":[[[77.498249,28.527697],[77.501658,28.529449],[77.501225,28.529732],[77.500763,28.530096],[77.499911,28.530848],[77.499632,28.531135],[77.496325,28.528822],[77.497409,28.527266],[77.498249,28.527697]]]},"properties":{"objectid":342,"plotmapid":"SPORT CITY 2NULLSC02ACOMM","plotsizesq":0,"plot_size":"101175.18","plot_no":"SC02A","sector":"SPORT CITY 2","block":"NULL","phase":"Phase 1","mplanduse":"V","ppt_type":"COMM","ppt_full":"Commercial","authority":"GNIDA","category":"commercial","execution_stage":"unknown"}},{"type":"Feature","geometry":{"type":"Polygon","coordinates":[[[77.49513,28.530915],[77.498093,28.533016],[77.496952,28.534942],[77.496119,28.536691],[77.495442,28.538246],[77.491282,28.5354],[77.493123,28.533243],[77.494887,28.530742],[77.49513,28.530915]]]},"properties":{"objectid":343,"plotmapid":"SPORT CITY 2NULLSC02CCOMM","plotsizesq":0,"plot_size":"253692.32","plot_no":"SC02C","sector":"SPORT CITY 2","block":"NULL","phase":"Phase 1","ppt_type":"COMM","ppt_full":"Commercial","authority":"GNIDA","category":"commercial","execution_stage":"unknown"}},{"type":"Feature","geometry":{"type":"Polygon","coordinates":[[[77.428539,28.583041],[77.428636,28.584561],[77.428458,28.58458],[77.428394,28.582958],[77.427696,28.57965],[77.428629,28.579489],[77.427893,28.576281],[77.427035,28.576417],[77.426816,28.575321],[77.426863,28.574728],[77.429559,28.576249],[77.429061,28.57693],[77.434265,28.579866],[77.43429,28.579923],[77.434386,28.57996],[77.434382,28.580292],[77.434446,28.580566],[77.434644,28.580889],[77.434735,28.580848],[77.434811,28.580842],[77.434922,28.58061],[77.435456,28.580755],[77.435806,28.580304],[77.43576,28.580034],[77.435821,28.579945],[77.435819,28.579862],[77.43588,28.579816],[77.436283,28.580044],[77.436046,28.580349],[77.435562,28.581024],[77.434785,28.581718],[77.434115,28.581198],[77.433797,28.581495],[77.433325,28.581872],[77.432865,28.582185],[77.432505,28.582408],[77.431888,28.582749],[77.431022,28.583109],[77.430398,28.583312],[77.429616,28.58351],[77.429457,28.582937],[77.428539,28.583041]]]},"properties":{"objectid":345,"plotmapid":"TECHZONE-IVNULLSC O1COMM","plotsizesq":0,"plot_no":"SC O1","sector":"TECHZONE-IV","block":"NULL","phase":"Phase 1","ppt_type":"COMM","ppt_full":"Commercial","authority":"GNIDA","category":"commercial","execution_stage":"unknown"}},{"type":"Feature","geometry":{"type":"Polygon","coordinates":[[[77.459835,28.600466],[77.458981,28.600758],[77.458103,28.60027],[77.458495,28.599729],[77.459835,28.600466]],[[77.4582,28.600259],[77.45839,28.600358],[77.458491,28.60021],[77.458301,28.600111],[77.4582,28.600259]]]},"properties":{"objectid":399,"plotmapid":"ECOTECH-XIINULL70COMM","allot_id":"NA","allotted_p":"Yes","plotsizesq":0,"plot_size":"N.A.","plot_no":"70","sector":"ECOTECH-XII","block":"NULL","phase":"Phase 1","scheme_cod":"NA","mplanduse":"Facility","ppt_type":"COMM","ppt_full":"Commercial","authority":"GNIDA","category":"commercial","execution_stage":"allotted"}},{"type":"Feature","geometry":{"type":"Polygon","coordinates":[[[77.459012,28.595432],[77.458185,28.59498],[77.459242,28.593498],[77.459701,28.593757],[77.459567,28.593961],[77.45988,28.594125],[77.459012,28.595432]]]},"properties":{"objectid":454,"plotmapid":"ECOTECH-XIINULLC-8COMM","allot_id":"NA","allotted_p":"Yes","plotsizesq":21163,"plot_size":"21163 SQMT","plot_no":"C-8","sector":"ECOTECH-XII","block":"NULL","phase":"Phase 1","scheme_cod":"NA","mplanduse":"V","ppt_type":"COMM","ppt_full":"Commercial","authority":"GNIDA","category":"commercial","execution_stage":"allotted"}},{"type":"Feature","geometry":{"type":"Polygon","coordinates":[[[77.450801,28.602641],[77.451647,28.601892],[77.452537,28.602381],[77.451678,28.603138],[77.450801,28.602641]]]},"properties":{"objectid":527,"plotmapid":"ECOTECH-XIINULLC-1COMM","allot_id":"CBP-IV00004","allotted_p":"Yes","plotsizesq":12000,"plot_size":"12000 SQMT","plot_no":"C-1","sector":"ECOTECH-XII","block":"NULL","phase":"Phase 1","scheme_cod":"CBP-IV00004","ppt_type":"COMM","ppt_full":"Commercial","authority":"GNIDA","category":"commercial","execution_stage":"allotted"}},{"type":"Feature","geometry":{"type":"Polygon","coordinates":[[[77.453128,28.601237],[77.453537,28.601473],[77.452537,28.602381],[77.451647,28.601892],[77.452661,28.600968],[77.453128,28.601237]]]},"properties":{"objectid":529,"plotmapid":"ECOTECH-XIIECOTECH-XIIC-2COMM","allot_id":"CPS-VIII00001","allotted_p":"Yes","plotsizesq":14000,"plot_size":"12000 SQMT","plot_no":"C-2","sector":"ECOTECH-XII","block":"ECOTECH-XII","phase":"Phase 1","scheme_cod":"CPS-VIII00001","mplanduse":"V","ppt_type":"COMM","ppt_full":"Commercial","authority":"GNIDA","category":"commercial","execution_stage":"allotted"}},{"type":"Feature","geometry":{"type":"Polygon","coordinates":[[[77.49591,28.541741],[77.495651,28.54245],[77.495377,28.542362],[77.495633,28.541647],[77.49591,28.541741]]]},"properties":{"objectid":2088,"plotmapid":"SECTOR-20NULLPP-1COMM","property_t":"Commercial","used":"PETROL PUMP","plotsizesq":2000,"plot_size":"2000","plot_no":"PP-1","sector":"SECTOR-20","block":"NULL","phase":"Phase-1","mplanduse":"V","ppt_type":"COMM","ppt_full":"Commercial","remarks":"NEW","remark":"NEW","authority":"GNIDA","category":"commercial","execution_stage":"unknown"}},{"type":"Feature","geometry":{"type":"Polygon","coordinates":[[[77.50363,28.529687],[77.503798,28.529896],[77.503049,28.530277],[77.502888,28.53007],[77.50363,28.529687]]]},"properties":{"objectid":2089,"plotmapid":"SECTOR-20NULLPP02COMM","property_t":"Commercial","used":"PETROL PUMP","plotsizesq":2000,"plot_size":"2000","plot_no":"PP02","sector":"SECTOR-20","block":"NULL","phase":"Phase-1","ppt_type":"COMM","ppt_full":"Commercial","remarks":"NEW","remark":"NEW","authority":"GNIDA","category":"commercial","execution_stage":"unknown"}},{"type":"Feature","geometry":{"type":"Polygon","coordinates":[[[77.443855,28.574237],[77.44379,28.574203],[77.443159,28.574742],[77.441706,28.573617],[77.443295,28.57251],[77.444454,28.573697],[77.443855,28.574237]]]},"properties":{"objectid":2413,"plotmapid":"SECTOR-01NULLINFORMALCOMM","allot_id":"D","used":"INFORMAL","allotted_p":"Yes","plotsizesq":0,"plot_size":"0 SQMT","plot_no":"INFORMAL","sector":"SECTOR-01","block":"NULL","phase":"Phase 1","scheme_cod":"NA","mplanduse":"Commercial","ppt_type":"COMM","ppt_full":"Commercial","authority":"GNIDA","category":"commercial","execution_stage":"allotted"}},{"type":"Feature","geometry":{"type":"Polygon","coordinates":[[[77.453583,28.559451],[77.454151,28.560173],[77.453752,28.560848],[77.452984,28.559875],[77.453583,28.559451]]]},"properties":{"objectid":2425,"plotmapid":"SECTOR-01NULLC-01COMM","allot_id":"NA","used":"75.0M WIDE MASTER PLAN COMMERCIAL","allotted_p":"Yes","plotsizesq":0,"plot_size":"0 SQMT","plot_no":"C-01","sector":"SECTOR-01","block":"NULL","phase":"Phase 1","scheme_cod":"NA","mplanduse":"V","ppt_type":"COMM","ppt_full":"Commercial","authority":"GNIDA","category":"commercial","execution_stage":"allotted"}},{"type":"Feature","geometry":{"type":"Polygon","coordinates":[[[77.447382,28.564841],[77.447085,28.565328],[77.446753,28.565117],[77.447103,28.564668],[77.447382,28.564841]]]},"properties":{"objectid":2436,"plotmapid":"SECTOR-01NULLF-01COMM","plotsizesq":0,"plot_no":"F-01","sector":"SECTOR-01","block":"NULL","ppt_type":"COMM","ppt_full":"Commercial","authority":"GNIDA","category":"commercial","execution_stage":"unknown"}},{"type":"Feature","geometry":{"type":"Polygon","coordinates":[[[77.450226,28.604183],[77.448781,28.605362],[77.44814,28.604658],[77.449539,28.603521],[77.450226,28.604183]]]},"properties":{"objectid":2443,"plotmapid":"SECTOR-16BNULLC-04COMM","allot_id":"NA","property_t":"COMMERCIAL","used":"COMMERCIAL","allotted_p":"Yes","plotsizesq":0,"plot_size":"0","plot_no":"C-04","sector":"SECTOR-16B","block":"NULL","phase":"Phase 1","scheme_cod":"NA","ppt_type":"COMM","ppt_full":"Commercial","authority":"GNIDA","category":"commercial","execution_stage":"allotted"}},{"type":"Feature","geometry":{"type":"Polygon","coordinates":[[[77.447997,28.6059],[77.447459,28.606257],[77.446899,28.606545],[77.446369,28.605783],[77.446889,28.605511],[77.447406,28.605159],[77.447997,28.6059]]]},"properties":{"objectid":2444,"plotmapid":"SECTOR-16BNULLC-3COMM","allot_id":"NA","property_t":"COMMERCIAL","used":"COMMERCIAL","allotted_p":"Yes","plotsizesq":100,"plot_size":"0","plot_no":"C-3","sector":"SECTOR-16B","block":"NULL","phase":"Phase 1","scheme_cod":"NA","ppt_type":"COMM","ppt_full":"Commercial","authority":"GNIDA","category":"commercial","execution_stage":"allotted"}},{"type":"Feature","geometry":{"type":"Polygon","coordinates":[[[77.443255,28.608046],[77.442305,28.608283],[77.441697,28.608404],[77.440986,28.608515],[77.440827,28.607896],[77.441639,28.607758],[77.441576,28.607525],[77.442209,28.607389],[77.442932,28.607203],[77.443255,28.608046]]]},"properties":{"objectid":2445,"plotmapid":"SECTOR-16BNULLC-01COMM","allot_id":"NA","property_t":"COMMERCIAL","used":"COMMERCIAL","allotted_p":"Yes","plotsizesq":0,"plot_size":"0","plot_no":"C-01","sector":"SECTOR-16B","block":"NULL","phase":"Phase 1","scheme_cod":"NA","mplanduse":"V","ppt_type":"COMM","ppt_full":"Commercial","authority":"GNIDA","category":"commercial","execution_stage":"allotted"}},{"type":"Feature","geometry":{"type":"Polygon","coordinates":[[[77.431742,28.606075],[77.431467,28.606943],[77.430471,28.606696],[77.430729,28.605825],[77.431742,28.606075]]]},"properties":{"objectid":2459,"plotmapid":"SECTOR-04CC-1COMM","allot_id":"COMP-100004","property_t":"Commercial","allotted_p":"Yes","plotsizesq":10000,"plot_size":"10000","plot_no":"C-1","sector":"SECTOR-04","block":"C","phase":"Phase 1","scheme_cod":"COMP-100004","ppt_type":"COMM","ppt_full":"Commercial","authority":"GNIDA","category":"commercial","execution_stage":"allotted"}},{"type":"Feature","geometry":{"type":"Polygon","coordinates":[[[77.437082,28.607335],[77.437201,28.60832],[77.43449,28.607665],[77.434744,28.606773],[77.437082,28.607335]]]},"properties":{"objectid":2461,"plotmapid":"SECTOR-04NULLC-03COMM","allot_id":"NA","allotted_p":"Yes","plotsizesq":0,"plot_size":"0","plot_no":"C-03","sector":"SECTOR-04","block":"NULL","phase":"Phase 1","scheme_cod":"NA","ppt_type":"COMM","ppt_full":"Commercial","authority":"GNIDA","category":"commercial","execution_stage":"allotted"}},{"type":"Feature","geometry":{"type":"Polygon","coordinates":[[[77.433725,28.606543],[77.434744,28.606772],[77.43449,28.607665],[77.432459,28.607189],[77.432752,28.606324],[77.433725,28.606543]]]},"properties":{"objectid":2465,"plotmapid":"SECTOR-04NULLC-2COMM","allot_id":"COMP-100001","property_t":"Commercial","allotted_p":"Yes","plotsizesq":20235,"plot_size":"20235","plot_no":"C-2","sector":"SECTOR-04","block":"NULL","phase":"Phase 1","scheme_cod":"COMP-100001","ppt_type":"COMM","ppt_full":"Commercial","authority":"GNIDA","category":"commercial","execution_stage":"allotted"}},{"type":"Feature","geometry":{"type":"Polygon","coordinates":[[[77.42644,28.576212],[77.426534,28.576661],[77.426035,28.576892],[77.426032,28.57643],[77.42644,28.576212]]]},"properties":{"objectid":3609,"plotmapid":"AGRICULTURAL GREENNULLPP-01COMM","property_t":"Commercial","used":"PETROL PUMP","plotsizesq":2000,"plot_size":"2000","plot_no":"PP-01","sector":"AGRICULTURAL GREEN","block":"NULL","phase":"Phase-1","mplanduse":"V","ppt_type":"COMM","ppt_full":"Commercial","remarks":"NEW","remark":"NEW","authority":"GNIDA","category":"commercial","execution_stage":"unknown"}},{"type":"Feature","geometry":{"type":"Polygon","coordinates":[[[77.457823,28.569782],[77.45708,28.569963],[77.456479,28.568046],[77.455474,28.565128],[77.454709,28.562535],[77.454129,28.561829],[77.454527,28.561161],[77.455415,28.562241],[77.456213,28.564945],[77.456774,28.566582],[77.457823,28.569782]]]},"properties":{"objectid":4120,"plotmapid":"SECTOR-03NULLCOMMERCIAL BELTCOMM","allot_id":"NA","used":"COMMERCIAL BELT","allotted_p":"Yes","plotsizesq":0,"plot_size":"0","plot_no":"COMMERCIAL BELT","sector":"SECTOR-03","block":"NULL","phase":"Phase 1","scheme_cod":"NA","mplanduse":"V","ppt_type":"COMM","ppt_full":"Commercial","authority":"GNIDA","category":"commercial","execution_stage":"allotted"}},{"type":"Feature","geometry":{"type":"Polygon","coordinates":[[[77.461685,28.57383],[77.457318,28.570716],[77.457145,28.570173],[77.457888,28.56999],[77.457922,28.570097],[77.460763,28.57231],[77.462192,28.573315],[77.461685,28.57383]]]},"properties":{"objectid":4121,"plotmapid":"SECTOR-03NULLCOMMERCIAL BELTCOMM","allot_id":"NA","used":"COMMERCIAL BELT","allotted_p":"Yes","plotsizesq":0,"plot_size":"0","plot_no":"COMMERCIAL BELT","sector":"SECTOR-03","block":"NULL","phase":"Phase 1","scheme_cod":"NA","mplanduse":"V","ppt_type":"COMM","ppt_full":"Commercial","authority":"GNIDA","category":"commercial","execution_stage":"allotted"}},{"type":"Feature","geometry":{"type":"Polygon","coordinates":[[[77.465925,28.576826],[77.461878,28.573966],[77.462385,28.573452],[77.466264,28.576232],[77.465925,28.576826]]]},"properties":{"objectid":5714,"plotmapid":"SECTOR-03NULLCOMMERCIAL BELTCOMM","allot_id":"NA","used":"COMMERCIAL BELT","allotted_p":"Yes","plotsizesq":0,"plot_size":"0","plot_no":"COMMERCIAL BELT","sector":"SECTOR-03","block":"NULL","phase":"Phase 1","scheme_cod":"NA","mplanduse":"V","ppt_type":"COMM","ppt_full":"Commercial","authority":"GNIDA","category":"commercial","execution_stage":"allotted"}},{"type":"Feature","geometry":{"type":"Polygon","coordinates":[[[77.452505,28.572209],[77.45284,28.572448],[77.45267,28.572639],[77.451989,28.572303],[77.452249,28.572023],[77.452505,28.572209]]]},"properties":{"objectid":6336,"plotmapid":"SECTOR-03CShopping CenterCOMM","allot_id":"NA","used":"FACILITY","plotsizesq":0,"plot_size":"0","plot_no":"Shopping Center","sector":"SECTOR-03","block":"C","phase":"Phase 1","mplanduse":"Facility","ppt_type":"COMM","ppt_full":"Commercial","authority":"GNIDA","category":"commercial","execution_stage":"unknown"}},{"type":"Feature","geometry":{"type":"Polygon","coordinates":[[[77.453423,28.572865],[77.453499,28.57292],[77.453419,28.573006],[77.453177,28.572888],[77.453286,28.572767],[77.453423,28.572865]]]},"properties":{"objectid":6338,"plotmapid":"SECTOR-03CSpace For KIOSKCOMM","allot_id":"NA","used":"Kiosk","plotsizesq":0,"plot_size":"0","plot_no":"Space For KIOSK","sector":"SECTOR-03","block":"C","phase":"Phase 1","mplanduse":"Facility","ppt_type":"COMM","ppt_full":"Commercial","authority":"GNIDA","category":"commercial","execution_stage":"unknown"}},{"type":"Feature","geometry":{"type":"Polygon","coordinates":[[[77.47532,28.581895],[77.468431,28.57687],[77.472004,28.570714],[77.47289,28.571293],[77.472736,28.571456],[77.477685,28.574715],[77.48006,28.576246],[77.47532,28.581895]],[[77.474637,28.577086],[77.474863,28.577272],[77.475017,28.577436],[77.475517,28.576998],[77.475303,28.576686],[77.475322,28.576662],[77.475269,28.576597],[77.474637,28.577086]]]},"properties":{"objectid":6515,"plotmapid":"SECTOR-10NULL COMM","plotsizesq":0,"plot_no":"MP Commercial","sector":"SECTOR-10","block":"NULL","phase":"Phase-1","mplanduse":"Commercial","ppt_type":"COMM","ppt_full":"Commercial","remark":"Informal Housing 6 Ha.Informal Housing 6 Ha.","authority":"GNIDA","category":"commercial","execution_stage":"unknown"}},{"type":"Feature","geometry":{"type":"Polygon","coordinates":[[[77.47251,28.570132],[77.47267,28.569948],[77.473525,28.570504],[77.47289,28.571293],[77.472274,28.570891],[77.472767,28.57031],[77.47251,28.570132]]]},"properties":{"objectid":6517,"plotmapid":"SECTOR-10NULLC-1COMM","property_t":"Commercial","plotsizesq":10600,"plot_size":"10600 SQMT","plot_no":"C-1","sector":"SECTOR-10","block":"NULL","phase":"Phase-1","mplanduse":"V","ppt_type":"COMM","ppt_full":"Commercial","remarks":"NEW","remark":"NANA","authority":"GNIDA","category":"commercial","execution_stage":"unknown"}},{"type":"Feature","geometry":{"type":"Polygon","coordinates":[[[77.481084,28.574341],[77.48116,28.574248],[77.481395,28.574401],[77.481319,28.574494],[77.481084,28.574341]]]},"properties":{"objectid":7230,"plotmapid":"SECTOR-10NULLMILK & VEG BOOTHCOMM","plotsizesq":0,"plot_size":"200 SQMT","plot_no":"MILK & VEG BOOTH","sector":"SECTOR-10","block":"NULL","phase":"Phase-1","mplanduse":"Facility","ppt_type":"COMM","ppt_full":"Commercial","authority":"GNIDA","category":"commercial","execution_stage":"unknown"}},{"type":"Feature","geometry":{"type":"Polygon","coordinates":[[[77.479406,28.574131],[77.479083,28.574514],[77.478904,28.574402],[77.478988,28.574305],[77.478392,28.573918],[77.47864,28.573624],[77.479406,28.574131]]]},"properties":{"objectid":7240,"plotmapid":"SECTOR-10NULLF-4COMM","plotsizesq":0,"plot_no":"F-4","sector":"SECTOR-10","block":"NULL","phase":"Phase-1","mplanduse":"Facility","ppt_type":"COMM","ppt_full":"Commercial","authority":"GNIDA","category":"commercial","execution_stage":"unknown"}},{"type":"Feature","geometry":{"type":"Polygon","coordinates":[[[77.475517,28.576998],[77.475017,28.577436],[77.474863,28.577272],[77.474637,28.577086],[77.475269,28.576597],[77.475322,28.576662],[77.475303,28.576686],[77.475517,28.576998]]]},"properties":{"objectid":7252,"plotmapid":"SECTOR-10NULLMP CommercialCOMM","plotsizesq":0,"plot_no":"MP Commercial","sector":"SECTOR-10","block":"NULL","phase":"Phase-1","mplanduse":"Commercial","ppt_type":"COMM","ppt_full":"Commercial","authority":"GNIDA","category":"commercial","execution_stage":"unknown"}},{"type":"Feature","geometry":{"type":"Polygon","coordinates":[[[77.475379,28.568368],[77.474825,28.568959],[77.474007,28.568412],[77.474476,28.56781],[77.475379,28.568368]]]},"properties":{"objectid":7266,"plotmapid":"SECTOR-10NULLC-4COMM","property_t":"Commercial","allotted_p":"Vacant","plotsizesq":10600,"plot_size":"10600","plot_no":"C-4","sector":"SECTOR-10","block":"NULL","phase":"Phase-1","mplanduse":"V","ppt_type":"COMM","ppt_full":"Commercial","remark":"NEW","authority":"GNIDA","category":"commercial","execution_stage":"vacant"}},{"type":"Feature","geometry":{"type":"Polygon","coordinates":[[[77.475923,28.566097],[77.476817,28.566615],[77.476326,28.567221],[77.475451,28.566637],[77.475923,28.566097]]]},"properties":{"objectid":7267,"plotmapid":"SECTOR-10NULLC-6COMM","property_t":"Commercial","allotted_p":"Vacant","plotsizesq":10600,"plot_size":"10600","plot_no":"C-6","sector":"SECTOR-10","block":"NULL","phase":"Phase-1","ppt_type":"COMM","ppt_full":"Commercial","remark":"NEW","authority":"GNIDA","category":"commercial","execution_stage":"vacant"}},{"type":"Feature","geometry":{"type":"Polygon","coordinates":[[[77.476326,28.567221],[77.475379,28.568368],[77.474476,28.56781],[77.475451,28.566637],[77.476326,28.567221]]]},"properties":{"objectid":7268,"plotmapid":"SECTOR-10NULLC-5COMM","property_t":"Commercial","allotted_p":"Vacant","plotsizesq":10600,"plot_size":"10600","plot_no":"C-5","sector":"SECTOR-10","block":"NULL","phase":"Phase-1","mplanduse":"V","ppt_type":"COMM","ppt_full":"Commercial","remark":"NEW","authority":"GNIDA","category":"commercial","execution_stage":"vacant"}},{"type":"Feature","geometry":{"type":"Polygon","coordinates":[[[77.474825,28.568959],[77.47417,28.569732],[77.473337,28.569182],[77.474007,28.568412],[77.474825,28.568959]]]},"properties":{"objectid":7269,"plotmapid":"SECTOR-10NULLC-3COMM","property_t":"Commercial","allotted_p":"Vacant","plotsizesq":10600,"plot_size":"10600","plot_no":"C-3","sector":"SECTOR-10","block":"NULL","phase":"Phase-1","ppt_type":"COMM","ppt_full":"Commercial","remark":"NEW","authority":"GNIDA","category":"commercial","execution_stage":"vacant"}},{"type":"Feature","geometry":{"type":"Polygon","coordinates":[[[77.47417,28.569732],[77.473525,28.570504],[77.47267,28.569948],[77.473337,28.569182],[77.47417,28.569732]]]},"properties":{"objectid":7270,"plotmapid":"SECTOR-10NULLC-2COMM","property_t":"Commercial","allotted_p":"Vacant","plotsizesq":10600,"plot_size":"10600","plot_no":"C-2","sector":"SECTOR-10","block":"NULL","phase":"Phase-1","mplanduse":"V","ppt_type":"COMM","ppt_full":"Commercial","remark":"NEW","authority":"GNIDA","category":"commercial","execution_stage":"vacant"}},{"type":"Feature","geometry":{"type":"Polygon","coordinates":[[[77.48141,28.560017],[77.480712,28.560847],[77.480457,28.56068],[77.481181,28.559867],[77.48141,28.560017]]]},"properties":{"objectid":7271,"plotmapid":"SECTOR-12NULLPP-1COMM","property_t":"Utility","used":"PETROL PUMP","plotsizesq":2000,"plot_size":"2000","plot_no":"PP-1","sector":"SECTOR-12","block":"NULL","phase":"Phase-1","mplanduse":"V","ppt_type":"COMM","ppt_full":"Commercial","remarks":"NEW","remark":"NEW","authority":"GNIDA","category":"commercial","execution_stage":"unknown"}},{"type":"Feature","geometry":{"type":"Polygon","coordinates":[[[77.483376,28.558816],[77.482708,28.559612],[77.481871,28.559065],[77.48255,28.558277],[77.483376,28.558816]]]},"properties":{"objectid":7281,"plotmapid":"SECTOR-12NULLC15COMM","plotsizesq":0,"plot_no":"C15","sector":"SECTOR-12","block":"NULL","phase":"Phase-1","mplanduse":"Commercial","ppt_type":"COMM","ppt_full":"Commercial","authority":"GNIDA","category":"commercial","execution_stage":"unknown"}},{"type":"Feature","geometry":{"type":"Polygon","coordinates":[[[77.479668,28.563246],[77.479196,28.563789],[77.478302,28.5632],[77.478761,28.562653],[77.479668,28.563246]]]},"properties":{"objectid":7291,"plotmapid":"SECTOR-12NULLC-10COMM","property_t":"Commercial","allotted_p":"Vacant","plotsizesq":10400,"plot_size":"10400","plot_no":"C-10","sector":"SECTOR-12","block":"NULL","phase":"Phase-1","mplanduse":"V","ppt_type":"COMM","ppt_full":"Commercial","remark":"NEW","authority":"GNIDA","category":"commercial","execution_stage":"vacant"}},{"type":"Feature","geometry":{"type":"Polygon","coordinates":[[[77.479196,28.563789],[77.478666,28.564431],[77.477744,28.563862],[77.478302,28.5632],[77.479196,28.563789]]]},"properties":{"objectid":7296,"plotmapid":"SECTOR-12NULLC9COMM","plotsizesq":10400,"plot_size":"10400","plot_no":"C9","sector":"SECTOR-12","block":"NULL","phase":"Phase-1","mplanduse":"V","ppt_type":"COMM","ppt_full":"Commercial","authority":"GNIDA","category":"commercial","execution_stage":"unknown"}},{"type":"Feature","geometry":{"type":"Polygon","coordinates":[[[77.479484,28.561782],[77.480291,28.560844],[77.481186,28.561423],[77.480385,28.562385],[77.479484,28.561782]]]},"properties":{"objectid":7314,"plotmapid":"SECTOR-12NULLC-12COMM","property_t":"Commercial","allotted_p":"Vacant","plotsizesq":10400,"plot_size":"10400","plot_no":"C-12","sector":"SECTOR-12","block":"NULL","phase":"Phase-1","mplanduse":"V","ppt_type":"COMM","ppt_full":"Commercial","remark":"NEW","authority":"GNIDA","category":"commercial","execution_stage":"vacant"}},{"type":"Feature","geometry":{"type":"Polygon","coordinates":[[[77.47799,28.565231],[77.477313,28.566032],[77.476394,28.565509],[77.477094,28.564662],[77.47799,28.565231]]]},"properties":{"objectid":7315,"plotmapid":"SECTOR-12NULLC-7COMM","property_t":"Commercial","allotted_p":"Vacant","plotsizesq":10400,"plot_size":"10400","plot_no":"C-7","sector":"SECTOR-12","block":"NULL","phase":"Phase-1","mplanduse":"V","ppt_type":"COMM","ppt_full":"Commercial","remark":"NEW","authority":"GNIDA","category":"commercial","execution_stage":"vacant"}},{"type":"Feature","geometry":{"type":"Polygon","coordinates":[[[77.478666,28.564431],[77.47799,28.565231],[77.477094,28.564662],[77.477744,28.563862],[77.478666,28.564431]]]},"properties":{"objectid":7316,"plotmapid":"SECTOR-12NULLC-8COMM","property_t":"Commercial","allotted_p":"Vacant","plotsizesq":10400,"plot_size":"10400","plot_no":"C-8","sector":"SECTOR-12","block":"NULL","phase":"Phase-1","mplanduse":"V","ppt_type":"COMM","ppt_full":"Commercial","remark":"NEW","authority":"GNIDA","category":"commercial","execution_stage":"vacant"}},{"type":"Feature","geometry":{"type":"Polygon","coordinates":[[[77.480385,28.562385],[77.479668,28.563246],[77.478761,28.562653],[77.479484,28.561782],[77.480385,28.562385]]]},"properties":{"objectid":7317,"plotmapid":"SECTOR-12NULLC-11COMM","property_t":"Commercial","allotted_p":"Vacant","plotsizesq":10400,"plot_size":"10400","plot_no":"C-11","sector":"SECTOR-12","block":"NULL","phase":"Phase-1","mplanduse":"V","ppt_type":"COMM","ppt_full":"Commercial","remark":"NEW","authority":"GNIDA","category":"commercial","execution_stage":"vacant"}},{"type":"Feature","geometry":{"type":"Polygon","coordinates":[[[77.453173,28.601191],[77.453128,28.601237],[77.452661,28.600968],[77.45295,28.600701],[77.453413,28.600967],[77.453173,28.601191]]]},"properties":{"objectid":7318,"plotmapid":"ECOTECH-XIINULLPP01COMM","allot_id":"NA","plotsizesq":2000,"plot_size":"2000","plot_no":"PP01","sector":"ECOTECH-XII","block":"NULL","phase":"Phase 1","scheme_cod":"NA","ppt_type":"COMM","ppt_full":"Commercial","authority":"GNIDA","category":"commercial","execution_stage":"unknown"}},{"type":"Feature","geometry":{"type":"Polygon","coordinates":[[[77.453118,28.600544],[77.453781,28.599919],[77.454665,28.60042],[77.454,28.601044],[77.453118,28.600544]]]},"properties":{"objectid":7319,"plotmapid":"ECOTECH-XIINULLC-3COMM","allot_id":"NA","plotsizesq":12000,"plot_size":"12000 SQMT","plot_no":"C-3","sector":"ECOTECH-XII","block":"NULL","phase":"Phase 1","scheme_cod":"NA","mplanduse":"V","ppt_type":"COMM","ppt_full":"Commercial","remarks":"NEW","authority":"GNIDA","category":"commercial","execution_stage":"unknown"}},{"type":"Feature","geometry":{"type":"Polygon","coordinates":[[[77.453415,28.601403],[77.453128,28.601237],[77.453413,28.600967],[77.453833,28.6012],[77.453537,28.601473],[77.453415,28.601403]]]},"properties":{"objectid":7320,"plotmapid":"ECOTECH-XIINULLCNGCOMM","allot_id":"NA","plotsizesq":12000,"plot_size":"12000 SQMT","plot_no":"CNG","sector":"ECOTECH-XII","block":"NULL","phase":"Phase 1","scheme_cod":"NA","mplanduse":"V","ppt_type":"COMM","ppt_full":"Commercial","authority":"GNIDA","category":"commercial","execution_stage":"unknown"}},{"type":"Feature","geometry":{"type":"Polygon","coordinates":[[[77.456913,28.59807],[77.455807,28.599307],[77.454917,28.598787],[77.456152,28.597554],[77.456913,28.59807]]]},"properties":{"objectid":7321,"plotmapid":"ECOTECH-XIINULLC-5COMM","allot_id":"NA","allotted_p":"Yes","plotsizesq":20000,"plot_size":"20000","plot_no":"C-5","sector":"ECOTECH-XII","block":"NULL","phase":"Phase 1","scheme_cod":"NA","mplanduse":"V","ppt_type":"COMM","ppt_full":"Commercial","authority":"GNIDA","category":"commercial","execution_stage":"allotted"}},{"type":"Feature","geometry":{"type":"Polygon","coordinates":[[[77.453781,28.599919],[77.454917,28.598787],[77.455807,28.599307],[77.454665,28.60042],[77.453781,28.599919]]]},"properties":{"objectid":7322,"plotmapid":"ECOTECH-XIINULLC-4COMM","allot_id":"NA","allotted_p":"Vacant","plotsizesq":20000,"plot_size":"20000","plot_no":"C-4","sector":"ECOTECH-XII","block":"NULL","phase":"Phase 1","scheme_cod":"NA","mplanduse":"V","ppt_type":"COMM","ppt_full":"Commercial","authority":"GNIDA","category":"commercial","execution_stage":"vacant"}},{"type":"Feature","geometry":{"type":"Polygon","coordinates":[[[77.457955,28.596916],[77.456913,28.59807],[77.456152,28.597554],[77.457091,28.596396],[77.457955,28.596916]]]},"properties":{"objectid":7324,"plotmapid":"ECOTECH-XIINULLC-6COMM","allot_id":"NA","allotted_p":"Yes","plotsizesq":20000,"plot_size":"20000","plot_no":"C-6","sector":"ECOTECH-XII","block":"NULL","phase":"Phase 1","scheme_cod":"NA","mplanduse":"V","ppt_type":"COMM","ppt_full":"Commercial","authority":"GNIDA","category":"commercial","execution_stage":"allotted"}},{"type":"Feature","geometry":{"type":"Polygon","coordinates":[[[77.459043,28.595459],[77.457955,28.596916],[77.457091,28.596396],[77.458174,28.594966],[77.459043,28.595459]]]},"properties":{"objectid":7325,"plotmapid":"ECOTECH-XIINULLC-7COMM","allot_id":"NA","allotted_p":"Yes","plotsizesq":20000,"plot_size":"20000","plot_no":"C-7","sector":"ECOTECH-XII","block":"NULL","phase":"Phase 1","scheme_cod":"NA","mplanduse":"V","ppt_type":"COMM","ppt_full":"Commercial","authority":"GNIDA","category":"commercial","execution_stage":"allotted"}},{"type":"Feature","geometry":{"type":"Polygon","coordinates":[[[77.462091,28.589624],[77.461939,28.589905],[77.461525,28.589685],[77.46167,28.589401],[77.462091,28.589624]]]},"properties":{"objectid":8583,"plotmapid":"TECHZONE-VIINULLPP-1COMM","property_t":"Commercial","used":"PETROL PUMP","plotsizesq":2000,"plot_size":"2000","plot_no":"PP-1","sector":"TECHZONE-VII","block":"NULL","phase":"Phase 1","mplanduse":"Commercial","ppt_type":"COMM","ppt_full":"Commercial","remarks":"NEW","remark":"NEW","authority":"GNIDA","category":"commercial","execution_stage":"unknown"}},{"type":"Feature","geometry":{"type":"Polygon","coordinates":[[[77.516024,28.499087],[77.516082,28.49912],[77.516121,28.499413],[77.515882,28.499276],[77.516024,28.499087]]]},"properties":{"objectid":10984,"plotmapid":"DELTA-03O193ACOMM","allot_id":"NA","allotted_p":"Yes","plotsizesq":0,"plot_size":"0","plot_no":"193A","sector":"DELTA-03","block":"O","phase":"Phase 1","scheme_cod":"NA","mplanduse":"Facility","ppt_type":"COMM","ppt_full":"Commercial","authority":"GNIDA","category":"commercial","execution_stage":"allotted"}},{"type":"Feature","geometry":{"type":"Polygon","coordinates":[[[77.51586,28.499534],[77.516002,28.499345],[77.516121,28.499413],[77.516153,28.499576],[77.516087,28.499664],[77.51586,28.499534]]]},"properties":{"objectid":10985,"plotmapid":"DELTA-03O193COMM","allot_id":"NA","allotted_p":"Yes","plotsizesq":0,"plot_size":"0","plot_no":"193","sector":"DELTA-03","block":"O","phase":"Phase 1","scheme_cod":"NA","mplanduse":"Facility","ppt_type":"COMM","ppt_full":"Commercial","authority":"GNIDA","category":"commercial","execution_stage":"allotted"}},{"type":"Feature","geometry":{"type":"Polygon","coordinates":[[[77.483303,28.499475],[77.48347,28.499386],[77.483785,28.499751],[77.483579,28.49987],[77.483303,28.499475]]]},"properties":{"objectid":13784,"plotmapid":"ECOTECH-IIUDYOG VIHARUV-B34 FACILITESCOMM","allot_id":"NA","used":"Kiosk_Shop","allotted_p":"Yes","plotsizesq":0,"plot_size":"0","plot_no":"UV-B34 FACILITES","sector":"ECOTECH-II","block":"UDYOG VIHAR","phase":"Phase 1","scheme_cod":"NA","mplanduse":"Facility","ppt_type":"COMM","ppt_full":"Commercial","remark":"UnMatched","authority":"GNIDA","category":"commercial","execution_stage":"allotted"}},{"type":"Feature","geometry":{"type":"Polygon","coordinates":[[[77.482176,28.499094],[77.482083,28.499146],[77.481925,28.498928],[77.482016,28.498868],[77.482176,28.499094]]]},"properties":{"objectid":13808,"plotmapid":"ECOTECH-IIUDYOG VIHARUV-B6COMM","allot_id":"NA","used":"Kiosk_Shop","allotted_p":"Yes","plotsizesq":0,"plot_size":"0","plot_no":"UV-B6","sector":"ECOTECH-II","block":"UDYOG VIHAR","phase":"Phase 1","scheme_cod":"NA","mplanduse":"V","ppt_type":"COMM","ppt_full":"Commercial","remark":"UnMatched","authority":"GNIDA","category":"commercial","execution_stage":"allotted"}},{"type":"Feature","geometry":{"type":"Polygon","coordinates":[[[77.483141,28.499053],[77.48307,28.499091],[77.48299,28.498978],[77.483061,28.498939],[77.483141,28.499053]]]},"properties":{"objectid":13813,"plotmapid":"ECOTECH-IIUDYOG VIHARUV-B13COMM","used":"Kiosk_Shop","plotsizesq":0,"plot_size":"0","plot_no":"UV-B13","sector":"ECOTECH-II","block":"UDYOG VIHAR","phase":"Phase 1","mplanduse":"V","ppt_type":"COMM","ppt_full":"Commercial","remark":"UnMatched","authority":"GNIDA","category":"commercial","execution_stage":"unknown"}},{"type":"Feature","geometry":{"type":"Polygon","coordinates":[[[77.483154,28.498926],[77.483227,28.499007],[77.483141,28.499053],[77.483061,28.498939],[77.483132,28.498901],[77.483154,28.498926]]]},"properties":{"objectid":13814,"plotmapid":"ECOTECH-IIUDYOG VIHARUV-B14COMM","used":"Kiosk_Shop","plotsizesq":0,"plot_size":"0","plot_no":"UV-B14","sector":"ECOTECH-II","block":"UDYOG VIHAR","phase":"Phase 1","ppt_type":"COMM","ppt_full":"Commercial","remark":"UnMatched","authority":"GNIDA","category":"commercial","execution_stage":"unknown"}},{"type":"Feature","geometry":{"type":"Polygon","coordinates":[[[77.482446,28.499313],[77.4825,28.499391],[77.482326,28.499489],[77.482271,28.49941],[77.482446,28.499313]]]},"properties":{"objectid":13823,"plotmapid":"ECOTECH-IIUDYOG VIHARUV-B4COMM","used":"Kiosk_Shop","plotsizesq":0,"plot_size":"0","plot_no":"UV-B4","sector":"ECOTECH-II","block":"UDYOG VIHAR","phase":"Phase 1","ppt_type":"COMM","ppt_full":"Commercial","remark":"UnMatched","authority":"GNIDA","category":"commercial","execution_stage":"unknown"}},{"type":"Feature","geometry":{"type":"Polygon","coordinates":[[[77.482726,28.499157],[77.482787,28.499244],[77.4827,28.49929],[77.482621,28.499176],[77.482707,28.49913],[77.482726,28.499157]]]},"properties":{"objectid":13825,"plotmapid":"ECOTECH-IIUDYOG VIHARUV-B8COMM","allot_id":"NA","property_t":"NA","used":"Kiosk_Shop","plotsizesq":93269,"plot_size":"0","plot_no":"UV-B8","sector":"ECOTECH-II","block":"UDYOG VIHAR","phase":"Phase 1","scheme_cod":"NA","ppt_type":"COMM","ppt_full":"Commercial","remark":"UnMatched","authority":"GNIDA","category":"commercial","execution_stage":"unknown"}},{"type":"Feature","geometry":{"type":"Polygon","coordinates":[[[77.482857,28.499206],[77.482787,28.499244],[77.482707,28.49913],[77.482778,28.499092],[77.482857,28.499206]]]},"properties":{"objectid":13836,"plotmapid":"ECOTECH-IIUDYOG VIHARUV-B9COMM","allot_id":"NA","used":"Kiosk_Shop","allotted_p":"Yes","plotsizesq":0,"plot_size":"0","plot_no":"UV-B9","sector":"ECOTECH-II","block":"UDYOG VIHAR","phase":"Phase 1","scheme_cod":"NA","ppt_type":"COMM","ppt_full":"Commercial","remark":"UnMatched","authority":"GNIDA","category":"commercial","execution_stage":"allotted"}},{"type":"Feature","geometry":{"type":"Polygon","coordinates":[[[77.482867,28.49908],[77.482928,28.499167],[77.482857,28.499206],[77.482778,28.499092],[77.482849,28.499054],[77.482867,28.49908]]]},"properties":{"objectid":13837,"plotmapid":"ECOTECH-IIUDYOG VIHARUV-B10COMM","used":"Kiosk_Shop","plotsizesq":0,"plot_size":"0","plot_no":"UV-B10","sector":"ECOTECH-II","block":"UDYOG VIHAR","phase":"Phase 1","ppt_type":"COMM","ppt_full":"Commercial","remark":"UnMatched","authority":"GNIDA","category":"commercial","execution_stage":"unknown"}},{"type":"Feature","geometry":{"type":"Polygon","coordinates":[[[77.469006,28.509453],[77.468602,28.50975],[77.467762,28.509134],[77.468122,28.509149],[77.469479,28.509079],[77.469006,28.509453]]]},"properties":{"objectid":13840,"plotmapid":"ECOTECH-IIUDYOG VIHAR1D/6COMM","allot_id":"NA","allotted_p":"Yes","plotsizesq":0,"plot_size":"0","plot_no":"1D/6","sector":"ECOTECH-II","block":"UDYOG VIHAR","phase":"Phase 1","scheme_cod":"NA","mplanduse":"FACILITY","ppt_type":"COMM","ppt_full":"Commercial","remark":"UnMatched","authority":"GNIDA","category":"commercial","execution_stage":"allotted"}},{"type":"Feature","geometry":{"type":"Polygon","coordinates":[[[77.473182,28.500472],[77.47294,28.500605],[77.472763,28.500418],[77.472997,28.500265],[77.473182,28.500472]]]},"properties":{"objectid":13850,"plotmapid":"ECOTECH-IIUDYOG VIHAR18BCOMM","allot_id":"NA","used":"PLOT N0 18B,FACILITY","allotted_p":"Yes","plotsizesq":0,"plot_size":"0","plot_no":"18B","sector":"ECOTECH-II","block":"UDYOG VIHAR","phase":"Phase 1","scheme_cod":"NA","mplanduse":"Facility","ppt_type":"COMM","ppt_full":"Commercial","remark":"UnMatched","authority":"GNIDA","category":"commercial","execution_stage":"allotted"}},{"type":"Feature","geometry":{"type":"Polygon","coordinates":[[[77.482446,28.499313],[77.482271,28.49941],[77.482216,28.499332],[77.48239,28.499233],[77.482446,28.499313]]]},"properties":{"objectid":13856,"plotmapid":"ECOTECH-IIUDYOG VIHARUV-B5COMM","allot_id":"NA","used":"Kiosk_Shop","allotted_p":"Yes","plotsizesq":0,"plot_size":"0","plot_no":"UV-B5","sector":"ECOTECH-II","block":"UDYOG VIHAR","phase":"Phase 1","scheme_cod":"NA","ppt_type":"COMM","ppt_full":"Commercial","remark":"UnMatched","authority":"GNIDA","category":"commercial","execution_stage":"allotted"}},{"type":"Feature","geometry":{"type":"Polygon","coordinates":[[[77.483887,28.499145],[77.483733,28.499238],[77.483678,28.499175],[77.483832,28.499081],[77.483887,28.499145]]]},"properties":{"objectid":13891,"plotmapid":"ECOTECH-IIUDYOG VIHARUV-B28COMM","allot_id":"NA","used":"Kiosk_Shop","allotted_p":"Yes","plotsizesq":0,"plot_size":"0","plot_no":"UV-B28","sector":"ECOTECH-II","block":"UDYOG VIHAR","phase":"Phase 1","scheme_cod":"NA","ppt_type":"COMM","ppt_full":"Commercial","remark":"UnMatched","authority":"GNIDA","category":"commercial","execution_stage":"allotted"}},{"type":"Feature","geometry":{"type":"Polygon","coordinates":[[[77.483777,28.499017],[77.483623,28.499111],[77.483568,28.499047],[77.483722,28.498953],[77.483777,28.499017]]]},"properties":{"objectid":13892,"plotmapid":"ECOTECH-IIUDYOG VIHARUV-B26COMM","allot_id":"NA","used":"Kiosk_Shop","allotted_p":"Yes","plotsizesq":0,"plot_size":"0","plot_no":"UV-B26","sector":"ECOTECH-II","block":"UDYOG VIHAR","phase":"Phase 1","scheme_cod":"NA","mplanduse":"V","ppt_type":"COMM","ppt_full":"Commercial","remark":"UnMatched","authority":"GNIDA","category":"commercial","execution_stage":"allotted"}},{"type":"Feature","geometry":{"type":"Polygon","coordinates":[[[77.482669,28.499627],[77.482492,28.499723],[77.482432,28.499642],[77.482606,28.499542],[77.482669,28.499627]]]},"properties":{"objectid":13909,"plotmapid":"ECOTECH-IIUDYOG VIHARUV-B1COMM","allot_id":"IND00078","property_t":"Industry","used":"Kiosk_Shop","allotted_p":"Yes","plotsizesq":55104,"plot_size":"55104","plot_no":"UV-B1","sector":"ECOTECH-II","block":"UDYOG VIHAR","phase":"Phase 1","scheme_cod":"IND00078","ppt_type":"COMM","ppt_full":"Commercial","remark":"Matched","authority":"GNIDA","category":"commercial","execution_stage":"allotted"}},{"type":"Feature","geometry":{"type":"Polygon","coordinates":[[[77.48307,28.499091],[77.482999,28.499129],[77.48292,28.499016],[77.48299,28.498978],[77.48307,28.499091]]]},"properties":{"objectid":13910,"plotmapid":"ECOTECH-IIUDYOG VIHARUV-B12COMM","property_t":"Industry","used":"Kiosk_Shop","plotsizesq":0,"plot_size":"0","plot_no":"UV-B12","sector":"ECOTECH-II","block":"UDYOG VIHAR","phase":"Phase 1","ppt_type":"COMM","ppt_full":"Commercial","remark":"UnMatched","authority":"GNIDA","category":"commercial","execution_stage":"unknown"}},{"type":"Feature","geometry":{"type":"Polygon","coordinates":[[[77.482431,28.499642],[77.482377,28.499564],[77.482553,28.499467],[77.482606,28.499542],[77.482431,28.499642]]]},"properties":{"objectid":13941,"plotmapid":"ECOTECH-IIUDYOG VIHARUV-B2COMM","allot_id":"NA","used":"Kiosk_Shop","allotted_p":"Yes","plotsizesq":0,"plot_size":"0","plot_no":"UV-B2","sector":"ECOTECH-II","block":"UDYOG VIHAR","phase":"Phase 1","scheme_cod":"NA","ppt_type":"COMM","ppt_full":"Commercial","remark":"UnMatched","authority":"GNIDA","category":"commercial","execution_stage":"allotted"}},{"type":"Feature","geometry":{"type":"Polygon","coordinates":[[[77.482553,28.499467],[77.482377,28.499564],[77.482326,28.499489],[77.4825,28.499391],[77.482553,28.499467]]]},"properties":{"objectid":13942,"plotmapid":"ECOTECH-IIUDYOG VIHARUV-B3COMM","used":"Kiosk_Shop","plotsizesq":0,"plot_size":"0","plot_no":"UV-B3","sector":"ECOTECH-II","block":"UDYOG VIHAR","phase":"Phase 1","ppt_type":"COMM","ppt_full":"Commercial","remark":"UnMatched","authority":"GNIDA","category":"commercial","execution_stage":"unknown"}},{"type":"Feature","geometry":{"type":"Polygon","coordinates":[[[77.482999,28.499129],[77.482928,28.499167],[77.482849,28.499054],[77.48292,28.499016],[77.482999,28.499129]]]},"properties":{"objectid":13946,"plotmapid":"ECOTECH-IIUDYOG VIHARUV-B11COMM","allot_id":"NA","used":"Kiosk_Shop","allotted_p":"Yes","plotsizesq":0,"plot_size":"0","plot_no":"UV-B11","sector":"ECOTECH-II","block":"UDYOG VIHAR","phase":"Phase 1","scheme_cod":"NA","ppt_type":"COMM","ppt_full":"Commercial","remark":"UnMatched","authority":"GNIDA","category":"commercial","execution_stage":"allotted"}},{"type":"Feature","geometry":{"type":"Polygon","coordinates":[[[77.483832,28.499081],[77.483678,28.499175],[77.483623,28.499111],[77.483777,28.499017],[77.483832,28.499081]]]},"properties":{"objectid":13977,"plotmapid":"ECOTECH-IIUDYOG VIHARUV-B27COMM","allot_id":"NA","used":"Kiosk_Shop","allotted_p":"Yes","plotsizesq":0,"plot_size":"0","plot_no":"UV-B27","sector":"ECOTECH-II","block":"UDYOG VIHAR","phase":"Phase 1","scheme_cod":"NA","ppt_type":"COMM","ppt_full":"Commercial","remark":"UnMatched","authority":"GNIDA","category":"commercial","execution_stage":"allotted"}},{"type":"Feature","geometry":{"type":"Polygon","coordinates":[[[77.471684,28.509496],[77.471574,28.509652],[77.471008,28.509058],[77.471126,28.508977],[77.47212,28.50888],[77.471684,28.509496]]]},"properties":{"objectid":13981,"plotmapid":"ECOTECH-IIUDYOG VIHAR1D/4COMM","allot_id":"NA","allotted_p":"Yes","plotsizesq":0,"plot_size":"0","plot_no":"1D/4","sector":"ECOTECH-II","block":"UDYOG VIHAR","phase":"Phase 1","scheme_cod":"NA","mplanduse":"FACILITY","ppt_type":"COMM","ppt_full":"Commercial","remark":"UnMatched","authority":"GNIDA","category":"commercial","execution_stage":"allotted"}},{"type":"Feature","geometry":{"type":"Polygon","coordinates":[[[77.483997,28.499273],[77.483843,28.499366],[77.483788,28.499302],[77.483942,28.499209],[77.483997,28.499273]]]},"properties":{"objectid":13983,"plotmapid":"ECOTECH-IIUDYOG VIHARUV-B30COMM","allot_id":"NA","property_t":"NA","used":"Kiosk_Shop","allotted_p":"NA","plotsizesq":0,"plot_size":"0","plot_no":"UV-B30","sector":"ECOTECH-II","block":"UDYOG VIHAR","phase":"Phase 1","scheme_cod":"NA","mplanduse":"V","ppt_type":"COMM","ppt_full":"Commercial","remark":"UnMatched","authority":"GNIDA","category":"commercial","execution_stage":"nonsaleble"}},{"type":"Feature","geometry":{"type":"Polygon","coordinates":[[[77.484052,28.499336],[77.483898,28.49943],[77.483843,28.499366],[77.483997,28.499273],[77.484052,28.499336]]]},"properties":{"objectid":13984,"plotmapid":"ECOTECH-IIUDYOG VIHARUV-B31COMM","property_t":"Industry","used":"Kiosk_Shop","allotted_p":"Yes","plotsizesq":0,"plot_size":"0","plot_no":"UV-B31","sector":"ECOTECH-II","block":"UDYOG VIHAR","phase":"Phase 1","ppt_type":"COMM","ppt_full":"Commercial","remark":"UnMatched","authority":"GNIDA","category":"commercial","execution_stage":"allotted"}},{"type":"Feature","geometry":{"type":"Polygon","coordinates":[[[77.483942,28.499209],[77.483788,28.499302],[77.483733,28.499238],[77.483887,28.499145],[77.483942,28.499209]]]},"properties":{"objectid":13985,"plotmapid":"ECOTECH-IIUDYOG VIHARUV-B29COMM","used":"Kiosk_Shop","plotsizesq":0,"plot_size":"0","plot_no":"UV-B29","sector":"ECOTECH-II","block":"UDYOG VIHAR","phase":"Phase 1","ppt_type":"COMM","ppt_full":"Commercial","remark":"UnMatched","authority":"GNIDA","category":"commercial","execution_stage":"unknown"}},{"type":"Feature","geometry":{"type":"Polygon","coordinates":[[[77.483667,28.498889],[77.483513,28.498983],[77.483458,28.498919],[77.483612,28.498826],[77.483667,28.498889]]]},"properties":{"objectid":13987,"plotmapid":"ECOTECH-IIUDYOG VIHARUV-B24COMM","allot_id":"NA","used":"Kiosk_Shop","allotted_p":"Yes","plotsizesq":0,"plot_size":"0","plot_no":"UV-B24","sector":"ECOTECH-II","block":"UDYOG VIHAR","phase":"Phase 1","scheme_cod":"NA","ppt_type":"COMM","ppt_full":"Commercial","remark":"UnMatched","authority":"GNIDA","category":"commercial","execution_stage":"allotted"}},{"type":"Feature","geometry":{"type":"Polygon","coordinates":[[[77.483557,28.498762],[77.483403,28.498855],[77.483348,28.498791],[77.483502,28.498698],[77.483557,28.498762]]]},"properties":{"objectid":13988,"plotmapid":"ECOTECH-IIUDYOG VIHARUV-B22COMM","allot_id":"NA","property_t":"NA","used":"Kiosk_Shop","allotted_p":"NA","plotsizesq":0,"plot_size":"0","plot_no":"UV-B22","sector":"ECOTECH-II","block":"UDYOG VIHAR","phase":"Phase 1","scheme_cod":"NA","ppt_type":"COMM","ppt_full":"Commercial","remark":"UnMatched","authority":"GNIDA","category":"commercial","execution_stage":"nonsaleble"}},{"type":"Feature","geometry":{"type":"Polygon","coordinates":[[[77.483612,28.498826],[77.483458,28.498919],[77.483403,28.498855],[77.483557,28.498762],[77.483612,28.498826]]]},"properties":{"objectid":13989,"plotmapid":"ECOTECH-IIUDYOG VIHARUV-B23COMM","allot_id":"NA","used":"Kiosk_Shop","allotted_p":"Yes","plotsizesq":0,"plot_size":"0","plot_no":"UV-B23","sector":"ECOTECH-II","block":"UDYOG VIHAR","phase":"Phase 1","scheme_cod":"NA","ppt_type":"COMM","ppt_full":"Commercial","remark":"UnMatched","authority":"GNIDA","category":"commercial","execution_stage":"allotted"}},{"type":"Feature","geometry":{"type":"Polygon","coordinates":[[[77.483722,28.498953],[77.483568,28.499047],[77.483513,28.498983],[77.483667,28.498889],[77.483722,28.498953]]]},"properties":{"objectid":13990,"plotmapid":"ECOTECH-IIUDYOG VIHARUV-B25COMM","allot_id":"NA","used":"Kiosk_Shop","allotted_p":"Yes","plotsizesq":0,"plot_size":"0","plot_no":"UV-B25","sector":"ECOTECH-II","block":"UDYOG VIHAR","phase":"Phase 1","scheme_cod":"NA","mplanduse":"V","ppt_type":"COMM","ppt_full":"Commercial","remark":"UnMatched","authority":"GNIDA","category":"commercial","execution_stage":"allotted"}},{"type":"Feature","geometry":{"type":"Polygon","coordinates":[[[77.470509,28.511264],[77.470784,28.511592],[77.470526,28.511833],[77.469957,28.512611],[77.469334,28.511843],[77.47042,28.511175],[77.470509,28.511264]]]},"properties":{"objectid":13993,"plotmapid":"ECOTECH-IIUDYOG VIHARH-2COMM","allot_id":"NA","used":"DIVY HOTEL","allotted_p":"Yes","plotsizesq":10405,"plot_size":"10405","plot_no":"H-2","sector":"ECOTECH-II","block":"UDYOG VIHAR","phase":"Phase 1","scheme_cod":"NA","ppt_type":"COMM","ppt_full":"Commercial","remark":"UnMatched","authority":"GNIDA","category":"commercial","execution_stage":"allotted"}},{"type":"Feature","geometry":{"type":"Polygon","coordinates":[[[77.483898,28.49943],[77.484052,28.499336],[77.484133,28.499431],[77.484012,28.499561],[77.483898,28.49943]]]},"properties":{"objectid":14023,"plotmapid":"ECOTECH-IIUDYOG VIHARUV-B32COMM","allot_id":"NA","property_t":"NA","used":"Kiosk_Shop","allotted_p":"NA","plotsizesq":0,"plot_size":"0","plot_no":"UV-B32","sector":"ECOTECH-II","block":"UDYOG VIHAR","phase":"Phase 1","scheme_cod":"NA","ppt_type":"COMM","ppt_full":"Commercial","remark":"UnMatched","authority":"GNIDA","category":"commercial","execution_stage":"nonsaleble"}},{"type":"Feature","geometry":{"type":"Polygon","coordinates":[[[77.427437,28.605045],[77.427449,28.605028],[77.428906,28.605386],[77.428502,28.606606],[77.426659,28.606149],[77.426815,28.605947],[77.427437,28.605045]]]},"properties":{"objectid":35912,"plotmapid":"SECTOR-04NULLC-1-ACOMM","property_t":"Builder","allotted_p":"Yes","plotsizesq":22223.6,"plot_size":"22223.60","plot_no":"C-1-A","sector":"SECTOR-04","block":"NULL","phase":"Phase 1","ppt_type":"COMM","ppt_full":"Commercial","authority":"GNIDA","category":"commercial","execution_stage":"allotted"}},{"type":"Feature","geometry":{"type":"Polygon","coordinates":[[[77.428563,28.615487],[77.428348,28.615864],[77.42789,28.615662],[77.428105,28.615285],[77.428563,28.615487]]]},"properties":{"objectid":35917,"plotmapid":"SECTOR-04NULLCC-1COMM","property_t":"Builder","allotted_p":"Yes","plotsizesq":2300,"plot_size":"2300","plot_no":"CC-1","sector":"SECTOR-04","block":"NULL","phase":"Phase 1","mplanduse":"V","ppt_type":"COMM","ppt_full":"Commercial","authority":"GNIDA","category":"commercial","execution_stage":"allotted"}},{"type":"Feature","geometry":{"type":"Polygon","coordinates":[[[77.428322,28.615271],[77.428272,28.615359],[77.428105,28.615285],[77.428155,28.615197],[77.428322,28.615271]]]},"properties":{"objectid":35919,"plotmapid":"SECTOR-04NULLMV-2COMM","property_t":"Builder","used":"Kiosk_Shop","allotted_p":"Yes","plotsizesq":200,"plot_size":"200","plot_no":"MV-2","sector":"SECTOR-04","block":"NULL","phase":"Phase 1","ppt_type":"COMM","ppt_full":"Commercial","authority":"GNIDA","category":"commercial","execution_stage":"allotted"}},{"type":"Feature","geometry":{"type":"Polygon","coordinates":[[[77.428155,28.615197],[77.428292,28.614957],[77.428437,28.615071],[77.428322,28.615271],[77.428155,28.615197]]]},"properties":{"objectid":35920,"plotmapid":"SECTOR-04NULLDISPENSARY-DCOMM","property_t":"Builder","allotted_p":"Yes","plotsizesq":500,"plot_size":"500","plot_no":"DISPENSARY-D","sector":"SECTOR-04","block":"NULL","phase":"Phase 1","ppt_type":"COMM","ppt_full":"Commercial","authority":"GNIDA","category":"commercial","execution_stage":"allotted"}},{"type":"Feature","geometry":{"type":"Polygon","coordinates":[[[77.422698,28.612263],[77.422571,28.612433],[77.422187,28.612213],[77.42258,28.61168],[77.422786,28.6118],[77.422518,28.612159],[77.422698,28.612263]]]},"properties":{"objectid":35922,"plotmapid":"SECTOR-04NULLCS-4COMM","property_t":"Builder","allotted_p":"Yes","plotsizesq":2000,"plot_size":"2000","plot_no":"CS-4","sector":"SECTOR-04","block":"NULL","phase":"Phase 1","ppt_type":"COMM","ppt_full":"Commercial","authority":"GNIDA","category":"commercial","execution_stage":"allotted"}},{"type":"Feature","geometry":{"type":"Polygon","coordinates":[[[77.426618,28.612899],[77.426865,28.613024],[77.426828,28.61308],[77.426574,28.612952],[77.426618,28.612899]]]},"properties":{"objectid":35929,"plotmapid":"SECTOR-04NULLMV-3COMM","property_t":"Builder","used":"Kiosk_Shop","allotted_p":"Yes","plotsizesq":200,"plot_size":"200","plot_no":"MV-3","sector":"SECTOR-04","block":"NULL","phase":"Phase 1","ppt_type":"COMM","ppt_full":"Commercial","authority":"GNIDA","category":"commercial","execution_stage":"allotted"}},{"type":"Feature","geometry":{"type":"Polygon","coordinates":[[[77.425536,28.608321],[77.425265,28.608682],[77.425036,28.608708],[77.424961,28.608674],[77.424914,28.608611],[77.424906,28.608537],[77.425201,28.60813],[77.425536,28.608321]]]},"properties":{"objectid":35939,"plotmapid":"SECTOR-04NULL1COMM","property_t":"Builder","allotted_p":"Yes","plotsizesq":2000,"plot_size":"2000","plot_no":"1","sector":"SECTOR-04","block":"NULL","phase":"Phase 1","ppt_type":"COMM","ppt_full":"Commercial","authority":"GNIDA","category":"commercial","execution_stage":"allotted"}},{"type":"Feature","geometry":{"type":"Polygon","coordinates":[[[77.426184,28.607455],[77.42583,28.607927],[77.42549,28.607731],[77.425718,28.607416],[77.426184,28.607455]]]},"properties":{"objectid":35940,"plotmapid":"SECTOR-04NULL3COMM","property_t":"Builder","allotted_p":"Yes","plotsizesq":2000,"plot_size":"2000","plot_no":"3","sector":"SECTOR-04","block":"NULL","phase":"Phase 1","ppt_type":"COMM","ppt_full":"Commercial","authority":"GNIDA","category":"commercial","execution_stage":"allotted"}},{"type":"Feature","geometry":{"type":"Polygon","coordinates":[[[77.425201,28.60813],[77.42549,28.607731],[77.42583,28.607927],[77.425536,28.608321],[77.425201,28.60813]]]},"properties":{"objectid":35941,"plotmapid":"SECTOR-04NULL2COMM","property_t":"Builder","allotted_p":"Yes","plotsizesq":2000,"plot_size":"2000","plot_no":"2","sector":"SECTOR-04","block":"NULL","phase":"Phase 1","ppt_type":"COMM","ppt_full":"Commercial","authority":"GNIDA","category":"commercial","execution_stage":"allotted"}},{"type":"Feature","geometry":{"type":"Polygon","coordinates":[[[77.427112,28.60643],[77.426937,28.606744],[77.426317,28.60659],[77.426549,28.60629],[77.427112,28.60643]]]},"properties":{"objectid":35945,"plotmapid":"SECTOR-04NULLIST-1-BCOMM","property_t":"Builder","allotted_p":"Yes","plotsizesq":2000,"plot_size":"2000","plot_no":"IST-1-B","sector":"SECTOR-04","block":"NULL","phase":"Phase 1","ppt_type":"COMM","ppt_full":"Commercial","authority":"GNIDA","category":"commercial","execution_stage":"allotted"}},{"type":"Feature","geometry":{"type":"Polygon","coordinates":[[[77.427545,28.606537],[77.426788,28.607555],[77.426213,28.607458],[77.425718,28.607416],[77.426317,28.60659],[77.426937,28.606744],[77.427112,28.60643],[77.427545,28.606537]]]},"properties":{"objectid":35946,"plotmapid":"SECTOR-04NULLIST-1-ACOMM","property_t":"Builder","allotted_p":"Yes","plotsizesq":11100.8,"plot_size":"11100.80","plot_no":"IST-1-A","sector":"SECTOR-04","block":"NULL","phase":"Phase 1","ppt_type":"COMM","ppt_full":"Commercial","authority":"GNIDA","category":"commercial","execution_stage":"allotted"}},{"type":"Feature","geometry":{"type":"Polygon","coordinates":[[[77.428502,28.606606],[77.428906,28.605386],[77.430533,28.605776],[77.430102,28.607002],[77.428502,28.606606]]]},"properties":{"objectid":35947,"plotmapid":"SECTOR-04NULLC-1-BCOMM","property_t":"Builder","allotted_p":"Yes","plotsizesq":24100,"plot_size":"24100","plot_no":"C-1-B","sector":"SECTOR-04","block":"NULL","phase":"Phase 1","ppt_type":"COMM","ppt_full":"Commercial","authority":"GNIDA","category":"commercial","execution_stage":"allotted"}},{"type":"Feature","geometry":{"type":"Polygon","coordinates":[[[77.442882,28.582693],[77.442833,28.582767],[77.442259,28.582436],[77.442401,28.58214],[77.443014,28.582493],[77.442882,28.582693]]]},"properties":{"objectid":43343,"plotmapid":"SECTOR-02NULLNH-1COMM","used":"FACILITY","plotsizesq":0,"plot_size":"2065","plot_no":"NH-1","sector":"SECTOR-02","block":"NULL","ppt_type":"COMM","ppt_full":"Commercial","authority":"GNIDA","category":"commercial","execution_stage":"unknown"}},{"type":"Feature","geometry":{"type":"Polygon","coordinates":[[[77.488305,28.547924],[77.486782,28.549723],[77.48649,28.549539],[77.485121,28.548744],[77.480485,28.546237],[77.482564,28.544244],[77.483512,28.544843],[77.487695,28.547323],[77.487555,28.547489],[77.488305,28.547924]]]},"properties":{"objectid":43975,"plotmapid":"KNOWLEDGE PARK-05NULLRESERVED FOR COMMERCIALCOMM","plotsizesq":0,"plot_size":"198100  SQMT","plot_no":"RESERVED FOR COMMERCIAL","sector":"KNOWLEDGE PARK-05","block":"NULL","phase":"Phase 1","mplanduse":"Commercial","ppt_type":"COMM","ppt_full":"Commercial","remark":"UnMateled","authority":"GNIDA","category":"commercial","execution_stage":"unknown"}},{"type":"Feature","geometry":{"type":"Polygon","coordinates":[[[77.465927,28.545362],[77.465333,28.545861],[77.465125,28.545663],[77.465698,28.545156],[77.465927,28.545362]]]},"properties":{"objectid":43995,"plotmapid":"KNOWLEDGE PARK-05NULLPP02COMM","allot_id":"PP0200003","property_t":"Commercial","plotsizesq":2000,"plot_size":"2000","plot_no":"PP02","sector":"KNOWLEDGE PARK-05","block":"NULL","phase":"Phase 1","ppt_type":"COMM","ppt_full":"Commercial","remark":"instl","authority":"GNIDA","category":"commercial","execution_stage":"unknown"}},{"type":"Feature","geometry":{"type":"Polygon","coordinates":[[[77.478622,28.557733],[77.477665,28.558861],[77.474918,28.557084],[77.476784,28.554879],[77.478547,28.556003],[77.478617,28.556081],[77.478662,28.556172],[77.478676,28.55632],[77.478561,28.556612],[77.478513,28.55679],[77.478487,28.557025],[77.478503,28.557318],[77.478551,28.55758],[77.478622,28.557733]]]},"properties":{"objectid":44009,"plotmapid":"KNOWLEDGE PARK-05NULLRESERVED FOR FACILITYCOMM","plotsizesq":0,"plot_size":"103480  SQMT","plot_no":"RESERVED FOR FACILITY","sector":"KNOWLEDGE PARK-05","block":"NULL","phase":"Phase 1","mplanduse":"Facility","ppt_type":"COMM","ppt_full":"Commercial","remark":"UnMateled","authority":"GNIDA","category":"commercial","execution_stage":"unknown"}},{"type":"Feature","geometry":{"type":"Polygon","coordinates":[[[77.45042,28.553446],[77.450023,28.553833],[77.449382,28.553077],[77.449917,28.553406],[77.450055,28.553408],[77.450185,28.553311],[77.45042,28.553446]]]},"properties":{"objectid":44088,"plotmapid":"KNOWLEDGE PARK-05NULLPP03COMM","allot_id":"PP0200008","property_t":"Commercial","plotsizesq":2500,"plot_size":"2500","plot_no":"PP03","sector":"KNOWLEDGE PARK-05","block":"NULL","phase":"Phase 1","mplanduse":"V","ppt_type":"COMM","ppt_full":"Commercial","remark":"instl","authority":"GNIDA","category":"commercial","execution_stage":"unknown"}},{"type":"Feature","geometry":{"type":"Polygon","coordinates":[[[77.464916,28.535941],[77.464117,28.536645],[77.463749,28.536332],[77.464548,28.535628],[77.464916,28.535941]]]},"properties":{"objectid":55274,"plotmapid":"ECOTECH-IIITOY CITYFacility Plot N o-149COMM","plotsizesq":0,"plot_size":"FACILITIES","plot_no":"Facility Plot N o-149","sector":"ECOTECH-III","block":"TOY CITY","ppt_type":"COMM","ppt_full":"Commercial","remark":"UnMatched","authority":"GNIDA","category":"commercial","execution_stage":"unknown"}},{"type":"Feature","geometry":{"type":"Polygon","coordinates":[[[77.453363,28.547835],[77.453039,28.548114],[77.45262,28.547733],[77.452679,28.547687],[77.452597,28.547549],[77.452815,28.547377],[77.453363,28.547835]]]},"properties":{"objectid":55999,"plotmapid":"ECOTECH-IIIUDYOG KENDRA EXTN.-I159COMM","plotsizesq":0,"plot_size":"3000","plot_no":"159","sector":"ECOTECH-III","block":"UDYOG KENDRA EXTN.-I","mplanduse":"Facility","ppt_type":"COMM","ppt_full":"Commercial","remark":"UnMatched","authority":"GNIDA","category":"commercial","execution_stage":"unknown"}},{"type":"Feature","geometry":{"type":"Polygon","coordinates":[[[77.460755,28.542392],[77.460335,28.542762],[77.460258,28.542692],[77.460369,28.542596],[77.460315,28.542543],[77.460624,28.542274],[77.460755,28.542392]]]},"properties":{"objectid":56148,"plotmapid":"ECOTECH-IIIUDYOG KENDRA EXTN.-IPLOT NO 30COMM","plotsizesq":0,"plot_no":"PLOT NO 30","sector":"ECOTECH-III","block":"UDYOG KENDRA EXTN.-I","mplanduse":"Facility","ppt_type":"COMM","ppt_full":"Commercial","remark":"UnMatched","authority":"GNIDA","category":"commercial","execution_stage":"unknown"}},{"type":"Feature","geometry":{"type":"Polygon","coordinates":[[[77.458047,28.543868],[77.457135,28.544515],[77.4569,28.544217],[77.457372,28.543883],[77.457123,28.543568],[77.457093,28.54359],[77.457065,28.543554],[77.457531,28.543216],[77.458047,28.543868]]]},"properties":{"objectid":56233,"plotmapid":"ECOTECH-IIIUDYOG KENDRA EXTN.-I348COMM","plotsizesq":0,"plot_size":"9230.36","plot_no":"348","sector":"ECOTECH-III","block":"UDYOG KENDRA EXTN.-I","mplanduse":"Facility","ppt_type":"COMM","ppt_full":"Commercial","remark":"UnMatched","authority":"GNIDA","category":"commercial","execution_stage":"unknown"}},{"type":"Feature","geometry":{"type":"Polygon","coordinates":[[[77.470045,28.529291],[77.469883,28.529891],[77.469505,28.530275],[77.4687,28.529485],[77.47026,28.528484],[77.470045,28.529291]]]},"properties":{"objectid":56485,"plotmapid":"ECOTECH-IIIUDYOG KENDRA EXTN.-II431ACOMM","plotsizesq":0,"plot_size":"13400","plot_no":"431A","sector":"ECOTECH-III","block":"UDYOG KENDRA EXTN.-II","mplanduse":"Facility","ppt_type":"COMM","ppt_full":"Commercial","remark":"UnMatched","authority":"GNIDA","category":"commercial","execution_stage":"unknown"}},{"type":"Feature","geometry":{"type":"Polygon","coordinates":[[[77.458247,28.545756],[77.457593,28.54633],[77.457093,28.545896],[77.457745,28.545322],[77.458247,28.545756]]]},"properties":{"objectid":56549,"plotmapid":"ECOTECH-IIIUDYOG KENDRA EXTN.-I327COMM","plotsizesq":0,"plot_size":"6200","plot_no":"327","sector":"ECOTECH-III","block":"UDYOG KENDRA EXTN.-I","mplanduse":"Facility","ppt_type":"COMM","ppt_full":"Commercial","remark":"UnMatched","authority":"GNIDA","category":"commercial","execution_stage":"unknown"}},{"type":"Feature","geometry":{"type":"Polygon","coordinates":[[[77.441576,28.607525],[77.441639,28.607758],[77.440827,28.607896],[77.440769,28.607667],[77.441576,28.607525]]]},"properties":{"objectid":64291,"plotmapid":"SECTOR-16BNULLPP-01COMM","allot_id":"NA","property_t":"COMMERCIAL","used":"COMMERCIAL","allotted_p":"Yes","plotsizesq":0,"plot_size":"2000","plot_no":"PP-01","sector":"SECTOR-16B","block":"NULL","phase":"Phase 1","scheme_cod":"NA","ppt_type":"COMM","ppt_full":"Commercial","authority":"GNIDA","category":"commercial","execution_stage":"allotted"}},{"type":"Feature","geometry":{"type":"Polygon","coordinates":[[[77.487695,28.547323],[77.48844,28.547764],[77.488305,28.547924],[77.487555,28.547489],[77.487695,28.547323]]]},"properties":{"objectid":64292,"plotmapid":"KNOWLEDGE PARK-05NULLPP01COMM","used":"26","plotsizesq":0,"plot_size":"2500  SQMT","plot_no":"PP01","sector":"KNOWLEDGE PARK-05","block":"NULL","phase":"Phase 1","mplanduse":"Commercial","ppt_type":"COMM","ppt_full":"Commercial","remark":"UnMateled","authority":"GNIDA","category":"commercial","execution_stage":"unknown"}},{"type":"Feature","geometry":{"type":"Polygon","coordinates":[[[77.47251,28.570132],[77.472767,28.57031],[77.472274,28.570891],[77.472004,28.570714],[77.47251,28.570132]]]},"properties":{"objectid":64293,"plotmapid":"SECTOR-10NULLPP01COMM","property_t":"Commercial","used":"26","plotsizesq":2000,"plot_size":"2000 SQMT","plot_no":"PP01","sector":"SECTOR-10","block":"NULL","phase":"Phase-1","ppt_type":"COMM","ppt_full":"Commercial","remarks":"NEW","remark":"NANA","authority":"GNIDA","category":"commercial","execution_stage":"unknown"}},{"type":"Feature","geometry":{"type":"Polygon","coordinates":[[[77.442932,28.607203],[77.444393,28.606689],[77.444721,28.607549],[77.443851,28.607855],[77.443255,28.608046],[77.442932,28.607203]]]},"properties":{"objectid":64294,"plotmapid":"SECTOR-16BNULLC-1BCOMM","allot_id":"NA","property_t":"COMMERCIAL","used":"COMMERCIAL","allotted_p":"Yes","plotsizesq":0,"plot_size":"0","plot_no":"C-1B","sector":"SECTOR-16B","block":"NULL","phase":"Phase 1","scheme_cod":"NA","mplanduse":"V","ppt_type":"COMM","ppt_full":"Commercial","authority":"GNIDA","category":"commercial","execution_stage":"allotted"}},{"type":"Feature","geometry":{"type":"Polygon","coordinates":[[[77.446899,28.606545],[77.445681,28.607181],[77.445147,28.60739],[77.44482,28.60653],[77.445224,28.60638],[77.446369,28.605783],[77.446899,28.606545]]]},"properties":{"objectid":64295,"plotmapid":"SECTOR-16BNULLC-02COMM","allot_id":"NA","property_t":"COMMERCIAL","used":"COMMERCIAL","allotted_p":"Yes","plotsizesq":100,"plot_size":"0","plot_no":"C-02","sector":"SECTOR-16B","block":"NULL","phase":"Phase 1","scheme_cod":"NA","ppt_type":"COMM","ppt_full":"Commercial","authority":"GNIDA","category":"commercial","execution_stage":"allotted"}},{"type":"Feature","geometry":{"type":"Polygon","coordinates":[[[77.447406,28.605159],[77.447946,28.604792],[77.448588,28.605498],[77.447997,28.6059],[77.447406,28.605159]]]},"properties":{"objectid":64296,"plotmapid":"SECTOR-16BNULLC-3ACOMM","allot_id":"NA","property_t":"COMMERCIAL","used":"COMMERCIAL","allotted_p":"Yes","plotsizesq":100,"plot_size":"0","plot_no":"C-3A","sector":"SECTOR-16B","block":"NULL","phase":"Phase 1","scheme_cod":"NA","ppt_type":"COMM","ppt_full":"Commercial","authority":"GNIDA","category":"commercial","execution_stage":"allotted"}},{"type":"Feature","geometry":{"type":"Polygon","coordinates":[[[77.449539,28.603521],[77.450011,28.603075],[77.450155,28.603046],[77.450253,28.60305],[77.451027,28.603443],[77.450226,28.604183],[77.449539,28.603521]]]},"properties":{"objectid":64297,"plotmapid":"SECTOR-16BNULLC-04ACOMM","allot_id":"NA","property_t":"COMMERCIAL","used":"COMMERCIAL","allotted_p":"Yes","plotsizesq":0,"plot_size":"0","plot_no":"C-04A","sector":"SECTOR-16B","block":"NULL","phase":"Phase 1","scheme_cod":"NA","ppt_type":"COMM","ppt_full":"Commercial","authority":"GNIDA","category":"commercial","execution_stage":"allotted"}},{"type":"Feature","geometry":{"type":"Polygon","coordinates":[[[77.431742,28.606075],[77.432752,28.606324],[77.432459,28.607189],[77.431467,28.606943],[77.431742,28.606075]]]},"properties":{"objectid":64298,"plotmapid":"SECTOR-04CC-1ACOMM","allot_id":"COMP-100004","property_t":"Commercial","allotted_p":"Yes","plotsizesq":10000,"plot_size":"10000","plot_no":"C-1A","sector":"SECTOR-04","block":"C","phase":"Phase 1","scheme_cod":"COMP-100004","ppt_type":"COMM","ppt_full":"Commercial","authority":"GNIDA","category":"commercial","execution_stage":"allotted"}},{"type":"Feature","geometry":{"type":"Polygon","coordinates":[[[77.431421,28.583911],[77.430648,28.584167],[77.429853,28.584367],[77.429616,28.58351],[77.430398,28.583312],[77.431022,28.583109],[77.431421,28.583911]]]},"properties":{"objectid":64299,"plotmapid":"TECHZONE-IVNULLGH-01COMM","plotsizesq":0,"plot_no":"GH-01","sector":"TECHZONE-IV","block":"NULL","phase":"Phase 1","ppt_type":"COMM","ppt_full":"Commercial","authority":"GNIDA","category":"commercial","execution_stage":"unknown"}},{"type":"Feature","geometry":{"type":"Polygon","coordinates":[[[77.432334,28.58344],[77.432221,28.583496],[77.431988,28.583681],[77.431421,28.583911],[77.431022,28.583109],[77.431888,28.582749],[77.432334,28.58344]]]},"properties":{"objectid":64300,"plotmapid":"TECHZONE-IVNULLGH-02COMM","plotsizesq":0,"plot_no":"GH-02","sector":"TECHZONE-IV","block":"NULL","phase":"Phase 1","ppt_type":"COMM","ppt_full":"Commercial","authority":"GNIDA","category":"commercial","execution_stage":"unknown"}},{"type":"Feature","geometry":{"type":"Polygon","coordinates":[[[77.434035,28.582388],[77.432999,28.583111],[77.432334,28.58344],[77.431888,28.582749],[77.432505,28.582408],[77.432865,28.582185],[77.433419,28.581796],[77.434035,28.582388]]]},"properties":{"objectid":64301,"plotmapid":"TECHZONE-IVNULLGH-03COMM","plotsizesq":0,"plot_no":"GH-03","sector":"TECHZONE-IV","block":"NULL","phase":"Phase 1","ppt_type":"COMM","ppt_full":"Commercial","authority":"GNIDA","category":"commercial","execution_stage":"unknown"}},{"type":"Feature","geometry":{"type":"Polygon","coordinates":[[[77.434785,28.581718],[77.434035,28.582388],[77.433419,28.581796],[77.433797,28.581495],[77.434115,28.581198],[77.434785,28.581718]]]},"properties":{"objectid":64302,"plotmapid":"TECHZONE-IVNULLGH-04COMM","plotsizesq":0,"plot_no":"GH-04","sector":"TECHZONE-IV","block":"NULL","phase":"Phase 1","ppt_type":"COMM","ppt_full":"Commercial","authority":"GNIDA","category":"commercial","execution_stage":"unknown"}},{"type":"Feature","geometry":{"type":"Polygon","coordinates":[[[77.429853,28.584367],[77.429266,28.584477],[77.428636,28.584561],[77.428539,28.583041],[77.429457,28.582937],[77.429853,28.584367]]]},"properties":{"objectid":64303,"plotmapid":"TECHZONE-IVNULLH-01COMM","plotsizesq":0,"plot_no":"H-01","sector":"TECHZONE-IV","block":"NULL","phase":"Phase 1","mplanduse":"V","ppt_type":"COMM","ppt_full":"Commercial","authority":"GNIDA","category":"commercial","execution_stage":"unknown"}},{"type":"Feature","geometry":{"type":"Polygon","coordinates":[[[77.428318,28.578133],[77.428629,28.579489],[77.427696,28.57965],[77.427411,28.5783],[77.428318,28.578133]]]},"properties":{"objectid":64304,"plotmapid":"TECHZONE-IVNULLGH-10COMM","plotsizesq":0,"plot_no":"GH-10","sector":"TECHZONE-IV","block":"NULL","phase":"Phase 1","mplanduse":"V","ppt_type":"COMM","ppt_full":"Commercial","authority":"GNIDA","category":"commercial","execution_stage":"unknown"}},{"type":"Feature","geometry":{"type":"Polygon","coordinates":[[[77.428318,28.578133],[77.427411,28.5783],[77.427035,28.576417],[77.427893,28.576281],[77.428318,28.578133]]]},"properties":{"objectid":64305,"plotmapid":"TECHZONE-IVNULLGH-09COMM","plotsizesq":0,"plot_no":"GH-09","sector":"TECHZONE-IV","block":"NULL","phase":"Phase 1","ppt_type":"COMM","ppt_full":"Commercial","authority":"GNIDA","category":"commercial","execution_stage":"unknown"}},{"type":"Feature","geometry":{"type":"Polygon","coordinates":[[[77.430508,28.576785],[77.430009,28.577464],[77.429061,28.57693],[77.429559,28.576249],[77.430508,28.576785]]]},"properties":{"objectid":64306,"plotmapid":"TECHZONE-IVNULLGH-08COMM","plotsizesq":0,"plot_no":"GH-08","sector":"TECHZONE-IV","block":"NULL","phase":"Phase 1","ppt_type":"COMM","ppt_full":"Commercial","authority":"GNIDA","category":"commercial","execution_stage":"unknown"}},{"type":"Feature","geometry":{"type":"Polygon","coordinates":[[[77.432393,28.577849],[77.431882,28.578521],[77.430009,28.577464],[77.430508,28.576785],[77.432393,28.577849]]]},"properties":{"objectid":64307,"plotmapid":"TECHZONE-IVNULLGH-07COMM","plotsizesq":0,"plot_no":"GH-07","sector":"TECHZONE-IV","block":"NULL","phase":"Phase 1","ppt_type":"COMM","ppt_full":"Commercial","authority":"GNIDA","category":"commercial","execution_stage":"unknown"}},{"type":"Feature","geometry":{"type":"Polygon","coordinates":[[[77.433828,28.578659],[77.434762,28.579186],[77.434265,28.579866],[77.433321,28.579333],[77.433828,28.578659]]]},"properties":{"objectid":64308,"plotmapid":"TECHZONE-IVNULLGH-05COMM","plotsizesq":0,"plot_no":"GH-05","sector":"TECHZONE-IV","block":"NULL","phase":"Phase 1","ppt_type":"COMM","ppt_full":"Commercial","authority":"GNIDA","category":"commercial","execution_stage":"unknown"}},{"type":"Feature","geometry":{"type":"Polygon","coordinates":[[[77.433828,28.578659],[77.433321,28.579333],[77.431882,28.578521],[77.432393,28.577849],[77.433828,28.578659]]]},"properties":{"objectid":64309,"plotmapid":"TECHZONE-IVNULLGH-06COMM","plotsizesq":0,"plot_no":"GH-06","sector":"TECHZONE-IV","block":"NULL","phase":"Phase 1","ppt_type":"COMM","ppt_full":"Commercial","authority":"GNIDA","category":"commercial","execution_stage":"unknown"}},{"type":"Feature","geometry":{"type":"Polygon","coordinates":[[[77.43588,28.579816],[77.435819,28.579862],[77.435821,28.579945],[77.43576,28.580034],[77.435806,28.580304],[77.435456,28.580755],[77.434922,28.58061],[77.434811,28.580842],[77.434735,28.580848],[77.434644,28.580889],[77.434446,28.580566],[77.434382,28.580292],[77.434386,28.57996],[77.43429,28.579923],[77.434265,28.579866],[77.434762,28.579186],[77.43588,28.579816]]]},"properties":{"objectid":64310,"plotmapid":"TECHZONE-IVNULLC-01COMM","plotsizesq":0,"plot_no":"C-01","sector":"TECHZONE-IV","block":"NULL","phase":"Phase 1","ppt_type":"COMM","ppt_full":"Commercial","authority":"GNIDA","category":"commercial","execution_stage":"unknown"}},{"type":"Feature","geometry":{"type":"Polygon","coordinates":[[[77.437702,28.531696],[77.43769,28.531674],[77.437701,28.531666],[77.437729,28.531673],[77.437729,28.531687],[77.437702,28.531696]]]},"properties":{"objectid":64438,"plotmapid":"INSTITUTIONAL-GREENNULL COMM","used":"Kiosk_Shop","plotsizesq":0,"sector":"INSTITUTIONAL-GREEN","block":"NULL","ppt_type":"COMM","ppt_full":"Commercial","authority":"GNIDA","category":"commercial","execution_stage":"unknown"}},{"type":"Feature","geometry":{"type":"Polygon","coordinates":[[[77.43773,28.531717],[77.43772,28.531739],[77.437692,28.531732],[77.437702,28.53171],[77.43773,28.531717]]]},"properties":{"objectid":64439,"plotmapid":"INSTITUTIONAL-GREENNULL COMM","used":"Kiosk_Shop","plotsizesq":0,"sector":"INSTITUTIONAL-GREEN","block":"NULL","ppt_type":"COMM","ppt_full":"Commercial","authority":"GNIDA","category":"commercial","execution_stage":"unknown"}},{"type":"Feature","geometry":{"type":"Polygon","coordinates":[[[77.437758,28.531708],[77.43773,28.531717],[77.437702,28.53171],[77.437702,28.531696],[77.437747,28.531687],[77.437758,28.531708]]]},"properties":{"objectid":64440,"plotmapid":"INSTITUTIONAL-GREENNULL COMM","used":"Kiosk_Shop","plotsizesq":0,"sector":"INSTITUTIONAL-GREEN","block":"NULL","ppt_type":"COMM","ppt_full":"Commercial","authority":"GNIDA","category":"commercial","execution_stage":"unknown"}},{"type":"Feature","geometry":{"type":"Polygon","coordinates":[[[77.461754,28.591349],[77.461189,28.592375],[77.460386,28.59186],[77.46094,28.590827],[77.461754,28.591349]]]},"properties":{"objectid":64516,"plotmapid":"TECHZONE-VIINULLC-2COMM","plotsizesq":0,"plot_no":"C-2","sector":"TECHZONE-VII","block":"NULL","phase":"Phase 1","mplanduse":"Commercial","ppt_type":"COMM","ppt_full":"Commercial","remark":"NEW","authority":"GNIDA","category":"commercial","execution_stage":"unknown"}},{"type":"Feature","geometry":{"type":"Polygon","coordinates":[[[77.46094,28.590827],[77.461525,28.589685],[77.462368,28.590133],[77.461754,28.591349],[77.46094,28.590827]]]},"properties":{"objectid":64517,"plotmapid":"TECHZONE-VIINULLC-3COMM","plotsizesq":0,"plot_no":"C-3","sector":"TECHZONE-VII","block":"NULL","phase":"Phase 1","mplanduse":"Commercial","ppt_type":"COMM","ppt_full":"Commercial","remark":"NEW","authority":"GNIDA","category":"commercial","execution_stage":"unknown"}},{"type":"Feature","geometry":{"type":"Polygon","coordinates":[[[77.463477,28.587955],[77.463039,28.588813],[77.462203,28.588368],[77.462646,28.587513],[77.463477,28.587955]]]},"properties":{"objectid":64518,"plotmapid":"TECHZONE-VIINULLC-5COMM","plotsizesq":0,"plot_no":"C-5","sector":"TECHZONE-VII","block":"NULL","phase":"Phase 1","mplanduse":"Commercial","ppt_type":"COMM","ppt_full":"Commercial","remark":"NEW","authority":"GNIDA","category":"commercial","execution_stage":"unknown"}},{"type":"Feature","geometry":{"type":"Polygon","coordinates":[[[77.462646,28.587513],[77.463251,28.586342],[77.463949,28.587028],[77.463477,28.587955],[77.462646,28.587513]]]},"properties":{"objectid":64519,"plotmapid":"TECHZONE-VIINULLC-6COMM","plotsizesq":0,"plot_no":"C-6","sector":"TECHZONE-VII","block":"NULL","phase":"Phase 1","mplanduse":"Commercial","ppt_type":"COMM","ppt_full":"Commercial","remark":"NEW","authority":"GNIDA","category":"commercial","execution_stage":"unknown"}},{"type":"Feature","geometry":{"type":"Polygon","coordinates":[[[77.468042,28.579002],[77.467534,28.57992],[77.466811,28.579412],[77.467311,28.578488],[77.468042,28.579002]]]},"properties":{"objectid":64520,"plotmapid":"TECHZONE-VIINULLC-9COMM","plotsizesq":0,"plot_no":"C-9","sector":"TECHZONE-VII","block":"NULL","phase":"Phase 1","mplanduse":"Commercial","ppt_type":"COMM","ppt_full":"Commercial","remark":"NEW","authority":"GNIDA","category":"commercial","execution_stage":"unknown"}},{"type":"Feature","geometry":{"type":"Polygon","coordinates":[[[77.468065,28.577525],[77.468619,28.577943],[77.468042,28.579002],[77.467311,28.578488],[77.467831,28.577528],[77.467965,28.577498],[77.468065,28.577525]]]},"properties":{"objectid":64521,"plotmapid":"TECHZONE-VIINULLC-10COMM","plotsizesq":0,"plot_no":"C-10","sector":"TECHZONE-VII","block":"NULL","phase":"Phase 1","mplanduse":"Commercial","ppt_type":"COMM","ppt_full":"Commercial","remark":"NEW","authority":"GNIDA","category":"commercial","execution_stage":"unknown"}},{"type":"Feature","geometry":{"type":"Polygon","coordinates":[[[77.464352,28.586241],[77.464049,28.586833],[77.463352,28.586148],[77.464678,28.583436],[77.465479,28.582077],[77.466156,28.58081],[77.466802,28.581239],[77.466351,28.582034],[77.465499,28.583387],[77.46532,28.583725],[77.465552,28.583784],[77.465577,28.583762],[77.464352,28.586241]],[[77.464592,28.584716],[77.464616,28.584746],[77.464649,28.584723],[77.464626,28.584693],[77.464592,28.584716]],[[77.464785,28.584572],[77.46481,28.584604],[77.464844,28.584581],[77.464819,28.58455],[77.464785,28.584572]]]},"properties":{"objectid":64522,"plotmapid":"TECHZONE-VIINULLC-7COMM","plotsizesq":0,"plot_no":"C-7","sector":"TECHZONE-VII","block":"NULL","phase":"Phase 1","mplanduse":"Commercial","ppt_type":"COMM","ppt_full":"Commercial","remark":"NEW","authority":"GNIDA","category":"commercial","execution_stage":"unknown"}},{"type":"Feature","geometry":{"type":"Polygon","coordinates":[[[77.461189,28.592375],[77.460702,28.593255],[77.460167,28.592912],[77.460092,28.592824],[77.460021,28.592671],[77.460005,28.592562],[77.460386,28.59186],[77.461189,28.592375]]]},"properties":{"objectid":64523,"plotmapid":"TECHZONE-VIINULLC-1COMM","plotsizesq":0,"plot_no":"C-1","sector":"TECHZONE-VII","block":"NULL","phase":"Phase 1","mplanduse":"Commercial","ppt_type":"COMM","ppt_full":"Commercial","remark":"NEW","authority":"GNIDA","category":"commercial","execution_stage":"unknown"}},{"type":"Feature","geometry":{"type":"Polygon","coordinates":[[[77.463039,28.588813],[77.462599,28.589675],[77.461758,28.589228],[77.462203,28.588368],[77.463039,28.588813]]]},"properties":{"objectid":64524,"plotmapid":"TECHZONE-VIINULLC-4COMM","plotsizesq":0,"plot_no":"C-4","sector":"TECHZONE-VII","block":"NULL","phase":"Phase 1","mplanduse":"Commercial","ppt_type":"COMM","ppt_full":"Commercial","remark":"NEW","authority":"GNIDA","category":"commercial","execution_stage":"unknown"}},{"type":"Feature","geometry":{"type":"Polygon","coordinates":[[[77.466638,28.579732],[77.466811,28.579412],[77.467534,28.57992],[77.467084,28.58073],[77.466598,28.580388],[77.466866,28.579892],[77.466638,28.579732]]]},"properties":{"objectid":64525,"plotmapid":"TECHZONE-VIINULLC-8COMM","plotsizesq":0,"plot_no":"C-8","sector":"TECHZONE-VII","block":"NULL","phase":"Phase 1","mplanduse":"Commercial","ppt_type":"COMM","ppt_full":"Commercial","remark":"NEW","authority":"GNIDA","category":"commercial","execution_stage":"unknown"}},{"type":"Feature","geometry":{"type":"Polygon","coordinates":[[[77.466638,28.579732],[77.466866,28.579892],[77.466598,28.580388],[77.46637,28.580227],[77.466638,28.579732]]]},"properties":{"objectid":64526,"plotmapid":"TECHZONE-VIINULLPP-2COMM","property_t":"Commercial","used":"PETROL PUMP","plotsizesq":2000,"plot_size":"2000","plot_no":"PP-2","sector":"TECHZONE-VII","block":"NULL","phase":"Phase 1","mplanduse":"Commercial","ppt_type":"COMM","ppt_full":"Commercial","remarks":"NEW","remark":"NEW","authority":"GNIDA","category":"commercial","execution_stage":"unknown"}},{"type":"Feature","geometry":{"type":"Polygon","coordinates":[[[77.437644,28.531655],[77.437634,28.531677],[77.437606,28.531669],[77.437616,28.531647],[77.437644,28.531655]]]},"properties":{"objectid":64854,"plotmapid":"INSTITUTIONAL-GREENNULL COMM","used":"Kiosk_Shop","plotsizesq":0,"sector":"INSTITUTIONAL-GREEN","block":"NULL","ppt_type":"COMM","ppt_full":"Commercial","authority":"GNIDA","category":"commercial","execution_stage":"unknown"}},{"type":"Feature","geometry":{"type":"Polygon","coordinates":[[[77.437616,28.531633],[77.437604,28.531612],[77.437615,28.531603],[77.437643,28.531611],[77.437643,28.531624],[77.437616,28.531633]]]},"properties":{"objectid":64855,"plotmapid":"INSTITUTIONAL-GREENNULL COMM","used":"Kiosk_Shop","plotsizesq":0,"sector":"INSTITUTIONAL-GREEN","block":"NULL","ppt_type":"COMM","ppt_full":"Commercial","authority":"GNIDA","category":"commercial","execution_stage":"unknown"}},{"type":"Feature","geometry":{"type":"Polygon","coordinates":[[[77.437672,28.531646],[77.437644,28.531655],[77.437616,28.531647],[77.437616,28.531633],[77.437661,28.531624],[77.437672,28.531646]]]},"properties":{"objectid":64856,"plotmapid":"INSTITUTIONAL-GREENNULL COMM","used":"Kiosk_Shop","plotsizesq":0,"sector":"INSTITUTIONAL-GREEN","block":"NULL","ppt_type":"COMM","ppt_full":"Commercial","authority":"GNIDA","category":"commercial","execution_stage":"unknown"}},{"type":"Feature","geometry":{"type":"Polygon","coordinates":[[[77.473418,28.500275],[77.473422,28.500298],[77.473393,28.500304],[77.473389,28.50028],[77.473418,28.500275]]]},"properties":{"objectid":65690,"plotmapid":"ECOTECH-IINULLK-1COMM","used":"Kiosk_Shop","plotsizesq":0,"plot_no":"K-1","sector":"ECOTECH-II","block":"NULL","ppt_type":"COMM","ppt_full":"Commercial","authority":"GNIDA","category":"commercial","execution_stage":"unknown"}},{"type":"Feature","geometry":{"type":"Polygon","coordinates":[[[77.473404,28.500272],[77.47337,28.5003],[77.473348,28.500286],[77.473367,28.500266],[77.473396,28.500261],[77.473404,28.500272]]]},"properties":{"objectid":65691,"plotmapid":"ECOTECH-IINULLK-2COMM","used":"Kiosk_Shop","plotsizesq":0,"plot_no":"K-2","sector":"ECOTECH-II","block":"NULL","ppt_type":"COMM","ppt_full":"Commercial","authority":"GNIDA","category":"commercial","execution_stage":"unknown"}},{"type":"Feature","geometry":{"type":"Polygon","coordinates":[[[77.473392,28.500237],[77.473396,28.500261],[77.473367,28.500266],[77.473363,28.500243],[77.473392,28.500237]]]},"properties":{"objectid":65692,"plotmapid":"ECOTECH-IINULLK-3COMM","used":"Kiosk_Shop","plotsizesq":0,"plot_no":"K-3","sector":"ECOTECH-II","block":"NULL","ppt_type":"COMM","ppt_full":"Commercial","authority":"GNIDA","category":"commercial","execution_stage":"unknown"}},{"type":"Feature","geometry":{"type":"Polygon","coordinates":[[[77.427302,28.615217],[77.427628,28.61456],[77.42809,28.61483],[77.427742,28.615439],[77.427302,28.615217]]]},"properties":{"objectid":65700,"plotmapid":"SECTOR-04NULLC2COMM","property_t":"Builder","allotted_p":"Yes","plotsizesq":3998,"plot_size":"3998","plot_no":"C2","sector":"SECTOR-04","block":"NULL","phase":"Phase 1","ppt_type":"COMM","ppt_full":"Commercial","authority":"GNIDA","category":"commercial","execution_stage":"allotted"}},{"type":"Feature","geometry":{"type":"Polygon","coordinates":[[[77.485258,28.555134],[77.485902,28.554386],[77.486474,28.555128],[77.48604,28.555644],[77.485258,28.555134]]]},"properties":{"objectid":70433,"plotmapid":"SECTOR-12NULLC19COMM","plotsizesq":0,"plot_no":"C19","sector":"SECTOR-12","block":"NULL","phase":"Phase-1","mplanduse":"Commercial","ppt_type":"COMM","ppt_full":"Commercial","authority":"GNIDA","category":"commercial","execution_stage":"unknown"}},{"type":"Feature","geometry":{"type":"Polygon","coordinates":[[[77.481478,28.559937],[77.482096,28.560341],[77.481331,28.56125],[77.480712,28.560847],[77.481478,28.559937]]]},"properties":{"objectid":70434,"plotmapid":"SECTOR-12NULLC13COMM","plotsizesq":0,"plot_no":"C13","sector":"SECTOR-12","block":"NULL","phase":"Phase-1","mplanduse":"Commercial","ppt_type":"COMM","ppt_full":"Commercial","authority":"GNIDA","category":"commercial","execution_stage":"unknown"}},{"type":"Feature","geometry":{"type":"Polygon","coordinates":[[[77.482708,28.559612],[77.482096,28.560341],[77.481249,28.559787],[77.481871,28.559065],[77.482708,28.559612]]]},"properties":{"objectid":70435,"plotmapid":"SECTOR-12NULLC14COMM","plotsizesq":0,"plot_no":"C14","sector":"SECTOR-12","block":"NULL","phase":"Phase-1","mplanduse":"Commercial","ppt_type":"COMM","ppt_full":"Commercial","authority":"GNIDA","category":"commercial","execution_stage":"unknown"}},{"type":"Feature","geometry":{"type":"Polygon","coordinates":[[[77.48604,28.555644],[77.485373,28.556439],[77.48458,28.555921],[77.485258,28.555134],[77.48604,28.555644]]]},"properties":{"objectid":70436,"plotmapid":"SECTOR-12NULLC18COMM","plotsizesq":0,"plot_no":"C18","sector":"SECTOR-12","block":"NULL","phase":"Phase-1","mplanduse":"Commercial","ppt_type":"COMM","ppt_full":"Commercial","authority":"GNIDA","category":"commercial","execution_stage":"unknown"}},{"type":"Feature","geometry":{"type":"Polygon","coordinates":[[[77.485373,28.556439],[77.484708,28.55723],[77.483904,28.556705],[77.48458,28.555921],[77.485373,28.556439]]]},"properties":{"objectid":70437,"plotmapid":"SECTOR-12NULLC17COMM","plotsizesq":0,"plot_no":"C17","sector":"SECTOR-12","block":"NULL","phase":"Phase-1","mplanduse":"Commercial","ppt_type":"COMM","ppt_full":"Commercial","authority":"GNIDA","category":"commercial","execution_stage":"unknown"}},{"type":"Feature","geometry":{"type":"Polygon","coordinates":[[[77.484708,28.55723],[77.484039,28.558027],[77.483224,28.557495],[77.483904,28.556705],[77.484708,28.55723]]]},"properties":{"objectid":70438,"plotmapid":"SECTOR-12NULLC16COMM","plotsizesq":0,"plot_no":"C16","sector":"SECTOR-12","block":"NULL","phase":"Phase-1","mplanduse":"Commercial","ppt_type":"COMM","ppt_full":"Commercial","authority":"GNIDA","category":"commercial","execution_stage":"unknown"}},{"type":"Feature","geometry":{"type":"Polygon","coordinates":[[[77.484039,28.558027],[77.483376,28.558816],[77.48255,28.558277],[77.483224,28.557495],[77.484039,28.558027]]]},"properties":{"objectid":70439,"plotmapid":"SECTOR-12NULLC12COMM","plotsizesq":0,"plot_no":"C12","sector":"SECTOR-12","block":"NULL","phase":"Phase-1","mplanduse":"Commercial","ppt_type":"COMM","ppt_full":"Commercial","authority":"GNIDA","category":"commercial","execution_stage":"unknown"}},{"type":"Feature","geometry":{"type":"Polygon","coordinates":[[[77.449186,28.532883],[77.448521,28.533068],[77.448237,28.532484],[77.449012,28.532273],[77.449186,28.532883]]]},"properties":{"objectid":70769,"plotmapid":"ECOTECH-IIIUDYOG KENDRAHFA4COMM","plotsizesq":0,"plot_size":"4500","plot_no":"HFA4","sector":"ECOTECH-III","block":"UDYOG KENDRA","mplanduse":"Facility","ppt_type":"COMM","ppt_full":"Commercial","remark":"UnMatched","authority":"GNIDA","category":"commercial","execution_stage":"unknown"}},{"type":"Feature","geometry":{"type":"Polygon","coordinates":[[[77.479043,28.572873],[77.478904,28.573045],[77.478827,28.572991],[77.47883,28.572962],[77.478951,28.572813],[77.479043,28.572873]]]},"properties":{"objectid":70919,"plotmapid":"SECTOR-10NULLKiosk BoothCOMM","plotsizesq":150,"plot_size":"150","plot_no":"Kiosk Booth","sector":"SECTOR-10","block":"NULL","phase":"Phase-1","mplanduse":"Facility","ppt_type":"COMM","ppt_full":"Commercial","authority":"GNIDA","category":"commercial","execution_stage":"unknown"}},{"type":"Feature","geometry":{"type":"Polygon","coordinates":[[[77.480168,28.573161],[77.480248,28.573206],[77.480116,28.573367],[77.480028,28.573311],[77.48014,28.573172],[77.480168,28.573161]]]},"properties":{"objectid":70920,"plotmapid":"SECTOR-10NULLKiosk BoothCOMM","plotsizesq":150,"plot_size":"150","plot_no":"Kiosk Booth","sector":"SECTOR-10","block":"NULL","phase":"Phase-1","mplanduse":"Facility","ppt_type":"COMM","ppt_full":"Commercial","authority":"GNIDA","category":"commercial","execution_stage":"unknown"}},{"type":"Feature","geometry":{"type":"Polygon","coordinates":[[[77.452471,28.5306],[77.453058,28.53041],[77.453247,28.530904],[77.454679,28.530425],[77.455274,28.531328],[77.454322,28.531834],[77.454084,28.531284],[77.452926,28.531663],[77.452471,28.5306]]]},"properties":{"objectid":70953,"plotmapid":"ECOTECH-IIIUDYOG KENDRAC-1COMM","plotsizesq":21539,"plot_size":"21539","plot_no":"C-1","sector":"ECOTECH-III","block":"UDYOG KENDRA","mplanduse":"Others","ppt_type":"COMM","ppt_full":"Commercial","remark":"UnMatched","authority":"GNIDA","category":"commercial","execution_stage":"unknown"}},{"type":"Feature","geometry":{"type":"Polygon","coordinates":[[[77.506888,28.528627],[77.507171,28.528836],[77.50783,28.529439],[77.507345,28.52951],[77.506747,28.529626],[77.506162,28.529772],[77.505591,28.529946],[77.505036,28.530149],[77.504499,28.530379],[77.503519,28.530879],[77.503049,28.530277],[77.503798,28.529896],[77.50363,28.529687],[77.504139,28.52945],[77.504998,28.529116],[77.505592,28.528929],[77.5062,28.528769],[77.506888,28.528627]]]},"properties":{"objectid":70955,"plotmapid":"SECTOR-20NULL100 M WIDE COMMERCIAL BELT-1COMM","property_t":"Commercial","used":"Commercial","plotsizesq":39987.73,"plot_size":"39987.73","plot_no":"100 M WIDE COMMERCIAL BELT-1","sector":"SECTOR-20","block":"NULL","phase":"Phase-1","mplanduse":"V","ppt_type":"COMM","ppt_full":"Commercial","remark":"NEW","authority":"GNIDA","category":"commercial","execution_stage":"unknown"}},{"type":"Feature","geometry":{"type":"Polygon","coordinates":[[[77.498284,28.535061],[77.498836,28.534119],[77.499121,28.533695],[77.499614,28.533029],[77.500339,28.532118],[77.500585,28.531859],[77.501194,28.531283],[77.501741,28.530808],[77.50234,28.530397],[77.50267,28.530193],[77.503302,28.531003],[77.502531,28.531517],[77.502022,28.53191],[77.501558,28.532308],[77.500984,28.532874],[77.500545,28.533393],[77.500186,28.533888],[77.499672,28.534674],[77.499212,28.535468],[77.498284,28.535061]]]},"properties":{"objectid":70956,"plotmapid":"SECTOR-20NULL100 M WIDE COMMERCIAL BELT-2COMM","property_t":"Commercial","used":"Commercial","plotsizesq":60278.9,"plot_size":"60278.90","plot_no":"100 M WIDE COMMERCIAL BELT-2","sector":"SECTOR-20","block":"NULL","phase":"Phase-1","mplanduse":"V","ppt_type":"COMM","ppt_full":"Commercial","remark":"NEW","authority":"GNIDA","category":"commercial","execution_stage":"unknown"}},{"type":"Feature","geometry":{"type":"Polygon","coordinates":[[[77.495965,28.540524],[77.496333,28.539344],[77.496598,28.538658],[77.497303,28.53709],[77.497645,28.536281],[77.498169,28.535259],[77.499104,28.535669],[77.498848,28.536163],[77.498521,28.536845],[77.497608,28.539014],[77.497419,28.539562],[77.496761,28.541791],[77.495698,28.54143],[77.495965,28.540524]]]},"properties":{"objectid":70957,"plotmapid":"SECTOR-20NULL100 M WIDE COMMERCIAL BELT-3COMM","property_t":"Commercial","used":"Commercial","plotsizesq":57568.76,"plot_size":"57568.76","plot_no":"100 M WIDE COMMERCIAL BELT-3","sector":"SECTOR-20","block":"NULL","phase":"Phase-1","mplanduse":"V","ppt_type":"COMM","ppt_full":"Commercial","remark":"NEW","authority":"GNIDA","category":"commercial","execution_stage":"unknown"}},{"type":"Feature","geometry":{"type":"Polygon","coordinates":[[[77.493963,28.545179],[77.4939,28.544948],[77.493827,28.544802],[77.49431,28.544216],[77.494765,28.543557],[77.49515,28.542864],[77.495377,28.542362],[77.495651,28.54245],[77.49591,28.541741],[77.496696,28.542008],[77.496511,28.542539],[77.496291,28.543059],[77.496038,28.543566],[77.495751,28.544059],[77.495432,28.544536],[77.495081,28.544996],[77.494221,28.545999],[77.494172,28.545925],[77.49417,28.545889],[77.494271,28.545754],[77.494,28.545323],[77.493963,28.545179]]]},"properties":{"objectid":70958,"plotmapid":"SECTOR-20NULL100 M WIDE COMMERCIAL BELT-4COMM","property_t":"Commercial","used":"Commercial","plotsizesq":71889.8,"plot_size":"71889.80","plot_no":"100 M WIDE COMMERCIAL BELT-4","sector":"SECTOR-20","block":"NULL","phase":"Phase-1","mplanduse":"V","ppt_type":"COMM","ppt_full":"Commercial","remark":"NEW","authority":"GNIDA","category":"commercial","execution_stage":"unknown"}},{"type":"Feature","geometry":{"type":"Polygon","coordinates":[[[77.515151,28.499016],[77.515155,28.499033],[77.515123,28.499051],[77.515077,28.499009],[77.51509,28.498993],[77.515151,28.499016]]]},"properties":{"objectid":71693,"plotmapid":"DELTA-03OKIOSK-2COMM","used":"Kiosk_Shop","plotsizesq":0,"plot_no":"KIOSK-2","sector":"DELTA-03","block":"O","ppt_type":"COMM","ppt_full":"Commercial","authority":"GNIDA","category":"commercial","execution_stage":"unknown"}},{"type":"Feature","geometry":{"type":"Polygon","coordinates":[[[77.515139,28.49897],[77.515131,28.499003],[77.51509,28.498993],[77.515098,28.498959],[77.515139,28.49897]]]},"properties":{"objectid":71694,"plotmapid":"DELTA-03OKIOSK-1COMM","used":"Kiosk_Shop","plotsizesq":0,"plot_no":"KIOSK-1","sector":"DELTA-03","block":"O","ppt_type":"COMM","ppt_full":"Commercial","authority":"GNIDA","category":"commercial","execution_stage":"unknown"}},{"type":"Feature","geometry":{"type":"Polygon","coordinates":[[[77.515098,28.499021],[77.51509,28.499055],[77.515049,28.499044],[77.515057,28.499011],[77.515098,28.499021]]]},"properties":{"objectid":71695,"plotmapid":"DELTA-03OKIOSK-3COMM","used":"Kiosk_Shop","plotsizesq":0,"plot_no":"KIOSK-3","sector":"DELTA-03","block":"O","ppt_type":"COMM","ppt_full":"Commercial","authority":"GNIDA","category":"commercial","execution_stage":"unknown"}},{"type":"Feature","geometry":{"type":"Polygon","coordinates":[[[77.459701,28.593757],[77.460005,28.593928],[77.45988,28.594125],[77.459567,28.593961],[77.459701,28.593757]]]},"properties":{"objectid":73429,"plotmapid":"ECOTECH-XIINULLC-8COMM","allot_id":"NA","allotted_p":"Yes","plotsizesq":21163,"plot_size":"21163 SQMT","plot_no":"C-8","sector":"ECOTECH-XII","block":"NULL","phase":"Phase 1","scheme_cod":"NA","mplanduse":"V","ppt_type":"COMM","ppt_full":"Commercial","authority":"GNIDA","category":"commercial","execution_stage":"allotted"}}]}
