{"type":"FeatureCollection","features":[{"type":"Feature","geometry":{"type":"Polygon","coordinates":[[[77.536093,28.506639],[77.53592,28.506835],[77.535456,28.506485],[77.535587,28.506258],[77.536093,28.506639]]]},"properties":{"objectid":13376,"plotmapid":"ZETA-02NULLF-4COMM","plotsizesq":0,"plot_size":"1664.00","plot_no":"F-4","sector":"ZETA-02","block":"NULL","phase":"Phase 1","mplanduse":"V","ppt_type":"COMM","ppt_full":"Commercial","authority":"GNIDA","category":"commercial","execution_stage":"unknown"}},{"type":"Feature","geometry":{"type":"Polygon","coordinates":[[[77.536771,28.509316],[77.5367,28.509701],[77.536634,28.509932],[77.536127,28.50955],[77.53651,28.50912],[77.536771,28.509316]]]},"properties":{"objectid":13487,"plotmapid":"ZETA-02NULLF-3COMM","plotsizesq":0,"plot_no":"F-3","sector":"ZETA-02","block":"NULL","phase":"Phase 1","mplanduse":"Facility","ppt_type":"COMM","ppt_full":"Commercial","authority":"GNIDA","category":"commercial","execution_stage":"unknown"}},{"type":"Feature","geometry":{"type":"Polygon","coordinates":[[[77.534545,28.510834],[77.533879,28.510817],[77.534161,28.5105],[77.534569,28.510807],[77.534545,28.510834]]]},"properties":{"objectid":13606,"plotmapid":"ZETA-02NULLF-2COMM","plotsizesq":0,"plot_size":"1233 SQM","plot_no":"F-2","sector":"ZETA-02","block":"NULL","phase":"Phase 1","mplanduse":"Facility","ppt_type":"COMM","ppt_full":"Commercial","authority":"GNIDA","category":"commercial","execution_stage":"unknown"}},{"type":"Feature","geometry":{"type":"Polygon","coordinates":[[[77.533603,28.51081],[77.53245,28.510781],[77.532844,28.510238],[77.533603,28.51081]]]},"properties":{"objectid":13611,"plotmapid":"ZETA-02NULLF-1COMM","plotsizesq":0,"plot_size":"2098.86 SQM","plot_no":"F-1","sector":"ZETA-02","block":"NULL","phase":"Phase 1","mplanduse":"Facility","ppt_type":"COMM","ppt_full":"Commercial","authority":"GNIDA","category":"commercial","execution_stage":"unknown"}},{"type":"Feature","geometry":{"type":"Polygon","coordinates":[[[77.531606,28.509903],[77.532687,28.508467],[77.534253,28.506199],[77.535016,28.504542],[77.535334,28.503544],[77.535571,28.502226],[77.536511,28.502851],[77.536259,28.504084],[77.536068,28.504681],[77.535742,28.505476],[77.53541,28.506199],[77.53484,28.507157],[77.534557,28.507575],[77.532101,28.510947],[77.531508,28.510933],[77.531053,28.510671],[77.531175,28.510502],[77.531499,28.510643],[77.531931,28.510034],[77.531606,28.509903]]]},"properties":{"objectid":13612,"plotmapid":"ZETA-02NULLC-1COMM","plotsizesq":0,"plot_no":"C-1","sector":"ZETA-02","block":"NULL","phase":"Phase 1","mplanduse":"Commercial","ppt_type":"COMM","ppt_full":"Commercial","authority":"GNIDA","category":"commercial","execution_stage":"unknown"}},{"type":"Feature","geometry":{"type":"Polygon","coordinates":[[[77.519186,28.501453],[77.519068,28.501592],[77.518735,28.50082],[77.519183,28.500253],[77.519862,28.500666],[77.519186,28.501453]]]},"properties":{"objectid":53869,"plotmapid":"ZETA-01NULLCS-2COMM","allot_id":"NA","allotted_p":"Yes","plotsizesq":0,"plot_size":"0","plot_no":"CS-2","sector":"ZETA-01","block":"NULL","phase":"Phase 1","mplanduse":"Facility","ppt_type":"COMM","ppt_full":"Commercial","authority":"GNIDA","category":"commercial","execution_stage":"allotted"}},{"type":"Feature","geometry":{"type":"Polygon","coordinates":[[[77.51933,28.501775],[77.519475,28.501877],[77.51942,28.501944],[77.519274,28.501842],[77.51933,28.501775]]]},"properties":{"objectid":53947,"plotmapid":"ZETA-01NULLMV-03COMM","allot_id":"NA","used":"Kiosk_Shop","allotted_p":"Yes","plotsizesq":200,"plot_size":"200","plot_no":"MV-03","sector":"ZETA-01","block":"NULL","phase":"Phase 1","mplanduse":"Facility","ppt_type":"COMM","ppt_full":"Commercial","remarks":"NEW","authority":"GNIDA","category":"commercial","execution_stage":"allotted"}},{"type":"Feature","geometry":{"type":"Polygon","coordinates":[[[77.529629,28.499279],[77.529756,28.499136],[77.529837,28.499194],[77.52971,28.499335],[77.529629,28.499279]]]},"properties":{"objectid":53950,"plotmapid":"ZETA-01NULLMV-01COMM","allot_id":"NA","used":"Kiosk_Shop","allotted_p":"Yes","plotsizesq":200,"plot_size":"200","plot_no":"MV-01","sector":"ZETA-01","block":"NULL","phase":"Phase 1","mplanduse":"Facility","ppt_type":"COMM","ppt_full":"Commercial","remarks":"NEW","authority":"GNIDA","category":"commercial","execution_stage":"allotted"}},{"type":"Feature","geometry":{"type":"Polygon","coordinates":[[[77.531606,28.509903],[77.531931,28.510034],[77.531499,28.510643],[77.531175,28.510502],[77.531606,28.509903]]]},"properties":{"objectid":64287,"plotmapid":"ZETA-02NULLPP01COMM","plotsizesq":0,"plot_no":"PP01","sector":"ZETA-02","block":"NULL","phase":"Phase 1","mplanduse":"Commercial","ppt_type":"COMM","ppt_full":"Commercial","authority":"GNIDA","category":"commercial","execution_stage":"unknown"}},{"type":"Feature","geometry":{"type":"Polygon","coordinates":[[[77.528895,28.499847],[77.529871,28.500531],[77.529467,28.500992],[77.528766,28.500492],[77.528479,28.500263],[77.528895,28.499847]]]},"properties":{"objectid":64508,"plotmapid":"ZETA-01NULLCS-1COMM","allot_id":"NA","allotted_p":"Yes","plotsizesq":0,"plot_size":"0","plot_no":"CS-1","sector":"ZETA-01","block":"NULL","phase":"Phase 1","mplanduse":"Facility","ppt_type":"COMM","ppt_full":"Commercial","authority":"GNIDA","category":"commercial","execution_stage":"allotted"}},{"type":"Feature","geometry":{"type":"Polygon","coordinates":[[[77.53665,28.502405],[77.535696,28.501855],[77.535859,28.500655],[77.535952,28.499457],[77.536096,28.498034],[77.53617,28.496702],[77.537183,28.49728],[77.537162,28.497819],[77.537003,28.49912],[77.536906,28.500511],[77.536676,28.502309],[77.53665,28.502405]]]},"properties":{"objectid":70931,"plotmapid":"ETA-02NULLM.P.COMMERCIAL-2COMM","allot_id":"NA","plotsizesq":64075.49,"plot_size":"64075.49","plot_no":"M.P.COMMERCIAL-2","sector":"ETA-02","block":"NULL","phase":"Phase 1","scheme_cod":"NA","mplanduse":"Commercial","ppt_type":"COMM","ppt_full":"Commercial","authority":"GNIDA","category":"commercial","execution_stage":"unknown"}}]}
