{"type":"FeatureCollection","features":[{"type":"Feature","geometry":{"type":"Polygon","coordinates":[[[77.567734,28.132161],[77.567646,28.132699],[77.567363,28.132444],[77.566684,28.131738],[77.56559,28.13059],[77.564925,28.129868],[77.567605,28.129667],[77.56817,28.129607],[77.567734,28.132161]]]},"properties":{"objectid":1544,"area_ha":5.44868481,"class":"Multiple Landuse Hospitality","total_percentage":0.014514770000000001,"authority":"YEIDA","category":"hospitality-masterplan","execution_stage":"planning"}},{"type":"Feature","geometry":{"type":"Polygon","coordinates":[[[77.548225,28.137556],[77.547716,28.137569],[77.547776,28.129238],[77.548435,28.129373],[77.552343,28.130291],[77.552586,28.130321],[77.557658,28.130258],[77.562621,28.13004],[77.563767,28.129955],[77.564115,28.130358],[77.564836,28.13114],[77.566631,28.133017],[77.567472,28.133771],[77.567193,28.135481],[77.566948,28.137125],[77.564942,28.137113],[77.548225,28.137556]]]},"properties":{"objectid":1544,"area_ha":147.10946518999998,"class":"Multiple Landuse Hospitality","total_percentage":0.39188528000000006,"authority":"YEIDA","category":"hospitality-masterplan","execution_stage":"planning"}},{"type":"Feature","geometry":{"type":"Polygon","coordinates":[[[77.562284,28.167072],[77.562031,28.168276],[77.561864,28.168987],[77.561618,28.169879],[77.561222,28.171201],[77.560485,28.171329],[77.560064,28.171432],[77.559654,28.171572],[77.559194,28.171783],[77.558887,28.171055],[77.558717,28.170714],[77.558356,28.170079],[77.557907,28.169409],[77.55745,28.168826],[77.557181,28.168518],[77.556636,28.167956],[77.556048,28.16743],[77.553553,28.165411],[77.55315,28.165136],[77.552537,28.16468],[77.55196,28.164189],[77.551686,28.163931],[77.551167,28.163391],[77.550689,28.162822],[77.550467,28.162527],[77.550056,28.161919],[77.549692,28.161287],[77.549376,28.160636],[77.548904,28.159464],[77.548611,28.158629],[77.54835,28.157786],[77.548066,28.156688],[77.54825,28.156705],[77.548434,28.156659],[77.548586,28.156557],[77.548845,28.156301],[77.549402,28.156315],[77.549441,28.156394],[77.549518,28.156484],[77.549675,28.156581],[77.549797,28.156613],[77.550014,28.156631],[77.550157,28.156745],[77.550336,28.156804],[77.550463,28.156809],[77.550676,28.156789],[77.550789,28.156766],[77.550903,28.156716],[77.551,28.156642],[77.551081,28.156533],[77.551416,28.156495],[77.551581,28.156411],[77.551667,28.156326],[77.552155,28.156292],[77.552282,28.156268],[77.552396,28.156218],[77.552493,28.156144],[77.552566,28.156051],[77.55261,28.155945],[77.552623,28.155831],[77.552603,28.155161],[77.552564,28.154998],[77.552458,28.154857],[77.552301,28.154761],[77.552132,28.154723],[77.552013,28.154602],[77.551853,28.154527],[77.551408,28.1544],[77.551218,28.154382],[77.551094,28.154405],[77.550979,28.154456],[77.550883,28.15453],[77.550815,28.154615],[77.55061,28.1546],[77.55058,28.154444],[77.550495,28.154293],[77.550406,28.154212],[77.550237,28.154134],[77.550111,28.154115],[77.549841,28.154119],[77.54972,28.154156],[77.549577,28.154251],[77.549487,28.154253],[77.549443,28.15299],[77.549404,28.152832],[77.549298,28.152691],[77.549198,28.152621],[77.549019,28.152562],[77.548849,28.152558],[77.548727,28.152464],[77.548548,28.152405],[77.5481,28.152398],[77.547931,28.152423],[77.547766,28.152508],[77.547681,28.152592],[77.547622,28.152692],[77.54759,28.152857],[77.54761,28.153653],[77.547644,28.153762],[77.547739,28.153891],[77.547699,28.154356],[77.547646,28.154385],[77.547549,28.153477],[77.54749,28.152605],[77.547466,28.15173],[77.547477,28.150856],[77.547521,28.149983],[77.5476,28.149111],[77.547713,28.148242],[77.54786,28.147378],[77.548166,28.145917],[77.548212,28.139371],[77.565564,28.1389],[77.566979,28.138898],[77.566722,28.14144],[77.565693,28.149615],[77.565579,28.149552],[77.565457,28.149519],[77.565241,28.149522],[77.565109,28.149381],[77.56494,28.149303],[77.56478,28.149283],[77.564702,28.149192],[77.564602,28.149122],[77.564423,28.149063],[77.564296,28.149058],[77.563809,28.149166],[77.563637,28.149256],[77.56343,28.149251],[77.563092,28.149306],[77.562971,28.149343],[77.562865,28.149406],[77.56278,28.14949],[77.562721,28.14959],[77.562691,28.1497],[77.56259,28.149715],[77.561867,28.149108],[77.561758,28.14905],[77.561572,28.149011],[77.561445,28.149021],[77.561325,28.149058],[77.561009,28.149243],[77.56089,28.149376],[77.560835,28.149537],[77.560851,28.149706],[77.560901,28.14981],[77.560965,28.149894],[77.560901,28.150031],[77.560888,28.150143],[77.560907,28.150255],[77.560956,28.150359],[77.561033,28.150449],[77.561122,28.150513],[77.561636,28.150805],[77.561778,28.150857],[77.56185,28.151034],[77.561805,28.151175],[77.561808,28.151288],[77.561874,28.151495],[77.561942,28.151618],[77.561857,28.151702],[77.561798,28.151802],[77.561769,28.151912],[77.561772,28.152025],[77.561835,28.152185],[77.561984,28.152389],[77.562073,28.15247],[77.562242,28.152548],[77.562432,28.152566],[77.562593,28.152529],[77.562817,28.153037],[77.562894,28.153127],[77.562994,28.153197],[77.563173,28.153256],[77.563485,28.153268],[77.563599,28.153464],[77.563688,28.153545],[77.563797,28.153603],[77.563983,28.153642],[77.564189,28.153612],[77.564314,28.153843],[77.564404,28.153924],[77.564513,28.153983],[77.564635,28.154015],[77.564762,28.15402],[77.564989,28.153966],[77.562284,28.167072]],[[77.556214,28.166061],[77.556264,28.166124],[77.556335,28.166312],[77.5565,28.166509],[77.556657,28.166605],[77.556843,28.166644],[77.557031,28.166619],[77.557211,28.166536],[77.557328,28.16654],[77.557453,28.166517],[77.557583,28.166457],[77.557716,28.166463],[77.557841,28.166439],[77.558029,28.16634],[77.558161,28.166377],[77.558288,28.166382],[77.558472,28.166336],[77.55858,28.166272],[77.558776,28.166247],[77.558941,28.166162],[77.559027,28.166078],[77.559086,28.165978],[77.559137,28.165725],[77.559121,28.165557],[77.559072,28.165452],[77.558947,28.165324],[77.558778,28.165246],[77.558479,28.165206],[77.558448,28.165118],[77.558478,28.165092],[77.558568,28.165093],[77.558693,28.16507],[77.558979,28.164957],[77.559076,28.164883],[77.559174,28.164741],[77.559695,28.164677],[77.55982,28.164805],[77.559929,28.164864],[77.560115,28.164902],[77.560303,28.164878],[77.560624,28.164732],[77.56072,28.164658],[77.560819,28.164513],[77.560851,28.164347],[77.560811,28.164181],[77.560709,28.164036],[77.56067,28.163862],[77.560606,28.163764],[77.560516,28.163683],[77.560347,28.163605],[77.560222,28.163586],[77.55992,28.163631],[77.559843,28.163541],[77.559686,28.163445],[77.559501,28.163406],[77.559328,28.163427],[77.558936,28.162981],[77.55885,28.162905],[77.558741,28.162846],[77.558545,28.162808],[77.558471,28.162771],[77.558348,28.162738],[77.558383,28.162652],[77.558396,28.162539],[77.558356,28.162374],[77.557711,28.16139],[77.557637,28.161305],[77.557481,28.161208],[77.557295,28.161169],[77.557168,28.161179],[77.556927,28.161245],[77.556862,28.161134],[77.556785,28.161044],[77.556685,28.160973],[77.556568,28.160927],[77.556436,28.160655],[77.556359,28.160565],[77.556202,28.160468],[77.55608,28.160435],[77.555953,28.160431],[77.555609,28.160517],[77.555502,28.16058],[77.555438,28.160641],[77.555318,28.16065],[77.555198,28.160687],[77.554924,28.160878],[77.554825,28.161022],[77.554794,28.161189],[77.554833,28.161354],[77.554969,28.161561],[77.554988,28.161623],[77.554608,28.161826],[77.554513,28.161836],[77.554392,28.161873],[77.55424,28.161976],[77.553818,28.162567],[77.553735,28.162786],[77.553469,28.162811],[77.553349,28.162848],[77.553242,28.16291],[77.552978,28.163144],[77.552758,28.163239],[77.552661,28.163313],[77.552588,28.163406],[77.552544,28.163512],[77.552504,28.163845],[77.552543,28.16401],[77.552607,28.164108],[77.552696,28.164189],[77.552865,28.164267],[77.55323,28.164305],[77.553321,28.164472],[77.553546,28.164646],[77.553663,28.164692],[77.553789,28.164711],[77.553978,28.164686],[77.554066,28.164731],[77.554188,28.164764],[77.554334,28.164959],[77.554434,28.165029],[77.554551,28.165075],[77.554677,28.165094],[77.554856,28.165071],[77.5548,28.165146],[77.554755,28.165252],[77.554742,28.165364],[77.55476,28.165476],[77.55481,28.16558],[77.555024,28.165861],[77.555166,28.165974],[77.555345,28.166033],[77.555536,28.166029],[77.555656,28.165992],[77.555934,28.165852],[77.556102,28.165887],[77.556214,28.166061]],[[77.555734,28.13949],[77.555558,28.139555],[77.555286,28.139726],[77.555201,28.13981],[77.555123,28.139965],[77.55511,28.140077],[77.555128,28.140189],[77.555197,28.140321],[77.555774,28.141074],[77.555768,28.141229],[77.555831,28.141389],[77.556429,28.142012],[77.556529,28.142082],[77.556646,28.142128],[77.556771,28.142147],[77.556898,28.142137],[77.557045,28.142087],[77.557224,28.142123],[77.557413,28.142098],[77.557529,28.142047],[77.557963,28.141788],[77.558055,28.141811],[77.558183,28.141816],[77.558367,28.14177],[77.558792,28.141503],[77.55891,28.141371],[77.558965,28.141209],[77.558949,28.14104],[77.5589,28.140936],[77.558762,28.140788],[77.558903,28.140713],[77.558988,28.140629],[77.559281,28.140215],[77.559337,28.140054],[77.559321,28.139885],[77.559271,28.139781],[77.559194,28.139691],[77.559094,28.139621],[77.558627,28.139398],[77.558502,28.139379],[77.558373,28.139389],[77.5582,28.139375],[77.558075,28.139399],[77.557775,28.139496],[77.557667,28.139544],[77.557591,28.1396],[77.557466,28.139529],[77.557281,28.139491],[77.557092,28.139515],[77.556948,28.139584],[77.556827,28.139566],[77.5567,28.139576],[77.556524,28.139641],[77.556329,28.139768],[77.556203,28.139615],[77.556103,28.139545],[77.555924,28.139486],[77.555734,28.13949]]]},"properties":{"objectid":1544,"area_ha":435.64894213,"class":"Multiple Landuse Hospitality","total_percentage":1.16052639,"authority":"YEIDA","category":"hospitality-masterplan","execution_stage":"planning"}},{"type":"Feature","geometry":{"type":"Polygon","coordinates":[[[77.56696,28.199916],[77.56696,28.200497],[77.566838,28.200676],[77.566763,28.200716],[77.566696,28.200785],[77.566044,28.201761],[77.565468,28.202706],[77.564892,28.203776],[77.54839,28.204084],[77.548326,28.204066],[77.548289,28.204016],[77.548304,28.203943],[77.551509,28.199811],[77.553547,28.197453],[77.554924,28.195571],[77.55595,28.193534],[77.556692,28.191977],[77.557252,28.190521],[77.557791,28.188903],[77.558435,28.186475],[77.558458,28.186436],[77.558516,28.186407],[77.565828,28.186268],[77.565878,28.186279],[77.565914,28.186308],[77.566123,28.187123],[77.566405,28.18851],[77.566624,28.189994],[77.566721,28.190972],[77.566802,28.192521],[77.566791,28.192668],[77.566801,28.193169],[77.566817,28.193244],[77.566953,28.198953],[77.56696,28.199916]],[[77.555765,28.198539],[77.555737,28.198692],[77.555777,28.198858],[77.5559,28.199065],[77.556047,28.199272],[77.556094,28.199369],[77.556491,28.199766],[77.556648,28.199862],[77.55677,28.199895],[77.556898,28.199899],[77.557082,28.199854],[77.557188,28.199791],[77.557912,28.199224],[77.557968,28.199208],[77.558323,28.199638],[77.558519,28.199771],[77.558636,28.199817],[77.558884,28.199851],[77.55899,28.199853],[77.559115,28.19983],[77.559336,28.199723],[77.559695,28.199588],[77.560074,28.199391],[77.560211,28.199273],[77.560288,28.199118],[77.560296,28.198949],[77.56024,28.198711],[77.560079,28.19822],[77.560233,28.198268],[77.560424,28.198264],[77.560583,28.198208],[77.560735,28.198106],[77.560936,28.197897],[77.561013,28.197749],[77.561634,28.197172],[77.561693,28.197072],[77.561722,28.196962],[77.561706,28.196794],[77.561657,28.196689],[77.561586,28.196605],[77.560883,28.195952],[77.560714,28.195874],[77.560588,28.195855],[77.5604,28.19588],[77.560248,28.195955],[77.560071,28.195837],[77.55989,28.195778],[77.559424,28.195362],[77.559269,28.195267],[77.559083,28.195228],[77.558956,28.195238],[77.558836,28.195275],[77.558713,28.195339],[77.558616,28.195413],[77.558444,28.195649],[77.558375,28.195616],[77.558241,28.195582],[77.557877,28.195209],[77.557777,28.195138],[77.55766,28.195093],[77.557534,28.195074],[77.557345,28.195098],[77.55718,28.195183],[77.556754,28.195536],[77.556681,28.195629],[77.55663,28.195772],[77.556535,28.19576],[77.556408,28.195769],[77.556288,28.195806],[77.556181,28.195869],[77.55593,28.196069],[77.5558,28.196207],[77.555727,28.1963],[77.555684,28.196402],[77.555507,28.196461],[77.555361,28.196636],[77.555209,28.196696],[77.554931,28.196907],[77.554832,28.197051],[77.554773,28.197317],[77.554776,28.19743],[77.554838,28.197589],[77.554946,28.197704],[77.554944,28.197909],[77.555007,28.198068],[77.555132,28.198196],[77.555301,28.198275],[77.555427,28.198293],[77.555685,28.198268],[77.555717,28.198288],[77.555765,28.198539]]]},"properties":{"objectid":1544,"area_ha":208.02604116,"class":"Multiple Landuse Hospitality","total_percentage":0.55416113,"authority":"YEIDA","category":"hospitality-masterplan","execution_stage":"planning"}},{"type":"Feature","geometry":{"type":"Polygon","coordinates":[[[77.566958,28.202133],[77.566952,28.20369],[77.566938,28.203735],[77.566901,28.203768],[77.566851,28.20378],[77.565961,28.203776],[77.566331,28.203094],[77.566958,28.202077],[77.566958,28.202133]]]},"properties":{"objectid":1544,"area_ha":0.9522277600000001,"class":"Multiple Landuse Hospitality","total_percentage":0.00253664,"authority":"YEIDA","category":"hospitality-masterplan","execution_stage":"planning"}}]}
