{"type":"FeatureCollection","features":[{"type":"Feature","geometry":{"type":"Polygon","coordinates":[[[77.390187,28.512493],[77.389758,28.511973],[77.388627,28.51269],[77.388256,28.512229],[77.390541,28.510815],[77.391155,28.510419],[77.392049,28.511314],[77.390187,28.512493]]]},"properties":{"objectid":753,"plotmapid":"93BGH003GHS","used":"NA","plotsizesq":39504,"plot_size":"39504 SQMT","plot_no":"003","sector":"93B","block":"GH","mplanduse":"B","ppt_type":"GHS","ppt_full":"Group Housing","authority":"NOIDA","category":"group-housing","execution_stage":"unknown"}},{"type":"Feature","geometry":{"type":"Polygon","coordinates":[[[77.392375,28.511641],[77.393019,28.512286],[77.391046,28.513535],[77.390187,28.512493],[77.392049,28.511314],[77.392375,28.511641]]]},"properties":{"objectid":800,"plotmapid":"93BGH002GHS","used":"NA","plotsizesq":31373.2,"plot_size":"31373.2 SQMT","plot_no":"002","sector":"93B","block":"GH","mplanduse":"B","ppt_type":"GHS","ppt_full":"Group Housing","authority":"NOIDA","category":"group-housing","execution_stage":"unknown"}},{"type":"Feature","geometry":{"type":"Polygon","coordinates":[[[77.393983,28.513252],[77.39074,28.515306],[77.390123,28.514542],[77.391275,28.513812],[77.391046,28.513535],[77.393019,28.512286],[77.393983,28.513252]]]},"properties":{"objectid":896,"plotmapid":"93BGH001GHS","used":"NA","plotsizesq":48146,"plot_size":"48146 SQMT","plot_no":"001","sector":"93B","block":"GH","mplanduse":"B","ppt_type":"GHS","ppt_full":"Group Housing","authority":"NOIDA","category":"group-housing","execution_stage":"unknown"}},{"type":"Feature","geometry":{"type":"Polygon","coordinates":[[[77.392653,28.526915],[77.392208,28.529378],[77.389825,28.529061],[77.388645,28.527637],[77.39023,28.526622],[77.392653,28.526915]]]},"properties":{"objectid":1542,"plotmapid":"82NA008GHS","used":"G.H. PLOT ALLOTTED TO A.W.H.O.","plotsizesq":0,"plot_size":"NA","plot_no":"008","sector":"82","block":"NA","mplanduse":"B","ppt_type":"GHS","ppt_full":"Group Housing","authority":"NOIDA","category":"group-housing","execution_stage":"unknown"}},{"type":"Feature","geometry":{"type":"Polygon","coordinates":[[[77.397788,28.517255],[77.398262,28.517822],[77.39769,28.518907],[77.397075,28.519299],[77.396214,28.518247],[77.39778,28.517246],[77.397788,28.517255]]]},"properties":{"objectid":2315,"plotmapid":"92A214AGHS","used":"PLOT FOR GROUP HOUSING","plotsizesq":0,"plot_no":"214A","sector":"92","block":"A","mplanduse":"B","ppt_type":"GHS","ppt_full":"Group Housing","authority":"NOIDA","category":"group-housing","execution_stage":"unknown"}},{"type":"Feature","geometry":{"type":"Polygon","coordinates":[[[77.437316,28.493386],[77.435298,28.494724],[77.432831,28.491847],[77.434846,28.490509],[77.437316,28.493386]]]},"properties":{"objectid":12709,"plotmapid":"144GH001GHS","used":"NA","plotsizesq":100000,"plot_size":"100000 SQMT","plot_no":"001","sector":"144","block":"GH","mplanduse":"V","ppt_type":"GHS","ppt_full":"Group Housing","authority":"NOIDA","category":"group-housing","execution_stage":"unknown"}},{"type":"Feature","geometry":{"type":"Polygon","coordinates":[[[77.441342,28.495304],[77.442745,28.49439],[77.443957,28.49582],[77.442556,28.496736],[77.441342,28.495304]]]},"properties":{"objectid":12713,"plotmapid":"144GH003AGHS","used":"NA","plotsizesq":30274.4,"plot_size":"30274.40 SQMT","plot_no":"003A","sector":"144","block":"GH","mplanduse":"V","ppt_type":"GHS","ppt_full":"Group Housing","authority":"NOIDA","category":"group-housing","execution_stage":"unknown"}},{"type":"Feature","geometry":{"type":"Polygon","coordinates":[[[77.455481,28.468893],[77.455692,28.468718],[77.456329,28.468287],[77.456771,28.468896],[77.456854,28.468908],[77.457242,28.46871],[77.457642,28.469186],[77.456539,28.469754],[77.456805,28.470174],[77.456339,28.470431],[77.457187,28.471693],[77.457138,28.471732],[77.454861,28.469314],[77.455481,28.468893]]]},"properties":{"objectid":12849,"plotmapid":"146GH002/AGHS","used":"NA","plotsizesq":3.32,"plot_size":"3.32 HECT","plot_no":"002/A","sector":"146","block":"GH","mplanduse":"V","ppt_type":"GHS","ppt_full":"Group Housing","authority":"NOIDA","category":"group-housing","execution_stage":"unknown"}},{"type":"Feature","geometry":{"type":"Polygon","coordinates":[[[77.459126,28.470988],[77.458895,28.470638],[77.457566,28.471334],[77.457556,28.471501],[77.457187,28.471693],[77.456339,28.470431],[77.456805,28.470174],[77.456539,28.469754],[77.457642,28.469186],[77.457242,28.46871],[77.456854,28.468908],[77.456771,28.468896],[77.456329,28.468287],[77.45712,28.467716],[77.45721,28.467692],[77.457784,28.467312],[77.457972,28.467173],[77.458026,28.467104],[77.458116,28.467035],[77.458526,28.466743],[77.459674,28.467963],[77.459403,28.470262],[77.459223,28.471135],[77.459126,28.470988]]]},"properties":{"objectid":12850,"plotmapid":"146GH002GHS","used":"ENCROACHMENT","plotsizesq":15.92,"plot_size":"15.92 HECT","plot_no":"002","sector":"146","block":"GH","mplanduse":"V","ppt_type":"GHS","ppt_full":"Group Housing","authority":"NOIDA","category":"group-housing","execution_stage":"unknown"}},{"type":"Feature","geometry":{"type":"Polygon","coordinates":[[[77.45769,28.472489],[77.456593,28.473551],[77.456258,28.473549],[77.456068,28.473536],[77.453272,28.473047],[77.45321,28.473029],[77.452978,28.472898],[77.452235,28.472441],[77.455575,28.470299],[77.45769,28.472489]]]},"properties":{"objectid":12851,"plotmapid":"146GH001GHS","used":"NA","plotsizesq":15.25,"plot_size":"9.42HECT","plot_no":"001","sector":"146","block":"GH","mplanduse":"V","ppt_type":"GHS","ppt_full":"Group Housing","authority":"NOIDA","category":"group-housing","execution_stage":"unknown"}},{"type":"Feature","geometry":{"type":"Polygon","coordinates":[[[77.459126,28.470988],[77.459223,28.471135],[77.459072,28.471871],[77.457702,28.47233],[77.457138,28.471732],[77.457556,28.471501],[77.457566,28.471334],[77.458895,28.470638],[77.459126,28.470988]]]},"properties":{"objectid":12852,"plotmapid":"146GH002/BGHS","used":"NA","plotsizesq":1.52,"plot_size":"1.52 HECT","plot_no":"002/B","sector":"146","block":"GH","mplanduse":"V","ppt_type":"GHS","ppt_full":"Group Housing","authority":"NOIDA","category":"group-housing","execution_stage":"unknown"}},{"type":"Feature","geometry":{"type":"Polygon","coordinates":[[[77.458551,28.466764],[77.458926,28.46644],[77.460037,28.46723],[77.459403,28.470262],[77.459674,28.467963],[77.458551,28.466764]]]},"properties":{"objectid":12854,"plotmapid":"146GH002/CGHS","used":"NA","plotsizesq":0.73,"plot_size":"0.73 HECT","plot_no":"002/C","sector":"146","block":"GH","mplanduse":"V","ppt_type":"GHS","ppt_full":"Group Housing","authority":"NOIDA","category":"group-housing","execution_stage":"unknown"}},{"type":"Feature","geometry":{"type":"Polygon","coordinates":[[[77.421465,28.498404],[77.421138,28.49801],[77.421426,28.497827],[77.4224,28.497145],[77.424022,28.498886],[77.421441,28.500592],[77.41981,28.498867],[77.421041,28.498049],[77.422075,28.499273],[77.422384,28.499068],[77.421692,28.498257],[77.421465,28.498404]]]},"properties":{"objectid":13196,"plotmapid":"143BGH001GHS","used":"NA","plotsizesq":72800,"plot_size":"72800 SQMT","plot_no":"001","sector":"143B","block":"GH","mplanduse":"B","ppt_type":"GHS","ppt_full":"Group Housing","authority":"NOIDA","category":"group-housing","execution_stage":"unknown"}},{"type":"Feature","geometry":{"type":"Polygon","coordinates":[[[77.425949,28.498646],[77.426959,28.499831],[77.42314,28.502349],[77.421737,28.500899],[77.425659,28.498304],[77.425949,28.498646]]]},"properties":{"objectid":13198,"plotmapid":"143GH001GHS","used":"NA","plotsizesq":100090,"plot_size":"100090 SQMT","plot_no":"001","sector":"143","block":"GH","mplanduse":"B","ppt_type":"GHS","ppt_full":"Group Housing","authority":"NOIDA","category":"group-housing","execution_stage":"unknown"}},{"type":"Feature","geometry":{"type":"Polygon","coordinates":[[[77.427027,28.49991],[77.428304,28.501392],[77.42459,28.503851],[77.42314,28.502349],[77.426959,28.499831],[77.427027,28.49991]]]},"properties":{"objectid":13200,"plotmapid":"143GH002GHS","used":"NA","plotsizesq":100090,"plot_size":"100090 SQMT","plot_no":"002","sector":"143","block":"GH","mplanduse":"B","ppt_type":"GHS","ppt_full":"Group Housing","authority":"NOIDA","category":"group-housing","execution_stage":"unknown"}},{"type":"Feature","geometry":{"type":"Polygon","coordinates":[[[77.42632,28.502707],[77.428304,28.501392],[77.429164,28.502407],[77.428056,28.504766],[77.42632,28.502707]]]},"properties":{"objectid":13205,"plotmapid":"143GH03AGHS","used":"NA","plotsizesq":66959.05471309999,"plot_size":"50166 SQMT","plot_no":"03A","sector":"143","block":"GH","mplanduse":"B","ppt_type":"GHS","ppt_full":"Group Housing","authority":"NOIDA","category":"group-housing","execution_stage":"unknown"}},{"type":"Feature","geometry":{"type":"Polygon","coordinates":[[[77.439619,28.498105],[77.439125,28.498188],[77.438346,28.497269],[77.439546,28.496488],[77.440755,28.497913],[77.440676,28.497955],[77.440661,28.497929],[77.439619,28.498105]]]},"properties":{"objectid":13206,"plotmapid":"144GH003DGHS","used":"NA","plotsizesq":23504.5,"plot_size":"23504.50 SQMT","plot_no":"003D","sector":"144","block":"GH","mplanduse":"B","ppt_type":"GHS","ppt_full":"Group Housing","authority":"NOIDA","category":"group-housing","execution_stage":"unknown"}},{"type":"Feature","geometry":{"type":"Polygon","coordinates":[[[77.43955,28.496492],[77.440445,28.495897],[77.441656,28.497325],[77.440755,28.497913],[77.43955,28.496492]]]},"properties":{"objectid":13207,"plotmapid":"144GH003CGHS","used":"NA","plotsizesq":21494.8,"plot_size":"21494.80 SQMT","plot_no":"003C","sector":"144","block":"GH","mplanduse":"B","ppt_type":"GHS","ppt_full":"Group Housing","authority":"NOIDA","category":"group-housing","execution_stage":"unknown"}},{"type":"Feature","geometry":{"type":"Polygon","coordinates":[[[77.440445,28.495897],[77.441342,28.495304],[77.442556,28.496736],[77.441656,28.497325],[77.440445,28.495897]]]},"properties":{"objectid":13208,"plotmapid":"144GH003BGHS","used":"NA","plotsizesq":21494.8,"plot_size":"21494.80 SQMT","plot_no":"003B","sector":"144","block":"GH","mplanduse":"B","ppt_type":"GHS","ppt_full":"Group Housing","authority":"NOIDA","category":"group-housing","execution_stage":"unknown"}},{"type":"Feature","geometry":{"type":"Polygon","coordinates":[[[77.408528,28.509082],[77.408067,28.50927],[77.407516,28.508358],[77.406998,28.508039],[77.408271,28.506154],[77.408864,28.50647],[77.409639,28.507207],[77.410269,28.508238],[77.409871,28.508408],[77.408528,28.509082]]]},"properties":{"objectid":13210,"plotmapid":"137GH007GHS","used":"NA","plotsizesq":6,"plot_size":"6 HAC","plot_no":"007","sector":"137","block":"GH","mplanduse":"B","ppt_type":"GHS","ppt_full":"Group Housing","authority":"NOIDA","category":"group-housing","execution_stage":"unknown"}},{"type":"Feature","geometry":{"type":"Polygon","coordinates":[[[77.410571,28.504996],[77.411319,28.504378],[77.412419,28.505437],[77.413115,28.506604],[77.41345,28.507106],[77.413747,28.507601],[77.410972,28.508916],[77.409851,28.507081],[77.409007,28.506292],[77.410571,28.504996]]]},"properties":{"objectid":13211,"plotmapid":"137GH001GHS","used":"NA","plotsizesq":12,"plot_size":"12 HCC","plot_no":"001","sector":"137","block":"GH","mplanduse":"B","ppt_type":"GHS","ppt_full":"Group Housing","authority":"NOIDA","category":"group-housing","execution_stage":"unknown"}},{"type":"Feature","geometry":{"type":"Polygon","coordinates":[[[77.407276,28.508548],[77.408407,28.510401],[77.406566,28.511281],[77.406316,28.511315],[77.40558,28.510136],[77.406807,28.508302],[77.407276,28.508548]]]},"properties":{"objectid":13214,"plotmapid":"137GH006GHS","used":"NA","plotsizesq":5.1,"plot_size":"5.1","plot_no":"006","sector":"137","block":"GH","mplanduse":"B","ppt_type":"GHS","ppt_full":"Group Housing","authority":"NOIDA","category":"group-housing","execution_stage":"unknown"}},{"type":"Feature","geometry":{"type":"Polygon","coordinates":[[[77.410972,28.508916],[77.413747,28.507601],[77.415297,28.510186],[77.412544,28.511485],[77.410972,28.508916]]]},"properties":{"objectid":13217,"plotmapid":"137GH002GHS","used":"NA","plotsizesq":10,"plot_size":"10","plot_no":"002","sector":"137","block":"GH","mplanduse":"B","ppt_type":"GHS","ppt_full":"Group Housing","authority":"NOIDA","category":"group-housing","execution_stage":"unknown"}},{"type":"Feature","geometry":{"type":"Polygon","coordinates":[[[77.409356,28.509959],[77.410887,28.509215],[77.412341,28.511596],[77.410791,28.512324],[77.409356,28.509959]]]},"properties":{"objectid":13218,"plotmapid":"137GH003GHS","used":"NA","plotsizesq":5.1,"plot_size":"5.1","plot_no":"003","sector":"137","block":"GH","mplanduse":"B","ppt_type":"GHS","ppt_full":"Group Housing","authority":"NOIDA","category":"group-housing","execution_stage":"unknown"}},{"type":"Feature","geometry":{"type":"Polygon","coordinates":[[[77.409386,28.511197],[77.41023,28.512591],[77.408702,28.513322],[77.407253,28.510951],[77.408792,28.510223],[77.409386,28.511197]]]},"properties":{"objectid":13219,"plotmapid":"137GH004GHS","used":"NA","plotsizesq":5.1,"plot_size":"5.1","plot_no":"004","sector":"137","block":"GH","mplanduse":"B","ppt_type":"GHS","ppt_full":"Group Housing","authority":"NOIDA","category":"group-housing","execution_stage":"unknown"}},{"type":"Feature","geometry":{"type":"Polygon","coordinates":[[[77.408702,28.513322],[77.406839,28.514209],[77.406437,28.513836],[77.405889,28.513296],[77.405722,28.513083],[77.406121,28.51287],[77.405943,28.512656],[77.406166,28.512152],[77.407573,28.511477],[77.408702,28.513322]]]},"properties":{"objectid":13220,"plotmapid":"137GH005GHS","used":"NA","plotsizesq":5,"plot_size":"5","plot_no":"005","sector":"137","block":"GH","mplanduse":"B","ppt_type":"GHS","ppt_full":"Group Housing","authority":"NOIDA","category":"group-housing","execution_stage":"unknown"}},{"type":"Feature","geometry":{"type":"Polygon","coordinates":[[[77.401115,28.497444],[77.401112,28.497496],[77.400417,28.497469],[77.400451,28.496851],[77.400402,28.496788],[77.398238,28.496703],[77.398306,28.495223],[77.398337,28.495012],[77.398832,28.495033],[77.398808,28.495239],[77.401219,28.495326],[77.401115,28.497444]]]},"properties":{"objectid":13494,"plotmapid":"135NAGHS","used":"G.H PLOT","plotsizesq":51900,"plot_size":"51900 SQMT","sector":"135","block":"NA","mplanduse":"B","ppt_type":"GHS","ppt_full":"Group Housing","authority":"NOIDA","category":"group-housing","execution_stage":"unknown"}},{"type":"Feature","geometry":{"type":"Polygon","coordinates":[[[77.410161,28.493772],[77.409123,28.494181],[77.408386,28.49271],[77.409427,28.492309],[77.410161,28.493772]]]},"properties":{"objectid":13757,"plotmapid":"168GH001/BGHS","used":"PLOTS","plotsizesq":19998.78,"plot_size":"19998.78 SQMT","plot_no":"001/B","sector":"168","block":"GH","mplanduse":"B","ppt_type":"GHS","ppt_full":"Group Housing","authority":"NOIDA","category":"group-housing","execution_stage":"unknown"}},{"type":"Feature","geometry":{"type":"Polygon","coordinates":[[[77.411886,28.497206],[77.410318,28.497816],[77.408599,28.494388],[77.410161,28.493772],[77.411886,28.497206]]]},"properties":{"objectid":13758,"plotmapid":"168GH001/AGHS","used":"PLOTS","plotsizesq":69998.73,"plot_size":"69998.73 SQMT","plot_no":"001/A","sector":"168","block":"GH","mplanduse":"B","ppt_type":"GHS","ppt_full":"Group Housing","authority":"NOIDA","category":"group-housing","execution_stage":"unknown"}},{"type":"Feature","geometry":{"type":"Polygon","coordinates":[[[77.409123,28.494181],[77.407022,28.494992],[77.406281,28.493518],[77.408386,28.49271],[77.409123,28.494181]]]},"properties":{"objectid":13759,"plotmapid":"168GH001/CGHS","used":"PLOTS","plotsizesq":48221.26,"plot_size":"48221.26 SQMT","plot_no":"001/C","sector":"168","block":"GH","mplanduse":"B","ppt_type":"GHS","ppt_full":"Group Housing","authority":"NOIDA","category":"group-housing","execution_stage":"unknown"}},{"type":"Feature","geometry":{"type":"Polygon","coordinates":[[[77.409329,28.495855],[77.407747,28.496461],[77.407022,28.494992],[77.408599,28.494388],[77.409329,28.495855]]]},"properties":{"objectid":13760,"plotmapid":"168GH001/DGHS","used":"PLOTS","plotsizesq":29998.97,"plot_size":"29998.97 SQMT","plot_no":"001/D","sector":"168","block":"GH","mplanduse":"B","ppt_type":"GHS","ppt_full":"Group Housing","authority":"NOIDA","category":"group-housing","execution_stage":"unknown"}},{"type":"Feature","geometry":{"type":"Polygon","coordinates":[[[77.410318,28.497816],[77.408751,28.498438],[77.407747,28.496461],[77.409329,28.495855],[77.410318,28.497816]]]},"properties":{"objectid":13761,"plotmapid":"168GH001/EGHS","used":"PLOTS","plotsizesq":39999.76,"plot_size":"39999.76 SQMT","plot_no":"001/E","sector":"168","block":"GH","mplanduse":"B","ppt_type":"GHS","ppt_full":"Group Housing","authority":"NOIDA","category":"group-housing","execution_stage":"unknown"}},{"type":"Feature","geometry":{"type":"Polygon","coordinates":[[[77.466587,28.459198],[77.469228,28.461233],[77.464311,28.463863],[77.462732,28.462647],[77.464465,28.461172],[77.466587,28.459198]]]},"properties":{"objectid":13863,"plotmapid":"147GH001GHS","used":"NA","plotsizesq":14.5,"plot_size":"14.50 HECT","plot_no":"001","sector":"147","block":"GH","mplanduse":"V","ppt_type":"GHS","ppt_full":"Group Housing","authority":"NOIDA","category":"group-housing","execution_stage":"unknown"}},{"type":"Feature","geometry":{"type":"Polygon","coordinates":[[[77.470334,28.459069],[77.471312,28.460122],[77.469394,28.461145],[77.466713,28.459079],[77.46748,28.458365],[77.469255,28.456886],[77.470142,28.456101],[77.472084,28.457624],[77.470334,28.459069]]]},"properties":{"objectid":13864,"plotmapid":"147GH002GHS","used":"NA","plotsizesq":14.5,"plot_size":"14.50 HECT","plot_no":"002","sector":"147","block":"GH","mplanduse":"V","ppt_type":"GHS","ppt_full":"Group Housing","authority":"NOIDA","category":"group-housing","execution_stage":"unknown"}},{"type":"Feature","geometry":{"type":"Polygon","coordinates":[[[77.438305,28.493043],[77.440439,28.491648],[77.441515,28.492917],[77.439396,28.494329],[77.438305,28.493043]]]},"properties":{"objectid":13954,"plotmapid":"144GH002GHS","used":"NA","plotsizesq":100400,"plot_size":"100400 SQMT","plot_no":"002","sector":"144","block":"GH","mplanduse":"V","ppt_type":"GHS","ppt_full":"Group Housing","authority":"NOIDA","category":"group-housing","execution_stage":"unknown"}},{"type":"Feature","geometry":{"type":"Polygon","coordinates":[[[77.462528,28.44422],[77.461158,28.445344],[77.460417,28.444647],[77.46182,28.443549],[77.462528,28.44422]]]},"properties":{"objectid":17697,"plotmapid":"151NAGH-06GHS","property_t":"Group Housing","plotsizesq":18960,"plot_size":"18960","plot_no":"GH-06","sector":"151","block":"NA","mplanduse":"V","ppt_type":"GHS","ppt_full":"Group Housing","authority":"NOIDA","category":"group-housing","execution_stage":"unknown"}},{"type":"Feature","geometry":{"type":"Polygon","coordinates":[[[77.463125,28.444787],[77.463251,28.444905],[77.461883,28.446027],[77.461158,28.445344],[77.462528,28.44422],[77.463125,28.444787]]]},"properties":{"objectid":17742,"plotmapid":"151NAGH-05GHS","property_t":"Group Housing","plotsizesq":18960,"plot_size":"18960","plot_no":"GH-05","sector":"151","block":"NA","mplanduse":"V","ppt_type":"GHS","ppt_full":"Group Housing","authority":"NOIDA","category":"group-housing","execution_stage":"unknown"}},{"type":"Feature","geometry":{"type":"Polygon","coordinates":[[[77.463251,28.444905],[77.464019,28.445632],[77.462653,28.446753],[77.461883,28.446027],[77.463251,28.444905]]]},"properties":{"objectid":17797,"plotmapid":"151NAGH-04GHS","property_t":"Group Housing","plotsizesq":20050,"plot_size":"20050","plot_no":"GH-04","sector":"151","block":"NA","mplanduse":"V","ppt_type":"GHS","ppt_full":"Group Housing","authority":"NOIDA","category":"group-housing","execution_stage":"unknown"}},{"type":"Feature","geometry":{"type":"Polygon","coordinates":[[[77.46405,28.445661],[77.464788,28.446345],[77.463415,28.447471],[77.462653,28.446753],[77.464019,28.445632],[77.46405,28.445661]]]},"properties":{"objectid":17860,"plotmapid":"151NAGH-03GHS","property_t":"Group Housing","plotsizesq":20050,"plot_size":"20050","plot_no":"GH-03","sector":"151","block":"NA","mplanduse":"V","ppt_type":"GHS","ppt_full":"Group Housing","authority":"NOIDA","category":"group-housing","execution_stage":"unknown"}},{"type":"Feature","geometry":{"type":"Polygon","coordinates":[[[77.464788,28.446345],[77.465558,28.447057],[77.464178,28.44819],[77.463415,28.447471],[77.464788,28.446345]]]},"properties":{"objectid":17908,"plotmapid":"151NAGH-02GHS","property_t":"Group Housing","plotsizesq":20050,"plot_size":"20050","plot_no":"GH-02","sector":"151","block":"NA","mplanduse":"V","ppt_type":"GHS","ppt_full":"Group Housing","authority":"NOIDA","category":"group-housing","execution_stage":"unknown"}},{"type":"Feature","geometry":{"type":"Polygon","coordinates":[[[77.465558,28.447057],[77.466342,28.447782],[77.464921,28.448889],[77.464178,28.44819],[77.465558,28.447057]]]},"properties":{"objectid":17933,"plotmapid":"151NAGH-01GHS","property_t":"Group Housing","plotsizesq":20050,"plot_size":"20050","plot_no":"GH-01","sector":"151","block":"NA","mplanduse":"V","ppt_type":"GHS","ppt_full":"Group Housing","authority":"NOIDA","category":"group-housing","execution_stage":"unknown"}},{"type":"Feature","geometry":{"type":"Polygon","coordinates":[[[77.467271,28.447043],[77.466342,28.447782],[77.46405,28.445661],[77.46182,28.443549],[77.462272,28.443199],[77.46793,28.440822],[77.471195,28.443917],[77.467271,28.447043]]]},"properties":{"objectid":17934,"plotmapid":"151 GHS","property_t":"Group Housing","used":"JAYPEE AMAN","plotsizesq":162,"sector":"151","mplanduse":"B","ppt_type":"GHS","ppt_full":"Group Housing","authority":"NOIDA","category":"group-housing","execution_stage":"unknown"}},{"type":"Feature","geometry":{"type":"Polygon","coordinates":[[[77.453845,28.471408],[77.452235,28.472441],[77.451091,28.471737],[77.45306,28.470462],[77.453845,28.471408]]]},"properties":{"objectid":21149,"plotmapid":"146GH001AGHS","used":"NA","plotsizesq":15.25,"plot_size":"2.50HECT","plot_no":"001A","sector":"146","block":"GH","mplanduse":"V","ppt_type":"GHS","ppt_full":"Group Housing","authority":"NOIDA","category":"group-housing","execution_stage":"unknown"}},{"type":"Feature","geometry":{"type":"Polygon","coordinates":[[[77.45306,28.470462],[77.454452,28.469532],[77.454696,28.4694],[77.455575,28.470299],[77.453845,28.471408],[77.45306,28.470462]]]},"properties":{"objectid":21150,"plotmapid":"146GH001BGHS","used":"NA","plotsizesq":15.25,"plot_size":"2.50HECT","plot_no":"001B","sector":"146","block":"GH","mplanduse":"V","ppt_type":"GHS","ppt_full":"Group Housing","authority":"NOIDA","category":"group-housing","execution_stage":"unknown"}},{"type":"Feature","geometry":{"type":"Polygon","coordinates":[[[77.427814,28.504472],[77.426197,28.505526],[77.42459,28.503851],[77.42632,28.502707],[77.427814,28.504472]]]},"properties":{"objectid":67426,"plotmapid":"143GH03BGHS","used":"NA","plotsizesq":64529.7849746,"plot_size":"50000 SQMT","plot_no":"03B","sector":"143","block":"GH","mplanduse":"B","ppt_type":"GHS","ppt_full":"Group Housing","authority":"NOIDA","category":"group-housing","execution_stage":"unknown"}}]}
