{"type":"FeatureCollection","features":[{"type":"Feature","geometry":{"type":"Polygon","coordinates":[[[77.384109,28.53209],[77.382854,28.532918],[77.38261,28.53261],[77.382386,28.532756],[77.382277,28.532668],[77.382129,28.532706],[77.378233,28.532778],[77.377846,28.53231],[77.38337,28.528752],[77.384276,28.529878],[77.384379,28.530535],[77.384615,28.531769],[77.384109,28.53209]]]},"properties":{"objectid":906,"plotmapid":"110NA005GHS","used":"PLOT","plotsizesq":164120,"plot_size":"164120 SQMT","plot_no":"005","sector":"110","block":"NA","mplanduse":"B","ppt_type":"GHS","ppt_full":"Group Housing","authority":"NOIDA","category":"group-housing","execution_stage":"unknown"}},{"type":"Feature","geometry":{"type":"Polygon","coordinates":[[[77.385139,28.519506],[77.382603,28.521118],[77.38091,28.519075],[77.383132,28.518758],[77.383293,28.518794],[77.384227,28.51917],[77.384428,28.519417],[77.384469,28.519414],[77.384616,28.51932],[77.384695,28.519416],[77.384772,28.519372],[77.385091,28.519477],[77.385139,28.519506]]]},"properties":{"objectid":969,"plotmapid":"93ANAGHS","plotsizesq":7,"plot_size":"7 HAC","sector":"93A","block":"NA","mplanduse":"B","ppt_type":"GHS","ppt_full":"Group Housing","authority":"NOIDA","category":"group-housing","execution_stage":"unknown"}},{"type":"Feature","geometry":{"type":"Polygon","coordinates":[[[77.385634,28.519195],[77.385226,28.519451],[77.383999,28.518925],[77.383391,28.518687],[77.383245,28.518641],[77.383162,28.518632],[77.382687,28.518681],[77.381982,28.518805],[77.380821,28.518967],[77.380498,28.518578],[77.383136,28.516126],[77.385634,28.519195]]]},"properties":{"objectid":971,"plotmapid":"93ANA001GHS","plotsizesq":7,"plot_size":"7 HAC","plot_no":"001","sector":"93A","block":"NA","mplanduse":"B","ppt_type":"GHS","ppt_full":"Group Housing","authority":"NOIDA","category":"group-housing","execution_stage":"unknown"}},{"type":"Feature","geometry":{"type":"Polygon","coordinates":[[[77.385407,28.516436],[77.386961,28.518357],[77.385634,28.519195],[77.383136,28.516126],[77.384274,28.515057],[77.385407,28.516436]]]},"properties":{"objectid":972,"plotmapid":"93ANA002GHS","plotsizesq":7,"plot_size":"7 HAC","plot_no":"002","sector":"93A","block":"NA","mplanduse":"B","ppt_type":"GHS","ppt_full":"Group Housing","authority":"NOIDA","category":"group-housing","execution_stage":"unknown"}},{"type":"Feature","geometry":{"type":"Polygon","coordinates":[[[77.384274,28.515057],[77.385403,28.514001],[77.388276,28.517526],[77.386961,28.518357],[77.386158,28.517349],[77.384274,28.515057]]]},"properties":{"objectid":973,"plotmapid":"93ANA003GHS","plotsizesq":7,"plot_size":"7 HAC","plot_no":"003","sector":"93A","block":"NA","mplanduse":"B","ppt_type":"GHS","ppt_full":"Group Housing","authority":"NOIDA","category":"group-housing","execution_stage":"unknown"}},{"type":"Feature","geometry":{"type":"Polygon","coordinates":[[[77.371896,28.52653],[77.372045,28.526434],[77.373129,28.527748],[77.372982,28.527839],[77.371896,28.52653]]]},"properties":{"objectid":14804,"plotmapid":"108NAGHS","used":"BUIT UP HOUSES","plotsizesq":0,"plot_size":"NA","sector":"108","block":"NA","mplanduse":"B","ppt_type":"GHS","ppt_full":"Group Housing","authority":"NOIDA","category":"group-housing","execution_stage":"unknown"}},{"type":"Feature","geometry":{"type":"Polygon","coordinates":[[[77.372047,28.526433],[77.374085,28.525124],[77.375156,28.526439],[77.373129,28.527748],[77.372047,28.526433]]]},"properties":{"objectid":14805,"plotmapid":"108GH001,002&003GHS","used":"G.H PLOT","plotsizesq":44280,"plot_size":"44280 SQMT","plot_no":"001,002&003","sector":"108","block":"GH","mplanduse":"B","ppt_type":"GHS","ppt_full":"Group Housing","authority":"NOIDA","category":"group-housing","execution_stage":"unknown"}},{"type":"Feature","geometry":{"type":"Polygon","coordinates":[[[77.374085,28.525124],[77.374846,28.524636],[77.375929,28.525949],[77.375156,28.526439],[77.374085,28.525124]]]},"properties":{"objectid":14806,"plotmapid":"108GH004GHS","used":"G.H PLOT","plotsizesq":0,"plot_size":"NA","plot_no":"004","sector":"108","block":"GH","mplanduse":"B","ppt_type":"GHS","ppt_full":"Group Housing","authority":"NOIDA","category":"group-housing","execution_stage":"unknown"}},{"type":"Feature","geometry":{"type":"Polygon","coordinates":[[[77.366444,28.529055],[77.368257,28.527886],[77.368886,28.528642],[77.36705,28.529785],[77.366444,28.529055]]]},"properties":{"objectid":18806,"plotmapid":"105GH004GHS","used":"G.H PLOT","plotsizesq":22000,"plot_size":"22000 SQMT","plot_no":"004","sector":"105","block":"GH","mplanduse":"B","ppt_type":"GHS","ppt_full":"Group Housing","authority":"NOIDA","category":"group-housing","execution_stage":"unknown"}},{"type":"Feature","geometry":{"type":"Polygon","coordinates":[[[77.370807,28.526368],[77.371469,28.527172],[77.369803,28.528238],[77.369069,28.527363],[77.370745,28.526292],[77.370807,28.526368]]]},"properties":{"objectid":18807,"plotmapid":"105GH003GHS","used":"G.H PLOT","plotsizesq":24000,"plot_size":"24000 SQMT","plot_no":"003","sector":"105","block":"GH","mplanduse":"B","ppt_type":"GHS","ppt_full":"Group Housing","authority":"NOIDA","category":"group-housing","execution_stage":"unknown"}},{"type":"Feature","geometry":{"type":"Polygon","coordinates":[[[77.36968,28.529949],[77.368049,28.531002],[77.367329,28.530124],[77.36895,28.529048],[77.36968,28.529949]]]},"properties":{"objectid":18808,"plotmapid":"105GH001GHS","used":"G.H PLOT","plotsizesq":24000,"plot_size":"24000 SQMT","plot_no":"001","sector":"105","block":"GH","mplanduse":"B","ppt_type":"GHS","ppt_full":"Group Housing","authority":"NOIDA","category":"group-housing","execution_stage":"unknown"}},{"type":"Feature","geometry":{"type":"Polygon","coordinates":[[[77.371749,28.527513],[77.372346,28.528242],[77.370518,28.52942],[77.369918,28.528669],[77.371749,28.527513]]]},"properties":{"objectid":18810,"plotmapid":"105GH002GHS","used":"G.H PLOT","plotsizesq":22000,"plot_size":"22000 SQMT","plot_no":"002","sector":"105","block":"GH","mplanduse":"B","ppt_type":"GHS","ppt_full":"Group Housing","authority":"NOIDA","category":"group-housing","execution_stage":"unknown"}}]}
