{"type":"FeatureCollection","features":[{"type":"Feature","geometry":{"type":"Polygon","coordinates":[[[77.389623,28.536223],[77.39003,28.535439],[77.390821,28.535748],[77.390394,28.536536],[77.389623,28.536223]]]},"properties":{"objectid":347,"plotmapid":"110NA001GHS","used":"PLOT","plotsizesq":0,"plot_size":"NA","plot_no":"001","sector":"110","block":"NA","mplanduse":"V","ppt_type":"GHS","ppt_full":"Group Housing","authority":"NOIDA","category":"group-housing","execution_stage":"unknown"}},{"type":"Feature","geometry":{"type":"Polygon","coordinates":[[[77.392799,28.56689],[77.392848,28.567567],[77.390437,28.567422],[77.390502,28.566589],[77.392748,28.566763],[77.392739,28.566887],[77.392799,28.56689]]]},"properties":{"objectid":59658,"plotmapid":"77GH003CGHS","plotsizesq":0,"plot_no":"003C","sector":"77","block":"GH","mplanduse":"B","ppt_type":"GHS","ppt_full":"Group Housing","authority":"NOIDA","category":"group-housing","execution_stage":"unknown"}},{"type":"Feature","geometry":{"type":"Polygon","coordinates":[[[77.390816,28.568968],[77.389124,28.568874],[77.38906,28.567539],[77.390421,28.567619],[77.390437,28.567422],[77.392848,28.567567],[77.392912,28.568196],[77.390904,28.568089],[77.390816,28.568968]]]},"properties":{"objectid":59659,"plotmapid":"77GH003BGHS","plotsizesq":80000,"plot_size":"80000 SQMT","plot_no":"003B","sector":"77","block":"GH","mplanduse":"B","ppt_type":"GHS","ppt_full":"Group Housing","authority":"NOIDA","category":"group-housing","execution_stage":"unknown"}},{"type":"Feature","geometry":{"type":"Polygon","coordinates":[[[77.392934,28.569071],[77.392935,28.569091],[77.390816,28.568968],[77.390904,28.568089],[77.392912,28.568196],[77.392934,28.569071]]]},"properties":{"objectid":59660,"plotmapid":"77GH003AGHS","plotsizesq":0,"plot_no":"003A","sector":"77","block":"GH","mplanduse":"B","ppt_type":"GHS","ppt_full":"Group Housing","authority":"NOIDA","category":"group-housing","execution_stage":"unknown"}},{"type":"Feature","geometry":{"type":"Polygon","coordinates":[[[77.392948,28.569252],[77.393016,28.570109],[77.390963,28.569988],[77.391037,28.568982],[77.392935,28.569091],[77.392948,28.569252]]]},"properties":{"objectid":59661,"plotmapid":"77GH002/AGHS","used":"SPC OF EXPRESS PROJECTS PVT LTD","plotsizesq":21700,"plot_size":"21700 SQMT","plot_no":"002/A","sector":"77","block":"GH","mplanduse":"B","ppt_type":"GHS","ppt_full":"Group Housing","authority":"NOIDA","category":"group-housing","execution_stage":"unknown"}},{"type":"Feature","geometry":{"type":"Polygon","coordinates":[[[77.390963,28.569988],[77.390831,28.571702],[77.388394,28.571567],[77.388455,28.570742],[77.389014,28.570368],[77.389124,28.568874],[77.391037,28.568982],[77.390963,28.569988]]]},"properties":{"objectid":59663,"plotmapid":"77GH001GHS","plotsizesq":62200,"plot_size":"62200 SQMT","plot_no":"001","sector":"77","block":"GH","mplanduse":"B","ppt_type":"GHS","ppt_full":"Group Housing","authority":"NOIDA","category":"group-housing","execution_stage":"unknown"}},{"type":"Feature","geometry":{"type":"Polygon","coordinates":[[[77.390963,28.569988],[77.392017,28.570049],[77.391895,28.571772],[77.390831,28.571702],[77.390963,28.569988]]]},"properties":{"objectid":59664,"plotmapid":"77GH002/BGHS","used":"SPC OF HR ORACLE DEVLOPERS","plotsizesq":20000,"plot_size":"20000 SQMT","plot_no":"002/B","sector":"77","block":"GH","mplanduse":"B","ppt_type":"GHS","ppt_full":"Group Housing","authority":"NOIDA","category":"group-housing","execution_stage":"unknown"}},{"type":"Feature","geometry":{"type":"Polygon","coordinates":[[[77.392017,28.570049],[77.393008,28.570108],[77.393112,28.571843],[77.391895,28.571772],[77.392017,28.570049]]]},"properties":{"objectid":59665,"plotmapid":"77GH002/CGHS","used":"SPC OF CIVITECH HOUSING INDIA PVT LTD","plotsizesq":20500,"plot_size":"20500 SQMT","plot_no":"002/C","sector":"77","block":"GH","mplanduse":"B","ppt_type":"GHS","ppt_full":"Group Housing","authority":"NOIDA","category":"group-housing","execution_stage":"unknown"}},{"type":"Feature","geometry":{"type":"Polygon","coordinates":[[[77.391371,28.574355],[77.391076,28.574524],[77.389695,28.573873],[77.390686,28.573256],[77.390754,28.572105],[77.393144,28.572247],[77.393044,28.573701],[77.391831,28.573645],[77.39113,28.573982],[77.391371,28.574355]]]},"properties":{"objectid":59736,"plotmapid":"74NA001-BGHS","used":"AJNARA","plotsizesq":49410,"plot_size":"49410 SQMT","plot_no":"001-B","sector":"74","block":"NA","mplanduse":"B","ppt_type":"GHS","ppt_full":"Group Housing","authority":"NOIDA","category":"group-housing","execution_stage":"unknown"}},{"type":"Feature","geometry":{"type":"Polygon","coordinates":[[[77.389726,28.575731],[77.389073,28.576116],[77.388994,28.576195],[77.388883,28.577893],[77.388116,28.577731],[77.387332,28.577484],[77.387383,28.576895],[77.388137,28.575977],[77.387874,28.575458],[77.386719,28.576462],[77.386536,28.576455],[77.386818,28.571868],[77.38742,28.571895],[77.389069,28.572015],[77.389041,28.572417],[77.388236,28.57296],[77.388333,28.573068],[77.387608,28.573545],[77.388543,28.574616],[77.389682,28.573867],[77.391076,28.574524],[77.391371,28.574355],[77.39162,28.574733],[77.392354,28.574371],[77.392367,28.574045],[77.393018,28.574075],[77.392935,28.575307],[77.392888,28.576288],[77.392785,28.577398],[77.391027,28.577304],[77.391081,28.576509],[77.389859,28.574902],[77.389318,28.575217],[77.389726,28.575731]]]},"properties":{"objectid":59737,"plotmapid":"74NA001AGHS","used":"SUPERTECH","plotsizesq":209271.47,"plot_size":"209271.47 SQMT","plot_no":"001A","sector":"74","block":"NA","mplanduse":"B","ppt_type":"GHS","ppt_full":"Group Housing","authority":"NOIDA","category":"group-housing","execution_stage":"unknown"}},{"type":"Feature","geometry":{"type":"Polygon","coordinates":[[[77.406788,28.563713],[77.401282,28.563512],[77.400448,28.561683],[77.40009,28.561012],[77.401145,28.560227],[77.406933,28.560444],[77.406788,28.563713]]]},"properties":{"objectid":62386,"plotmapid":"113NAGHS","used":"GROUP HOUSING PLOT","plotsizesq":216644,"plot_size":"216644 SQMT","sector":"113","block":"NA","mplanduse":"B","ppt_type":"GHS","ppt_full":"Group Housing","authority":"NOIDA","category":"group-housing","execution_stage":"unknown"}},{"type":"Feature","geometry":{"type":"Polygon","coordinates":[[[77.403943,28.568691],[77.403434,28.56867],[77.402877,28.568855],[77.402522,28.56901],[77.402255,28.569149],[77.401757,28.568518],[77.401577,28.565889],[77.406641,28.566072],[77.406577,28.567895],[77.403943,28.568691]]]},"properties":{"objectid":62389,"plotmapid":"115NA001GHS","used":"GROUP HOUSING PLOT","plotsizesq":152240,"plot_size":"152240 SQMT","plot_no":"001","sector":"115","block":"NA","mplanduse":"ISSUE","ppt_type":"GHS","ppt_full":"Group Housing","authority":"NOIDA","category":"group-housing","execution_stage":"unknown"}},{"type":"Feature","geometry":{"type":"Polygon","coordinates":[[[77.406725,28.584369],[77.406703,28.58441],[77.406392,28.584737],[77.405173,28.585437],[77.40483,28.585351],[77.405099,28.584486],[77.403134,28.584011],[77.403124,28.584008],[77.40286,28.584883],[77.402332,28.584757],[77.402601,28.583886],[77.401346,28.583594],[77.401082,28.584467],[77.400041,28.584219],[77.399946,28.584184],[77.39994,28.584164],[77.400611,28.581973],[77.401527,28.579027],[77.401192,28.578939],[77.400846,28.578634],[77.400604,28.578382],[77.400441,28.578187],[77.400202,28.577854],[77.399989,28.577493],[77.400629,28.577432],[77.400889,28.578122],[77.401376,28.578617],[77.40142,28.578486],[77.401686,28.578548],[77.401719,28.578526],[77.401363,28.578364],[77.401509,28.57822],[77.401711,28.578279],[77.40193,28.578136],[77.402064,28.578127],[77.402126,28.578091],[77.402307,28.578176],[77.402419,28.578184],[77.402563,28.578133],[77.402759,28.578257],[77.402883,28.578214],[77.403066,28.578346],[77.403181,28.578364],[77.403393,28.578673],[77.403418,28.578935],[77.403513,28.578841],[77.403616,28.578768],[77.403854,28.578639],[77.404015,28.578878],[77.404195,28.578794],[77.404373,28.579096],[77.404658,28.578965],[77.404921,28.579445],[77.405009,28.579666],[77.404677,28.579765],[77.404556,28.579585],[77.404503,28.57961],[77.404442,28.579512],[77.40419,28.579625],[77.40447,28.580124],[77.404529,28.580161],[77.404729,28.580111],[77.405378,28.580195],[77.405563,28.580203],[77.406122,28.580307],[77.406177,28.58033],[77.406835,28.580328],[77.406956,28.580443],[77.407144,28.580374],[77.407496,28.580184],[77.40769,28.580373],[77.407775,28.580502],[77.40753,28.581158],[77.407459,28.581289],[77.407397,28.581481],[77.407333,28.581621],[77.407381,28.581694],[77.407713,28.58183],[77.407308,28.582815],[77.407797,28.58299],[77.407381,28.583998],[77.407105,28.584007],[77.406914,28.583917],[77.406725,28.584369]]]},"properties":{"objectid":62795,"plotmapid":"118NAGHS","used":"GROUP HOUSING PLOT","plotsizesq":133750,"plot_size":"133750 SQMT","sector":"118","block":"NA","mplanduse":"ISSUE","ppt_type":"GHS","ppt_full":"Group Housing","authority":"NOIDA","category":"group-housing","execution_stage":"unknown"}},{"type":"Feature","geometry":{"type":"Polygon","coordinates":[[[77.392833,28.596626],[77.392332,28.59733],[77.39238,28.597356],[77.390762,28.599659],[77.390658,28.59983],[77.390634,28.599844],[77.389577,28.599916],[77.389318,28.596799],[77.389212,28.595691],[77.390723,28.596075],[77.390972,28.596156],[77.392833,28.596626]]]},"properties":{"objectid":62811,"plotmapid":"121NA005GHS","property_t":"Not Known","plotsizesq":100000,"plot_size":"100000 SQMT","plot_no":"005","sector":"121","block":"NA","mplanduse":"B","ppt_type":"GHS","ppt_full":"Group Housing","authority":"NOIDA","category":"group-housing","execution_stage":"unknown"}},{"type":"Feature","geometry":{"type":"Polygon","coordinates":[[[77.403545,28.599979],[77.403323,28.600687],[77.400266,28.599917],[77.400717,28.598481],[77.403771,28.599253],[77.403545,28.599979]]]},"properties":{"objectid":62820,"plotmapid":"121NA001GHS","plotsizesq":51315,"plot_size":"51315 SQMT","plot_no":"001","sector":"121","block":"NA","mplanduse":"B","ppt_type":"GHS","ppt_full":"Group Housing","authority":"NOIDA","category":"group-housing","execution_stage":"unknown"}},{"type":"Feature","geometry":{"type":"Polygon","coordinates":[[[77.400578,28.58493],[77.402408,28.585367],[77.40208,28.586451],[77.401583,28.586797],[77.401335,28.586553],[77.401277,28.586532],[77.399555,28.586117],[77.399971,28.584802],[77.400578,28.58493]]]},"properties":{"objectid":62841,"plotmapid":"119GH004GHS","used":"G.H.","plotsizesq":37700,"plot_size":"37700 SQMT","plot_no":"004","sector":"119","block":"GH","mplanduse":"B","ppt_type":"GHS","ppt_full":"Group Housing","authority":"NOIDA","category":"group-housing","execution_stage":"unknown"}},{"type":"Feature","geometry":{"type":"Polygon","coordinates":[[[77.402922,28.586929],[77.403326,28.585602],[77.405119,28.586034],[77.406256,28.588916],[77.404058,28.588386],[77.404368,28.587297],[77.402922,28.586929]]]},"properties":{"objectid":62848,"plotmapid":"119GH003GHS","used":"G.H.","plotsizesq":58200,"plot_size":"58200 SQMT","plot_no":"003","sector":"119","block":"GH","mplanduse":"B","ppt_type":"GHS","ppt_full":"Group Housing","authority":"NOIDA","category":"group-housing","execution_stage":"unknown"}},{"type":"Feature","geometry":{"type":"Polygon","coordinates":[[[77.4002,28.587478],[77.399997,28.588137],[77.402531,28.588772],[77.402188,28.589895],[77.398663,28.589037],[77.399228,28.587236],[77.4002,28.587478]]]},"properties":{"objectid":62851,"plotmapid":"119GH001GHS","used":"G.H.","plotsizesq":54500,"plot_size":"54500 SQMT","plot_no":"001","sector":"119","block":"GH","mplanduse":"B","ppt_type":"GHS","ppt_full":"Group Housing","authority":"NOIDA","category":"group-housing","execution_stage":"unknown"}},{"type":"Feature","geometry":{"type":"Polygon","coordinates":[[[77.406324,28.589162],[77.406693,28.590133],[77.406462,28.590839],[77.406406,28.590896],[77.406327,28.590926],[77.404801,28.590513],[77.402433,28.589947],[77.402925,28.588335],[77.406324,28.589162]]]},"properties":{"objectid":62852,"plotmapid":"119GH002GHS","used":"G.H.","plotsizesq":72530,"plot_size":"72530 SQMT","plot_no":"002","sector":"119","block":"GH","mplanduse":"B","ppt_type":"GHS","ppt_full":"Group Housing","authority":"NOIDA","category":"group-housing","execution_stage":"unknown"}},{"type":"Feature","geometry":{"type":"Polygon","coordinates":[[[77.395363,28.583488],[77.399528,28.584501],[77.399082,28.585952],[77.394911,28.584937],[77.395363,28.583488]]]},"properties":{"objectid":62855,"plotmapid":"120GH003GHS","used":"G.H. PLOT","plotsizesq":70000,"plot_size":"70000 SQMT","plot_no":"003","sector":"120","block":"GH","mplanduse":"B","ppt_type":"GHS","ppt_full":"Group Housing","authority":"NOIDA","category":"group-housing","execution_stage":"unknown"}},{"type":"Feature","geometry":{"type":"Polygon","coordinates":[[[77.394418,28.585747],[77.396604,28.586285],[77.395999,28.588278],[77.393805,28.587734],[77.394418,28.585747]]]},"properties":{"objectid":62858,"plotmapid":"120GH001GHS","used":"G.H. PLOT","plotsizesq":51000,"plot_size":"51000 SQMT","plot_no":"001","sector":"120","block":"GH","mplanduse":"B","ppt_type":"GHS","ppt_full":"Group Housing","authority":"NOIDA","category":"group-housing","execution_stage":"unknown"}},{"type":"Feature","geometry":{"type":"Polygon","coordinates":[[[77.39709,28.586404],[77.398811,28.586826],[77.398189,28.588821],[77.395999,28.588278],[77.396604,28.586285],[77.39709,28.586404]]]},"properties":{"objectid":62859,"plotmapid":"120GH002GHS","used":"G.H. PLOT","plotsizesq":51000,"plot_size":"51000 SQMT","plot_no":"002","sector":"120","block":"GH","mplanduse":"B","ppt_type":"GHS","ppt_full":"Group Housing","authority":"NOIDA","category":"group-housing","execution_stage":"unknown"}},{"type":"Feature","geometry":{"type":"Polygon","coordinates":[[[77.400193,28.578349],[77.400361,28.578549],[77.400682,28.578871],[77.401129,28.579279],[77.400457,28.581475],[77.396128,28.58081],[77.396427,28.579303],[77.395396,28.579144],[77.395634,28.577942],[77.395822,28.578153],[77.396507,28.577718],[77.39618,28.577409],[77.39591,28.576896],[77.396167,28.575632],[77.396307,28.575548],[77.397504,28.575049],[77.396993,28.574337],[77.399391,28.574711],[77.39932,28.57501],[77.39928,28.575256],[77.399251,28.575681],[77.399243,28.576082],[77.399298,28.576481],[77.399489,28.5771],[77.399663,28.577508],[77.399837,28.577832],[77.400193,28.578349]]]},"properties":{"objectid":63408,"plotmapid":"117NAGHS","used":"LAND ALLOTED TO UNITECH","plotsizesq":0,"plot_size":"NA","sector":"117","block":"NA","mplanduse":"B","ppt_type":"GHS","ppt_full":"Group Housing","authority":"NOIDA","category":"group-housing","execution_stage":"unknown"}},{"type":"Feature","geometry":{"type":"Polygon","coordinates":[[[77.390895,28.584619],[77.390368,28.582626],[77.390475,28.582057],[77.392458,28.582436],[77.391587,28.58472],[77.390895,28.584619]]]},"properties":{"objectid":66261,"plotmapid":"73NA002GHS","plotsizesq":3.97,"plot_size":"3.97","plot_no":"002","sector":"73","block":"NA","mplanduse":"ISSUE","ppt_type":"GHS","ppt_full":"Group Housing","authority":"NOIDA","category":"group-housing","execution_stage":"unknown"}}]}
