{"type":"FeatureCollection","features":[{"type":"Feature","geometry":{"type":"Polygon","coordinates":[[[77.368162,28.621744],[77.368153,28.620743],[77.368254,28.620653],[77.368434,28.620608],[77.368806,28.620959],[77.369286,28.620505],[77.369123,28.620372],[77.369793,28.619736],[77.370112,28.620003],[77.370652,28.619899],[77.370676,28.621787],[77.368163,28.621816],[77.368162,28.621744]]]},"properties":{"objectid":2657,"plotmapid":"62BGHS","used":"GROUP HOUSING PLOT","plotsizesq":26300,"plot_size":"26300 SQMT","sector":"62","block":"B","mplanduse":"B","ppt_type":"GHS","ppt_full":"Group Housing","authority":"NOIDA","category":"group-housing","execution_stage":"unknown"}},{"type":"Feature","geometry":{"type":"Polygon","coordinates":[[[77.372674,28.610966],[77.371751,28.611017],[77.371685,28.610326],[77.372601,28.610282],[77.372674,28.610966]]]},"properties":{"objectid":2717,"plotmapid":"62C058/01GHS","used":"PLOT","plotsizesq":6300,"plot_size":"630 SQMT","plot_no":"058/01","sector":"62","block":"C","mplanduse":"B","ppt_type":"GHS","ppt_full":"Group Housing","authority":"NOIDA","category":"group-housing","execution_stage":"unknown"}},{"type":"Feature","geometry":{"type":"Polygon","coordinates":[[[77.36971,28.611404],[77.368715,28.611463],[77.36869,28.610514],[77.369606,28.610446],[77.36971,28.611404]]]},"properties":{"objectid":2736,"plotmapid":"62C058/20GHS","used":"PLOT","plotsizesq":9532.25,"plot_size":"9532.25 SQMT","plot_no":"058/20","sector":"62","block":"C","mplanduse":"B","ppt_type":"GHS","ppt_full":"Group Housing","authority":"NOIDA","category":"group-housing","execution_stage":"unknown"}},{"type":"Feature","geometry":{"type":"Polygon","coordinates":[[[77.370556,28.610394],[77.370652,28.611349],[77.36971,28.611404],[77.369606,28.610446],[77.370555,28.61038],[77.370556,28.610394]]]},"properties":{"objectid":2737,"plotmapid":"62C058/19GHS","used":"PLOT","plotsizesq":9532.25,"plot_size":"9532.25 SQMT","plot_no":"058/19","sector":"62","block":"C","mplanduse":"B","ppt_type":"GHS","ppt_full":"Group Housing","authority":"NOIDA","category":"group-housing","execution_stage":"unknown"}},{"type":"Feature","geometry":{"type":"Polygon","coordinates":[[[77.371445,28.610337],[77.371542,28.611322],[77.370839,28.611369],[77.370742,28.610396],[77.371445,28.610337]]]},"properties":{"objectid":2738,"plotmapid":"62C058/18GHS","used":"PLOT","plotsizesq":7227.75,"plot_size":"7227.75 SQMT","plot_no":"058/18","sector":"62","block":"C","mplanduse":"B","ppt_type":"GHS","ppt_full":"Group Housing","authority":"NOIDA","category":"group-housing","execution_stage":"unknown"}},{"type":"Feature","geometry":{"type":"Polygon","coordinates":[[[77.372731,28.611597],[77.371815,28.611665],[77.371751,28.611017],[77.372674,28.610966],[77.372731,28.611597]]]},"properties":{"objectid":2742,"plotmapid":"62C058/02GHS","used":"PLOT","plotsizesq":6300,"plot_size":"630 SQMT","plot_no":"058/02","sector":"62","block":"C","mplanduse":"B","ppt_type":"GHS","ppt_full":"Group Housing","authority":"NOIDA","category":"group-housing","execution_stage":"unknown"}},{"type":"Feature","geometry":{"type":"Polygon","coordinates":[[[77.372787,28.612228],[77.371877,28.612293],[77.371815,28.611665],[77.372731,28.611597],[77.372787,28.612228]]]},"properties":{"objectid":2745,"plotmapid":"62C058/03GHS","used":"PLOT","plotsizesq":6300,"plot_size":"630 SQMT","plot_no":"058/03","sector":"62","block":"C","mplanduse":"B","ppt_type":"GHS","ppt_full":"Group Housing","authority":"NOIDA","category":"group-housing","execution_stage":"unknown"}},{"type":"Feature","geometry":{"type":"Polygon","coordinates":[[[77.36981,28.612336],[77.368742,28.612415],[77.368718,28.611592],[77.369723,28.611533],[77.36981,28.612336]]]},"properties":{"objectid":2746,"plotmapid":"62C058/21GHS","used":"PLOT","plotsizesq":8190,"plot_size":"8190 SQMT","plot_no":"058/21","sector":"62","block":"C","mplanduse":"B","ppt_type":"GHS","ppt_full":"Group Housing","authority":"NOIDA","category":"group-housing","execution_stage":"unknown"}},{"type":"Feature","geometry":{"type":"Polygon","coordinates":[[[77.370744,28.612268],[77.36981,28.612336],[77.369723,28.611533],[77.370665,28.611478],[77.370744,28.612268]]]},"properties":{"objectid":2747,"plotmapid":"62C058/22GHS","used":"PLOT","plotsizesq":8190,"plot_size":"8190 SQMT","plot_no":"058/22","sector":"62","block":"C","mplanduse":"B","ppt_type":"GHS","ppt_full":"Group Housing","authority":"NOIDA","category":"group-housing","execution_stage":"unknown"}},{"type":"Feature","geometry":{"type":"Polygon","coordinates":[[[77.372855,28.612859],[77.371939,28.61292],[77.371877,28.612293],[77.372787,28.612228],[77.372855,28.612859]]]},"properties":{"objectid":2758,"plotmapid":"62C058/04GHS","used":"PLOT","plotsizesq":6300,"plot_size":"630 SQMT","plot_no":"058/04","sector":"62","block":"C","mplanduse":"B","ppt_type":"GHS","ppt_full":"Group Housing","authority":"NOIDA","category":"group-housing","execution_stage":"unknown"}},{"type":"Feature","geometry":{"type":"Polygon","coordinates":[[[77.371735,28.613283],[77.371048,28.613338],[77.370945,28.612441],[77.37165,28.612414],[77.371735,28.613283]]]},"properties":{"objectid":2761,"plotmapid":"62C058/16GHS","used":"PLOT","plotsizesq":7055.25,"plot_size":"7055.25 SQMT","plot_no":"058/16","sector":"62","block":"C","mplanduse":"B","ppt_type":"GHS","ppt_full":"Group Housing","authority":"NOIDA","category":"group-housing","execution_stage":"unknown"}},{"type":"Feature","geometry":{"type":"Polygon","coordinates":[[[77.370868,28.613537],[77.370869,28.613552],[77.368752,28.613702],[77.36872,28.612416],[77.370744,28.612268],[77.370868,28.613537]]]},"properties":{"objectid":2773,"plotmapid":"62C058/23GHS","used":"PLOT","plotsizesq":25740,"plot_size":"25740 SQMT","plot_no":"058/23","sector":"62","block":"C","mplanduse":"B","ppt_type":"GHS","ppt_full":"Group Housing","authority":"NOIDA","category":"group-housing","execution_stage":"unknown"}},{"type":"Feature","geometry":{"type":"Polygon","coordinates":[[[77.372924,28.613571],[77.37201,28.613632],[77.371939,28.61292],[77.372855,28.612859],[77.372924,28.613571]]]},"properties":{"objectid":2777,"plotmapid":"62C058/05GHS","used":"PLOT","plotsizesq":6300,"plot_size":"630 SQMT","plot_no":"058/05","sector":"62","block":"C","mplanduse":"B","ppt_type":"GHS","ppt_full":"Group Housing","authority":"NOIDA","category":"group-housing","execution_stage":"unknown"}},{"type":"Feature","geometry":{"type":"Polygon","coordinates":[[[77.370012,28.614275],[77.368791,28.614369],[77.368779,28.614382],[77.368752,28.613702],[77.369949,28.61362],[77.370012,28.614275]]]},"properties":{"objectid":2796,"plotmapid":"62C058/24GHS","used":"PLOT","plotsizesq":6643,"plot_size":"6643 SQMT","plot_no":"058/24","sector":"62","block":"C","mplanduse":"B","ppt_type":"GHS","ppt_full":"Group Housing","authority":"NOIDA","category":"group-housing","execution_stage":"unknown"}},{"type":"Feature","geometry":{"type":"Polygon","coordinates":[[[77.370934,28.61421],[77.370012,28.614275],[77.369949,28.61362],[77.370869,28.613552],[77.370934,28.61421]]]},"properties":{"objectid":2797,"plotmapid":"62C058/25GHS","used":"PLOT","plotsizesq":6643,"plot_size":"6643 SQMT","plot_no":"058/25","sector":"62","block":"C","mplanduse":"B","ppt_type":"GHS","ppt_full":"Group Housing","authority":"NOIDA","category":"group-housing","execution_stage":"unknown"}},{"type":"Feature","geometry":{"type":"Polygon","coordinates":[[[77.373013,28.614406],[77.372094,28.614478],[77.372031,28.613846],[77.372947,28.613781],[77.373013,28.614406]]]},"properties":{"objectid":2800,"plotmapid":"62C058/06GHS","used":"PLOT","plotsizesq":6300,"plot_size":"630 SQMT","plot_no":"058/06","sector":"62","block":"C","mplanduse":"B","ppt_type":"GHS","ppt_full":"Group Housing","authority":"NOIDA","category":"group-housing","execution_stage":"unknown"}},{"type":"Feature","geometry":{"type":"Polygon","coordinates":[[[77.373013,28.614406],[77.373072,28.615034],[77.372156,28.615108],[77.372094,28.614478],[77.373013,28.614406]]]},"properties":{"objectid":2822,"plotmapid":"62C058/07GHS","used":"PLOT","plotsizesq":6300,"plot_size":"630 SQMT","plot_no":"058/07","sector":"62","block":"C","mplanduse":"B","ppt_type":"GHS","ppt_full":"Group Housing","authority":"NOIDA","category":"group-housing","execution_stage":"unknown"}},{"type":"Feature","geometry":{"type":"Polygon","coordinates":[[[77.370028,28.614439],[77.370078,28.614937],[77.369282,28.614999],[77.368769,28.614393],[77.368791,28.614369],[77.370012,28.614275],[77.370028,28.614439]]]},"properties":{"objectid":2823,"plotmapid":"62C058/26GHS","used":"PLOT","plotsizesq":5840,"plot_size":"5840 SQMT","plot_no":"058/26","sector":"62","block":"C","mplanduse":"B","ppt_type":"GHS","ppt_full":"Group Housing","authority":"NOIDA","category":"group-housing","execution_stage":"unknown"}},{"type":"Feature","geometry":{"type":"Polygon","coordinates":[[[77.371003,28.61486],[77.370078,28.614937],[77.370012,28.614275],[77.370934,28.61421],[77.371003,28.61486]]]},"properties":{"objectid":2824,"plotmapid":"62C058/27GHS","used":"PLOT","plotsizesq":6643,"plot_size":"6643 SQMT","plot_no":"058/27","sector":"62","block":"C","mplanduse":"B","ppt_type":"GHS","ppt_full":"Group Housing","authority":"NOIDA","category":"group-housing","execution_stage":"unknown"}},{"type":"Feature","geometry":{"type":"Polygon","coordinates":[[[77.371939,28.615341],[77.371243,28.615391],[77.37116,28.614478],[77.371855,28.614436],[77.371939,28.615341]]]},"properties":{"objectid":2830,"plotmapid":"62C058/15GHS","used":"PLOT","plotsizesq":7094.85,"plot_size":"7094.85 SQMT","plot_no":"058/15","sector":"62","block":"C","mplanduse":"B","ppt_type":"GHS","ppt_full":"Group Housing","authority":"NOIDA","category":"group-housing","execution_stage":"unknown"}},{"type":"Feature","geometry":{"type":"Polygon","coordinates":[[[77.371059,28.61539],[77.37106,28.615402],[77.369615,28.615493],[77.369282,28.614999],[77.371003,28.614865],[77.371059,28.61539]]]},"properties":{"objectid":2840,"plotmapid":"62C058/28GHS","used":"PLOT","plotsizesq":7931.25,"plot_size":"7931.25 SQMT","plot_no":"058/28","sector":"62","block":"C","mplanduse":"B","ppt_type":"GHS","ppt_full":"Group Housing","authority":"NOIDA","category":"group-housing","execution_stage":"unknown"}},{"type":"Feature","geometry":{"type":"Polygon","coordinates":[[[77.373141,28.615711],[77.372223,28.615783],[77.372156,28.615108],[77.373072,28.615034],[77.373141,28.615711]]]},"properties":{"objectid":2841,"plotmapid":"62C058/08GHS","used":"PLOT","plotsizesq":6780.6,"plot_size":"6780.6 SQMT","plot_no":"058/08","sector":"62","block":"C","mplanduse":"B","ppt_type":"GHS","ppt_full":"Group Housing","authority":"NOIDA","category":"group-housing","execution_stage":"unknown"}},{"type":"Feature","geometry":{"type":"Polygon","coordinates":[[[77.371351,28.616294],[77.371334,28.616296],[77.371258,28.615566],[77.371971,28.615515],[77.37204,28.616245],[77.371351,28.616294]]]},"properties":{"objectid":2844,"plotmapid":"62C058/14GHS","used":"PLOT","plotsizesq":5571.75,"plot_size":"5571.75 SQMT","plot_no":"058/14","sector":"62","block":"C","mplanduse":"B","ppt_type":"GHS","ppt_full":"Group Housing","authority":"NOIDA","category":"group-housing","execution_stage":"unknown"}},{"type":"Feature","geometry":{"type":"Polygon","coordinates":[[[77.371078,28.615574],[77.371132,28.616148],[77.369971,28.616248],[77.369721,28.615678],[77.371078,28.615574]]]},"properties":{"objectid":2845,"plotmapid":"62C058/29GHS","used":"PLOT","plotsizesq":7122.5,"plot_size":"7122.5 SQMT","plot_no":"058/29","sector":"62","block":"C","mplanduse":"B","ppt_type":"GHS","ppt_full":"Group Housing","authority":"NOIDA","category":"group-housing","execution_stage":"unknown"}},{"type":"Feature","geometry":{"type":"Polygon","coordinates":[[[77.373212,28.616397],[77.372288,28.616449],[77.372223,28.615783],[77.373141,28.615711],[77.373212,28.616397]]]},"properties":{"objectid":2846,"plotmapid":"62C058/09GHS","used":"PLOT","plotsizesq":6780.6,"plot_size":"6780.6 SQMT","plot_no":"058/09","sector":"62","block":"C","mplanduse":"B","ppt_type":"GHS","ppt_full":"Group Housing","authority":"NOIDA","category":"group-housing","execution_stage":"unknown"}},{"type":"Feature","geometry":{"type":"Polygon","coordinates":[[[77.369971,28.616248],[77.371135,28.616148],[77.371187,28.616669],[77.370114,28.61676],[77.369971,28.616248]]]},"properties":{"objectid":2847,"plotmapid":"62C058/30GHS","used":"PLOT","plotsizesq":6734,"plot_size":"6734 SQMT","plot_no":"058/30","sector":"62","block":"C","mplanduse":"B","ppt_type":"GHS","ppt_full":"Group Housing","authority":"NOIDA","category":"group-housing","execution_stage":"unknown"}},{"type":"Feature","geometry":{"type":"Polygon","coordinates":[[[77.371351,28.616294],[77.37204,28.616245],[77.372109,28.61697],[77.37141,28.617022],[77.371334,28.616296],[77.371351,28.616294]]]},"properties":{"objectid":2848,"plotmapid":"62C058/13GHS","used":"PLOT","plotsizesq":5571.75,"plot_size":"5571.75 SQMT","plot_no":"058/13","sector":"62","block":"C","mplanduse":"B","ppt_type":"GHS","ppt_full":"Group Housing","authority":"NOIDA","category":"group-housing","execution_stage":"unknown"}},{"type":"Feature","geometry":{"type":"Polygon","coordinates":[[[77.373273,28.617041],[77.37328,28.61712],[77.372357,28.617144],[77.372288,28.616449],[77.373212,28.616397],[77.373273,28.617041]]]},"properties":{"objectid":2849,"plotmapid":"62C058/10GHS","used":"PLOT","plotsizesq":6780.6,"plot_size":"6780.6 SQMT","plot_no":"058/10","sector":"62","block":"C","mplanduse":"B","ppt_type":"GHS","ppt_full":"Group Housing","authority":"NOIDA","category":"group-housing","execution_stage":"unknown"}},{"type":"Feature","geometry":{"type":"Polygon","coordinates":[[[77.370665,28.616713],[77.371187,28.616669],[77.371289,28.617686],[77.370765,28.617695],[77.370665,28.616713]]]},"properties":{"objectid":2852,"plotmapid":"62C058/31GHS","used":"PLOT","plotsizesq":5300,"plot_size":"5300 SQMT","plot_no":"058/31","sector":"62","block":"C","mplanduse":"B","ppt_type":"GHS","ppt_full":"Group Housing","authority":"NOIDA","category":"group-housing","execution_stage":"unknown"}},{"type":"Feature","geometry":{"type":"Polygon","coordinates":[[[77.37211,28.616982],[77.372176,28.617688],[77.371476,28.617703],[77.37141,28.617022],[77.372109,28.61697],[77.37211,28.616982]]]},"properties":{"objectid":2853,"plotmapid":"62C058/12GHS","used":"PLOT","plotsizesq":5106,"plot_size":"5106 SQMT","plot_no":"058/12","sector":"62","block":"C","mplanduse":"B","ppt_type":"GHS","ppt_full":"Group Housing","authority":"NOIDA","category":"group-housing","execution_stage":"unknown"}},{"type":"Feature","geometry":{"type":"Polygon","coordinates":[[[77.37165,28.612414],[77.370945,28.612441],[77.370852,28.611503],[77.371555,28.611458],[77.37165,28.612414]]]},"properties":{"objectid":3502,"plotmapid":"62C058/17GHS","used":"PLOT","plotsizesq":7055.25,"plot_size":"7055.25 SQMT","plot_no":"058/17","sector":"62","block":"C","mplanduse":"B","ppt_type":"GHS","ppt_full":"Group Housing","authority":"NOIDA","category":"group-housing","execution_stage":"unknown"}},{"type":"Feature","geometry":{"type":"Polygon","coordinates":[[[77.381629,28.59553],[77.379738,28.595337],[77.379637,28.593192],[77.380029,28.592602],[77.382726,28.59375],[77.38246,28.595616],[77.381629,28.59553]]]},"properties":{"objectid":8446,"plotmapid":"70NA001GHS","used":"GROUP HOUSING PLOT","plotsizesq":75800,"plot_size":"75800 SQMT","plot_no":"001","sector":"70","block":"NA","mplanduse":"B","ppt_type":"GHS","ppt_full":"Group Housing","authority":"NOIDA","category":"group-housing","execution_stage":"unknown"}},{"type":"Feature","geometry":{"type":"Polygon","coordinates":[[[77.36867,28.593556],[77.368446,28.593781],[77.368369,28.593722],[77.368594,28.593497],[77.36867,28.593556]]]},"properties":{"objectid":8746,"plotmapid":"61E016A/10GHS","used":"PLOT","plotsizesq":300,"plot_size":"3 SQMT","plot_no":"016A/10","sector":"61","block":"E","mplanduse":"B","ppt_type":"GHS","ppt_full":"Group Housing","authority":"NOIDA","category":"group-housing","execution_stage":"unknown"}},{"type":"Feature","geometry":{"type":"Polygon","coordinates":[[[77.368594,28.593497],[77.368369,28.593722],[77.368293,28.593664],[77.368518,28.593438],[77.368594,28.593497]]]},"properties":{"objectid":8747,"plotmapid":"61E016A/09GHS","used":"PLOT","plotsizesq":300,"plot_size":"300 SQMT","plot_no":"016A/09","sector":"61","block":"E","mplanduse":"B","ppt_type":"GHS","ppt_full":"Group Housing","authority":"NOIDA","category":"group-housing","execution_stage":"unknown"}},{"type":"Feature","geometry":{"type":"Polygon","coordinates":[[[77.368518,28.593438],[77.368293,28.593664],[77.368218,28.593605],[77.368442,28.59338],[77.368518,28.593438]]]},"properties":{"objectid":8748,"plotmapid":"61E016A/08GHS","used":"PLOT","plotsizesq":300,"plot_size":"300 SQMT","plot_no":"016A/08","sector":"61","block":"E","mplanduse":"B","ppt_type":"GHS","ppt_full":"Group Housing","authority":"NOIDA","category":"group-housing","execution_stage":"unknown"}},{"type":"Feature","geometry":{"type":"Polygon","coordinates":[[[77.368442,28.59338],[77.368218,28.593605],[77.368142,28.593546],[77.368366,28.593321],[77.368442,28.59338]]]},"properties":{"objectid":8749,"plotmapid":"61E016A/07GHS","used":"PLOT","plotsizesq":300,"plot_size":"300 SQMT","plot_no":"016A/07","sector":"61","block":"E","mplanduse":"B","ppt_type":"GHS","ppt_full":"Group Housing","authority":"NOIDA","category":"group-housing","execution_stage":"unknown"}},{"type":"Feature","geometry":{"type":"Polygon","coordinates":[[[77.368366,28.593321],[77.368142,28.593546],[77.368067,28.593486],[77.368291,28.593262],[77.368366,28.593321]]]},"properties":{"objectid":8750,"plotmapid":"61E016A/06GHS","used":"PLOT","plotsizesq":300,"plot_size":"300 SQMT","plot_no":"016A/06","sector":"61","block":"E","mplanduse":"B","ppt_type":"GHS","ppt_full":"Group Housing","authority":"NOIDA","category":"group-housing","execution_stage":"unknown"}},{"type":"Feature","geometry":{"type":"Polygon","coordinates":[[[77.368291,28.593262],[77.368067,28.593486],[77.367992,28.593427],[77.368215,28.593203],[77.368291,28.593262]]]},"properties":{"objectid":8751,"plotmapid":"61E016A/05GHS","used":"PLOT","plotsizesq":300,"plot_size":"300 SQMT","plot_no":"016A/05","sector":"61","block":"E","mplanduse":"B","ppt_type":"GHS","ppt_full":"Group Housing","authority":"NOIDA","category":"group-housing","execution_stage":"unknown"}},{"type":"Feature","geometry":{"type":"Polygon","coordinates":[[[77.368215,28.593203],[77.367992,28.593427],[77.367917,28.593367],[77.368139,28.593144],[77.368215,28.593203]]]},"properties":{"objectid":8752,"plotmapid":"61E016A/04GHS","used":"PLOT","plotsizesq":300,"plot_size":"300 SQMT","plot_no":"016A/04","sector":"61","block":"E","mplanduse":"B","ppt_type":"GHS","ppt_full":"Group Housing","authority":"NOIDA","category":"group-housing","execution_stage":"unknown"}},{"type":"Feature","geometry":{"type":"Polygon","coordinates":[[[77.368139,28.593144],[77.367917,28.593367],[77.367842,28.593308],[77.368063,28.593086],[77.368139,28.593144]]]},"properties":{"objectid":8753,"plotmapid":"61E016A/03GHS","used":"PLOT","plotsizesq":300,"plot_size":"300 SQMT","plot_no":"016A/03","sector":"61","block":"E","mplanduse":"B","ppt_type":"GHS","ppt_full":"Group Housing","authority":"NOIDA","category":"group-housing","execution_stage":"unknown"}},{"type":"Feature","geometry":{"type":"Polygon","coordinates":[[[77.368063,28.593086],[77.367842,28.593308],[77.367767,28.593248],[77.367987,28.593027],[77.368063,28.593086]]]},"properties":{"objectid":8754,"plotmapid":"61E016A/02GHS","used":"PLOT","plotsizesq":300,"plot_size":"300 SQMT","plot_no":"016A/02","sector":"61","block":"E","mplanduse":"B","ppt_type":"GHS","ppt_full":"Group Housing","authority":"NOIDA","category":"group-housing","execution_stage":"unknown"}},{"type":"Feature","geometry":{"type":"Polygon","coordinates":[[[77.367987,28.593027],[77.367767,28.593248],[77.367688,28.593186],[77.36791,28.592967],[77.367987,28.593027]]]},"properties":{"objectid":8755,"plotmapid":"61E016A/01GHS","used":"PLOT","plotsizesq":300,"plot_size":"300 SQMT","plot_no":"016A/01","sector":"61","block":"E","mplanduse":"B","ppt_type":"GHS","ppt_full":"Group Housing","authority":"NOIDA","category":"group-housing","execution_stage":"unknown"}},{"type":"Feature","geometry":{"type":"Polygon","coordinates":[[[77.367181,28.59271],[77.367128,28.592766],[77.366562,28.59232],[77.36753,28.591358],[77.368084,28.591793],[77.367181,28.59271]]]},"properties":{"objectid":8756,"plotmapid":"61B019GHS","used":"GROUP HOUSING","plotsizesq":0,"plot_size":"NA","plot_no":"019","sector":"61","block":"B","mplanduse":"B","ppt_type":"GHS","ppt_full":"Group Housing","authority":"NOIDA","category":"group-housing","execution_stage":"unknown"}},{"type":"Feature","geometry":{"type":"Polygon","coordinates":[[[77.367207,28.593655],[77.368202,28.594434],[77.367773,28.594856],[77.366794,28.594071],[77.367207,28.593655]]]},"properties":{"objectid":8758,"plotmapid":"61E015GHS","used":"GROUP HOUSING","plotsizesq":8350,"plot_size":"8350 SQMT","plot_no":"015","sector":"61","block":"E","mplanduse":"B","ppt_type":"GHS","ppt_full":"Group Housing","authority":"NOIDA","category":"group-housing","execution_stage":"unknown"}},{"type":"Feature","geometry":{"type":"Polygon","coordinates":[[[77.366794,28.594071],[77.367773,28.594856],[77.367373,28.595248],[77.366403,28.594466],[77.366794,28.594071]]]},"properties":{"objectid":8761,"plotmapid":"61E015AGHS","used":"GROUP HOUSING","plotsizesq":8364,"plot_size":"8364 SQMT","plot_no":"015A","sector":"61","block":"E","mplanduse":"B","ppt_type":"GHS","ppt_full":"Group Housing","authority":"NOIDA","category":"group-housing","execution_stage":"unknown"}},{"type":"Feature","geometry":{"type":"Polygon","coordinates":[[[77.366247,28.594356],[77.365814,28.594011],[77.366621,28.593203],[77.367057,28.59355],[77.366247,28.594356]]]},"properties":{"objectid":8762,"plotmapid":"61B017GHS","used":"GROUP HOUSING","plotsizesq":7017,"plot_size":"7017 SQMT","plot_no":"017","sector":"61","block":"B","mplanduse":"B","ppt_type":"GHS","ppt_full":"Group Housing","authority":"NOIDA","category":"group-housing","execution_stage":"unknown"}},{"type":"Feature","geometry":{"type":"Polygon","coordinates":[[[77.368496,28.596128],[77.367055,28.596207],[77.366954,28.59491],[77.368496,28.596128]]]},"properties":{"objectid":8764,"plotmapid":"61E014GHS","used":"GROUP HOUSING","plotsizesq":10000,"plot_size":"10000 SQMT","plot_no":"014","sector":"61","block":"E","mplanduse":"B","ppt_type":"GHS","ppt_full":"Group Housing","authority":"NOIDA","category":"group-housing","execution_stage":"unknown"}},{"type":"Feature","geometry":{"type":"Polygon","coordinates":[[[77.36881,28.593665],[77.368591,28.593892],[77.368522,28.593839],[77.368745,28.593615],[77.36881,28.593665]]]},"properties":{"objectid":8765,"plotmapid":"61E016A/12GHS","used":"PLOT","plotsizesq":300,"plot_size":"3 SQMT","plot_no":"016A/12","sector":"61","block":"E","mplanduse":"B","ppt_type":"GHS","ppt_full":"Group Housing","authority":"NOIDA","category":"group-housing","execution_stage":"unknown"}},{"type":"Feature","geometry":{"type":"Polygon","coordinates":[[[77.368745,28.593615],[77.368522,28.593839],[77.368446,28.593781],[77.36867,28.593556],[77.368745,28.593615]]]},"properties":{"objectid":8766,"plotmapid":"61E016A/11GHS","used":"PLOT","plotsizesq":300,"plot_size":"3 SQMT","plot_no":"016A/11","sector":"61","block":"E","mplanduse":"B","ppt_type":"GHS","ppt_full":"Group Housing","authority":"NOIDA","category":"group-housing","execution_stage":"unknown"}},{"type":"Feature","geometry":{"type":"Polygon","coordinates":[[[77.363542,28.595201],[77.363932,28.595497],[77.363245,28.596174],[77.362782,28.595819],[77.363463,28.595141],[77.363542,28.595201]]]},"properties":{"objectid":8805,"plotmapid":"61A001GHS","used":"GROUP HOUSING","plotsizesq":6000,"plot_size":"6000 SQMT","plot_no":"001","sector":"61","block":"A","mplanduse":"B","ppt_type":"GHS","ppt_full":"Group Housing","authority":"NOIDA","category":"group-housing","execution_stage":"unknown"}},{"type":"Feature","geometry":{"type":"Polygon","coordinates":[[[77.369318,28.599527],[77.369376,28.600712],[77.368848,28.600494],[77.368599,28.600359],[77.368254,28.600131],[77.368872,28.599476],[77.369318,28.599527]]]},"properties":{"objectid":8824,"plotmapid":"61C054AGHS","used":"GROUP HOUSING","plotsizesq":9282,"plot_size":"9282 SQM","plot_no":"054A","sector":"61","block":"C","mplanduse":"B","ppt_type":"GHS","ppt_full":"Group Housing","authority":"NOIDA","category":"group-housing","execution_stage":"unknown"}},{"type":"Feature","geometry":{"type":"Polygon","coordinates":[[[77.370902,28.596088],[77.370398,28.596089],[77.370386,28.595098],[77.370943,28.595096],[77.37097,28.596087],[77.370902,28.596088]]]},"properties":{"objectid":8827,"plotmapid":"61E008AGHS","used":"GROUP HOUSING","plotsizesq":6000,"plot_size":"6000 SQMT","plot_no":"008A","sector":"61","block":"E","mplanduse":"B","ppt_type":"GHS","ppt_full":"Group Housing","authority":"NOIDA","category":"group-housing","execution_stage":"unknown"}},{"type":"Feature","geometry":{"type":"Polygon","coordinates":[[[77.369816,28.595101],[77.369271,28.595104],[77.369173,28.594407],[77.369192,28.594312],[77.369646,28.593856],[77.370887,28.59483],[77.37093,28.594902],[77.370943,28.595096],[77.369816,28.595101]]]},"properties":{"objectid":8828,"plotmapid":"61E008GHS","used":"GROUP HOUSING","plotsizesq":15000,"plot_size":"15000 SQMT","plot_no":"008","sector":"61","block":"E","mplanduse":"B","ppt_type":"GHS","ppt_full":"Group Housing","authority":"NOIDA","category":"group-housing","execution_stage":"unknown"}},{"type":"Feature","geometry":{"type":"Polygon","coordinates":[[[77.369822,28.596091],[77.369816,28.595101],[77.370386,28.595098],[77.370398,28.596089],[77.369822,28.596091]]]},"properties":{"objectid":8829,"plotmapid":"61E008BGHS","used":"GROUP HOUSING","plotsizesq":6000,"plot_size":"6000 SQMT","plot_no":"008B","sector":"61","block":"E","mplanduse":"B","ppt_type":"GHS","ppt_full":"Group Housing","authority":"NOIDA","category":"group-housing","execution_stage":"unknown"}},{"type":"Feature","geometry":{"type":"Polygon","coordinates":[[[77.371958,28.59625],[77.371976,28.597002],[77.370826,28.596899],[77.370806,28.596243],[77.371917,28.596227],[77.371958,28.59625]]]},"properties":{"objectid":8831,"plotmapid":"61E010BGHS","used":"GROUP HOUSING","plotsizesq":7725,"plot_size":"7725 SQMT","plot_no":"010B","sector":"61","block":"E","mplanduse":"B","ppt_type":"GHS","ppt_full":"Group Housing","authority":"NOIDA","category":"group-housing","execution_stage":"unknown"}},{"type":"Feature","geometry":{"type":"Polygon","coordinates":[[[77.370808,28.596306],[77.370827,28.596898],[77.37048,28.597214],[77.369786,28.596678],[77.3698,28.596259],[77.370806,28.596243],[77.370808,28.596306]]]},"properties":{"objectid":8832,"plotmapid":"61E010AGHS","used":"GROUP HOUSING","plotsizesq":7725,"plot_size":"7725 SQMT","plot_no":"010A","sector":"61","block":"E","mplanduse":"B","ppt_type":"GHS","ppt_full":"Group Housing","authority":"NOIDA","category":"group-housing","execution_stage":"unknown"}},{"type":"Feature","geometry":{"type":"Polygon","coordinates":[[[77.370907,28.598129],[77.369434,28.598178],[77.369378,28.597012],[77.370907,28.598129]]]},"properties":{"objectid":8834,"plotmapid":"61E011GHS","used":"GROUP HOUSING","plotsizesq":9304.42,"plot_size":"9304.42 SQMT","plot_no":"011","sector":"61","block":"E","mplanduse":"B","ppt_type":"GHS","ppt_full":"Group Housing","authority":"NOIDA","category":"group-housing","execution_stage":"unknown"}},{"type":"Feature","geometry":{"type":"Polygon","coordinates":[[[77.370855,28.596901],[77.371976,28.597002],[77.372005,28.597642],[77.370893,28.597529],[77.37048,28.597214],[77.370826,28.596899],[77.370855,28.596901]]]},"properties":{"objectid":8835,"plotmapid":"61E010CGHS","used":"GROUP HOUSING","plotsizesq":7800,"plot_size":"7800 SQMT","plot_no":"010C","sector":"61","block":"E","mplanduse":"B","ppt_type":"GHS","ppt_full":"Group Housing","authority":"NOIDA","category":"group-housing","execution_stage":"unknown"}},{"type":"Feature","geometry":{"type":"Polygon","coordinates":[[[77.368803,28.598204],[77.36823,28.597784],[77.368648,28.597359],[77.369202,28.597346],[77.369268,28.598192],[77.368803,28.598204]]]},"properties":{"objectid":8848,"plotmapid":"61EGHS","used":"GROUP HOUSING","plotsizesq":0,"plot_size":"NA","sector":"61","block":"E","mplanduse":"B","ppt_type":"GHS","ppt_full":"Group Housing","authority":"NOIDA","category":"group-housing","execution_stage":"unknown"}},{"type":"Feature","geometry":{"type":"Polygon","coordinates":[[[77.3678,28.597461],[77.367582,28.597294],[77.368017,28.596852],[77.368648,28.597359],[77.36823,28.597784],[77.3678,28.597461]]]},"properties":{"objectid":8849,"plotmapid":"61E012GHS","used":"GROUP HOUSING","plotsizesq":0,"plot_size":"NA","plot_no":"012","sector":"61","block":"E","mplanduse":"B","ppt_type":"GHS","ppt_full":"Group Housing","authority":"NOIDA","category":"group-housing","execution_stage":"unknown"}},{"type":"Feature","geometry":{"type":"Polygon","coordinates":[[[77.367125,28.596953],[77.36711,28.596933],[77.367062,28.596376],[77.367959,28.596329],[77.367998,28.596825],[77.368017,28.596852],[77.367582,28.597294],[77.367125,28.596953]]]},"properties":{"objectid":8850,"plotmapid":"61EGHS","used":"GROUP HOUSING","plotsizesq":0,"plot_size":"NA","sector":"61","block":"E","mplanduse":"B","ppt_type":"GHS","ppt_full":"Group Housing","authority":"NOIDA","category":"group-housing","execution_stage":"unknown"}},{"type":"Feature","geometry":{"type":"Polygon","coordinates":[[[77.367427,28.593433],[77.367618,28.593244],[77.368524,28.593946],[77.368331,28.594138],[77.367427,28.593433]]]},"properties":{"objectid":9086,"plotmapid":"61E016GHS","used":"GROUP HOUSING","plotsizesq":3628,"plot_size":"3628 SQMT","plot_no":"016","sector":"61","block":"E","mplanduse":"B","ppt_type":"GHS","ppt_full":"Group Housing","authority":"NOIDA","category":"group-housing","execution_stage":"unknown"}},{"type":"Feature","geometry":{"type":"Polygon","coordinates":[[[77.350125,28.604893],[77.350037,28.6054],[77.349005,28.605262],[77.349052,28.604983],[77.348957,28.604969],[77.349001,28.604739],[77.349239,28.604775],[77.349288,28.604511],[77.350172,28.60463],[77.350125,28.604893]]]},"properties":{"objectid":12483,"plotmapid":"55CGHS","used":"GROUP HOUSING","plotsizesq":16800,"plot_size":"16800 SQMT","sector":"55","block":"C","mplanduse":"B","ppt_type":"GHS","ppt_full":"Group Housing","remark":"As per drone is vacant ,not Alloted & not buildup","authority":"NOIDA","category":"group-housing","execution_stage":"unknown"}},{"type":"Feature","geometry":{"type":"Polygon","coordinates":[[[77.349079,28.604483],[77.34904,28.60471],[77.348946,28.604698],[77.348837,28.605239],[77.348165,28.605137],[77.348195,28.604927],[77.348212,28.604886],[77.348262,28.604837],[77.348795,28.604534],[77.348814,28.604446],[77.349079,28.604483]]]},"properties":{"objectid":12484,"plotmapid":"55CGHS","used":"GROUP HOUSING","plotsizesq":16800,"plot_size":"16800 SQMT","sector":"55","block":"C","mplanduse":"B","ppt_type":"GHS","ppt_full":"Group Housing","remark":"As per drone is vacant ,not Alloted & not buildup","authority":"NOIDA","category":"group-housing","execution_stage":"unknown"}},{"type":"Feature","geometry":{"type":"Polygon","coordinates":[[[77.353334,28.590843],[77.353183,28.591015],[77.353102,28.59118],[77.352943,28.591827],[77.351318,28.591511],[77.351766,28.589707],[77.352456,28.590217],[77.352293,28.590387],[77.352525,28.59056],[77.352693,28.590385],[77.353334,28.590843]]]},"properties":{"objectid":22093,"plotmapid":"23A033GHS","used":"GROUP HOUSING","plotsizesq":25865.25,"plot_size":"25865.25 SQMT","plot_no":"033","sector":"23","block":"A","mplanduse":"B","ppt_type":"GHS","ppt_full":"Group Housing","authority":"NOIDA","category":"group-housing","execution_stage":"unknown"}},{"type":"Feature","geometry":{"type":"Polygon","coordinates":[[[77.354857,28.59373],[77.353796,28.594752],[77.352904,28.59408],[77.353167,28.593809],[77.353372,28.592987],[77.354013,28.59312],[77.354162,28.593233],[77.354001,28.593391],[77.354237,28.593568],[77.354408,28.5934],[77.354857,28.59373]]]},"properties":{"objectid":22169,"plotmapid":"23B099GHS","used":"GROUP HOUSING","plotsizesq":19802.12,"plot_size":"19802.12 SQMT","plot_no":"099","sector":"23","block":"B","mplanduse":"B","ppt_type":"GHS","ppt_full":"Group Housing","authority":"NOIDA","category":"group-housing","execution_stage":"unknown"}},{"type":"Feature","geometry":{"type":"Polygon","coordinates":[[[77.351954,28.593244],[77.352563,28.593354],[77.352512,28.593553],[77.352227,28.593865],[77.35203,28.593717],[77.351825,28.593918],[77.352031,28.594073],[77.351407,28.594728],[77.350699,28.594198],[77.350969,28.593071],[77.351954,28.593244]]]},"properties":{"objectid":22226,"plotmapid":"23A109GHS","used":"GROUP HOUSING","plotsizesq":19432.5,"plot_size":"19432.50 SQMT","plot_no":"109","sector":"23","block":"A","mplanduse":"B","ppt_type":"GHS","ppt_full":"Group Housing","authority":"NOIDA","category":"group-housing","execution_stage":"unknown"}},{"type":"Feature","geometry":{"type":"Polygon","coordinates":[[[77.37012,28.578928],[77.370946,28.579109],[77.371171,28.579507],[77.371133,28.579524],[77.371223,28.579652],[77.371179,28.579766],[77.371074,28.579906],[77.370925,28.580012],[77.370478,28.580226],[77.370216,28.579767],[77.370119,28.579652],[77.369941,28.579506],[77.37012,28.578928]]]},"properties":{"objectid":38931,"plotmapid":"51D004GHS","used":"GR. HOUSING","plotsizesq":12020,"plot_size":"12020 SQMT","plot_no":"004","sector":"51","block":"D","mplanduse":"ISSUE","ppt_type":"GHS","ppt_full":"Group Housing","authority":"NOIDA","category":"group-housing","execution_stage":"unknown"}},{"type":"Feature","geometry":{"type":"Polygon","coordinates":[[[77.372233,28.580224],[77.371781,28.581633],[77.371415,28.581532],[77.371224,28.581422],[77.371116,28.581327],[77.370585,28.580348],[77.371048,28.580135],[77.371249,28.579995],[77.372233,28.580224]]]},"properties":{"objectid":38932,"plotmapid":"51D005GHS","used":"GROUP HOUSING","plotsizesq":17381,"plot_size":"17381 SQMT","plot_no":"005","sector":"51","block":"D","mplanduse":"ISSUE","ppt_type":"GHS","ppt_full":"Group Housing","authority":"NOIDA","category":"group-housing","execution_stage":"unknown"}},{"type":"Feature","geometry":{"type":"Polygon","coordinates":[[[77.367689,28.579844],[77.368832,28.580123],[77.368255,28.580701],[77.367727,28.580317],[77.36785,28.580269],[77.367689,28.579844]]]},"properties":{"objectid":38968,"plotmapid":"51C013GHS","used":"GR. HOUSING","plotsizesq":4908,"plot_size":"4908 SQMT","plot_no":"013","sector":"51","block":"C","mplanduse":"ISSUE","ppt_type":"GHS","ppt_full":"Group Housing","authority":"NOIDA","category":"group-housing","execution_stage":"unknown"}},{"type":"Feature","geometry":{"type":"Polygon","coordinates":[[[77.367727,28.580317],[77.368255,28.580701],[77.367539,28.58142],[77.366665,28.580732],[77.367727,28.580317]]]},"properties":{"objectid":38970,"plotmapid":"51C012GHS","used":"GR. HOUSING","plotsizesq":8541,"plot_size":"8541 SQMT","plot_no":"012","sector":"51","block":"C","mplanduse":"ISSUE","ppt_type":"GHS","ppt_full":"Group Housing","authority":"NOIDA","category":"group-housing","execution_stage":"unknown"}},{"type":"Feature","geometry":{"type":"Polygon","coordinates":[[[77.37065,28.582836],[77.370843,28.582879],[77.370647,28.583491],[77.37025,28.583356],[77.369894,28.58319],[77.370047,28.582699],[77.37065,28.582836]]]},"properties":{"objectid":38973,"plotmapid":"51F006GHS","used":"GR. HOUSING","plotsizesq":5111,"plot_size":"5111 SQMT","plot_no":"006","sector":"51","block":"F","mplanduse":"ISSUE","ppt_type":"GHS","ppt_full":"Group Housing","authority":"NOIDA","category":"group-housing","execution_stage":"unknown"}},{"type":"Feature","geometry":{"type":"Polygon","coordinates":[[[77.366665,28.580732],[77.367539,28.58142],[77.366868,28.582093],[77.366566,28.581873],[77.365433,28.580977],[77.366665,28.580732]]]},"properties":{"objectid":38975,"plotmapid":"51C011GHS","used":"GR. HOUSING","plotsizesq":11933,"plot_size":"11933 SQMT","plot_no":"011","sector":"51","block":"C","mplanduse":"ISSUE","ppt_type":"GHS","ppt_full":"Group Housing","authority":"NOIDA","category":"group-housing","execution_stage":"unknown"}},{"type":"Feature","geometry":{"type":"Polygon","coordinates":[[[77.370633,28.58365],[77.370059,28.584384],[77.369314,28.583857],[77.369758,28.583288],[77.370179,28.583499],[77.370633,28.58365]]]},"properties":{"objectid":38977,"plotmapid":"51F004GHS","used":"GR. HOUSING","plotsizesq":6065,"plot_size":"6065 SQMT","plot_no":"004","sector":"51","block":"F","mplanduse":"ISSUE","ppt_type":"GHS","ppt_full":"Group Housing","authority":"NOIDA","category":"group-housing","execution_stage":"unknown"}},{"type":"Feature","geometry":{"type":"Polygon","coordinates":[[[77.369758,28.583288],[77.369314,28.583857],[77.368896,28.583562],[77.368589,28.583304],[77.368992,28.582789],[77.369758,28.583288]]]},"properties":{"objectid":38978,"plotmapid":"51F003GHS","used":"GR. HOUSING","plotsizesq":5188,"plot_size":"5188 SQMT","plot_no":"003","sector":"51","block":"F","mplanduse":"ISSUE","ppt_type":"GHS","ppt_full":"Group Housing","authority":"NOIDA","category":"group-housing","execution_stage":"unknown"}},{"type":"Feature","geometry":{"type":"Polygon","coordinates":[[[77.366914,28.582451],[77.367029,28.582339],[77.367176,28.582151],[77.36818,28.582949],[77.368896,28.583562],[77.371648,28.585506],[77.372326,28.586092],[77.372247,28.58634],[77.371592,28.585937],[77.370377,28.585062],[77.369688,28.584513],[77.368728,28.583824],[77.366914,28.582451]]]},"properties":{"objectid":38981,"plotmapid":"51NAGHS","used":"GR. HOUSING","plotsizesq":0,"sector":"51","block":"NA","mplanduse":"ISSUE","ppt_type":"GHS","ppt_full":"Group Housing","authority":"NOIDA","category":"group-housing","execution_stage":"unknown"}},{"type":"Feature","geometry":{"type":"Polygon","coordinates":[[[77.370767,28.583519],[77.371344,28.58172],[77.371499,28.581775],[77.372254,28.58195],[77.371696,28.583736],[77.370767,28.583519]]]},"properties":{"objectid":38990,"plotmapid":"51F008GHS","used":"GROUP HOUSING","plotsizesq":18843,"plot_size":"18843 SQMT","plot_no":"008","sector":"51","block":"F","mplanduse":"ISSUE","ppt_type":"GHS","ppt_full":"Group Housing","authority":"NOIDA","category":"group-housing","execution_stage":"unknown"}},{"type":"Feature","geometry":{"type":"Polygon","coordinates":[[[77.368992,28.582789],[77.368589,28.583304],[77.36818,28.582949],[77.367889,28.58272],[77.368224,28.58229],[77.368992,28.582789]]]},"properties":{"objectid":38991,"plotmapid":"51F002GHS","used":"GR. HOUSING","plotsizesq":4521,"plot_size":"4521 SQMT","plot_no":"002","sector":"51","block":"F","mplanduse":"ISSUE","ppt_type":"GHS","ppt_full":"Group Housing","authority":"NOIDA","category":"group-housing","execution_stage":"unknown"}},{"type":"Feature","geometry":{"type":"Polygon","coordinates":[[[77.364409,28.588492],[77.365162,28.587746],[77.366946,28.589139],[77.366195,28.589865],[77.364409,28.588492]]]},"properties":{"objectid":39848,"plotmapid":"52E003GHS","property_t":"Residential","used":"GROUP HOUSING POCKET","allotted_p":"Yes","plotsizesq":200,"plot_size":"200 SQMT","plot_no":"003","sector":"52","block":"E","mplanduse":"B","ppt_type":"GHS","ppt_full":"Group Housing","authority":"NOIDA","category":"group-housing","execution_stage":"allotted"}},{"type":"Feature","geometry":{"type":"Polygon","coordinates":[[[77.363626,28.586627],[77.3649,28.587587],[77.364178,28.588325],[77.362413,28.587033],[77.363149,28.586268],[77.363626,28.586627]]]},"properties":{"objectid":39849,"plotmapid":"52E005GHS","property_t":"Residential","used":"GROUP HOUSING POCKET","allotted_p":"Yes","plotsizesq":200,"plot_size":"200 SQMT","plot_no":"005","sector":"52","block":"E","mplanduse":"B","ppt_type":"GHS","ppt_full":"Group Housing","authority":"NOIDA","category":"group-housing","execution_stage":"allotted"}},{"type":"Feature","geometry":{"type":"Polygon","coordinates":[[[77.366552,28.590373],[77.36609,28.590846],[77.365554,28.590455],[77.366002,28.589998],[77.366552,28.590373]]]},"properties":{"objectid":39912,"plotmapid":"53C084GHS","used":"GR. HOUSING","plotsizesq":4530,"plot_size":"4530 SQMT","plot_no":"084","sector":"53","block":"C","mplanduse":"ISSUE","ppt_type":"GHS","ppt_full":"Group Housing","authority":"NOIDA","category":"group-housing","execution_stage":"unknown"}},{"type":"Feature","geometry":{"type":"Polygon","coordinates":[[[77.364539,28.589],[77.364203,28.589017],[77.364062,28.588879],[77.36336,28.589063],[77.362089,28.588196],[77.362585,28.587667],[77.364539,28.589]]]},"properties":{"objectid":39914,"plotmapid":"53E006GHS","used":"GROUP HOUSING","plotsizesq":16039.58,"plot_size":"16039.58 SQMT","plot_no":"006","sector":"53","block":"E","mplanduse":"ISSUE","ppt_type":"GHS","ppt_full":"Group Housing","authority":"NOIDA","category":"group-housing","execution_stage":"unknown"}},{"type":"Feature","geometry":{"type":"Polygon","coordinates":[[[77.361826,28.588305],[77.361418,28.588027],[77.362079,28.587322],[77.362487,28.5876],[77.361826,28.588305]]]},"properties":{"objectid":39915,"plotmapid":"53E005GHS","used":"GROUP HOUSING","plotsizesq":5000,"plot_size":"5000 SQMT","plot_no":"005","sector":"53","block":"E","mplanduse":"ISSUE","ppt_type":"GHS","ppt_full":"Group Housing","authority":"NOIDA","category":"group-housing","execution_stage":"unknown"}},{"type":"Feature","geometry":{"type":"Polygon","coordinates":[[[77.365581,28.591366],[77.365046,28.590975],[77.365473,28.590538],[77.366008,28.590929],[77.365581,28.591366]]]},"properties":{"objectid":39916,"plotmapid":"53C083GHS","used":"GR. HOUSING","plotsizesq":4252.5,"plot_size":"4252.50 SQMT","plot_no":"083","sector":"53","block":"C","mplanduse":"ISSUE","ppt_type":"GHS","ppt_full":"Group Housing","authority":"NOIDA","category":"group-housing","execution_stage":"unknown"}},{"type":"Feature","geometry":{"type":"Polygon","coordinates":[[[77.361103,28.589073],[77.360696,28.588795],[77.361358,28.588091],[77.361766,28.588369],[77.361103,28.589073]]]},"properties":{"objectid":39926,"plotmapid":"53E004GHS","used":"GROUP HOUSING","plotsizesq":5000,"plot_size":"5000 SQMT","plot_no":"004","sector":"53","block":"E","mplanduse":"ISSUE","ppt_type":"GHS","ppt_full":"Group Housing","authority":"NOIDA","category":"group-housing","execution_stage":"unknown"}},{"type":"Feature","geometry":{"type":"Polygon","coordinates":[[[77.36038,28.58984],[77.359973,28.589562],[77.360636,28.588858],[77.361044,28.589136],[77.36038,28.58984]]]},"properties":{"objectid":39927,"plotmapid":"53E003GHS","used":"GROUP HOUSING","plotsizesq":5000,"plot_size":"5000 SQMT","plot_no":"003","sector":"53","block":"E","mplanduse":"ISSUE","ppt_type":"GHS","ppt_full":"Group Housing","authority":"NOIDA","category":"group-housing","execution_stage":"unknown"}},{"type":"Feature","geometry":{"type":"Polygon","coordinates":[[[77.360321,28.589904],[77.35953,28.590754],[77.359134,28.590463],[77.359914,28.589626],[77.360321,28.589904]]]},"properties":{"objectid":39929,"plotmapid":"53E002GHS","used":"GROUP HOUSING","plotsizesq":5910.8,"plot_size":"5910.80 SQM","plot_no":"002","sector":"53","block":"E","mplanduse":"ISSUE","ppt_type":"GHS","ppt_full":"Group Housing","authority":"NOIDA","category":"group-housing","execution_stage":"unknown"}},{"type":"Feature","geometry":{"type":"Polygon","coordinates":[[[77.360631,28.591549],[77.361167,28.59186],[77.361109,28.591922],[77.361145,28.592009],[77.360639,28.592555],[77.360124,28.59171],[77.360622,28.591518],[77.360631,28.591549]]]},"properties":{"objectid":39931,"plotmapid":"53D036GHS","used":"GROUP HOUSING","plotsizesq":5763.5,"plot_size":"5763.50 SQMT","plot_no":"036","sector":"53","block":"D","mplanduse":"B","ppt_type":"GHS","ppt_full":"Group Housing","authority":"NOIDA","category":"group-housing","execution_stage":"unknown"}},{"type":"Feature","geometry":{"type":"Polygon","coordinates":[[[77.359388,28.592059],[77.359558,28.592425],[77.359141,28.592865],[77.358774,28.592596],[77.3593,28.592041],[77.359295,28.592031],[77.359363,28.592005],[77.359388,28.592059]]]},"properties":{"objectid":39941,"plotmapid":"53D033GHS","used":"GROUP HOUSING","plotsizesq":3378.91,"plot_size":"3378.91 SQMT","plot_no":"033","sector":"53","block":"D","mplanduse":"ISSUE","ppt_type":"GHS","ppt_full":"Group Housing","authority":"NOIDA","category":"group-housing","execution_stage":"unknown"}},{"type":"Feature","geometry":{"type":"Polygon","coordinates":[[[77.374169,28.580983],[77.373007,28.580742],[77.373277,28.579778],[77.374439,28.58002],[77.374169,28.580983]]]},"properties":{"objectid":41277,"plotmapid":"51D019GHS","used":"GROUP HOUSING","plotsizesq":12567,"plot_size":"12567 SQMT","plot_no":"019","sector":"51","block":"D","mplanduse":"ISSUE","ppt_type":"GHS","ppt_full":"Group Housing","authority":"NOIDA","category":"group-housing","execution_stage":"unknown"}},{"type":"Feature","geometry":{"type":"Polygon","coordinates":[[[77.363017,28.579027],[77.366866,28.57672],[77.367821,28.577429],[77.364904,28.580446],[77.363017,28.579027]]]},"properties":{"objectid":41324,"plotmapid":"51C001GHS","used":"GR. HOUSING","plotsizesq":74728,"plot_size":"74728 SQMT","plot_no":"001","sector":"51","block":"C","mplanduse":"B","ppt_type":"GHS","ppt_full":"Group Housing","authority":"NOIDA","category":"group-housing","execution_stage":"unknown"}},{"type":"Feature","geometry":{"type":"Polygon","coordinates":[[[77.352496,28.586141],[77.352525,28.585582],[77.35327,28.584788],[77.354354,28.585625],[77.353878,28.586353],[77.352567,28.586167],[77.352572,28.586152],[77.352496,28.586141]]]},"properties":{"objectid":41934,"plotmapid":"33ANAGHS","plotsizesq":0,"sector":"33A","block":"NA","mplanduse":"V","ppt_type":"GHS","ppt_full":"Group Housing","remark":"As per drone is vacant ,not Alloted & not buildup","authority":"NOIDA","category":"group-housing","execution_stage":"unknown"}},{"type":"Feature","geometry":{"type":"Polygon","coordinates":[[[77.35485,28.580516],[77.354161,28.581228],[77.353449,28.580703],[77.354135,28.579931],[77.35485,28.580516]]]},"properties":{"objectid":42032,"plotmapid":"35A119GHS","plotsizesq":0,"plot_no":"119","sector":"35","block":"A","mplanduse":"B","ppt_type":"GHS","ppt_full":"Group Housing","authority":"NOIDA","category":"group-housing","execution_stage":"unknown"}},{"type":"Feature","geometry":{"type":"Polygon","coordinates":[[[77.3564,28.581766],[77.356901,28.582155],[77.35662,28.582392],[77.356391,28.582745],[77.356078,28.583171],[77.355459,28.582692],[77.356364,28.581739],[77.3564,28.581766]]]},"properties":{"objectid":42088,"plotmapid":"35NA122GHS","plotsizesq":0,"plot_no":"122","sector":"35","block":"NA","mplanduse":"B","ppt_type":"GHS","ppt_full":"Group Housing","authority":"NOIDA","category":"group-housing","execution_stage":"unknown"}},{"type":"Feature","geometry":{"type":"Polygon","coordinates":[[[77.35505,28.583165],[77.355739,28.583699],[77.355128,28.584642],[77.354224,28.584008],[77.355032,28.583152],[77.35505,28.583165]]]},"properties":{"objectid":42090,"plotmapid":"35NA124GHS","plotsizesq":0,"plot_no":"124","sector":"35","block":"NA","mplanduse":"B","ppt_type":"GHS","ppt_full":"Group Housing","authority":"NOIDA","category":"group-housing","execution_stage":"unknown"}},{"type":"Feature","geometry":{"type":"Polygon","coordinates":[[[77.376885,28.577262],[77.376742,28.578285],[77.375618,28.578068],[77.375122,28.577213],[77.375145,28.577065],[77.376885,28.577262]]]},"properties":{"objectid":48417,"plotmapid":"50F021GHS","used":"G.H","plotsizesq":0,"plot_no":"021","sector":"50","block":"F","mplanduse":"B","ppt_type":"GHS","ppt_full":"Group Housing","authority":"NOIDA","category":"group-housing","execution_stage":"unknown"}},{"type":"Feature","geometry":{"type":"Polygon","coordinates":[[[77.376973,28.576572],[77.376885,28.577262],[77.375145,28.577065],[77.37525,28.576379],[77.376973,28.576572]]]},"properties":{"objectid":48420,"plotmapid":"50F021AGHS","used":"G.H","plotsizesq":9750,"plot_size":"9750 SQMT","plot_no":"021A","sector":"50","block":"F","mplanduse":"B","ppt_type":"GHS","ppt_full":"Group Housing","authority":"NOIDA","category":"group-housing","execution_stage":"unknown"}},{"type":"Feature","geometry":{"type":"Polygon","coordinates":[[[77.370555,28.577742],[77.370541,28.577798],[77.369742,28.577613],[77.369766,28.577453],[77.369801,28.577427],[77.369291,28.576796],[77.369836,28.576459],[77.369929,28.576461],[77.370194,28.576511],[77.370798,28.576644],[77.370555,28.577742]]]},"properties":{"objectid":48518,"plotmapid":"50F033GHS","used":"G.H","plotsizesq":0,"plot_no":"033","sector":"50","block":"F","mplanduse":"B","ppt_type":"GHS","ppt_full":"Group Housing","authority":"NOIDA","category":"group-housing","execution_stage":"unknown"}},{"type":"Feature","geometry":{"type":"Polygon","coordinates":[[[77.370798,28.576644],[77.37138,28.576771],[77.371131,28.577921],[77.370541,28.577798],[77.370798,28.576644]]]},"properties":{"objectid":48519,"plotmapid":"50F032GHS","used":"G.H","plotsizesq":9750,"plot_size":"9750 SQMT","plot_no":"032","sector":"50","block":"F","mplanduse":"B","ppt_type":"GHS","ppt_full":"Group Housing","authority":"NOIDA","category":"group-housing","execution_stage":"unknown"}},{"type":"Feature","geometry":{"type":"Polygon","coordinates":[[[77.373323,28.57719],[77.373773,28.577284],[77.373529,28.578443],[77.372777,28.578286],[77.373034,28.577129],[77.373323,28.57719]]]},"properties":{"objectid":48520,"plotmapid":"50F029GHS","used":"G.H","plotsizesq":9750,"plot_size":"9750 SQMT","plot_no":"029","sector":"50","block":"F","mplanduse":"B","ppt_type":"GHS","ppt_full":"Group Housing","authority":"NOIDA","category":"group-housing","execution_stage":"unknown"}},{"type":"Feature","geometry":{"type":"Polygon","coordinates":[[[77.37401,28.577334],[77.374529,28.577441],[77.374273,28.578606],[77.373529,28.578443],[77.373773,28.577284],[77.37401,28.577334]]]},"properties":{"objectid":48521,"plotmapid":"50F028GHS","used":"G.H","plotsizesq":9750,"plot_size":"9750 SQMT","plot_no":"028","sector":"50","block":"F","mplanduse":"B","ppt_type":"GHS","ppt_full":"Group Housing","authority":"NOIDA","category":"group-housing","execution_stage":"unknown"}},{"type":"Feature","geometry":{"type":"Polygon","coordinates":[[[77.37262,28.57704],[77.373034,28.577129],[77.372777,28.578286],[77.372033,28.578126],[77.37229,28.576969],[77.37262,28.57704]]]},"properties":{"objectid":48522,"plotmapid":"50F030GHS","used":"G.H","plotsizesq":9750,"plot_size":"9750 SQMT","plot_no":"030","sector":"50","block":"F","mplanduse":"B","ppt_type":"GHS","ppt_full":"Group Housing","authority":"NOIDA","category":"group-housing","execution_stage":"unknown"}},{"type":"Feature","geometry":{"type":"Polygon","coordinates":[[[77.37229,28.576969],[77.372033,28.578126],[77.371131,28.577921],[77.37138,28.576771],[77.37229,28.576969]]]},"properties":{"objectid":48523,"plotmapid":"50F031GHS","used":"G.H","plotsizesq":9750,"plot_size":"9750 SQMT","plot_no":"031","sector":"50","block":"F","mplanduse":"B","ppt_type":"GHS","ppt_full":"Group Housing","authority":"NOIDA","category":"group-housing","execution_stage":"unknown"}},{"type":"Feature","geometry":{"type":"Polygon","coordinates":[[[77.374512,28.577437],[77.374402,28.577414],[77.374492,28.577016],[77.374973,28.577118],[77.374958,28.577206],[77.37497,28.577251],[77.375449,28.578075],[77.375207,28.578817],[77.374273,28.578606],[77.374529,28.577441],[77.374512,28.577437]]]},"properties":{"objectid":48524,"plotmapid":"50F027GHS","used":"G.H","plotsizesq":0,"plot_no":"027","sector":"50","block":"F","mplanduse":"B","ppt_type":"GHS","ppt_full":"Group Housing","authority":"NOIDA","category":"group-housing","execution_stage":"unknown"}},{"type":"Feature","geometry":{"type":"Polygon","coordinates":[[[77.37574,28.578182],[77.376707,28.578392],[77.376579,28.57911],[77.375329,28.578836],[77.375489,28.57829],[77.37574,28.578182]]]},"properties":{"objectid":48526,"plotmapid":"50F026GHS","plotsizesq":0,"plot_no":"026","sector":"50","block":"F","mplanduse":"B","ppt_type":"GHS","ppt_full":"Group Housing","authority":"NOIDA","category":"group-housing","execution_stage":"unknown"}},{"type":"Feature","geometry":{"type":"Polygon","coordinates":[[[77.356546,28.584086],[77.357231,28.584595],[77.356445,28.585408],[77.355596,28.584771],[77.355589,28.584748],[77.356177,28.583825],[77.356546,28.584086]]]},"properties":{"objectid":53519,"plotmapid":"34B001GHS","plotsizesq":0,"plot_no":"001","sector":"34","block":"B","mplanduse":"B","ppt_type":"GHS","ppt_full":"Group Housing","authority":"NOIDA","category":"group-housing","execution_stage":"unknown"}},{"type":"Feature","geometry":{"type":"Polygon","coordinates":[[[77.357093,28.582362],[77.35722,28.582479],[77.358392,28.583386],[77.357816,28.583981],[77.356507,28.583017],[77.357093,28.582362]]]},"properties":{"objectid":53522,"plotmapid":"34B009GHS","plotsizesq":0,"plot_no":"009","sector":"34","block":"B","mplanduse":"B","ppt_type":"GHS","ppt_full":"Group Housing","authority":"NOIDA","category":"group-housing","execution_stage":"unknown"}},{"type":"Feature","geometry":{"type":"Polygon","coordinates":[[[77.3589,28.582845],[77.358487,28.583277],[77.357777,28.582737],[77.357352,28.582367],[77.359063,28.581288],[77.360147,28.582096],[77.359264,28.583063],[77.358924,28.582821],[77.3589,28.582845]]]},"properties":{"objectid":53523,"plotmapid":"34B010GHS","plotsizesq":0,"plot_no":"010","sector":"34","block":"B","mplanduse":"B","ppt_type":"GHS","ppt_full":"Group Housing","authority":"NOIDA","category":"group-housing","execution_stage":"unknown"}},{"type":"Feature","geometry":{"type":"Polygon","coordinates":[[[77.361087,28.581125],[77.360217,28.582035],[77.359065,28.581206],[77.359424,28.581011],[77.359494,28.581043],[77.360723,28.580229],[77.361835,28.581053],[77.36172,28.581177],[77.361317,28.580882],[77.361087,28.581125]]]},"properties":{"objectid":53530,"plotmapid":"34B010A&012GHS","plotsizesq":0,"plot_no":"010A&012","sector":"34","block":"B","mplanduse":"B","ppt_type":"GHS","ppt_full":"Group Housing","authority":"NOIDA","category":"group-housing","execution_stage":"unknown"}},{"type":"Feature","geometry":{"type":"Polygon","coordinates":[[[77.361887,28.579549],[77.362691,28.58013],[77.361835,28.581053],[77.360723,28.580229],[77.361821,28.579501],[77.361887,28.579549]]]},"properties":{"objectid":53531,"plotmapid":"34B012AGHS","plotsizesq":0,"plot_no":"012A","sector":"34","block":"B","mplanduse":"B","ppt_type":"GHS","ppt_full":"Group Housing","authority":"NOIDA","category":"group-housing","execution_stage":"unknown"}},{"type":"Feature","geometry":{"type":"Polygon","coordinates":[[[77.359295,28.584641],[77.358544,28.585406],[77.357454,28.584606],[77.358198,28.583823],[77.359295,28.584641]]]},"properties":{"objectid":53534,"plotmapid":"34B003GHS","plotsizesq":0,"plot_no":"003","sector":"34","block":"B","mplanduse":"B","ppt_type":"GHS","ppt_full":"Group Housing","authority":"NOIDA","category":"group-housing","execution_stage":"unknown"}},{"type":"Feature","geometry":{"type":"Polygon","coordinates":[[[77.35784,28.585029],[77.358975,28.585868],[77.358171,28.5867],[77.357051,28.585872],[77.35784,28.585029]]]},"properties":{"objectid":53537,"plotmapid":"34B001GHS","plotsizesq":0,"plot_no":"001","sector":"34","block":"B","mplanduse":"B","ppt_type":"GHS","ppt_full":"Group Housing","authority":"NOIDA","category":"group-housing","execution_stage":"unknown"}},{"type":"Feature","geometry":{"type":"Polygon","coordinates":[[[77.359717,28.58496],[77.358687,28.584185],[77.359432,28.583393],[77.360529,28.584198],[77.359758,28.584991],[77.359717,28.58496]]]},"properties":{"objectid":53539,"plotmapid":"34B005GHS","plotsizesq":0,"plot_no":"005","sector":"34","block":"B","mplanduse":"B","ppt_type":"GHS","ppt_full":"Group Housing","authority":"NOIDA","category":"group-housing","execution_stage":"unknown"}},{"type":"Feature","geometry":{"type":"Polygon","coordinates":[[[77.359783,28.583432],[77.360568,28.582609],[77.36144,28.583234],[77.36094,28.583776],[77.36053,28.583474],[77.360247,28.583785],[77.359783,28.583432]]]},"properties":{"objectid":53541,"plotmapid":"34B014GHS","plotsizesq":0,"plot_no":"014","sector":"34","block":"B","mplanduse":"B","ppt_type":"GHS","ppt_full":"Group Housing","authority":"NOIDA","category":"group-housing","execution_stage":"unknown"}},{"type":"Feature","geometry":{"type":"Polygon","coordinates":[[[77.361961,28.582567],[77.362017,28.582609],[77.36144,28.583234],[77.360568,28.582609],[77.361168,28.58198],[77.361961,28.582567]]]},"properties":{"objectid":53542,"plotmapid":"34B014AGHS","plotsizesq":0,"plot_no":"014A","sector":"34","block":"B","mplanduse":"B","ppt_type":"GHS","ppt_full":"Group Housing","authority":"NOIDA","category":"group-housing","execution_stage":"unknown"}},{"type":"Feature","geometry":{"type":"Polygon","coordinates":[[[77.363904,28.582516],[77.363214,28.583248],[77.361983,28.582307],[77.36263,28.581607],[77.363904,28.582516]]]},"properties":{"objectid":53552,"plotmapid":"34CGHS","plotsizesq":0,"sector":"34","block":"C","mplanduse":"B","ppt_type":"GHS","ppt_full":"Group Housing","authority":"NOIDA","category":"group-housing","execution_stage":"unknown"}},{"type":"Feature","geometry":{"type":"Polygon","coordinates":[[[77.360634,28.585722],[77.360976,28.585981],[77.360295,28.58669],[77.359181,28.585872],[77.359866,28.585141],[77.360634,28.585722]]]},"properties":{"objectid":53554,"plotmapid":"34A068GHS","property_t":"Residential","allotted_p":"Yes","plotsizesq":300,"plot_size":"300 SQMT","plot_no":"068","sector":"34","block":"A","mplanduse":"B","ppt_type":"GHS","ppt_full":"Group Housing","authority":"NOIDA","category":"group-housing","execution_stage":"allotted"}},{"type":"Feature","geometry":{"type":"Polygon","coordinates":[[[77.365142,28.583084],[77.3645,28.583732],[77.363645,28.583097],[77.364304,28.582442],[77.365142,28.583084]]]},"properties":{"objectid":53562,"plotmapid":"34CGHS","plotsizesq":0,"sector":"34","block":"C","mplanduse":"B","ppt_type":"GHS","ppt_full":"Group Housing","authority":"NOIDA","category":"group-housing","execution_stage":"unknown"}},{"type":"Feature","geometry":{"type":"Polygon","coordinates":[[[77.357019,28.586429],[77.357167,28.586535],[77.356509,28.587205],[77.356262,28.587024],[77.356165,28.586459],[77.356532,28.586079],[77.357019,28.586429]]]},"properties":{"objectid":53764,"plotmapid":"33AGHS","plotsizesq":0,"sector":"33","block":"A","mplanduse":"B","ppt_type":"GHS","ppt_full":"Group Housing","authority":"NOIDA","category":"group-housing","execution_stage":"unknown"}},{"type":"Feature","geometry":{"type":"Polygon","coordinates":[[[77.356414,28.58599],[77.355999,28.586419],[77.356105,28.587027],[77.355887,28.587252],[77.354917,28.586511],[77.355837,28.58556],[77.356414,28.58599]]]},"properties":{"objectid":53781,"plotmapid":"33A071GHS","plotsizesq":0,"plot_no":"071","sector":"33","block":"A","mplanduse":"B","ppt_type":"GHS","ppt_full":"Group Housing","authority":"NOIDA","category":"group-housing","execution_stage":"unknown"}},{"type":"Feature","geometry":{"type":"Polygon","coordinates":[[[77.357278,28.587359],[77.358235,28.588063],[77.357463,28.588832],[77.357255,28.588679],[77.357128,28.588623],[77.356988,28.588605],[77.356643,28.588633],[77.356608,28.588096],[77.35664,28.588039],[77.356914,28.587747],[77.357289,28.588024],[77.357154,28.588163],[77.357433,28.588368],[77.357669,28.588124],[77.357013,28.587642],[77.357278,28.587359]]]},"properties":{"objectid":53839,"plotmapid":"33C055GHS","plotsizesq":0,"plot_no":"055","sector":"33","block":"C","mplanduse":"B","ppt_type":"GHS","ppt_full":"Group Housing","authority":"NOIDA","category":"group-housing","execution_stage":"unknown"}},{"type":"Feature","geometry":{"type":"Polygon","coordinates":[[[77.355939,28.588498],[77.355293,28.588548],[77.354909,28.588945],[77.354363,28.588539],[77.355307,28.587564],[77.355893,28.587987],[77.355939,28.588498]]]},"properties":{"objectid":53848,"plotmapid":"33A044GHS","plotsizesq":0,"plot_no":"044","sector":"33","block":"A","mplanduse":"B","ppt_type":"GHS","ppt_full":"Group Housing","authority":"NOIDA","category":"group-housing","execution_stage":"unknown"}},{"type":"Feature","geometry":{"type":"Polygon","coordinates":[[[77.355115,28.589098],[77.355484,28.588716],[77.355955,28.58868],[77.356002,28.589275],[77.355751,28.589562],[77.355115,28.589098]]]},"properties":{"objectid":53850,"plotmapid":"33AGHS","plotsizesq":0,"sector":"33","block":"A","mplanduse":"B","ppt_type":"GHS","ppt_full":"Group Housing","authority":"NOIDA","category":"group-housing","execution_stage":"unknown"}},{"type":"Feature","geometry":{"type":"Polygon","coordinates":[[[77.357414,28.589905],[77.357573,28.590022],[77.357067,28.590545],[77.35666,28.590245],[77.357167,28.589723],[77.357414,28.589905]]]},"properties":{"objectid":53853,"plotmapid":"33B066AGHS","plotsizesq":0,"plot_no":"066A","sector":"33","block":"B","mplanduse":"B","ppt_type":"GHS","ppt_full":"Group Housing","authority":"NOIDA","category":"group-housing","execution_stage":"unknown"}},{"type":"Feature","geometry":{"type":"Polygon","coordinates":[[[77.357592,28.590931],[77.357067,28.590545],[77.357371,28.590231],[77.357503,28.590328],[77.357878,28.589939],[77.357335,28.589549],[77.357673,28.589201],[77.358603,28.589885],[77.357592,28.590931]]]},"properties":{"objectid":53854,"plotmapid":"33B066GHS","plotsizesq":0,"plot_no":"066","sector":"33","block":"B","mplanduse":"B","ppt_type":"GHS","ppt_full":"Group Housing","authority":"NOIDA","category":"group-housing","execution_stage":"unknown"}},{"type":"Feature","geometry":{"type":"Polygon","coordinates":[[[77.366519,28.584051],[77.366769,28.584099],[77.367638,28.584851],[77.367123,28.585367],[77.366019,28.584512],[77.366484,28.584023],[77.366519,28.584051]]]},"properties":{"objectid":54052,"plotmapid":"52A110GHS","used":"GROUP HOUSING POCKET","plotsizesq":0,"plot_no":"110","sector":"52","block":"A","mplanduse":"B","ppt_type":"GHS","ppt_full":"Group Housing","authority":"NOIDA","category":"group-housing","execution_stage":"unknown"}},{"type":"Feature","geometry":{"type":"Polygon","coordinates":[[[77.370399,28.588152],[77.370913,28.588553],[77.370139,28.589316],[77.36963,28.588925],[77.370399,28.588152]]]},"properties":{"objectid":54094,"plotmapid":"52D001GHS","used":"G/H POCKET","plotsizesq":6324,"plot_size":"6324 SQMT","plot_no":"001","sector":"52","block":"D","mplanduse":"B","ppt_type":"GHS","ppt_full":"Group Housing","authority":"NOIDA","category":"group-housing","execution_stage":"unknown"}},{"type":"Feature","geometry":{"type":"Polygon","coordinates":[[[77.371396,28.58893],[77.370625,28.589695],[77.370139,28.589316],[77.370913,28.588553],[77.371396,28.58893]]]},"properties":{"objectid":54095,"plotmapid":"52D001/AGHS","used":"G/H POCKET","plotsizesq":6324,"plot_size":"6324 SQMT","plot_no":"001/A","sector":"52","block":"D","mplanduse":"B","ppt_type":"GHS","ppt_full":"Group Housing","authority":"NOIDA","category":"group-housing","execution_stage":"unknown"}},{"type":"Feature","geometry":{"type":"Polygon","coordinates":[[[77.371931,28.589348],[77.371165,28.590117],[77.370625,28.589695],[77.371396,28.58893],[77.371931,28.589348]]]},"properties":{"objectid":54096,"plotmapid":"52D001/BGHS","used":"G/H POCKET","plotsizesq":7692,"plot_size":"7692 SQMT","plot_no":"001/B","sector":"52","block":"D","mplanduse":"B","ppt_type":"GHS","ppt_full":"Group Housing","authority":"NOIDA","category":"group-housing","execution_stage":"unknown"}},{"type":"Feature","geometry":{"type":"Polygon","coordinates":[[[77.371165,28.590117],[77.370674,28.590607],[77.369789,28.589936],[77.370294,28.589437],[77.371165,28.590117]]]},"properties":{"objectid":54117,"plotmapid":"52D001/DGHS","used":"G/H POCKET","plotsizesq":9017,"plot_size":"9017 SQMT","plot_no":"001/D","sector":"52","block":"D","mplanduse":"B","ppt_type":"GHS","ppt_full":"Group Housing","authority":"NOIDA","category":"group-housing","execution_stage":"unknown"}},{"type":"Feature","geometry":{"type":"Polygon","coordinates":[[[77.36963,28.588925],[77.370294,28.589437],[77.369789,28.589936],[77.369127,28.589434],[77.36963,28.588925]]]},"properties":{"objectid":54118,"plotmapid":"52D001/CGHS","used":"G/H POCKET","plotsizesq":7930,"plot_size":"7930 SQMT","plot_no":"001/C","sector":"52","block":"D","mplanduse":"B","ppt_type":"GHS","ppt_full":"Group Housing","authority":"NOIDA","category":"group-housing","execution_stage":"unknown"}},{"type":"Feature","geometry":{"type":"Polygon","coordinates":[[[77.363221,28.586193],[77.363859,28.585517],[77.365213,28.586531],[77.364561,28.587203],[77.363221,28.586193]]]},"properties":{"objectid":54127,"plotmapid":"52A002GHS","used":"GROUP HOUSING POCKET ALLOTED LAND","plotsizesq":0,"plot_no":"002","sector":"52","block":"A","mplanduse":"B","ppt_type":"GHS","ppt_full":"Group Housing","authority":"NOIDA","category":"group-housing","execution_stage":"unknown"}},{"type":"Feature","geometry":{"type":"Polygon","coordinates":[[[77.363233,28.593384],[77.363283,28.593333],[77.364166,28.594037],[77.363656,28.594546],[77.36276,28.593863],[77.363233,28.593384]],[[77.363576,28.59422],[77.363784,28.594021],[77.363301,28.593636],[77.36308,28.593836],[77.363576,28.59422]]]},"properties":{"objectid":57147,"plotmapid":"53NAGHS","used":"GROUP HOUSING","plotsizesq":0,"sector":"53","block":"NA","mplanduse":"B","ppt_type":"GHS","ppt_full":"Group Housing","authority":"NOIDA","category":"group-housing","execution_stage":"unknown"}},{"type":"Feature","geometry":{"type":"Polygon","coordinates":[[[77.361724,28.593598],[77.36118,28.593176],[77.361896,28.592468],[77.362161,28.592464],[77.36258,28.592789],[77.361743,28.593613],[77.361724,28.593598]],[[77.361622,28.593077],[77.361536,28.593161],[77.361727,28.593312],[77.362182,28.592868],[77.361991,28.592717],[77.361622,28.593077]]]},"properties":{"objectid":57148,"plotmapid":"53NAGHS","used":"GROUP HOUSING","plotsizesq":0,"sector":"53","block":"NA","mplanduse":"B","ppt_type":"GHS","ppt_full":"Group Housing","authority":"NOIDA","category":"group-housing","execution_stage":"unknown"}},{"type":"Feature","geometry":{"type":"Polygon","coordinates":[[[77.362353,28.594096],[77.361829,28.593684],[77.362662,28.592856],[77.363183,28.593277],[77.362353,28.594096]],[[77.36264,28.593188],[77.362152,28.59367],[77.362338,28.593806],[77.362846,28.593301],[77.362675,28.593154],[77.36264,28.593188]]]},"properties":{"objectid":57149,"plotmapid":"53NAGHS","used":"GROUP HOUSING","plotsizesq":0,"sector":"53","block":"NA","mplanduse":"B","ppt_type":"GHS","ppt_full":"Group Housing","authority":"NOIDA","category":"group-housing","execution_stage":"unknown"}},{"type":"Feature","geometry":{"type":"Polygon","coordinates":[[[77.363033,28.595156],[77.362148,28.594466],[77.362672,28.593935],[77.363568,28.594625],[77.363033,28.595156]],[[77.362969,28.594838],[77.363201,28.594614],[77.3627,28.594216],[77.362474,28.594452],[77.362969,28.594838]]]},"properties":{"objectid":57150,"plotmapid":"53NAGHS","used":"GROUP HOUSING","plotsizesq":0,"sector":"53","block":"NA","mplanduse":"B","ppt_type":"GHS","ppt_full":"Group Housing","authority":"NOIDA","category":"group-housing","execution_stage":"unknown"}},{"type":"Feature","geometry":{"type":"Polygon","coordinates":[[[77.362309,28.595282],[77.362075,28.595519],[77.361514,28.59509],[77.36205,28.594529],[77.362617,28.594974],[77.362309,28.595282]],[[77.361855,28.595064],[77.36208,28.595238],[77.362309,28.595007],[77.362082,28.594829],[77.361855,28.595064]]]},"properties":{"objectid":57151,"plotmapid":"53NAGHS","used":"GROUP HOUSING","plotsizesq":0,"sector":"53","block":"NA","mplanduse":"B","ppt_type":"GHS","ppt_full":"Group Housing","authority":"NOIDA","category":"group-housing","execution_stage":"unknown"}},{"type":"Feature","geometry":{"type":"Polygon","coordinates":[[[77.36143,28.595025],[77.360884,28.594626],[77.361721,28.593758],[77.362262,28.594179],[77.36143,28.595025]],[[77.361733,28.594056],[77.361223,28.594562],[77.361433,28.594721],[77.361969,28.594199],[77.361758,28.594032],[77.361733,28.594056]]]},"properties":{"objectid":57152,"plotmapid":"53NAGHS","used":"GROUP HOUSING","plotsizesq":43918.36,"plot_size":"43918.36 SQMT","sector":"53","block":"NA","mplanduse":"B","ppt_type":"GHS","ppt_full":"Group Housing","authority":"NOIDA","category":"group-housing","execution_stage":"unknown"}},{"type":"Feature","geometry":{"type":"Polygon","coordinates":[[[77.360235,28.594143],[77.361102,28.59325],[77.361654,28.593681],[77.36079,28.594559],[77.360235,28.594143]],[[77.360619,28.594074],[77.360815,28.594223],[77.361323,28.593712],[77.361134,28.593563],[77.360619,28.594074]]]},"properties":{"objectid":57153,"plotmapid":"53NAGHS","used":"GROUP HOUSING","plotsizesq":0,"sector":"53","block":"NA","mplanduse":"B","ppt_type":"GHS","ppt_full":"Group Housing","authority":"NOIDA","category":"group-housing","execution_stage":"unknown"}},{"type":"Feature","geometry":{"type":"Polygon","coordinates":[[[77.380574,28.575965],[77.38047,28.577575],[77.379248,28.577495],[77.379505,28.575913],[77.380574,28.575965]]]},"properties":{"objectid":59676,"plotmapid":"75NA002GHS","used":"SUBLEASED  TO AIMS PROMOTERS PVT LTD","plotsizesq":20000,"plot_size":"20000 SQMT","plot_no":"002","sector":"75","block":"NA","mplanduse":"B","ppt_type":"GHS","ppt_full":"Group Housing","remark":"As per drone is vacant ,not Alloted & not buildup","authority":"NOIDA","category":"group-housing","execution_stage":"unknown"}},{"type":"Feature","geometry":{"type":"Polygon","coordinates":[[[77.382907,28.577705],[77.383321,28.577725],[77.383231,28.578944],[77.381677,28.578802],[77.381761,28.577648],[77.382907,28.577705]]]},"properties":{"objectid":59719,"plotmapid":"75NA005GHS","used":"SUBLEASED TO INDOSAM INFRA TECH PVT.LTD","plotsizesq":20000,"plot_size":"20000 SQMT","plot_no":"005","sector":"75","block":"NA","mplanduse":"B","ppt_type":"GHS","ppt_full":"Group Housing","authority":"NOIDA","category":"group-housing","execution_stage":"unknown"}},{"type":"Feature","geometry":{"type":"Polygon","coordinates":[[[77.381677,28.578802],[77.381657,28.579067],[77.38037,28.578997],[77.38047,28.577575],[77.381761,28.577648],[77.381677,28.578802]]]},"properties":{"objectid":59723,"plotmapid":"75NA004GHS","used":"SUBLEASED TO J M INFRATECH PVT LTD","plotsizesq":20000,"plot_size":"20000 SQMT","plot_no":"004","sector":"75","block":"NA","mplanduse":"B","ppt_type":"GHS","ppt_full":"Group Housing","authority":"NOIDA","category":"group-housing","execution_stage":"unknown"}},{"type":"Feature","geometry":{"type":"Polygon","coordinates":[[[77.379626,28.577515],[77.38047,28.577575],[77.38037,28.578997],[77.379025,28.578925],[77.379248,28.577495],[77.379626,28.577515]]]},"properties":{"objectid":59724,"plotmapid":"75NA003GHS","used":"SUBLEASED TO AIMS RG ANGEL PROMTERS PVT LTD","plotsizesq":20000,"plot_size":"20000 SQMT","plot_no":"003","sector":"75","block":"NA","mplanduse":"B","ppt_type":"GHS","ppt_full":"Group Housing","authority":"NOIDA","category":"group-housing","execution_stage":"unknown"}},{"type":"Feature","geometry":{"type":"Polygon","coordinates":[[[77.378313,28.577226],[77.378986,28.57731],[77.378581,28.579698],[77.377953,28.579572],[77.378313,28.577226]]]},"properties":{"objectid":59725,"plotmapid":"75NAGHS","used":"AMGPL","plotsizesq":18610,"plot_size":"18610 SQMT","sector":"75","block":"NA","mplanduse":"B","ppt_type":"GHS","ppt_full":"Group Housing","authority":"NOIDA","category":"group-housing","execution_stage":"unknown"}},{"type":"Feature","geometry":{"type":"Polygon","coordinates":[[[77.387349,28.591279],[77.387453,28.59142],[77.387039,28.591641],[77.387303,28.59176],[77.387226,28.59189],[77.387415,28.591977],[77.387299,28.592173],[77.386623,28.591889],[77.38713,28.591083],[77.387456,28.590913],[77.387519,28.591042],[77.387673,28.590973],[77.387901,28.590819],[77.388428,28.590339],[77.388346,28.590278],[77.38836,28.590265],[77.387971,28.590038],[77.387384,28.58962],[77.387553,28.589429],[77.38768,28.589243],[77.387803,28.588999],[77.388504,28.589245],[77.389224,28.589548],[77.389189,28.589594],[77.389405,28.589715],[77.389017,28.590741],[77.388835,28.590679],[77.388727,28.59093],[77.38868,28.590914],[77.388481,28.591413],[77.388313,28.59136],[77.388084,28.591552],[77.388113,28.591577],[77.387897,28.591733],[77.387694,28.591689],[77.387488,28.591202],[77.387349,28.591279]]]},"properties":{"objectid":66267,"plotmapid":"73NA001GHS","plotsizesq":5.15,"plot_size":"5.15","plot_no":"001","sector":"73","block":"NA","mplanduse":"B","ppt_type":"GHS","ppt_full":"Group Housing","authority":"NOIDA","category":"group-housing","execution_stage":"unknown"}},{"type":"Feature","geometry":{"type":"Polygon","coordinates":[[[77.367665,28.580134],[77.367658,28.580189],[77.367631,28.580236],[77.367521,28.580301],[77.367023,28.579803],[77.36729,28.579659],[77.367531,28.579809],[77.367434,28.579883],[77.367665,28.580134]]]},"properties":{"objectid":66715,"plotmapid":"51CGHS","used":"GR. HOUSING","plotsizesq":6467,"plot_size":"6467 SQMT","sector":"51","block":"C","mplanduse":"ISSUE","ppt_type":"GHS","ppt_full":"Group Housing","authority":"NOIDA","category":"group-housing","execution_stage":"unknown"}}]}
