{"type":"FeatureCollection","features":[{"type":"Feature","geometry":{"type":"Polygon","coordinates":[[[77.342566,28.607882],[77.342556,28.607879],[77.342779,28.606376],[77.344755,28.606648],[77.344526,28.608122],[77.342566,28.607882]]]},"properties":{"objectid":7771,"plotmapid":"56A001GHS","used":"GROUP HOUSING","plotsizesq":3.266,"plot_size":"3.266 HECT","plot_no":"001","sector":"56","block":"A","mplanduse":"B","ppt_type":"GHS","ppt_full":"Group Housing","authority":"NOIDA","category":"group-housing","execution_stage":"unknown"}},{"type":"Feature","geometry":{"type":"Polygon","coordinates":[[[77.342012,28.605545],[77.341973,28.605779],[77.341729,28.605748],[77.341771,28.605499],[77.341526,28.605468],[77.341571,28.605201],[77.341318,28.605168],[77.341356,28.604941],[77.341097,28.604761],[77.342181,28.603507],[77.342305,28.603583],[77.342012,28.605545]]]},"properties":{"objectid":7963,"plotmapid":"56G001GHS","used":"GROUP HOUSING","plotsizesq":11.85,"plot_size":"11.85 HECT.","plot_no":"001","sector":"56","block":"G","mplanduse":"B","ppt_type":"GHS","ppt_full":"Group Housing","authority":"NOIDA","category":"group-housing","execution_stage":"unknown"}},{"type":"Feature","geometry":{"type":"Polygon","coordinates":[[[77.346615,28.60409],[77.346477,28.604913],[77.346056,28.604854],[77.346189,28.604033],[77.346615,28.60409]]]},"properties":{"objectid":11714,"plotmapid":"55CGHS","used":"GROUP HOUSING","plotsizesq":0,"sector":"55","block":"C","mplanduse":"V","ppt_type":"GHS","ppt_full":"Group Housing","remark":"As per drone is vacant ,not Alloted & not buildup","authority":"NOIDA","category":"group-housing","execution_stage":"unknown"}},{"type":"Feature","geometry":{"type":"Polygon","coordinates":[[[77.346189,28.604033],[77.346056,28.604854],[77.345805,28.604818],[77.345937,28.604],[77.346189,28.604033]]]},"properties":{"objectid":11715,"plotmapid":"55C006GHS","used":"GROUP HOUSING","plotsizesq":0,"plot_no":"006","sector":"55","block":"C","mplanduse":"V","ppt_type":"GHS","ppt_full":"Group Housing","remark":"As per drone is vacant ,not Alloted & not buildup","authority":"NOIDA","category":"group-housing","execution_stage":"unknown"}},{"type":"Feature","geometry":{"type":"Polygon","coordinates":[[[77.345937,28.604],[77.345805,28.604818],[77.345374,28.604757],[77.345507,28.603943],[77.345937,28.604]]]},"properties":{"objectid":11716,"plotmapid":"55CGHS","used":"SITE FOR I.P.C.L. GROUP HOUSING","plotsizesq":9810,"plot_size":"9810 SQMT","sector":"55","block":"C","mplanduse":"B","ppt_type":"GHS","ppt_full":"Group Housing","remark":"As per drone is vacant ,not Alloted & not buildup","authority":"NOIDA","category":"group-housing","execution_stage":"unknown"}},{"type":"Feature","geometry":{"type":"Polygon","coordinates":[[[77.346973,28.607531],[77.34758,28.607614],[77.34743,28.608511],[77.346464,28.608364],[77.346616,28.607482],[77.346973,28.607531]]]},"properties":{"objectid":12247,"plotmapid":"55AGHS","used":"GROUP HOUSING (I.O.C)","plotsizesq":0,"sector":"55","block":"A","mplanduse":"B","ppt_type":"GHS","ppt_full":"Group Housing","authority":"NOIDA","category":"group-housing","execution_stage":"unknown"}},{"type":"Feature","geometry":{"type":"Polygon","coordinates":[[[77.345868,28.607381],[77.345804,28.607793],[77.345838,28.607819],[77.346036,28.607852],[77.346085,28.607932],[77.346013,28.608318],[77.344846,28.608165],[77.344992,28.607258],[77.345868,28.607381]]]},"properties":{"objectid":12479,"plotmapid":"55AGHS","used":"GROUP HOUSING (I.O.C)","plotsizesq":0,"sector":"55","block":"A","mplanduse":"B","ppt_type":"GHS","ppt_full":"Group Housing","authority":"NOIDA","category":"group-housing","execution_stage":"unknown"}},{"type":"Feature","geometry":{"type":"Polygon","coordinates":[[[77.307102,28.580234],[77.30797,28.579037],[77.308411,28.579289],[77.308465,28.579217],[77.308531,28.579253],[77.308728,28.578973],[77.308772,28.578994],[77.308998,28.578675],[77.309728,28.579098],[77.308309,28.580479],[77.307963,28.580717],[77.307679,28.580985],[77.307423,28.580819],[77.307391,28.580861],[77.3069,28.580577],[77.306893,28.580516],[77.307102,28.580234]]]},"properties":{"objectid":28788,"plotmapid":"15ANAGHS","used":"GROUP HOUSING","plotsizesq":0,"plot_size":"NA","sector":"15A","block":"NA","mplanduse":"B","ppt_type":"GHS","ppt_full":"Group Housing","authority":"NOIDA","category":"group-housing","execution_stage":"unknown"}},{"type":"Feature","geometry":{"type":"Polygon","coordinates":[[[77.310362,28.57794],[77.309939,28.578337],[77.310249,28.578593],[77.309728,28.579098],[77.308998,28.578675],[77.309016,28.578649],[77.308956,28.578616],[77.308996,28.57856],[77.308497,28.578265],[77.309518,28.576874],[77.311001,28.577742],[77.310678,28.578036],[77.31044,28.577851],[77.310362,28.57794]]]},"properties":{"objectid":28808,"plotmapid":"15ANA250EBGHS","used":"GROUP HOUSING","plotsizesq":0,"plot_size":"NA","plot_no":"250EB","sector":"15A","block":"NA","mplanduse":"B","ppt_type":"GHS","ppt_full":"Group Housing","authority":"NOIDA","category":"group-housing","execution_stage":"unknown"}},{"type":"Feature","geometry":{"type":"Polygon","coordinates":[[[77.346002,28.577712],[77.346344,28.577946],[77.345668,28.578678],[77.34501,28.578214],[77.345566,28.57761],[77.345865,28.57782],[77.345951,28.577712],[77.346002,28.577712]]]},"properties":{"objectid":53037,"plotmapid":"31C6006GHS","plotsizesq":0,"plot_no":"006","sector":"31","block":"C6","mplanduse":"B","ppt_type":"GHS","ppt_full":"Group Housing","authority":"NOIDA","category":"group-housing","execution_stage":"unknown"}},{"type":"Feature","geometry":{"type":"Polygon","coordinates":[[[77.335531,28.579048],[77.335304,28.579287],[77.334528,28.578716],[77.33509,28.578127],[77.335865,28.578698],[77.335531,28.579048]]]},"properties":{"objectid":55174,"plotmapid":"26E004GHS","used":"GROUP HOUSING","plotsizesq":8440,"plot_size":"8440 SQMT","plot_no":"004","sector":"26","block":"E","mplanduse":"B","ppt_type":"GHS","ppt_full":"Group Housing","authority":"NOIDA","category":"group-housing","execution_stage":"unknown"}},{"type":"Feature","geometry":{"type":"Polygon","coordinates":[[[77.330354,28.577662],[77.330056,28.577974],[77.329561,28.577617],[77.329866,28.577298],[77.330354,28.577662]]]},"properties":{"objectid":55870,"plotmapid":"27GGHS","used":"STAFF QUARTERS","plotsizesq":0,"plot_size":"NA","sector":"27","block":"G","mplanduse":"B","ppt_type":"GHS","ppt_full":"Group Housing","authority":"NOIDA","category":"group-housing","execution_stage":"unknown"}},{"type":"Feature","geometry":{"type":"Polygon","coordinates":[[[77.32936,28.576927],[77.329044,28.577249],[77.328791,28.57706],[77.329103,28.576731],[77.32936,28.576927]]]},"properties":{"objectid":55872,"plotmapid":"27GGHS","used":"STAFF QUARTERS","plotsizesq":0,"plot_size":"NA","sector":"27","block":"G","mplanduse":"B","ppt_type":"GHS","ppt_full":"Group Housing","authority":"NOIDA","category":"group-housing","execution_stage":"unknown"}},{"type":"Feature","geometry":{"type":"Polygon","coordinates":[[[77.329853,28.577926],[77.330005,28.578036],[77.329556,28.578504],[77.328607,28.577799],[77.328908,28.57747],[77.329112,28.577623],[77.329269,28.57746],[77.32953,28.577654],[77.329235,28.577961],[77.329575,28.578205],[77.329853,28.577926]]]},"properties":{"objectid":55886,"plotmapid":"27GGHS","used":"STAFF QUARTERS","plotsizesq":0,"plot_size":"NA","sector":"27","block":"G","mplanduse":"B","ppt_type":"GHS","ppt_full":"Group Housing","authority":"NOIDA","category":"group-housing","execution_stage":"unknown"}}]}
