{"type":"FeatureCollection","features":[{"type":"Feature","geometry":{"type":"Polygon","coordinates":[[[77.389219,28.535126],[77.39003,28.535439],[77.389623,28.536223],[77.38878,28.535884],[77.389184,28.535112],[77.389219,28.535126]]]},"properties":{"objectid":346,"plotmapid":"110NA002GHS","used":"PLOT","plotsizesq":0,"plot_size":"NA","plot_no":"002","sector":"110","block":"NA","mplanduse":"V","ppt_type":"GHS","ppt_full":"Group Housing","authority":"NOIDA","category":"group-housing","execution_stage":"unknown"}},{"type":"Feature","geometry":{"type":"Polygon","coordinates":[[[77.369618,28.545208],[77.369409,28.545335],[77.369773,28.545804],[77.369791,28.545962],[77.366525,28.546258],[77.364946,28.544212],[77.365821,28.543689],[77.365911,28.543802],[77.366628,28.543342],[77.367668,28.544641],[77.370195,28.543105],[77.371621,28.543984],[77.369618,28.545208]]]},"properties":{"objectid":421,"plotmapid":"100NA003GHS","used":"G.H.","plotsizesq":120009,"plot_size":"120009 SQMT","plot_no":"003","sector":"100","block":"NA","mplanduse":"B","ppt_type":"GHS","ppt_full":"Group Housing","authority":"NOIDA","category":"group-housing","execution_stage":"unknown"}},{"type":"Feature","geometry":{"type":"Polygon","coordinates":[[[77.373832,28.545612],[77.370022,28.545943],[77.370004,28.5458],[77.369961,28.545664],[77.370022,28.545649],[77.369981,28.545513],[77.369875,28.545553],[77.369618,28.545208],[77.371621,28.543984],[77.373491,28.545166],[77.373671,28.545355],[77.373832,28.545612]]]},"properties":{"objectid":422,"plotmapid":"100NA001GHS","used":"G.H.","plotsizesq":52200,"plot_size":"52200 SQMT","plot_no":"001","sector":"100","block":"NA","mplanduse":"B","ppt_type":"GHS","ppt_full":"Group Housing","authority":"NOIDA","category":"group-housing","execution_stage":"unknown"}},{"type":"Feature","geometry":{"type":"Polygon","coordinates":[[[77.388197,28.53565],[77.388172,28.535696],[77.387284,28.535335],[77.386831,28.535429],[77.386751,28.535417],[77.386642,28.535169],[77.388121,28.534227],[77.388634,28.534826],[77.388197,28.53565]]]},"properties":{"objectid":907,"plotmapid":"110NA004GHS","used":"PLOT","plotsizesq":0,"plot_size":"NA","plot_no":"004","sector":"110","block":"NA","mplanduse":"B","ppt_type":"GHS","ppt_full":"Group Housing","authority":"NOIDA","category":"group-housing","execution_stage":"unknown"}},{"type":"Feature","geometry":{"type":"Polygon","coordinates":[[[77.389184,28.535112],[77.38878,28.535884],[77.388197,28.53565],[77.388634,28.534826],[77.388799,28.53496],[77.389184,28.535112]]]},"properties":{"objectid":908,"plotmapid":"110NA003GHS","used":"PLOT","plotsizesq":0,"plot_size":"NA","plot_no":"003","sector":"110","block":"NA","mplanduse":"B","ppt_type":"GHS","ppt_full":"Group Housing","authority":"NOIDA","category":"group-housing","execution_stage":"unknown"}},{"type":"Feature","geometry":{"type":"Polygon","coordinates":[[[77.390029,28.532906],[77.388616,28.533821],[77.386521,28.53129],[77.389687,28.529259],[77.392168,28.529594],[77.391787,28.53177],[77.390029,28.532906]]]},"properties":{"objectid":1553,"plotmapid":"82NAGHS","used":"G.HOUSINGPLOT","plotsizesq":0,"plot_size":"NA","sector":"82","block":"NA","mplanduse":"B","ppt_type":"GHS","ppt_full":"Group Housing","authority":"NOIDA","category":"group-housing","execution_stage":"unknown"}},{"type":"Feature","geometry":{"type":"Polygon","coordinates":[[[77.362955,28.532144],[77.363377,28.532669],[77.363484,28.533041],[77.363758,28.53731],[77.363812,28.538622],[77.359801,28.54109],[77.357219,28.542655],[77.354871,28.544127],[77.349529,28.547405],[77.343597,28.548081],[77.343384,28.547818],[77.343698,28.54762],[77.342303,28.545931],[77.345988,28.543056],[77.347985,28.541524],[77.349548,28.540548],[77.3495,28.540499],[77.349841,28.540287],[77.349906,28.540357],[77.349954,28.540299],[77.349948,28.540289],[77.35091,28.539683],[77.359046,28.53461],[77.362955,28.532144]],[[77.34592,28.547036],[77.345834,28.546428],[77.34556,28.546462],[77.34494,28.546104],[77.34444,28.546758],[77.344348,28.546901],[77.34495,28.547605],[77.345674,28.547197],[77.34592,28.547036]]]},"properties":{"objectid":2350,"plotmapid":"96-97-98NAGHS","used":"NA","plotsizesq":1407327.68,"plot_size":"1407327.68 SQMT","sector":"96-97-98","block":"NA","mplanduse":"G","ppt_type":"GHS","ppt_full":"Group Housing","authority":"NOIDA","category":"group-housing","execution_stage":"unknown"}},{"type":"Feature","geometry":{"type":"Polygon","coordinates":[[[77.35755,28.547092],[77.355526,28.547228],[77.354649,28.546155],[77.356055,28.545294],[77.356628,28.545265],[77.356656,28.545764],[77.357458,28.545722],[77.35755,28.547092]]]},"properties":{"objectid":2532,"plotmapid":"99GH006GHS","used":"GROUP HOUSING","plotsizesq":40000,"plot_size":"40000 SQMT","plot_no":"006","sector":"99","block":"GH","mplanduse":"B","ppt_type":"GHS","ppt_full":"Group Housing","authority":"NOIDA","category":"group-housing","execution_stage":"unknown"}},{"type":"Feature","geometry":{"type":"Polygon","coordinates":[[[77.357872,28.545207],[77.358962,28.545156],[77.359082,28.546835],[77.357984,28.546897],[77.357872,28.545207]]]},"properties":{"objectid":2535,"plotmapid":"99GH005GHS","used":"GROUP HOUSING","plotsizesq":20000,"plot_size":"20000 SQMT","plot_no":"005","sector":"99","block":"GH","mplanduse":"B","ppt_type":"GHS","ppt_full":"Group Housing","authority":"NOIDA","category":"group-housing","execution_stage":"unknown"}},{"type":"Feature","geometry":{"type":"Polygon","coordinates":[[[77.361735,28.545103],[77.361863,28.545204],[77.360429,28.546107],[77.359641,28.545106],[77.361027,28.54425],[77.361735,28.545103]]]},"properties":{"objectid":2536,"plotmapid":"99GH002GHS","used":"GROUP HOUSING","plotsizesq":18401,"plot_size":"18401 SQMT","plot_no":"002","sector":"99","block":"GH","mplanduse":"B","ppt_type":"GHS","ppt_full":"Group Housing","authority":"NOIDA","category":"group-housing","execution_stage":"unknown"}},{"type":"Feature","geometry":{"type":"Polygon","coordinates":[[[77.360142,28.545742],[77.360229,28.545853],[77.360297,28.546769],[77.359082,28.546835],[77.358962,28.545156],[77.35965,28.545118],[77.360142,28.545742]]]},"properties":{"objectid":2537,"plotmapid":"99GH004GHS","used":"GROUP HOUSING","plotsizesq":20000,"plot_size":"20000 SQMT","plot_no":"004","sector":"99","block":"GH","mplanduse":"B","ppt_type":"GHS","ppt_full":"Group Housing","authority":"NOIDA","category":"group-housing","execution_stage":"unknown"}},{"type":"Feature","geometry":{"type":"Polygon","coordinates":[[[77.36054,28.546138],[77.360577,28.546168],[77.360406,28.546317],[77.360521,28.546406],[77.360379,28.546522],[77.360396,28.546568],[77.360481,28.546673],[77.360333,28.546767],[77.360297,28.546769],[77.360229,28.545853],[77.360429,28.546107],[77.361015,28.545742],[77.36106,28.546166],[77.361191,28.546731],[77.360637,28.546748],[77.360594,28.546701],[77.360645,28.546661],[77.360624,28.546632],[77.361059,28.546238],[77.360987,28.546175],[77.360922,28.546223],[77.3609,28.546204],[77.360876,28.546226],[77.36079,28.546154],[77.36073,28.546157],[77.360624,28.546074],[77.36054,28.546138]]]},"properties":{"objectid":2539,"plotmapid":"99GH003GHS","used":"GROUP HOUSING","plotsizesq":10181,"plot_size":"10181 SQMT","plot_no":"003","sector":"99","block":"GH","mplanduse":"B","ppt_type":"GHS","ppt_full":"Group Housing","authority":"NOIDA","category":"group-housing","execution_stage":"unknown"}},{"type":"Feature","geometry":{"type":"Polygon","coordinates":[[[77.362499,28.545716],[77.362712,28.546621],[77.361191,28.546731],[77.36106,28.546166],[77.361013,28.545728],[77.361863,28.545204],[77.362499,28.545716]]]},"properties":{"objectid":2540,"plotmapid":"99GH001GHS","used":"GROUP HOUSING","plotsizesq":22669,"plot_size":"22669 SQMT","plot_no":"001","sector":"99","block":"GH","mplanduse":"B","ppt_type":"GHS","ppt_full":"Group Housing","authority":"NOIDA","category":"group-housing","execution_stage":"unknown"}},{"type":"Feature","geometry":{"type":"Polygon","coordinates":[[[77.377785,28.546648],[77.378117,28.547122],[77.378026,28.547181],[77.378037,28.54721],[77.37586,28.548553],[77.375657,28.547834],[77.376727,28.547164],[77.377075,28.546992],[77.377758,28.54661],[77.377785,28.546648]]]},"properties":{"objectid":13062,"plotmapid":"107GH001/A(ALPHA)GHS","property_t":"Not Known","used":"NA","plotsizesq":20000,"plot_size":"20000 SQMT (approx.)","plot_no":"001/A(ALPHA)","sector":"107","block":"GH","mplanduse":"V","ppt_type":"GHS","ppt_full":"Group Housing","authority":"NOIDA","category":"group-housing","execution_stage":"unknown"}},{"type":"Feature","geometry":{"type":"Polygon","coordinates":[[[77.378599,28.546831],[77.378117,28.547122],[77.37733,28.546],[77.376957,28.546212],[77.376995,28.546256],[77.376817,28.546348],[77.376568,28.545774],[77.376466,28.545644],[77.377554,28.545072],[77.378623,28.546245],[77.378981,28.546682],[77.378723,28.546823],[77.378669,28.546794],[77.378599,28.546831]]]},"properties":{"objectid":13063,"plotmapid":"107GH001/A/C(ALPHA)GHS","property_t":"Not Known","used":"NA","plotsizesq":20000,"plot_size":"20000SQMT","plot_no":"001/A/C(ALPHA)","sector":"107","block":"GH","mplanduse":"V","ppt_type":"GHS","ppt_full":"Group Housing","authority":"NOIDA","category":"group-housing","execution_stage":"unknown"}},{"type":"Feature","geometry":{"type":"Polygon","coordinates":[[[77.377477,28.532552],[77.377654,28.532451],[77.378036,28.532927],[77.377893,28.533029],[77.377862,28.533276],[77.377083,28.533797],[77.376909,28.53385],[77.376573,28.533891],[77.376339,28.533956],[77.375183,28.534553],[77.374671,28.535113],[77.373968,28.535808],[77.373395,28.536281],[77.373332,28.536273],[77.373088,28.536459],[77.372567,28.536718],[77.372051,28.536873],[77.371482,28.536908],[77.370897,28.536754],[77.37131,28.536519],[77.371819,28.536171],[77.373267,28.535231],[77.374773,28.534293],[77.377477,28.532552]]]},"properties":{"objectid":13741,"plotmapid":"104NA001GHS","used":"G.H. PLOT","plotsizesq":58870,"plot_size":"58870 SQMT","plot_no":"001","sector":"104","block":"NA","mplanduse":"B","ppt_type":"GHS","ppt_full":"Group Housing","authority":"NOIDA","category":"group-housing","execution_stage":"unknown"}},{"type":"Feature","geometry":{"type":"Polygon","coordinates":[[[77.37974,28.548601],[77.3792,28.549148],[77.378562,28.548543],[77.377551,28.547507],[77.378037,28.54721],[77.378026,28.547181],[77.378441,28.546918],[77.378669,28.546794],[77.378723,28.546823],[77.378981,28.546682],[77.379156,28.546829],[77.380339,28.548007],[77.37974,28.548601]]]},"properties":{"objectid":13744,"plotmapid":"107GH001/DGHS","property_t":"Industry","used":"NA","plotsizesq":40000,"plot_size":"40000 SQMT","plot_no":"001/D","sector":"107","block":"GH","mplanduse":"B","ppt_type":"GHS","ppt_full":"Group Housing","authority":"NOIDA","category":"group-housing","execution_stage":"unknown"}},{"type":"Feature","geometry":{"type":"Polygon","coordinates":[[[77.378562,28.548543],[77.37919,28.549138],[77.378711,28.549629],[77.378658,28.549655],[77.378381,28.549922],[77.37833,28.550008],[77.376464,28.548176],[77.377551,28.547507],[77.378562,28.548543]]]},"properties":{"objectid":13745,"plotmapid":"107GH001/CGHS","property_t":"Industry","used":"NA","plotsizesq":30000,"plot_size":"30000 SQMT","plot_no":"001/C","sector":"107","block":"GH","mplanduse":"B","ppt_type":"GHS","ppt_full":"Group Housing","authority":"NOIDA","category":"group-housing","execution_stage":"unknown"}},{"type":"Feature","geometry":{"type":"Polygon","coordinates":[[[77.378239,28.550094],[77.377719,28.550583],[77.377576,28.550511],[77.377886,28.550052],[77.377276,28.54996],[77.377308,28.549889],[77.377009,28.549869],[77.376944,28.550254],[77.376808,28.550213],[77.376748,28.550487],[77.376414,28.55045],[77.376274,28.549981],[77.376172,28.549573],[77.37586,28.548553],[77.376464,28.548176],[77.37833,28.550008],[77.378239,28.550094]]]},"properties":{"objectid":13746,"plotmapid":"107GH001/BGHS","property_t":"Industry","used":"NA","plotsizesq":30000,"plot_size":"30000 SQMT","plot_no":"001/B","sector":"107","block":"GH","mplanduse":"B","ppt_type":"GHS","ppt_full":"Group Housing","authority":"NOIDA","category":"group-housing","execution_stage":"unknown"}},{"type":"Feature","geometry":{"type":"Polygon","coordinates":[[[77.374118,28.540754],[77.374144,28.54077],[77.374215,28.540875],[77.375284,28.54251],[77.375526,28.542772],[77.373426,28.543856],[77.372818,28.543464],[77.371088,28.542408],[77.371339,28.542043],[77.373995,28.54069],[77.374118,28.540754]]]},"properties":{"objectid":13747,"plotmapid":"107GH002GHS","property_t":"Industry","used":"NA","plotsizesq":2957.6,"plot_size":"2957.60 SQMT","plot_no":"002","sector":"107","block":"GH","mplanduse":"B","ppt_type":"GHS","ppt_full":"Group Housing","authority":"NOIDA","category":"group-housing","execution_stage":"unknown"}},{"type":"Feature","geometry":{"type":"Polygon","coordinates":[[[77.375799,28.544788],[77.375701,28.54469],[77.37482,28.545143],[77.374584,28.544748],[77.374278,28.544435],[77.373426,28.543856],[77.375526,28.542772],[77.376642,28.544046],[77.376362,28.544469],[77.376274,28.544419],[77.375799,28.544788]]]},"properties":{"objectid":13748,"plotmapid":"107GH001/A(BETA-1)GHS","property_t":"Industry","used":"NA","plotsizesq":67941.95,"plot_size":"67941.95 SQMT","plot_no":"001/A(BETA-1)","sector":"107","block":"GH","mplanduse":"B","ppt_type":"GHS","ppt_full":"Group Housing","authority":"NOIDA","category":"group-housing","execution_stage":"unknown"}},{"type":"Feature","geometry":{"type":"Polygon","coordinates":[[[77.376792,28.546302],[77.375445,28.547035],[77.375004,28.545615],[77.37482,28.545143],[77.375701,28.54469],[77.37604,28.545078],[77.376568,28.545774],[77.376792,28.546302]]]},"properties":{"objectid":13749,"plotmapid":"107GH001/A(BETA-2)GHS","property_t":"Industry","used":"NA","plotsizesq":27941.95,"plot_size":"27941.950 SQMT","plot_no":"001/A(BETA-2)","sector":"107","block":"GH","mplanduse":"B","ppt_type":"GHS","ppt_full":"Group Housing","authority":"NOIDA","category":"group-housing","execution_stage":"unknown"}},{"type":"Feature","geometry":{"type":"Polygon","coordinates":[[[77.377758,28.54661],[77.377075,28.546992],[77.376727,28.547164],[77.375657,28.547834],[77.375445,28.547035],[77.376792,28.546302],[77.376817,28.546348],[77.376995,28.546256],[77.376957,28.546212],[77.37733,28.546],[77.377758,28.54661]]]},"properties":{"objectid":13750,"plotmapid":"107GH001/A/B(ALPHA)GHS","property_t":"Not Known","used":"NA","plotsizesq":20000,"plot_size":"20000 SQMT","plot_no":"001/A/B(ALPHA)","sector":"107","block":"GH","mplanduse":"B","ppt_type":"GHS","ppt_full":"Group Housing","authority":"NOIDA","category":"group-housing","execution_stage":"unknown"}},{"type":"Feature","geometry":{"type":"Polygon","coordinates":[[[77.374989,28.552118],[77.374505,28.552565],[77.373895,28.552021],[77.373814,28.552025],[77.373719,28.551139],[77.374873,28.551051],[77.374989,28.552118]]]},"properties":{"objectid":38923,"plotmapid":"47A038A/04GHS","plotsizesq":14000,"plot_size":"14000 SQMT","plot_no":"038A/04","sector":"47","block":"A","mplanduse":"G","ppt_type":"GHS","ppt_full":"Group Housing","authority":"NOIDA","category":"group-housing","execution_stage":"unknown"}},{"type":"Feature","geometry":{"type":"Polygon","coordinates":[[[77.373719,28.551139],[77.373814,28.552025],[77.372131,28.552107],[77.372036,28.551258],[77.373719,28.551139]]]},"properties":{"objectid":41080,"plotmapid":"47A038A/03GHS","plotsizesq":14000,"plot_size":"14000 SQMT","plot_no":"038A/03","sector":"47","block":"A","mplanduse":"B","ppt_type":"GHS","ppt_full":"Group Housing","authority":"NOIDA","category":"group-housing","execution_stage":"unknown"}},{"type":"Feature","geometry":{"type":"Polygon","coordinates":[[[77.373849,28.552023],[77.373884,28.552495],[77.373874,28.552543],[77.373482,28.5529],[77.373267,28.552765],[77.373107,28.552701],[77.372849,28.552659],[77.37278,28.552662],[77.372724,28.552078],[77.373849,28.552023]]]},"properties":{"objectid":41106,"plotmapid":"47A038A/1GHS","plotsizesq":14000,"plot_size":"14000 SQMT","plot_no":"038A/1","sector":"47","block":"A","mplanduse":"B","ppt_type":"GHS","ppt_full":"Group Housing","authority":"NOIDA","category":"group-housing","execution_stage":"unknown"}},{"type":"Feature","geometry":{"type":"Polygon","coordinates":[[[77.37278,28.552662],[77.372195,28.552688],[77.372131,28.552107],[77.372724,28.552078],[77.37278,28.552662]]]},"properties":{"objectid":41110,"plotmapid":"47A038A/2GHS","plotsizesq":7000,"plot_size":"7000 SQMT","plot_no":"038A/2","sector":"47","block":"A","mplanduse":"B","ppt_type":"GHS","ppt_full":"Group Housing","authority":"NOIDA","category":"group-housing","execution_stage":"unknown"}},{"type":"Feature","geometry":{"type":"Polygon","coordinates":[[[77.361416,28.573593],[77.360935,28.574168],[77.360087,28.573532],[77.360101,28.573516],[77.359895,28.573386],[77.359918,28.573359],[77.359709,28.573231],[77.360495,28.572276],[77.361746,28.573205],[77.361582,28.573377],[77.361416,28.573593]]]},"properties":{"objectid":41219,"plotmapid":"51A099GHS","used":"GR.HOUSING","plotsizesq":19886,"plot_size":"19886 SQMT","plot_no":"099","sector":"51","block":"A","mplanduse":"V","ppt_type":"GHS","ppt_full":"Group Housing","authority":"NOIDA","category":"group-housing","execution_stage":"unknown"}},{"type":"Feature","geometry":{"type":"Polygon","coordinates":[[[77.360121,28.573773],[77.361091,28.574489],[77.360513,28.575215],[77.360021,28.574897],[77.360244,28.574624],[77.359698,28.574276],[77.360111,28.573766],[77.360121,28.573773]]]},"properties":{"objectid":41453,"plotmapid":"51A100GHS","used":"GR.HOUSING","plotsizesq":8269,"plot_size":"8269 SQMT","plot_no":"100","sector":"51","block":"A","mplanduse":"B","ppt_type":"GHS","ppt_full":"Group Housing","authority":"NOIDA","category":"group-housing","execution_stage":"unknown"}},{"type":"Feature","geometry":{"type":"Polygon","coordinates":[[[77.359719,28.574289],[77.360244,28.574624],[77.359818,28.575145],[77.35927,28.574812],[77.359698,28.574276],[77.359719,28.574289]]]},"properties":{"objectid":41454,"plotmapid":"51A100/01GHS","used":"GR.HOUSING","plotsizesq":4202,"plot_size":"4202 SQMT","plot_no":"100/01","sector":"51","block":"A","mplanduse":"B","ppt_type":"GHS","ppt_full":"Group Housing","authority":"NOIDA","category":"group-housing","execution_stage":"unknown"}},{"type":"Feature","geometry":{"type":"Polygon","coordinates":[[[77.358864,28.575314],[77.35927,28.574812],[77.359818,28.575145],[77.359369,28.575694],[77.358864,28.575314]]]},"properties":{"objectid":41455,"plotmapid":"51A100/02GHS","used":"GR.HOUSING","plotsizesq":4202,"plot_size":"4202 SQMT","plot_no":"100/02","sector":"51","block":"A","mplanduse":"B","ppt_type":"GHS","ppt_full":"Group Housing","authority":"NOIDA","category":"group-housing","execution_stage":"unknown"}},{"type":"Feature","geometry":{"type":"Polygon","coordinates":[[[77.360513,28.575215],[77.35984,28.576039],[77.359369,28.575694],[77.360021,28.574897],[77.360513,28.575215]]]},"properties":{"objectid":41456,"plotmapid":"51A100/03GHS","used":"GR.HOUSING","plotsizesq":6597.8,"plot_size":"6597.80 SQMT","plot_no":"100/03","sector":"51","block":"A","mplanduse":"B","ppt_type":"GHS","ppt_full":"Group Housing","authority":"NOIDA","category":"group-housing","execution_stage":"unknown"}},{"type":"Feature","geometry":{"type":"Polygon","coordinates":[[[77.362917,28.55112],[77.361476,28.551224],[77.361352,28.5512],[77.361177,28.551132],[77.359983,28.550296],[77.359683,28.55012],[77.359576,28.550077],[77.359461,28.550055],[77.359203,28.550071],[77.359098,28.548898],[77.360566,28.548794],[77.360569,28.548852],[77.359845,28.549454],[77.359869,28.549561],[77.360084,28.54981],[77.360473,28.550187],[77.361063,28.549728],[77.361661,28.550328],[77.362494,28.549658],[77.361551,28.54866],[77.361685,28.548703],[77.361795,28.5487],[77.362684,28.54863],[77.362917,28.55112]]]},"properties":{"objectid":43072,"plotmapid":"46BGHS","used":"PLOTS FOR G. HOUSING","plotsizesq":51700,"plot_size":"51700 SQMT","sector":"46","block":"B","mplanduse":"B","ppt_type":"GHS","ppt_full":"Group Housing","authority":"NOIDA","category":"group-housing","execution_stage":"unknown"}},{"type":"Feature","geometry":{"type":"Polygon","coordinates":[[[77.356983,28.555598],[77.35799,28.555529],[77.358099,28.556742],[77.35709,28.556811],[77.356983,28.555598]]]},"properties":{"objectid":45124,"plotmapid":"42E001GHS","plotsizesq":0,"plot_no":"001","sector":"42","block":"E","mplanduse":"B","ppt_type":"GHS","ppt_full":"Group Housing","authority":"NOIDA","category":"group-housing","execution_stage":"unknown"}},{"type":"Feature","geometry":{"type":"Polygon","coordinates":[[[77.374244,28.553872],[77.373271,28.554768],[77.372777,28.554369],[77.372652,28.552949],[77.372902,28.552946],[77.373045,28.552975],[77.373179,28.55303],[77.373296,28.553107],[77.374244,28.553872]]]},"properties":{"objectid":45349,"plotmapid":"48D035AGHS","used":"SPACE RESERVED FOR GROUP HOUSING","plotsizesq":21270,"plot_size":"21270 SQMT","plot_no":"035A","sector":"48","block":"D","mplanduse":"B","ppt_type":"GHS","ppt_full":"Group Housing","authority":"NOIDA","category":"group-housing","execution_stage":"unknown"}},{"type":"Feature","geometry":{"type":"Polygon","coordinates":[[[77.351293,28.568451],[77.351135,28.568613],[77.350959,28.568484],[77.351117,28.56832],[77.351293,28.568451]]]},"properties":{"objectid":46752,"plotmapid":"39DGHS","plotsizesq":0,"sector":"39","block":"D","mplanduse":"ISSUE","ppt_type":"GHS","ppt_full":"Group Housing","authority":"NOIDA","category":"group-housing","execution_stage":"unknown"}},{"type":"Feature","geometry":{"type":"Polygon","coordinates":[[[77.351467,28.568271],[77.351591,28.568362],[77.351259,28.568704],[77.351135,28.568613],[77.351467,28.568271]]]},"properties":{"objectid":46753,"plotmapid":"39DGHS","plotsizesq":0,"sector":"39","block":"D","mplanduse":"ISSUE","ppt_type":"GHS","ppt_full":"Group Housing","authority":"NOIDA","category":"group-housing","execution_stage":"unknown"}},{"type":"Feature","geometry":{"type":"Polygon","coordinates":[[[77.351117,28.56832],[77.350959,28.568484],[77.351135,28.568613],[77.35096,28.568794],[77.350414,28.56839],[77.350747,28.568046],[77.351117,28.56832]]]},"properties":{"objectid":46793,"plotmapid":"39D046C1GHS","plotsizesq":0,"plot_no":"046C1","sector":"39","block":"D","mplanduse":"ISSUE","ppt_type":"GHS","ppt_full":"Group Housing","authority":"NOIDA","category":"group-housing","execution_stage":"unknown"}},{"type":"Feature","geometry":{"type":"Polygon","coordinates":[[[77.35426,28.571207],[77.353971,28.571491],[77.353441,28.572071],[77.352087,28.571059],[77.352916,28.570204],[77.35426,28.571207]]]},"properties":{"objectid":46950,"plotmapid":"39H063AGHS","plotsizesq":0,"plot_no":"063A","sector":"39","block":"H","mplanduse":"ISSUE","ppt_type":"GHS","ppt_full":"Group Housing","authority":"NOIDA","category":"group-housing","execution_stage":"unknown"}},{"type":"Feature","geometry":{"type":"Polygon","coordinates":[[[77.369132,28.571968],[77.369166,28.571993],[77.368529,28.572694],[77.367601,28.572024],[77.36807,28.571783],[77.368202,28.571688],[77.368443,28.571463],[77.369132,28.571968]]]},"properties":{"objectid":47932,"plotmapid":"50E04GHS","used":"GROUP HOUSING","plotsizesq":9040,"plot_size":"9040 SQMT","plot_no":"04","sector":"50","block":"E","mplanduse":"B","ppt_type":"GHS","ppt_full":"Group Housing","authority":"NOIDA","category":"group-housing","execution_stage":"unknown"}},{"type":"Feature","geometry":{"type":"Polygon","coordinates":[[[77.366812,28.573121],[77.366084,28.573971],[77.364322,28.572668],[77.365014,28.571875],[77.365218,28.571993],[77.365435,28.572091],[77.365781,28.572197],[77.366141,28.572251],[77.366693,28.57226],[77.366812,28.573121]]]},"properties":{"objectid":47942,"plotmapid":"50E01GHS","used":"GROUP HOUSING","plotsizesq":0,"plot_no":"01","sector":"50","block":"E","mplanduse":"B","ppt_type":"GHS","ppt_full":"Group Housing","authority":"NOIDA","category":"group-housing","execution_stage":"unknown"}},{"type":"Feature","geometry":{"type":"Polygon","coordinates":[[[77.367589,28.5753],[77.366711,28.57581],[77.365956,28.575281],[77.366568,28.574579],[77.367589,28.5753]]]},"properties":{"objectid":47944,"plotmapid":"50A086GHS","used":"GROUP HOUSING","plotsizesq":0,"plot_no":"086","sector":"50","block":"A","mplanduse":"B","ppt_type":"GHS","ppt_full":"Group Housing","authority":"NOIDA","category":"group-housing","execution_stage":"unknown"}},{"type":"Feature","geometry":{"type":"Polygon","coordinates":[[[77.361531,28.572682],[77.360741,28.572112],[77.361709,28.57094],[77.362689,28.57165],[77.361724,28.572821],[77.361531,28.572682]]]},"properties":{"objectid":47946,"plotmapid":"50A001GHS","used":"SITE ALLOTTED FOR GROUP HOUSING TOI.R.W.O.","plotsizesq":20000,"plot_size":"20000 SQMT","plot_no":"001","sector":"50","block":"A","mplanduse":"B","ppt_type":"GHS","ppt_full":"Group Housing","authority":"NOIDA","category":"group-housing","execution_stage":"unknown"}},{"type":"Feature","geometry":{"type":"Polygon","coordinates":[[[77.363989,28.57366],[77.364562,28.573043],[77.366004,28.574117],[77.365459,28.574747],[77.363989,28.57366]]]},"properties":{"objectid":48191,"plotmapid":"50A58GHS","used":"GROUP HOUSING","plotsizesq":16016,"plot_size":"16016 SQMT","plot_no":"58","sector":"50","block":"A","mplanduse":"B","ppt_type":"GHS","ppt_full":"Group Housing","authority":"NOIDA","category":"group-housing","execution_stage":"unknown"}},{"type":"Feature","geometry":{"type":"Polygon","coordinates":[[[77.37525,28.576379],[77.375348,28.575737],[77.377065,28.575914],[77.376973,28.576572],[77.37525,28.576379]]]},"properties":{"objectid":48418,"plotmapid":"50F021BGHS","used":"G.H","plotsizesq":9750,"plot_size":"9750 SQMT","plot_no":"021B","sector":"50","block":"F","mplanduse":"B","ppt_type":"GHS","ppt_full":"Group Housing","authority":"NOIDA","category":"group-housing","execution_stage":"unknown"}},{"type":"Feature","geometry":{"type":"Polygon","coordinates":[[[77.375348,28.575737],[77.37544,28.575052],[77.377163,28.57523],[77.377065,28.575914],[77.375348,28.575737]]]},"properties":{"objectid":48419,"plotmapid":"50F021CGHS","used":"G.H","plotsizesq":9750,"plot_size":"9750 SQMT","plot_no":"021C","sector":"50","block":"F","mplanduse":"B","ppt_type":"GHS","ppt_full":"Group Housing","authority":"NOIDA","category":"group-housing","execution_stage":"unknown"}},{"type":"Feature","geometry":{"type":"Polygon","coordinates":[[[77.373693,28.574054],[77.373057,28.574452],[77.372281,28.5735],[77.372917,28.573102],[77.373693,28.574054]]]},"properties":{"objectid":48509,"plotmapid":"50F008GHS","plotsizesq":9750,"plot_size":"9750 SQMT","plot_no":"008","sector":"50","block":"F","mplanduse":"B","ppt_type":"GHS","ppt_full":"Group Housing","authority":"NOIDA","category":"group-housing","execution_stage":"unknown"}},{"type":"Feature","geometry":{"type":"Polygon","coordinates":[[[77.369836,28.576459],[77.369291,28.576796],[77.368515,28.575844],[77.369151,28.575444],[77.36992,28.576406],[77.369836,28.576459]]]},"properties":{"objectid":48510,"plotmapid":"50F002GHS","plotsizesq":9750,"plot_size":"9750 SQMT","plot_no":"002","sector":"50","block":"F","mplanduse":"B","ppt_type":"GHS","ppt_full":"Group Housing","authority":"NOIDA","category":"group-housing","execution_stage":"unknown"}},{"type":"Feature","geometry":{"type":"Polygon","coordinates":[[[77.374317,28.573663],[77.373693,28.574054],[77.372917,28.573102],[77.373534,28.572716],[77.374317,28.573663]]]},"properties":{"objectid":48511,"plotmapid":"50F009GHS","plotsizesq":9750,"plot_size":"9750 SQMT","plot_no":"009","sector":"50","block":"F","mplanduse":"B","ppt_type":"GHS","ppt_full":"Group Housing","authority":"NOIDA","category":"group-housing","execution_stage":"unknown"}},{"type":"Feature","geometry":{"type":"Polygon","coordinates":[[[77.371665,28.573886],[77.372281,28.5735],[77.373057,28.574452],[77.372437,28.574838],[77.371665,28.573886]]]},"properties":{"objectid":48512,"plotmapid":"50F007GHS","plotsizesq":9750,"plot_size":"9750 SQMT","plot_no":"007","sector":"50","block":"F","mplanduse":"B","ppt_type":"GHS","ppt_full":"Group Housing","authority":"NOIDA","category":"group-housing","execution_stage":"unknown"}},{"type":"Feature","geometry":{"type":"Polygon","coordinates":[[[77.371894,28.574172],[77.372437,28.574838],[77.371816,28.575226],[77.371041,28.574274],[77.371665,28.573886],[77.371894,28.574172]]]},"properties":{"objectid":48513,"plotmapid":"50F006GHS","plotsizesq":9750,"plot_size":"9750 SQMT","plot_no":"006","sector":"50","block":"F","mplanduse":"B","ppt_type":"GHS","ppt_full":"Group Housing","authority":"NOIDA","category":"group-housing","execution_stage":"unknown"}},{"type":"Feature","geometry":{"type":"Polygon","coordinates":[[[77.371816,28.575226],[77.371191,28.575615],[77.370414,28.574662],[77.371041,28.574274],[77.371816,28.575226]]]},"properties":{"objectid":48514,"plotmapid":"50F005GHS","plotsizesq":9750,"plot_size":"9750 SQMT","plot_no":"005","sector":"50","block":"F","mplanduse":"B","ppt_type":"GHS","ppt_full":"Group Housing","authority":"NOIDA","category":"group-housing","execution_stage":"unknown"}},{"type":"Feature","geometry":{"type":"Polygon","coordinates":[[[77.371191,28.575615],[77.37056,28.576006],[77.369783,28.575052],[77.370414,28.574662],[77.371191,28.575615]]]},"properties":{"objectid":48515,"plotmapid":"50F004GHS","plotsizesq":9750,"plot_size":"9750 SQMT","plot_no":"004","sector":"50","block":"F","mplanduse":"B","ppt_type":"GHS","ppt_full":"Group Housing","authority":"NOIDA","category":"group-housing","execution_stage":"unknown"}},{"type":"Feature","geometry":{"type":"Polygon","coordinates":[[[77.37056,28.576006],[77.36992,28.576406],[77.369151,28.575444],[77.369783,28.575052],[77.37056,28.576006]]]},"properties":{"objectid":48516,"plotmapid":"50F003GHS","plotsizesq":9750,"plot_size":"9750 SQMT","plot_no":"003","sector":"50","block":"F","mplanduse":"B","ppt_type":"GHS","ppt_full":"Group Housing","authority":"NOIDA","category":"group-housing","execution_stage":"unknown"}},{"type":"Feature","geometry":{"type":"Polygon","coordinates":[[[77.367742,28.574673],[77.367438,28.574974],[77.366971,28.574623],[77.367628,28.57392],[77.368118,28.574292],[77.367742,28.574673]]]},"properties":{"objectid":48827,"plotmapid":"50E08GHS","used":"GROUP HOUSING","plotsizesq":4800,"plot_size":"4800 SQMT","plot_no":"08","sector":"50","block":"E","mplanduse":"B","ppt_type":"GHS","ppt_full":"Group Housing","authority":"NOIDA","category":"group-housing","execution_stage":"unknown"}},{"type":"Feature","geometry":{"type":"Polygon","coordinates":[[[77.354431,28.566537],[77.355684,28.565223],[77.356543,28.565862],[77.355294,28.567172],[77.354431,28.566537]]]},"properties":{"objectid":50144,"plotmapid":"40F064CGHS","plotsizesq":0,"plot_no":"064C","sector":"40","block":"F","mplanduse":"B","ppt_type":"GHS","ppt_full":"Group Housing","authority":"NOIDA","category":"group-housing","execution_stage":"unknown"}},{"type":"Feature","geometry":{"type":"Polygon","coordinates":[[[77.354764,28.557257],[77.3568,28.557114],[77.356967,28.558985],[77.354943,28.559123],[77.354764,28.557257]]]},"properties":{"objectid":50451,"plotmapid":"43NA001CGHS","plotsizesq":0,"plot_no":"001C","sector":"43","block":"NA","mplanduse":"V","ppt_type":"GHS","ppt_full":"Group Housing","remark":"As per drone is vacant ,not Alloted & not buildup","authority":"NOIDA","category":"group-housing","execution_stage":"unknown"}},{"type":"Feature","geometry":{"type":"Polygon","coordinates":[[[77.354943,28.559123],[77.353629,28.559219],[77.353622,28.559091],[77.352674,28.559167],[77.352561,28.557406],[77.354764,28.557257],[77.354943,28.559123]]]},"properties":{"objectid":50687,"plotmapid":"43GH01BGHS","plotsizesq":0,"plot_no":"01B","sector":"43","block":"GH","mplanduse":"V","ppt_type":"GHS","ppt_full":"Group Housing","remark":"As per Drone is vacant but Alloted","authority":"NOIDA","category":"group-housing","execution_stage":"unknown"}},{"type":"Feature","geometry":{"type":"Polygon","coordinates":[[[77.350527,28.559305],[77.350384,28.559313],[77.350243,28.557552],[77.352561,28.557406],[77.352674,28.559167],[77.350527,28.559305]]]},"properties":{"objectid":50766,"plotmapid":"43GH01AGHS","plotsizesq":0,"plot_no":"01A","sector":"43","block":"GH","mplanduse":"B","ppt_type":"GHS","ppt_full":"Group Housing","authority":"NOIDA","category":"group-housing","execution_stage":"unknown"}},{"type":"Feature","geometry":{"type":"Polygon","coordinates":[[[77.384015,28.565614],[77.38389,28.566186],[77.383902,28.566523],[77.380048,28.56632],[77.380213,28.565241],[77.380813,28.565293],[77.380824,28.565437],[77.382021,28.565488],[77.38209,28.564326],[77.385061,28.564483],[77.385728,28.564505],[77.385667,28.565579],[77.385002,28.565544],[77.384813,28.565213],[77.384655,28.565236],[77.384301,28.56536],[77.384142,28.564976],[77.384018,28.564996],[77.384039,28.565344],[77.384015,28.565614]]]},"properties":{"objectid":59655,"plotmapid":"76NAGHS","plotsizesq":81300,"plot_size":"81300 SQMT","sector":"76","block":"NA","mplanduse":"B","ppt_type":"GHS","ppt_full":"Group Housing","authority":"NOIDA","category":"group-housing","execution_stage":"unknown"}},{"type":"Feature","geometry":{"type":"Polygon","coordinates":[[[77.388235,28.56136],[77.388048,28.564219],[77.385051,28.564071],[77.385215,28.561009],[77.385711,28.561023],[77.388246,28.561156],[77.388235,28.56136]]]},"properties":{"objectid":59670,"plotmapid":"78GH002GHS","used":"G.H. PLOT","plotsizesq":100261.59,"plot_size":"1261.59 SQMT","plot_no":"002","sector":"78","block":"GH","mplanduse":"B","ppt_type":"GHS","ppt_full":"Group Housing","authority":"NOIDA","category":"group-housing","execution_stage":"unknown"}},{"type":"Feature","geometry":{"type":"Polygon","coordinates":[[[77.390791,28.562238],[77.390652,28.564352],[77.388048,28.564219],[77.38818,28.562101],[77.390791,28.562238]]]},"properties":{"objectid":59671,"plotmapid":"78GH003GHS","used":"G.H. PLOT","plotsizesq":60358,"plot_size":"60358 SQMT","plot_no":"003","sector":"78","block":"GH","mplanduse":"B","ppt_type":"GHS","ppt_full":"Group Housing","authority":"NOIDA","category":"group-housing","execution_stage":"unknown"}},{"type":"Feature","geometry":{"type":"Polygon","coordinates":[[[77.384331,28.560409],[77.385215,28.561009],[77.385051,28.564071],[77.381773,28.563899],[77.381792,28.563576],[77.384331,28.560409]]]},"properties":{"objectid":59672,"plotmapid":"78GH001GHS","used":"G.H. PLOT","plotsizesq":83863.18,"plot_size":"83863.18 SQMT","plot_no":"001","sector":"78","block":"GH","mplanduse":"B","ppt_type":"GHS","ppt_full":"Group Housing","authority":"NOIDA","category":"group-housing","execution_stage":"unknown"}},{"type":"Feature","geometry":{"type":"Polygon","coordinates":[[[77.386583,28.557517],[77.38757,28.557592],[77.387689,28.55792],[77.387853,28.558806],[77.386264,28.560789],[77.386269,28.561052],[77.385215,28.561009],[77.384331,28.560409],[77.385177,28.559368],[77.386422,28.55776],[77.38643,28.557534],[77.386461,28.557505],[77.386583,28.557517]]]},"properties":{"objectid":59673,"plotmapid":"78GH005GHS","used":"G.H. PLOT","plotsizesq":71641.3,"plot_size":"71641.30 SQMT","plot_no":"005","sector":"78","block":"GH","mplanduse":"B","ppt_type":"GHS","ppt_full":"Group Housing","authority":"NOIDA","category":"group-housing","execution_stage":"unknown"}},{"type":"Feature","geometry":{"type":"Polygon","coordinates":[[[77.388232,28.561406],[77.388246,28.561156],[77.386269,28.561052],[77.386264,28.560789],[77.387853,28.558806],[77.388747,28.558843],[77.388651,28.558191],[77.390033,28.559185],[77.388232,28.561406]]]},"properties":{"objectid":59674,"plotmapid":"78GH004GHS","used":"G.H. PLOT","plotsizesq":61439.56,"plot_size":"61439.56 SQMT","plot_no":"004","sector":"78","block":"GH","mplanduse":"B","ppt_type":"GHS","ppt_full":"Group Housing","authority":"NOIDA","category":"group-housing","execution_stage":"unknown"}},{"type":"Feature","geometry":{"type":"Polygon","coordinates":[[[77.38399,28.575652],[77.38402,28.575759],[77.383336,28.575486],[77.383366,28.575132],[77.383388,28.575077],[77.383996,28.574901],[77.384053,28.574897],[77.384024,28.574937],[77.383992,28.575056],[77.383927,28.575191],[77.383904,28.575318],[77.383935,28.575481],[77.38399,28.575652]]]},"properties":{"objectid":59679,"plotmapid":"75NA002GHS","plotsizesq":3380,"plot_size":"3380 SQMT","plot_no":"002","sector":"75","block":"NA","mplanduse":"V","ppt_type":"GHS","ppt_full":"Group Housing","remark":"As per drone is vacant ,not Alloted & not buildup","authority":"NOIDA","category":"group-housing","execution_stage":"unknown"}},{"type":"Feature","geometry":{"type":"Polygon","coordinates":[[[77.38323,28.571683],[77.385331,28.57181],[77.385273,28.572638],[77.383057,28.572508],[77.383116,28.571677],[77.38323,28.571683]]]},"properties":{"objectid":59690,"plotmapid":"75NA009GHS","used":"SUBLEASED  GARDENIA INDIA LTD","plotsizesq":20000,"plot_size":"20000 SQMT","plot_no":"009","sector":"75","block":"NA","mplanduse":"B","ppt_type":"GHS","ppt_full":"Group Housing","authority":"NOIDA","category":"group-housing","execution_stage":"unknown"}},{"type":"Feature","geometry":{"type":"Polygon","coordinates":[[[77.380887,28.571556],[77.383116,28.571677],[77.383057,28.572508],[77.38083,28.572387],[77.380887,28.571556]]]},"properties":{"objectid":59691,"plotmapid":"75NA010GHS","used":"SUBLEASED TO FUTECH SHELTERS PVT. LTD","plotsizesq":20000,"plot_size":"20000 SQMT","plot_no":"010","sector":"75","block":"NA","mplanduse":"B","ppt_type":"GHS","ppt_full":"Group Housing","authority":"NOIDA","category":"group-housing","execution_stage":"unknown"}},{"type":"Feature","geometry":{"type":"Polygon","coordinates":[[[77.38003,28.571521],[77.379667,28.57389],[77.378892,28.573799],[77.379249,28.571474],[77.38003,28.571521]]]},"properties":{"objectid":59692,"plotmapid":"75NAGHS","used":"AMGPL","plotsizesq":15647,"plot_size":"15647 SQMT","sector":"75","block":"NA","mplanduse":"B","ppt_type":"GHS","ppt_full":"Group Housing","authority":"NOIDA","category":"group-housing","execution_stage":"unknown"}},{"type":"Feature","geometry":{"type":"Polygon","coordinates":[[[77.380553,28.57154],[77.380884,28.571556],[77.380698,28.574296],[77.379772,28.574243],[77.380205,28.571524],[77.380553,28.57154]]]},"properties":{"objectid":59693,"plotmapid":"75NA011GHS","used":"AMGPL","plotsizesq":23916,"plot_size":"23916 SQMT","plot_no":"011","sector":"75","block":"NA","mplanduse":"B","ppt_type":"GHS","ppt_full":"Group Housing","authority":"NOIDA","category":"group-housing","execution_stage":"unknown"}},{"type":"Feature","geometry":{"type":"Polygon","coordinates":[[[77.385331,28.57181],[77.386391,28.571865],[77.386175,28.574946],[77.385147,28.574909],[77.385262,28.57276],[77.385331,28.57181]]]},"properties":{"objectid":59696,"plotmapid":"75NA008GHS","used":"AMGPL","plotsizesq":34833,"plot_size":"34833 SQMT","plot_no":"008","sector":"75","block":"NA","mplanduse":"B","ppt_type":"GHS","ppt_full":"Group Housing","authority":"NOIDA","category":"group-housing","execution_stage":"unknown"}},{"type":"Feature","geometry":{"type":"Polygon","coordinates":[[[77.383554,28.574875],[77.383316,28.574946],[77.383201,28.574843],[77.383058,28.574772],[77.383167,28.573251],[77.384681,28.573333],[77.384587,28.574648],[77.384512,28.57464],[77.384333,28.57466],[77.384039,28.574741],[77.384097,28.573913],[77.383626,28.573884],[77.383554,28.574875]]]},"properties":{"objectid":59698,"plotmapid":"75NA016GHS","used":"AMGPL","plotsizesq":20000,"plot_size":"20000 SQMT","plot_no":"016","sector":"75","block":"NA","mplanduse":"B","ppt_type":"GHS","ppt_full":"Group Housing","authority":"NOIDA","category":"group-housing","execution_stage":"unknown"}},{"type":"Feature","geometry":{"type":"Polygon","coordinates":[[[77.38269,28.574753],[77.382577,28.574789],[77.382474,28.574846],[77.382324,28.574991],[77.382167,28.574987],[77.382264,28.573537],[77.38181,28.573515],[77.38171,28.574961],[77.381251,28.574936],[77.381376,28.573146],[77.382799,28.573226],[77.38269,28.574753]]]},"properties":{"objectid":59700,"plotmapid":"75NA017GHS","used":"AMGPL","plotsizesq":20000,"plot_size":"20000 SQMT","plot_no":"017","sector":"75","block":"NA","mplanduse":"B","ppt_type":"GHS","ppt_full":"Group Housing","authority":"NOIDA","category":"group-housing","execution_stage":"unknown"}},{"type":"Feature","geometry":{"type":"Polygon","coordinates":[[[77.380698,28.574296],[77.380661,28.574902],[77.379669,28.57485],[77.379772,28.574243],[77.380698,28.574296]]]},"properties":{"objectid":59702,"plotmapid":"75NA012GHS","used":"AMGPL","plotsizesq":6366,"plot_size":"6366 SQMT","plot_no":"012","sector":"75","block":"NA","mplanduse":"B","ppt_type":"GHS","ppt_full":"Group Housing","authority":"NOIDA","category":"group-housing","execution_stage":"unknown"}},{"type":"Feature","geometry":{"type":"Polygon","coordinates":[[[77.379348,28.574916],[77.379324,28.574951],[77.379319,28.575027],[77.378712,28.574995],[77.378892,28.573799],[77.379667,28.57389],[77.379529,28.574823],[77.379348,28.574916]]]},"properties":{"objectid":59703,"plotmapid":"75NAGHS","used":"AMGPL","plotsizesq":9824,"plot_size":"9824 SQMT","sector":"75","block":"NA","mplanduse":"B","ppt_type":"GHS","ppt_full":"Group Housing","authority":"NOIDA","category":"group-housing","execution_stage":"unknown"}},{"type":"Feature","geometry":{"type":"Polygon","coordinates":[[[77.382837,28.575612],[77.38268,28.575585],[77.382546,28.575506],[77.382457,28.575389],[77.382426,28.575251],[77.382457,28.575112],[77.382546,28.574995],[77.38268,28.574917],[77.382837,28.574889],[77.382995,28.574917],[77.383129,28.574995],[77.383218,28.575112],[77.383249,28.575251],[77.383218,28.575389],[77.383129,28.575506],[77.382995,28.575585],[77.382837,28.575612]]]},"properties":{"objectid":59706,"plotmapid":"75NA001GHS","plotsizesq":4000,"plot_size":"4000 SQMT","plot_no":"001","sector":"75","block":"NA","mplanduse":"C","ppt_type":"GHS","ppt_full":"Group Housing","authority":"NOIDA","category":"group-housing","execution_stage":"unknown"}},{"type":"Feature","geometry":{"type":"Polygon","coordinates":[[[77.386128,28.575693],[77.385285,28.576194],[77.385339,28.575239],[77.385371,28.575184],[77.38542,28.575141],[77.385484,28.575122],[77.38616,28.575155],[77.386128,28.575693]]]},"properties":{"objectid":59707,"plotmapid":"75NA007GHS","used":"AMGPL","plotsizesq":6797,"plot_size":"6797 SQMT","plot_no":"007","sector":"75","block":"NA","mplanduse":"B","ppt_type":"GHS","ppt_full":"Group Housing","authority":"NOIDA","category":"group-housing","execution_stage":"unknown"}},{"type":"Feature","geometry":{"type":"Polygon","coordinates":[[[77.380622,28.575395],[77.380582,28.575966],[77.379505,28.575913],[77.379597,28.575342],[77.380622,28.575395]]]},"properties":{"objectid":59709,"plotmapid":"75NA001GHS","used":"AMGPL","plotsizesq":7082,"plot_size":"7082 SQMT","plot_no":"001","sector":"75","block":"NA","mplanduse":"B","ppt_type":"GHS","ppt_full":"Group Housing","authority":"NOIDA","category":"group-housing","execution_stage":"unknown"}},{"type":"Feature","geometry":{"type":"Polygon","coordinates":[[[77.382623,28.575724],[77.382514,28.577248],[77.381084,28.577169],[77.381213,28.575354],[77.381682,28.575378],[77.381578,28.576834],[77.382052,28.57686],[77.382155,28.575424],[77.382291,28.575426],[77.382342,28.575523],[77.382418,28.575608],[77.382513,28.575676],[77.382623,28.575724]]]},"properties":{"objectid":59712,"plotmapid":"75NA014GHS","used":"AMGPL","plotsizesq":20000,"plot_size":"20000 SQMT","plot_no":"014","sector":"75","block":"NA","mplanduse":"B","ppt_type":"GHS","ppt_full":"Group Housing","authority":"NOIDA","category":"group-housing","execution_stage":"unknown"}},{"type":"Feature","geometry":{"type":"Polygon","coordinates":[[[77.386061,28.576705],[77.386017,28.577575],[77.384437,28.577477],[77.384561,28.576096],[77.384613,28.576101],[77.384613,28.576032],[77.384835,28.575979],[77.384971,28.575916],[77.385093,28.575834],[77.385191,28.575717],[77.385318,28.575473],[77.385285,28.576194],[77.384918,28.576367],[77.385234,28.576693],[77.385753,28.576353],[77.386102,28.576082],[77.386061,28.576705]]]},"properties":{"objectid":59713,"plotmapid":"75NA015GHS","used":"AMGPL","plotsizesq":20639,"plot_size":"20639 SQMT","plot_no":"015","sector":"75","block":"NA","mplanduse":"B","ppt_type":"GHS","ppt_full":"Group Housing","authority":"NOIDA","category":"group-housing","execution_stage":"unknown"}},{"type":"Feature","geometry":{"type":"Polygon","coordinates":[[[77.378647,28.575152],[77.379348,28.575192],[77.379277,28.575708],[77.379252,28.575708],[77.379195,28.576037],[77.379224,28.576039],[77.379209,28.576141],[77.379181,28.576139],[77.378986,28.57731],[77.378313,28.577226],[77.378416,28.576478],[77.378647,28.575152]]]},"properties":{"objectid":59714,"plotmapid":"75NAGHS","used":"AMGPL","plotsizesq":15921,"plot_size":"15921 SQMT","sector":"75","block":"NA","mplanduse":"B","ppt_type":"GHS","ppt_full":"Group Housing","authority":"NOIDA","category":"group-housing","execution_stage":"unknown"}},{"type":"Feature","geometry":{"type":"Polygon","coordinates":[[[77.384436,28.576766],[77.384397,28.577356],[77.38288,28.577265],[77.38299,28.575728],[77.383116,28.575696],[77.383269,28.57561],[77.3835,28.575707],[77.383437,28.576692],[77.383897,28.576715],[77.383956,28.575894],[77.384297,28.576015],[77.384496,28.576036],[77.384436,28.576766]]]},"properties":{"objectid":59728,"plotmapid":"75NA012AGHS","used":"AMGPL","plotsizesq":20000,"plot_size":"20000 SQMT","plot_no":"012A","sector":"75","block":"NA","mplanduse":"B","ppt_type":"GHS","ppt_full":"Group Housing","authority":"NOIDA","category":"group-housing","execution_stage":"unknown"}},{"type":"Feature","geometry":{"type":"Polygon","coordinates":[[[77.383202,28.569275],[77.386542,28.56946],[77.386389,28.571423],[77.384651,28.571322],[77.379323,28.571059],[77.380013,28.566588],[77.383369,28.566767],[77.383291,28.567944],[77.382746,28.568122],[77.382129,28.568363],[77.382129,28.568575],[77.382112,28.568643],[77.382485,28.568537],[77.383248,28.568502],[77.383202,28.569275]],[[77.381454,28.56804],[77.382053,28.567737],[77.382633,28.567414],[77.382391,28.567106],[77.382195,28.566885],[77.381765,28.567232],[77.381867,28.567323],[77.381841,28.567346],[77.381905,28.567418],[77.381842,28.567527],[77.381619,28.567759],[77.381541,28.567706],[77.381454,28.56804]]]},"properties":{"objectid":60470,"plotmapid":"76NAGHS","plotsizesq":235245.58,"plot_size":"235245.58 SQMT","sector":"76","block":"NA","mplanduse":"B","ppt_type":"GHS","ppt_full":"Group Housing","authority":"NOIDA","category":"group-housing","execution_stage":"unknown"}}]}
