{"type":"FeatureCollection","features":[{"type":"Feature","geometry":{"type":"Polygon","coordinates":[[[77.338726,28.552477],[77.339925,28.551592],[77.340879,28.552654],[77.340099,28.553028],[77.339517,28.553358],[77.338726,28.552477]]]},"properties":{"objectid":20707,"plotmapid":"44NAGHS","plotsizesq":0,"sector":"44","block":"NA","mplanduse":"ISSUE","ppt_type":"GHS","ppt_full":"Group Housing","authority":"NOIDA","category":"group-housing","execution_stage":"unknown"}},{"type":"Feature","geometry":{"type":"Polygon","coordinates":[[[77.344038,28.553364],[77.344106,28.554287],[77.343669,28.554146],[77.343297,28.554003],[77.342816,28.553784],[77.342444,28.553586],[77.342875,28.552703],[77.343609,28.552605],[77.344015,28.553057],[77.344038,28.553364]]]},"properties":{"objectid":20709,"plotmapid":"44E009GHS","plotsizesq":0,"plot_no":"009","sector":"44","block":"E","mplanduse":"ISSUE","ppt_type":"GHS","ppt_full":"Group Housing","authority":"NOIDA","category":"group-housing","execution_stage":"unknown"}},{"type":"Feature","geometry":{"type":"Polygon","coordinates":[[[77.341575,28.55099],[77.342665,28.550895],[77.342773,28.551755],[77.341023,28.552452],[77.340211,28.55152],[77.341007,28.552142],[77.341129,28.552208],[77.34186,28.551475],[77.341575,28.55099]]]},"properties":{"objectid":20713,"plotmapid":"44EGHS","plotsizesq":0,"sector":"44","block":"E","mplanduse":"ISSUE","ppt_type":"GHS","ppt_full":"Group Housing","authority":"NOIDA","category":"group-housing","execution_stage":"unknown"}},{"type":"Feature","geometry":{"type":"Polygon","coordinates":[[[77.342876,28.552702],[77.342444,28.553586],[77.341916,28.553253],[77.341501,28.552944],[77.341329,28.552801],[77.341023,28.552452],[77.342773,28.551755],[77.342876,28.552702]]]},"properties":{"objectid":20714,"plotmapid":"44EGHS","plotsizesq":0,"sector":"44","block":"E","mplanduse":"ISSUE","ppt_type":"GHS","ppt_full":"Group Housing","authority":"NOIDA","category":"group-housing","execution_stage":"unknown"}},{"type":"Feature","geometry":{"type":"Polygon","coordinates":[[[77.341575,28.55099],[77.34186,28.551475],[77.341129,28.552208],[77.341007,28.552142],[77.340211,28.55152],[77.340699,28.551125],[77.340795,28.551069],[77.341575,28.55099]]]},"properties":{"objectid":21151,"plotmapid":"44E01/AGHS","plotsizesq":0,"plot_size":"13800 SQM.","plot_no":"01/A","sector":"44","block":"E","mplanduse":"ISSUE","ppt_type":"GHS","ppt_full":"Group Housing","authority":"NOIDA","category":"group-housing","execution_stage":"unknown"}},{"type":"Feature","geometry":{"type":"Polygon","coordinates":[[[77.347485,28.551829],[77.346951,28.552171],[77.346669,28.551873],[77.345879,28.551607],[77.345484,28.551872],[77.345449,28.551804],[77.346437,28.55117],[77.347387,28.550591],[77.348111,28.551432],[77.347485,28.551829]]]},"properties":{"objectid":45109,"plotmapid":"45NAGHS","plotsizesq":0,"sector":"45","block":"NA","mplanduse":"ISSUE","ppt_type":"GHS","ppt_full":"Group Housing","authority":"NOIDA","category":"group-housing","execution_stage":"unknown"}},{"type":"Feature","geometry":{"type":"Polygon","coordinates":[[[77.347163,28.55037],[77.347387,28.550591],[77.346437,28.55117],[77.345449,28.551804],[77.34539,28.551708],[77.344868,28.550611],[77.347163,28.55037]]]},"properties":{"objectid":45111,"plotmapid":"45NA002GHS","plotsizesq":0,"plot_no":"002","sector":"45","block":"NA","mplanduse":"B","ppt_type":"GHS","ppt_full":"Group Housing","authority":"NOIDA","category":"group-housing","execution_stage":"unknown"}},{"type":"Feature","geometry":{"type":"Polygon","coordinates":[[[77.34622,28.55024],[77.344757,28.550398],[77.344223,28.549321],[77.343854,28.548635],[77.343753,28.548486],[77.345942,28.548223],[77.34622,28.55024]]]},"properties":{"objectid":45116,"plotmapid":"45NA002GHS","plotsizesq":0,"plot_no":"002","sector":"45","block":"NA","mplanduse":"B","ppt_type":"GHS","ppt_full":"Group Housing","authority":"NOIDA","category":"group-housing","execution_stage":"unknown"}},{"type":"Feature","geometry":{"type":"Polygon","coordinates":[[[77.348949,28.548563],[77.34889,28.548611],[77.348734,28.548475],[77.348257,28.5488],[77.348204,28.548817],[77.347784,28.549154],[77.348073,28.549427],[77.347829,28.54963],[77.347892,28.549694],[77.34733,28.550059],[77.34719,28.550144],[77.34622,28.55024],[77.345942,28.548223],[77.349634,28.547816],[77.349668,28.547957],[77.348949,28.548563]]]},"properties":{"objectid":45117,"plotmapid":"45NA003GHS","plotsizesq":0,"plot_no":"003","sector":"45","block":"NA","mplanduse":"B","ppt_type":"GHS","ppt_full":"Group Housing","authority":"NOIDA","category":"group-housing","execution_stage":"unknown"}}]}
