{"type":"FeatureCollection","features":[{"type":"Feature","geometry":{"type":"Polygon","coordinates":[[[77.319488,28.572769],[77.31904,28.572337],[77.319213,28.5719],[77.319553,28.572213],[77.320288,28.571591],[77.320565,28.571845],[77.319488,28.572769]]]},"properties":{"objectid":23090,"plotmapid":"17A083GHS","property_t":"Group Housing","used":"GROUP HOUSING","plotsizesq":9537.68,"plot_size":"9537.68 SQMT","plot_no":"083","sector":"17","block":"A","mplanduse":"B","ppt_type":"GHS","ppt_full":"Group Housing","remark":"As per Drone is vacant but Alloted","authority":"NOIDA","category":"group-housing","execution_stage":"unknown"}},{"type":"Feature","geometry":{"type":"Polygon","coordinates":[[[77.319472,28.570838],[77.320203,28.571514],[77.319544,28.572068],[77.319233,28.571768],[77.319292,28.571507],[77.319327,28.571242],[77.319339,28.570976],[77.319326,28.57071],[77.319472,28.570838]]]},"properties":{"objectid":23103,"plotmapid":"17A084GHS","property_t":"Group Housing","used":"GROUP HOUSING","plotsizesq":8223.52,"plot_size":"8223.52 SQMT","plot_no":"084","sector":"17","block":"A","mplanduse":"B","ppt_type":"GHS","ppt_full":"Group Housing","authority":"NOIDA","category":"group-housing","execution_stage":"unknown"}}]}
