{"type":"FeatureCollection","features":[{"type":"Feature","geometry":{"type":"Polygon","coordinates":[[[77.335563,28.56539],[77.335546,28.565371],[77.33557,28.565355],[77.335548,28.565331],[77.335524,28.565347],[77.335483,28.565303],[77.335507,28.565286],[77.335493,28.56527],[77.335468,28.565287],[77.335427,28.565243],[77.335452,28.565226],[77.335437,28.56521],[77.335413,28.565227],[77.335372,28.565182],[77.335396,28.565166],[77.335374,28.565142],[77.33535,28.565158],[77.335333,28.56514],[77.335395,28.565078],[77.335406,28.56509],[77.335447,28.565062],[77.335463,28.56508],[77.335439,28.565097],[77.335461,28.565121],[77.335486,28.565104],[77.335498,28.565139],[77.33551,28.56513],[77.335527,28.565149],[77.33551,28.56516],[77.335525,28.565176],[77.335541,28.565164],[77.335558,28.565183],[77.335546,28.565191],[77.335582,28.565209],[77.335566,28.56522],[77.33558,28.565236],[77.335597,28.565225],[77.335609,28.565259],[77.335621,28.565251],[77.335638,28.565269],[77.335613,28.565286],[77.335635,28.56531],[77.33566,28.565293],[77.335677,28.565311],[77.335602,28.565382],[77.335591,28.56537],[77.335563,28.56539]]]},"properties":{"objectid":16562,"plotmapid":"29NAGHS","property_t":"Housing","used":"NA","plotsizesq":0,"plot_size":"NA","sector":"29","block":"NA","mplanduse":"ISSUE","ppt_type":"GHS","ppt_full":"Group Housing","authority":"NOIDA","category":"group-housing","execution_stage":"unknown"}},{"type":"Feature","geometry":{"type":"Polygon","coordinates":[[[77.334737,28.565326],[77.334674,28.56537],[77.3345,28.56518],[77.334565,28.565134],[77.334737,28.565326]]]},"properties":{"objectid":16703,"plotmapid":"29NAGHS","used":"NA","plotsizesq":0,"plot_size":"NA","sector":"29","block":"NA","mplanduse":"ISSUE","ppt_type":"GHS","ppt_full":"Group Housing","authority":"NOIDA","category":"group-housing","execution_stage":"unknown"}},{"type":"Feature","geometry":{"type":"Polygon","coordinates":[[[77.334565,28.565134],[77.334627,28.56509],[77.334799,28.565282],[77.334737,28.565326],[77.334565,28.565134]]]},"properties":{"objectid":16704,"plotmapid":"29NA094GHS","used":"NA","plotsizesq":0,"plot_size":"NA","plot_no":"094","sector":"29","block":"NA","mplanduse":"ISSUE","ppt_type":"GHS","ppt_full":"Group Housing","authority":"NOIDA","category":"group-housing","execution_stage":"unknown"}},{"type":"Feature","geometry":{"type":"Polygon","coordinates":[[[77.334627,28.56509],[77.334688,28.565047],[77.33486,28.565239],[77.334799,28.565282],[77.334627,28.56509]]]},"properties":{"objectid":16705,"plotmapid":"29NA095GHS","used":"NA","plotsizesq":0,"plot_size":"NA","plot_no":"095","sector":"29","block":"NA","mplanduse":"ISSUE","ppt_type":"GHS","ppt_full":"Group Housing","authority":"NOIDA","category":"group-housing","execution_stage":"unknown"}},{"type":"Feature","geometry":{"type":"Polygon","coordinates":[[[77.334688,28.565047],[77.334749,28.565004],[77.334921,28.565196],[77.33486,28.565239],[77.334688,28.565047]]]},"properties":{"objectid":16706,"plotmapid":"29NA096GHS","used":"NA","plotsizesq":0,"plot_size":"NA","plot_no":"096","sector":"29","block":"NA","mplanduse":"ISSUE","ppt_type":"GHS","ppt_full":"Group Housing","authority":"NOIDA","category":"group-housing","execution_stage":"unknown"}},{"type":"Feature","geometry":{"type":"Polygon","coordinates":[[[77.334749,28.565004],[77.334808,28.564963],[77.334981,28.565154],[77.334921,28.565196],[77.334749,28.565004]]]},"properties":{"objectid":16707,"plotmapid":"29NA097GHS","used":"NA","plotsizesq":0,"plot_size":"NA","plot_no":"097","sector":"29","block":"NA","mplanduse":"ISSUE","ppt_type":"GHS","ppt_full":"Group Housing","authority":"NOIDA","category":"group-housing","execution_stage":"unknown"}},{"type":"Feature","geometry":{"type":"Polygon","coordinates":[[[77.334808,28.564963],[77.334869,28.56492],[77.335043,28.565111],[77.334981,28.565154],[77.334808,28.564963]]]},"properties":{"objectid":16708,"plotmapid":"29NA098GHS","used":"NA","plotsizesq":0,"plot_size":"NA","plot_no":"098","sector":"29","block":"NA","mplanduse":"ISSUE","ppt_type":"GHS","ppt_full":"Group Housing","authority":"NOIDA","category":"group-housing","execution_stage":"unknown"}},{"type":"Feature","geometry":{"type":"Polygon","coordinates":[[[77.334869,28.56492],[77.334932,28.564876],[77.335104,28.565068],[77.335043,28.565111],[77.334869,28.56492]]]},"properties":{"objectid":16709,"plotmapid":"29NA099GHS","used":"NA","plotsizesq":0,"plot_size":"NA","plot_no":"099","sector":"29","block":"NA","mplanduse":"ISSUE","ppt_type":"GHS","ppt_full":"Group Housing","authority":"NOIDA","category":"group-housing","execution_stage":"unknown"}},{"type":"Feature","geometry":{"type":"Polygon","coordinates":[[[77.334932,28.564876],[77.334993,28.564833],[77.335167,28.565024],[77.335104,28.565068],[77.334932,28.564876]]]},"properties":{"objectid":16710,"plotmapid":"29NA100GHS","used":"NA","plotsizesq":0,"plot_size":"NA","plot_no":"100","sector":"29","block":"NA","mplanduse":"ISSUE","ppt_type":"GHS","ppt_full":"Group Housing","authority":"NOIDA","category":"group-housing","execution_stage":"unknown"}},{"type":"Feature","geometry":{"type":"Polygon","coordinates":[[[77.335227,28.564981],[77.335167,28.565024],[77.334993,28.564833],[77.335054,28.56479],[77.335227,28.564981]]]},"properties":{"objectid":16711,"plotmapid":"29NA101GHS","used":"NA","plotsizesq":0,"plot_size":"NA","plot_no":"101","sector":"29","block":"NA","mplanduse":"ISSUE","ppt_type":"GHS","ppt_full":"Group Housing","authority":"NOIDA","category":"group-housing","execution_stage":"unknown"}},{"type":"Feature","geometry":{"type":"Polygon","coordinates":[[[77.335289,28.564938],[77.335227,28.564981],[77.335054,28.56479],[77.335115,28.564747],[77.335289,28.564938]]]},"properties":{"objectid":16712,"plotmapid":"29NA102GHS","used":"NA","plotsizesq":0,"plot_size":"NA","plot_no":"102","sector":"29","block":"NA","mplanduse":"ISSUE","ppt_type":"GHS","ppt_full":"Group Housing","authority":"NOIDA","category":"group-housing","execution_stage":"unknown"}},{"type":"Feature","geometry":{"type":"Polygon","coordinates":[[[77.335115,28.564747],[77.335178,28.564703],[77.335352,28.564894],[77.335289,28.564938],[77.335115,28.564747]]]},"properties":{"objectid":16713,"plotmapid":"29NA103GHS","used":"NA","plotsizesq":0,"plot_size":"NA","plot_no":"103","sector":"29","block":"NA","mplanduse":"ISSUE","ppt_type":"GHS","ppt_full":"Group Housing","authority":"NOIDA","category":"group-housing","execution_stage":"unknown"}},{"type":"Feature","geometry":{"type":"Polygon","coordinates":[[[77.337846,28.55726],[77.337912,28.557337],[77.337427,28.557858],[77.336754,28.557584],[77.33711,28.556704],[77.337214,28.556783],[77.337345,28.55667],[77.337846,28.55726]]]},"properties":{"objectid":20086,"plotmapid":"44DGHS","plotsizesq":0,"sector":"44","block":"D","mplanduse":"V","ppt_type":"GHS","ppt_full":"Group Housing","remark":"As per drone is vacant ,not Alloted & not buildup","authority":"NOIDA","category":"group-housing","execution_stage":"unknown"}},{"type":"Feature","geometry":{"type":"Polygon","coordinates":[[[77.337323,28.558058],[77.336978,28.558717],[77.336375,28.558472],[77.33646,28.558311],[77.336663,28.55781],[77.337323,28.558058]]]},"properties":{"objectid":20733,"plotmapid":"44D010GHS","plotsizesq":0,"plot_no":"010","sector":"44","block":"D","mplanduse":"B","ppt_type":"GHS","ppt_full":"Group Housing","authority":"NOIDA","category":"group-housing","execution_stage":"unknown"}},{"type":"Feature","geometry":{"type":"Polygon","coordinates":[[[77.337298,28.560493],[77.335676,28.559806],[77.335969,28.559247],[77.336371,28.559404],[77.336823,28.558921],[77.337331,28.559137],[77.337877,28.558041],[77.337427,28.557858],[77.337918,28.55733],[77.338007,28.557274],[77.338222,28.557505],[77.338667,28.557847],[77.337298,28.560493]]]},"properties":{"objectid":20736,"plotmapid":"44D08AGHS","plotsizesq":0,"plot_no":"08A","sector":"44","block":"D","mplanduse":"B","ppt_type":"GHS","ppt_full":"Group Housing","authority":"NOIDA","category":"group-housing","execution_stage":"unknown"}},{"type":"Feature","geometry":{"type":"Polygon","coordinates":[[[77.338147,28.5565],[77.338304,28.55656],[77.338007,28.557274],[77.337912,28.557337],[77.337345,28.55667],[77.337362,28.556431],[77.337963,28.55643],[77.338147,28.5565]]]},"properties":{"objectid":20739,"plotmapid":"44D011GHS","plotsizesq":0,"plot_no":"011","sector":"44","block":"D","mplanduse":"B","ppt_type":"GHS","ppt_full":"Group Housing","authority":"NOIDA","category":"group-housing","execution_stage":"unknown"}},{"type":"Feature","geometry":{"type":"Polygon","coordinates":[[[77.335619,28.564406],[77.335674,28.564471],[77.335521,28.564578],[77.335459,28.564505],[77.335619,28.564406]]]},"properties":{"objectid":46113,"plotmapid":"37NA084GHS","property_t":"Housing","used":"NA","plotsizesq":0,"plot_size":"NA","plot_no":"084","sector":"37","block":"NA","mplanduse":"B","ppt_type":"GHS","ppt_full":"Group Housing","authority":"NOIDA","category":"group-housing","execution_stage":"unknown"}},{"type":"Feature","geometry":{"type":"Polygon","coordinates":[[[77.335781,28.564397],[77.335674,28.564471],[77.335613,28.564399],[77.33572,28.564324],[77.335781,28.564397]]]},"properties":{"objectid":46114,"plotmapid":"37NA085GHS","property_t":"Housing","used":"NA","plotsizesq":0,"plot_size":"NA","plot_no":"085","sector":"37","block":"NA","mplanduse":"B","ppt_type":"GHS","ppt_full":"Group Housing","authority":"NOIDA","category":"group-housing","execution_stage":"unknown"}},{"type":"Feature","geometry":{"type":"Polygon","coordinates":[[[77.335951,28.564175],[77.336008,28.56424],[77.335876,28.564329],[77.335812,28.564258],[77.335951,28.564175]]]},"properties":{"objectid":46115,"plotmapid":"37NA100GHS","property_t":"Housing","used":"NA","plotsizesq":0,"plot_size":"NA","plot_no":"100","sector":"37","block":"NA","mplanduse":"B","ppt_type":"GHS","ppt_full":"Group Housing","authority":"NOIDA","category":"group-housing","execution_stage":"unknown"}},{"type":"Feature","geometry":{"type":"Polygon","coordinates":[[[77.336141,28.56415],[77.336008,28.56424],[77.335944,28.564168],[77.336077,28.564078],[77.336141,28.56415]]]},"properties":{"objectid":46116,"plotmapid":"37NA101GHS","property_t":"Housing","used":"NA","plotsizesq":0,"plot_size":"NA","plot_no":"101","sector":"37","block":"NA","mplanduse":"B","ppt_type":"GHS","ppt_full":"Group Housing","authority":"NOIDA","category":"group-housing","execution_stage":"unknown"}},{"type":"Feature","geometry":{"type":"Polygon","coordinates":[[[77.336348,28.563892],[77.336407,28.563956],[77.336276,28.564047],[77.336211,28.563975],[77.336348,28.563892]]]},"properties":{"objectid":46117,"plotmapid":"37NA106GHS","property_t":"Housing","used":"NA","plotsizesq":0,"plot_size":"NA","plot_no":"106","sector":"37","block":"NA","mplanduse":"B","ppt_type":"GHS","ppt_full":"Group Housing","authority":"NOIDA","category":"group-housing","execution_stage":"unknown"}},{"type":"Feature","geometry":{"type":"Polygon","coordinates":[[[77.336537,28.563865],[77.336407,28.563956],[77.336342,28.563885],[77.336473,28.563794],[77.336537,28.563865]]]},"properties":{"objectid":46118,"plotmapid":"37NA107GHS","property_t":"Housing","used":"NA","plotsizesq":0,"plot_size":"NA","plot_no":"107","sector":"37","block":"NA","mplanduse":"B","ppt_type":"GHS","ppt_full":"Group Housing","authority":"NOIDA","category":"group-housing","execution_stage":"unknown"}},{"type":"Feature","geometry":{"type":"Polygon","coordinates":[[[77.336751,28.563613],[77.336809,28.563677],[77.336678,28.563768],[77.336613,28.563697],[77.336751,28.563613]]]},"properties":{"objectid":46119,"plotmapid":"37NA122GHS","property_t":"Housing","used":"NA","plotsizesq":0,"plot_size":"NA","plot_no":"122","sector":"37","block":"NA","mplanduse":"B","ppt_type":"GHS","ppt_full":"Group Housing","authority":"NOIDA","category":"group-housing","execution_stage":"unknown"}},{"type":"Feature","geometry":{"type":"Polygon","coordinates":[[[77.33694,28.563587],[77.336809,28.563677],[77.336745,28.563606],[77.336876,28.563516],[77.33694,28.563587]]]},"properties":{"objectid":46120,"plotmapid":"37NA123GHS","property_t":"Housing","used":"NA","plotsizesq":0,"plot_size":"NA","plot_no":"123","sector":"37","block":"NA","mplanduse":"B","ppt_type":"GHS","ppt_full":"Group Housing","authority":"NOIDA","category":"group-housing","execution_stage":"unknown"}},{"type":"Feature","geometry":{"type":"Polygon","coordinates":[[[77.33711,28.563362],[77.337168,28.563426],[77.337036,28.563517],[77.336973,28.563446],[77.33711,28.563362]]]},"properties":{"objectid":46121,"plotmapid":"37NA138GHS","used":"NA","plotsizesq":0,"plot_size":"NA","plot_no":"138","sector":"37","block":"NA","mplanduse":"B","ppt_type":"GHS","ppt_full":"Group Housing","authority":"NOIDA","category":"group-housing","execution_stage":"unknown"}},{"type":"Feature","geometry":{"type":"Polygon","coordinates":[[[77.337395,28.563165],[77.337514,28.5633],[77.337457,28.56334],[77.337317,28.563181],[77.337374,28.56314],[77.337395,28.563165]]]},"properties":{"objectid":46122,"plotmapid":"37NA059GHS","property_t":"Housing","used":"NA","plotsizesq":0,"plot_size":"NA","plot_no":"059","sector":"37","block":"NA","mplanduse":"B","ppt_type":"GHS","ppt_full":"Group Housing","authority":"NOIDA","category":"group-housing","execution_stage":"unknown"}},{"type":"Feature","geometry":{"type":"Polygon","coordinates":[[[77.337452,28.563124],[77.33757,28.563259],[77.337514,28.5633],[77.337374,28.56314],[77.33743,28.563099],[77.337452,28.563124]]]},"properties":{"objectid":46123,"plotmapid":"37NA060GHS","property_t":"Housing","used":"NA","plotsizesq":0,"plot_size":"NA","plot_no":"060","sector":"37","block":"NA","mplanduse":"B","ppt_type":"GHS","ppt_full":"Group Housing","authority":"NOIDA","category":"group-housing","execution_stage":"unknown"}},{"type":"Feature","geometry":{"type":"Polygon","coordinates":[[[77.337299,28.563335],[77.337168,28.563426],[77.337104,28.563355],[77.337235,28.563264],[77.337299,28.563335]]]},"properties":{"objectid":46124,"plotmapid":"37NA141GHS","property_t":"Housing","used":"NA","plotsizesq":0,"plot_size":"NA","plot_no":"141","sector":"37","block":"NA","mplanduse":"B","ppt_type":"GHS","ppt_full":"Group Housing","authority":"NOIDA","category":"group-housing","execution_stage":"unknown"}},{"type":"Feature","geometry":{"type":"Polygon","coordinates":[[[77.337509,28.563083],[77.337627,28.563218],[77.33757,28.563259],[77.33743,28.563099],[77.337487,28.563059],[77.337509,28.563083]]]},"properties":{"objectid":46125,"plotmapid":"37NA061GHS","property_t":"Housing","used":"NA","plotsizesq":0,"plot_size":"NA","plot_no":"061","sector":"37","block":"NA","mplanduse":"B","ppt_type":"GHS","ppt_full":"Group Housing","authority":"NOIDA","category":"group-housing","execution_stage":"unknown"}},{"type":"Feature","geometry":{"type":"Polygon","coordinates":[[[77.337566,28.563043],[77.337684,28.563177],[77.337627,28.563218],[77.337487,28.563059],[77.337544,28.563018],[77.337566,28.563043]]]},"properties":{"objectid":46126,"plotmapid":"37NA062GHS","property_t":"Housing","used":"NA","plotsizesq":0,"plot_size":"NA","plot_no":"062","sector":"37","block":"NA","mplanduse":"B","ppt_type":"GHS","ppt_full":"Group Housing","authority":"NOIDA","category":"group-housing","execution_stage":"unknown"}},{"type":"Feature","geometry":{"type":"Polygon","coordinates":[[[77.337623,28.563002],[77.337741,28.563136],[77.337684,28.563177],[77.337544,28.563018],[77.337601,28.562977],[77.337623,28.563002]]]},"properties":{"objectid":46127,"plotmapid":"37NA063GHS","property_t":"Housing","used":"NA","plotsizesq":0,"plot_size":"NA","plot_no":"063","sector":"37","block":"NA","mplanduse":"B","ppt_type":"GHS","ppt_full":"Group Housing","authority":"NOIDA","category":"group-housing","execution_stage":"unknown"}},{"type":"Feature","geometry":{"type":"Polygon","coordinates":[[[77.33768,28.562961],[77.337798,28.563096],[77.337741,28.563136],[77.337601,28.562977],[77.337658,28.562936],[77.33768,28.562961]]]},"properties":{"objectid":46128,"plotmapid":"37NA064GHS","property_t":"Housing","used":"NA","plotsizesq":0,"plot_size":"NA","plot_no":"064","sector":"37","block":"NA","mplanduse":"B","ppt_type":"GHS","ppt_full":"Group Housing","authority":"NOIDA","category":"group-housing","execution_stage":"unknown"}},{"type":"Feature","geometry":{"type":"Polygon","coordinates":[[[77.335692,28.564493],[77.335736,28.564544],[77.335583,28.56465],[77.335521,28.564578],[77.335674,28.564471],[77.335692,28.564493]]]},"properties":{"objectid":46129,"plotmapid":"37NA082GHS","property_t":"Housing","used":"NA","plotsizesq":0,"plot_size":"NA","plot_no":"082","sector":"37","block":"NA","mplanduse":"B","ppt_type":"GHS","ppt_full":"Group Housing","authority":"NOIDA","category":"group-housing","execution_stage":"unknown"}},{"type":"Feature","geometry":{"type":"Polygon","coordinates":[[[77.337736,28.56292],[77.337855,28.563055],[77.337798,28.563096],[77.337658,28.562936],[77.337715,28.562895],[77.337736,28.56292]]]},"properties":{"objectid":46130,"plotmapid":"37NA065GHS","property_t":"Housing","used":"NA","plotsizesq":0,"plot_size":"NA","plot_no":"065","sector":"37","block":"NA","mplanduse":"B","ppt_type":"GHS","ppt_full":"Group Housing","authority":"NOIDA","category":"group-housing","execution_stage":"unknown"}},{"type":"Feature","geometry":{"type":"Polygon","coordinates":[[[77.337793,28.562879],[77.337911,28.563014],[77.337855,28.563055],[77.337715,28.562895],[77.337771,28.562855],[77.337793,28.562879]]]},"properties":{"objectid":46131,"plotmapid":"37NA066GHS","property_t":"Housing","used":"NA","plotsizesq":0,"plot_size":"NA","plot_no":"066","sector":"37","block":"NA","mplanduse":"B","ppt_type":"GHS","ppt_full":"Group Housing","authority":"NOIDA","category":"group-housing","execution_stage":"unknown"}},{"type":"Feature","geometry":{"type":"Polygon","coordinates":[[[77.335843,28.56447],[77.335736,28.564544],[77.335674,28.564471],[77.335781,28.564397],[77.335843,28.56447]]]},"properties":{"objectid":46132,"plotmapid":"37NA083GHS","property_t":"Housing","used":"NA","plotsizesq":0,"plot_size":"NA","plot_no":"083","sector":"37","block":"NA","mplanduse":"B","ppt_type":"GHS","ppt_full":"Group Housing","authority":"NOIDA","category":"group-housing","execution_stage":"unknown"}},{"type":"Feature","geometry":{"type":"Polygon","coordinates":[[[77.336027,28.564261],[77.336072,28.564311],[77.335939,28.564401],[77.335876,28.564329],[77.336008,28.56424],[77.336027,28.564261]]]},"properties":{"objectid":46137,"plotmapid":"37NA098GHS","property_t":"Housing","used":"NA","plotsizesq":0,"plot_size":"NA","plot_no":"098","sector":"37","block":"NA","mplanduse":"B","ppt_type":"GHS","ppt_full":"Group Housing","authority":"NOIDA","category":"group-housing","execution_stage":"unknown"}},{"type":"Feature","geometry":{"type":"Polygon","coordinates":[[[77.336205,28.564222],[77.336072,28.564311],[77.336008,28.56424],[77.336141,28.56415],[77.336205,28.564222]]]},"properties":{"objectid":46139,"plotmapid":"37NA099GHS","property_t":"Housing","used":"NA","plotsizesq":0,"plot_size":"NA","plot_no":"099","sector":"37","block":"NA","mplanduse":"B","ppt_type":"GHS","ppt_full":"Group Housing","authority":"NOIDA","category":"group-housing","execution_stage":"unknown"}},{"type":"Feature","geometry":{"type":"Polygon","coordinates":[[[77.336426,28.563977],[77.336471,28.564028],[77.336341,28.564119],[77.336276,28.564047],[77.336407,28.563956],[77.336426,28.563977]]]},"properties":{"objectid":46144,"plotmapid":"37NA104GHS","property_t":"Housing","used":"NA","plotsizesq":0,"plot_size":"NA","plot_no":"104","sector":"37","block":"NA","mplanduse":"B","ppt_type":"GHS","ppt_full":"Group Housing","authority":"NOIDA","category":"group-housing","execution_stage":"unknown"}},{"type":"Feature","geometry":{"type":"Polygon","coordinates":[[[77.336602,28.563937],[77.336471,28.564028],[77.336407,28.563956],[77.336537,28.563865],[77.336602,28.563937]]]},"properties":{"objectid":46147,"plotmapid":"37NA105GHS","property_t":"Housing","used":"NA","plotsizesq":0,"plot_size":"NA","plot_no":"105","sector":"37","block":"NA","mplanduse":"B","ppt_type":"GHS","ppt_full":"Group Housing","authority":"NOIDA","category":"group-housing","execution_stage":"unknown"}},{"type":"Feature","geometry":{"type":"Polygon","coordinates":[[[77.336828,28.563698],[77.336874,28.563748],[77.336742,28.563838],[77.336678,28.563768],[77.336809,28.563677],[77.336828,28.563698]]]},"properties":{"objectid":46151,"plotmapid":"37NA120GHS","property_t":"Housing","used":"NA","plotsizesq":0,"plot_size":"NA","plot_no":"120","sector":"37","block":"NA","mplanduse":"B","ppt_type":"GHS","ppt_full":"Group Housing","authority":"NOIDA","category":"group-housing","execution_stage":"unknown"}},{"type":"Feature","geometry":{"type":"Polygon","coordinates":[[[77.337005,28.563657],[77.336874,28.563748],[77.336809,28.563677],[77.33694,28.563587],[77.337005,28.563657]]]},"properties":{"objectid":46152,"plotmapid":"37NA121GHS","property_t":"Housing","used":"NA","plotsizesq":0,"plot_size":"NA","plot_no":"121","sector":"37","block":"NA","mplanduse":"B","ppt_type":"GHS","ppt_full":"Group Housing","authority":"NOIDA","category":"group-housing","execution_stage":"unknown"}},{"type":"Feature","geometry":{"type":"Polygon","coordinates":[[[77.337186,28.563446],[77.337231,28.563496],[77.3371,28.563587],[77.337036,28.563517],[77.337168,28.563426],[77.337186,28.563446]]]},"properties":{"objectid":46153,"plotmapid":"37NA137GHS","used":"NA","plotsizesq":0,"plot_size":"NA","plot_no":"137","sector":"37","block":"NA","mplanduse":"B","ppt_type":"GHS","ppt_full":"Group Housing","authority":"NOIDA","category":"group-housing","execution_stage":"unknown"}},{"type":"Feature","geometry":{"type":"Polygon","coordinates":[[[77.337363,28.563405],[77.337231,28.563496],[77.337168,28.563426],[77.337299,28.563335],[77.337363,28.563405]]]},"properties":{"objectid":46154,"plotmapid":"37NA139GHS","property_t":"Housing","used":"NA","plotsizesq":0,"plot_size":"NA","plot_no":"139","sector":"37","block":"NA","mplanduse":"B","ppt_type":"GHS","ppt_full":"Group Housing","authority":"NOIDA","category":"group-housing","execution_stage":"unknown"}},{"type":"Feature","geometry":{"type":"Polygon","coordinates":[[[77.33574,28.564549],[77.335797,28.564616],[77.335644,28.564723],[77.335583,28.56465],[77.33574,28.564549]]]},"properties":{"objectid":46155,"plotmapid":"37NA080GHS","property_t":"Housing","used":"NA","plotsizesq":0,"plot_size":"NA","plot_no":"080","sector":"37","block":"NA","mplanduse":"B","ppt_type":"GHS","ppt_full":"Group Housing","authority":"NOIDA","category":"group-housing","execution_stage":"unknown"}},{"type":"Feature","geometry":{"type":"Polygon","coordinates":[[[77.335905,28.564542],[77.335797,28.564616],[77.335736,28.564544],[77.335843,28.56447],[77.335905,28.564542]]]},"properties":{"objectid":46156,"plotmapid":"37NA081GHS","property_t":"Housing","used":"NA","plotsizesq":0,"plot_size":"NA","plot_no":"081","sector":"37","block":"NA","mplanduse":"B","ppt_type":"GHS","ppt_full":"Group Housing","authority":"NOIDA","category":"group-housing","execution_stage":"unknown"}},{"type":"Feature","geometry":{"type":"Polygon","coordinates":[[[77.336076,28.564316],[77.336136,28.564383],[77.336003,28.564473],[77.335939,28.564401],[77.336076,28.564316]]]},"properties":{"objectid":46157,"plotmapid":"37NA096GHS","property_t":"Housing","used":"NA","plotsizesq":0,"plot_size":"NA","plot_no":"096","sector":"37","block":"NA","mplanduse":"B","ppt_type":"GHS","ppt_full":"Group Housing","authority":"NOIDA","category":"group-housing","execution_stage":"unknown"}},{"type":"Feature","geometry":{"type":"Polygon","coordinates":[[[77.336268,28.564293],[77.336136,28.564383],[77.336072,28.564311],[77.336205,28.564222],[77.336268,28.564293]]]},"properties":{"objectid":46158,"plotmapid":"37NA097GHS","property_t":"Housing","used":"NA","plotsizesq":0,"plot_size":"NA","plot_no":"097","sector":"37","block":"NA","mplanduse":"B","ppt_type":"GHS","ppt_full":"Group Housing","authority":"NOIDA","category":"group-housing","execution_stage":"unknown"}},{"type":"Feature","geometry":{"type":"Polygon","coordinates":[[[77.336476,28.564032],[77.336536,28.564099],[77.336406,28.56419],[77.336341,28.564119],[77.336476,28.564032]]]},"properties":{"objectid":46159,"plotmapid":"37NA102GHS","property_t":"Housing","used":"NA","plotsizesq":0,"plot_size":"NA","plot_no":"102","sector":"37","block":"NA","mplanduse":"B","ppt_type":"GHS","ppt_full":"Group Housing","authority":"NOIDA","category":"group-housing","execution_stage":"unknown"}},{"type":"Feature","geometry":{"type":"Polygon","coordinates":[[[77.337695,28.563329],[77.337524,28.563453],[77.337478,28.563402],[77.337649,28.563279],[77.337695,28.563329]]]},"properties":{"objectid":46160,"plotmapid":"37NA034GHS","property_t":"Housing","used":"NA","plotsizesq":0,"plot_size":"NA","plot_no":"034","sector":"37","block":"NA","mplanduse":"B","ppt_type":"GHS","ppt_full":"Group Housing","authority":"NOIDA","category":"group-housing","execution_stage":"unknown"}},{"type":"Feature","geometry":{"type":"Polygon","coordinates":[[[77.336667,28.564008],[77.336536,28.564099],[77.336471,28.564028],[77.336602,28.563937],[77.336667,28.564008]]]},"properties":{"objectid":46161,"plotmapid":"37NA103GHS","property_t":"Housing","used":"NA","plotsizesq":0,"plot_size":"NA","plot_no":"103","sector":"37","block":"NA","mplanduse":"B","ppt_type":"GHS","ppt_full":"Group Housing","authority":"NOIDA","category":"group-housing","execution_stage":"unknown"}},{"type":"Feature","geometry":{"type":"Polygon","coordinates":[[[77.336878,28.563753],[77.336938,28.563819],[77.336807,28.563909],[77.336742,28.563838],[77.336878,28.563753]]]},"properties":{"objectid":46162,"plotmapid":"37NA118GHS","property_t":"Housing","used":"NA","plotsizesq":0,"plot_size":"NA","plot_no":"118","sector":"37","block":"NA","mplanduse":"B","ppt_type":"GHS","ppt_full":"Group Housing","authority":"NOIDA","category":"group-housing","execution_stage":"unknown"}},{"type":"Feature","geometry":{"type":"Polygon","coordinates":[[[77.337069,28.563728],[77.336938,28.563819],[77.336874,28.563748],[77.337005,28.563657],[77.337069,28.563728]]]},"properties":{"objectid":46163,"plotmapid":"37NA119GHS","property_t":"Housing","used":"NA","plotsizesq":0,"plot_size":"NA","plot_no":"119","sector":"37","block":"NA","mplanduse":"B","ppt_type":"GHS","ppt_full":"Group Housing","authority":"NOIDA","category":"group-housing","execution_stage":"unknown"}},{"type":"Feature","geometry":{"type":"Polygon","coordinates":[[[77.337235,28.563501],[77.337295,28.563567],[77.337164,28.563658],[77.3371,28.563587],[77.337235,28.563501]]]},"properties":{"objectid":46165,"plotmapid":"37NA136GHS","property_t":"Housing","used":"NA","plotsizesq":0,"plot_size":"NA","plot_no":"136","sector":"37","block":"NA","mplanduse":"B","ppt_type":"GHS","ppt_full":"Group Housing","authority":"NOIDA","category":"group-housing","execution_stage":"unknown"}},{"type":"Feature","geometry":{"type":"Polygon","coordinates":[[[77.337426,28.563476],[77.337295,28.563567],[77.337231,28.563496],[77.337363,28.563405],[77.337426,28.563476]]]},"properties":{"objectid":46166,"plotmapid":"37NA137GHS","property_t":"Housing","used":"NA","plotsizesq":0,"plot_size":"NA","plot_no":"137","sector":"37","block":"NA","mplanduse":"B","ppt_type":"GHS","ppt_full":"Group Housing","authority":"NOIDA","category":"group-housing","execution_stage":"unknown"}},{"type":"Feature","geometry":{"type":"Polygon","coordinates":[[[77.335816,28.564638],[77.335859,28.564689],[77.335706,28.564795],[77.335644,28.564723],[77.335797,28.564616],[77.335816,28.564638]]]},"properties":{"objectid":46168,"plotmapid":"37NA078GHS","property_t":"Housing","used":"NA","plotsizesq":0,"plot_size":"NA","plot_no":"078","sector":"37","block":"NA","mplanduse":"B","ppt_type":"GHS","ppt_full":"Group Housing","authority":"NOIDA","category":"group-housing","execution_stage":"unknown"}},{"type":"Feature","geometry":{"type":"Polygon","coordinates":[[[77.335966,28.564615],[77.335859,28.564689],[77.335797,28.564616],[77.335905,28.564542],[77.335966,28.564615]]]},"properties":{"objectid":46169,"plotmapid":"37NA079GHS","property_t":"Housing","used":"NA","plotsizesq":0,"plot_size":"NA","plot_no":"079","sector":"37","block":"NA","mplanduse":"B","ppt_type":"GHS","ppt_full":"Group Housing","authority":"NOIDA","category":"group-housing","execution_stage":"unknown"}},{"type":"Feature","geometry":{"type":"Polygon","coordinates":[[[77.337742,28.563379],[77.33757,28.563503],[77.337524,28.563453],[77.337695,28.563329],[77.337742,28.563379]]]},"properties":{"objectid":46170,"plotmapid":"37NA033GHS","property_t":"Housing","used":"NA","plotsizesq":0,"plot_size":"NA","plot_no":"033","sector":"37","block":"NA","mplanduse":"B","ppt_type":"GHS","ppt_full":"Group Housing","authority":"NOIDA","category":"group-housing","execution_stage":"unknown"}},{"type":"Feature","geometry":{"type":"Polygon","coordinates":[[[77.337314,28.563588],[77.337359,28.563637],[77.337227,28.563728],[77.337164,28.563658],[77.337295,28.563567],[77.337314,28.563588]]]},"properties":{"objectid":46173,"plotmapid":"37NA134GHS","property_t":"Housing","used":"NA","plotsizesq":0,"plot_size":"NA","plot_no":"134","sector":"37","block":"NA","mplanduse":"B","ppt_type":"GHS","ppt_full":"Group Housing","authority":"NOIDA","category":"group-housing","execution_stage":"unknown"}},{"type":"Feature","geometry":{"type":"Polygon","coordinates":[[[77.33749,28.563546],[77.337359,28.563637],[77.337295,28.563567],[77.337426,28.563476],[77.33749,28.563546]]]},"properties":{"objectid":46174,"plotmapid":"37NA135GHS","property_t":"Housing","used":"NA","plotsizesq":0,"plot_size":"NA","plot_no":"135","sector":"37","block":"NA","mplanduse":"B","ppt_type":"GHS","ppt_full":"Group Housing","authority":"NOIDA","category":"group-housing","execution_stage":"unknown"}},{"type":"Feature","geometry":{"type":"Polygon","coordinates":[[[77.337788,28.56343],[77.337616,28.563553],[77.33757,28.563503],[77.337742,28.563379],[77.337788,28.56343]]]},"properties":{"objectid":46175,"plotmapid":"37NA032GHS","property_t":"Housing","used":"NA","plotsizesq":0,"plot_size":"NA","plot_no":"032","sector":"37","block":"NA","mplanduse":"B","ppt_type":"GHS","ppt_full":"Group Housing","authority":"NOIDA","category":"group-housing","execution_stage":"unknown"}},{"type":"Feature","geometry":{"type":"Polygon","coordinates":[[[77.335863,28.564694],[77.335921,28.564762],[77.335767,28.564868],[77.335706,28.564795],[77.335863,28.564694]]]},"properties":{"objectid":46176,"plotmapid":"37NA076GHS","property_t":"Housing","used":"NA","plotsizesq":0,"plot_size":"NA","plot_no":"076","sector":"37","block":"NA","mplanduse":"B","ppt_type":"GHS","ppt_full":"Group Housing","authority":"NOIDA","category":"group-housing","execution_stage":"unknown"}},{"type":"Feature","geometry":{"type":"Polygon","coordinates":[[[77.336028,28.564687],[77.335921,28.564762],[77.335859,28.564689],[77.335966,28.564615],[77.336028,28.564687]]]},"properties":{"objectid":46177,"plotmapid":"37NA077GHS","property_t":"Housing","used":"NA","plotsizesq":0,"plot_size":"NA","plot_no":"077","sector":"37","block":"NA","mplanduse":"B","ppt_type":"GHS","ppt_full":"Group Housing","authority":"NOIDA","category":"group-housing","execution_stage":"unknown"}},{"type":"Feature","geometry":{"type":"Polygon","coordinates":[[[77.336204,28.564458],[77.336263,28.564524],[77.336133,28.564615],[77.33607,28.564544],[77.336204,28.564458]]]},"properties":{"objectid":46178,"plotmapid":"37NA094GHS","property_t":"Housing","used":"NA","plotsizesq":0,"plot_size":"NA","plot_no":"094","sector":"37","block":"NA","mplanduse":"B","ppt_type":"GHS","ppt_full":"Group Housing","authority":"NOIDA","category":"group-housing","execution_stage":"unknown"}},{"type":"Feature","geometry":{"type":"Polygon","coordinates":[[[77.336393,28.564433],[77.336263,28.564524],[77.3362,28.564453],[77.33633,28.564362],[77.336393,28.564433]]]},"properties":{"objectid":46179,"plotmapid":"37NA095GHS","property_t":"Housing","used":"NA","plotsizesq":0,"plot_size":"NA","plot_no":"095","sector":"37","block":"NA","mplanduse":"B","ppt_type":"GHS","ppt_full":"Group Housing","authority":"NOIDA","category":"group-housing","execution_stage":"unknown"}},{"type":"Feature","geometry":{"type":"Polygon","coordinates":[[[77.337004,28.56389],[77.337064,28.563957],[77.336932,28.564048],[77.336868,28.563975],[77.337004,28.56389]]]},"properties":{"objectid":46182,"plotmapid":"37NA116GHS","used":"NA","plotsizesq":0,"plot_size":"NA","plot_no":"116","sector":"37","block":"NA","mplanduse":"B","ppt_type":"GHS","ppt_full":"Group Housing","authority":"NOIDA","category":"group-housing","execution_stage":"unknown"}},{"type":"Feature","geometry":{"type":"Polygon","coordinates":[[[77.337195,28.563867],[77.337064,28.563957],[77.336999,28.563885],[77.337131,28.563795],[77.337195,28.563867]]]},"properties":{"objectid":46184,"plotmapid":"37NA117GHS","property_t":"Housing","used":"NA","plotsizesq":0,"plot_size":"NA","plot_no":"117","sector":"37","block":"NA","mplanduse":"B","ppt_type":"GHS","ppt_full":"Group Housing","authority":"NOIDA","category":"group-housing","execution_stage":"unknown"}},{"type":"Feature","geometry":{"type":"Polygon","coordinates":[[[77.337834,28.56348],[77.337662,28.563603],[77.337616,28.563553],[77.337788,28.56343],[77.337834,28.56348]]]},"properties":{"objectid":46185,"plotmapid":"37NA031GHS","property_t":"Housing","used":"NA","plotsizesq":0,"plot_size":"NA","plot_no":"031","sector":"37","block":"NA","mplanduse":"B","ppt_type":"GHS","ppt_full":"Group Housing","authority":"NOIDA","category":"group-housing","execution_stage":"unknown"}},{"type":"Feature","geometry":{"type":"Polygon","coordinates":[[[77.337363,28.563642],[77.337422,28.563708],[77.337291,28.563799],[77.337227,28.563728],[77.337363,28.563642]]]},"properties":{"objectid":46186,"plotmapid":"37NA132GHS","property_t":"Housing","used":"NA","plotsizesq":0,"plot_size":"NA","plot_no":"132","sector":"37","block":"NA","mplanduse":"B","ppt_type":"GHS","ppt_full":"Group Housing","authority":"NOIDA","category":"group-housing","execution_stage":"unknown"}},{"type":"Feature","geometry":{"type":"Polygon","coordinates":[[[77.337554,28.563617],[77.337422,28.563708],[77.337359,28.563637],[77.33749,28.563546],[77.337554,28.563617]]]},"properties":{"objectid":46187,"plotmapid":"37NA133GHS","property_t":"Housing","used":"NA","plotsizesq":0,"plot_size":"NA","plot_no":"133","sector":"37","block":"NA","mplanduse":"B","ppt_type":"GHS","ppt_full":"Group Housing","authority":"NOIDA","category":"group-housing","execution_stage":"unknown"}},{"type":"Feature","geometry":{"type":"Polygon","coordinates":[[[77.335939,28.564783],[77.335982,28.564834],[77.335829,28.56494],[77.335767,28.564868],[77.335921,28.564762],[77.335939,28.564783]]]},"properties":{"objectid":46188,"plotmapid":"37NA074GHS","property_t":"Housing","used":"NA","plotsizesq":0,"plot_size":"NA","plot_no":"074","sector":"37","block":"NA","mplanduse":"B","ppt_type":"GHS","ppt_full":"Group Housing","authority":"NOIDA","category":"group-housing","execution_stage":"unknown"}},{"type":"Feature","geometry":{"type":"Polygon","coordinates":[[[77.336089,28.56476],[77.335982,28.564834],[77.335921,28.564762],[77.336028,28.564687],[77.336089,28.56476]]]},"properties":{"objectid":46190,"plotmapid":"37NA075GHS","property_t":"Housing","used":"NA","plotsizesq":0,"plot_size":"NA","plot_no":"075","sector":"37","block":"NA","mplanduse":"B","ppt_type":"GHS","ppt_full":"Group Housing","authority":"NOIDA","category":"group-housing","execution_stage":"unknown"}},{"type":"Feature","geometry":{"type":"Polygon","coordinates":[[[77.336282,28.564544],[77.336326,28.564594],[77.336196,28.564685],[77.336133,28.564615],[77.336263,28.564524],[77.336282,28.564544]]]},"properties":{"objectid":46193,"plotmapid":"37NA092GHS","property_t":"Housing","used":"NA","plotsizesq":0,"plot_size":"NA","plot_no":"092","sector":"37","block":"NA","mplanduse":"B","ppt_type":"GHS","ppt_full":"Group Housing","authority":"NOIDA","category":"group-housing","execution_stage":"unknown"}},{"type":"Feature","geometry":{"type":"Polygon","coordinates":[[[77.336456,28.564503],[77.336326,28.564594],[77.336263,28.564524],[77.336393,28.564433],[77.336456,28.564503]]]},"properties":{"objectid":46194,"plotmapid":"37NA093GHS","property_t":"Housing","used":"NA","plotsizesq":0,"plot_size":"NA","plot_no":"093","sector":"37","block":"NA","mplanduse":"B","ppt_type":"GHS","ppt_full":"Group Housing","authority":"NOIDA","category":"group-housing","execution_stage":"unknown"}},{"type":"Feature","geometry":{"type":"Polygon","coordinates":[[[77.33788,28.56353],[77.337709,28.563653],[77.337662,28.563603],[77.337834,28.56348],[77.33788,28.56353]]]},"properties":{"objectid":46195,"plotmapid":"37NA030GHS","property_t":"Housing","used":"NA","plotsizesq":0,"plot_size":"NA","plot_no":"030","sector":"37","block":"NA","mplanduse":"B","ppt_type":"GHS","ppt_full":"Group Housing","authority":"NOIDA","category":"group-housing","execution_stage":"unknown"}},{"type":"Feature","geometry":{"type":"Polygon","coordinates":[[[77.337083,28.563979],[77.337128,28.56403],[77.336996,28.56412],[77.336932,28.564048],[77.337064,28.563957],[77.337083,28.563979]]]},"properties":{"objectid":46196,"plotmapid":"37NA114GHS","property_t":"Housing","used":"NA","plotsizesq":0,"plot_size":"NA","plot_no":"114","sector":"37","block":"NA","mplanduse":"B","ppt_type":"GHS","ppt_full":"Group Housing","authority":"NOIDA","category":"group-housing","execution_stage":"unknown"}},{"type":"Feature","geometry":{"type":"Polygon","coordinates":[[[77.33726,28.563939],[77.337128,28.56403],[77.337064,28.563957],[77.337195,28.563867],[77.33726,28.563939]]]},"properties":{"objectid":46197,"plotmapid":"37NA115GHS","property_t":"Housing","used":"NA","plotsizesq":0,"plot_size":"NA","plot_no":"115","sector":"37","block":"NA","mplanduse":"B","ppt_type":"GHS","ppt_full":"Group Housing","authority":"NOIDA","category":"group-housing","execution_stage":"unknown"}},{"type":"Feature","geometry":{"type":"Polygon","coordinates":[[[77.337441,28.563729],[77.337486,28.563778],[77.337355,28.56387],[77.337291,28.563799],[77.337422,28.563708],[77.337441,28.563729]]]},"properties":{"objectid":46198,"plotmapid":"37NA130GHS","property_t":"Housing","used":"NA","plotsizesq":0,"plot_size":"NA","plot_no":"130","sector":"37","block":"NA","mplanduse":"B","ppt_type":"GHS","ppt_full":"Group Housing","authority":"NOIDA","category":"group-housing","execution_stage":"unknown"}},{"type":"Feature","geometry":{"type":"Polygon","coordinates":[[[77.337617,28.563687],[77.337486,28.563778],[77.337422,28.563708],[77.337554,28.563617],[77.337617,28.563687]]]},"properties":{"objectid":46200,"plotmapid":"37NA131GHS","property_t":"Housing","used":"NA","plotsizesq":0,"plot_size":"NA","plot_no":"131","sector":"37","block":"NA","mplanduse":"B","ppt_type":"GHS","ppt_full":"Group Housing","authority":"NOIDA","category":"group-housing","execution_stage":"unknown"}},{"type":"Feature","geometry":{"type":"Polygon","coordinates":[[[77.335986,28.564839],[77.336044,28.564907],[77.335891,28.565013],[77.335829,28.56494],[77.335986,28.564839]]]},"properties":{"objectid":46202,"plotmapid":"37NA072GHS","property_t":"Housing","used":"NA","plotsizesq":0,"plot_size":"NA","plot_no":"072","sector":"37","block":"NA","mplanduse":"B","ppt_type":"GHS","ppt_full":"Group Housing","authority":"NOIDA","category":"group-housing","execution_stage":"unknown"}},{"type":"Feature","geometry":{"type":"Polygon","coordinates":[[[77.336151,28.564832],[77.336044,28.564907],[77.335982,28.564834],[77.336089,28.56476],[77.336151,28.564832]]]},"properties":{"objectid":46203,"plotmapid":"37NA073GHS","property_t":"Housing","used":"NA","plotsizesq":0,"plot_size":"NA","plot_no":"073","sector":"37","block":"NA","mplanduse":"B","ppt_type":"GHS","ppt_full":"Group Housing","authority":"NOIDA","category":"group-housing","execution_stage":"unknown"}},{"type":"Feature","geometry":{"type":"Polygon","coordinates":[[[77.33633,28.564599],[77.336389,28.564665],[77.336259,28.564756],[77.336196,28.564685],[77.33633,28.564599]]]},"properties":{"objectid":46205,"plotmapid":"37NA090GHS","property_t":"Housing","used":"NA","plotsizesq":0,"plot_size":"NA","plot_no":"090","sector":"37","block":"NA","mplanduse":"B","ppt_type":"GHS","ppt_full":"Group Housing","authority":"NOIDA","category":"group-housing","execution_stage":"unknown"}},{"type":"Feature","geometry":{"type":"Polygon","coordinates":[[[77.337927,28.56358],[77.337755,28.563704],[77.337709,28.563653],[77.33788,28.56353],[77.337927,28.56358]]]},"properties":{"objectid":46206,"plotmapid":"37NA029GHS","property_t":"Housing","used":"NA","plotsizesq":0,"plot_size":"NA","plot_no":"029","sector":"37","block":"NA","mplanduse":"B","ppt_type":"GHS","ppt_full":"Group Housing","authority":"NOIDA","category":"group-housing","execution_stage":"unknown"}},{"type":"Feature","geometry":{"type":"Polygon","coordinates":[[[77.336519,28.564574],[77.336389,28.564665],[77.336326,28.564594],[77.336456,28.564503],[77.336519,28.564574]]]},"properties":{"objectid":46207,"plotmapid":"37NA091GHS","property_t":"Housing","used":"NA","plotsizesq":0,"plot_size":"NA","plot_no":"091","sector":"37","block":"NA","mplanduse":"B","ppt_type":"GHS","ppt_full":"Group Housing","authority":"NOIDA","category":"group-housing","execution_stage":"unknown"}},{"type":"Feature","geometry":{"type":"Polygon","coordinates":[[[77.337132,28.564034],[77.337192,28.564102],[77.33706,28.564192],[77.336996,28.56412],[77.337132,28.564034]]]},"properties":{"objectid":46209,"plotmapid":"37NA112GHS","property_t":"Housing","used":"NA","plotsizesq":0,"plot_size":"NA","plot_no":"112","sector":"37","block":"NA","mplanduse":"B","ppt_type":"GHS","ppt_full":"Group Housing","authority":"NOIDA","category":"group-housing","execution_stage":"unknown"}},{"type":"Feature","geometry":{"type":"Polygon","coordinates":[[[77.337324,28.564012],[77.337192,28.564102],[77.337128,28.56403],[77.33726,28.563939],[77.337324,28.564012]]]},"properties":{"objectid":46210,"plotmapid":"37NA113GHS","property_t":"Housing","used":"NA","plotsizesq":0,"plot_size":"NA","plot_no":"113","sector":"37","block":"NA","mplanduse":"B","ppt_type":"GHS","ppt_full":"Group Housing","authority":"NOIDA","category":"group-housing","execution_stage":"unknown"}},{"type":"Feature","geometry":{"type":"Polygon","coordinates":[[[77.33749,28.563783],[77.33755,28.563849],[77.337419,28.56394],[77.337355,28.56387],[77.33749,28.563783]]]},"properties":{"objectid":46212,"plotmapid":"37NA128GHS","property_t":"Housing","used":"NA","plotsizesq":0,"plot_size":"NA","plot_no":"128","sector":"37","block":"NA","mplanduse":"B","ppt_type":"GHS","ppt_full":"Group Housing","authority":"NOIDA","category":"group-housing","execution_stage":"unknown"}},{"type":"Feature","geometry":{"type":"Polygon","coordinates":[[[77.337681,28.563758],[77.33755,28.563849],[77.337486,28.563778],[77.337617,28.563687],[77.337681,28.563758]]]},"properties":{"objectid":46213,"plotmapid":"37NA129GHS","property_t":"Housing","used":"NA","plotsizesq":0,"plot_size":"NA","plot_no":"129","sector":"37","block":"NA","mplanduse":"B","ppt_type":"GHS","ppt_full":"Group Housing","authority":"NOIDA","category":"group-housing","execution_stage":"unknown"}},{"type":"Feature","geometry":{"type":"Polygon","coordinates":[[[77.337973,28.563631],[77.337801,28.563754],[77.337755,28.563704],[77.337927,28.56358],[77.337973,28.563631]]]},"properties":{"objectid":46215,"plotmapid":"37NA028GHS","property_t":"Housing","used":"NA","plotsizesq":0,"plot_size":"NA","plot_no":"028","sector":"37","block":"NA","mplanduse":"B","ppt_type":"GHS","ppt_full":"Group Housing","authority":"NOIDA","category":"group-housing","execution_stage":"unknown"}},{"type":"Feature","geometry":{"type":"Polygon","coordinates":[[[77.336062,28.564928],[77.336105,28.564979],[77.335952,28.565085],[77.335891,28.565013],[77.336044,28.564907],[77.336062,28.564928]]]},"properties":{"objectid":46216,"plotmapid":"37NA070GHS","property_t":"Housing","used":"NA","plotsizesq":0,"plot_size":"NA","plot_no":"070","sector":"37","block":"NA","mplanduse":"B","ppt_type":"GHS","ppt_full":"Group Housing","authority":"NOIDA","category":"group-housing","execution_stage":"unknown"}},{"type":"Feature","geometry":{"type":"Polygon","coordinates":[[[77.336213,28.564905],[77.336105,28.564979],[77.336044,28.564907],[77.336151,28.564832],[77.336213,28.564905]]]},"properties":{"objectid":46217,"plotmapid":"37NA071GHS","property_t":"Housing","used":"NA","plotsizesq":0,"plot_size":"NA","plot_no":"071","sector":"37","block":"NA","mplanduse":"B","ppt_type":"GHS","ppt_full":"Group Housing","authority":"NOIDA","category":"group-housing","execution_stage":"unknown"}},{"type":"Feature","geometry":{"type":"Polygon","coordinates":[[[77.336408,28.564686],[77.336452,28.564736],[77.336322,28.564827],[77.336259,28.564756],[77.336389,28.564665],[77.336408,28.564686]]]},"properties":{"objectid":46218,"plotmapid":"37NA088GHS","property_t":"Housing","used":"NA","plotsizesq":0,"plot_size":"NA","plot_no":"088","sector":"37","block":"NA","mplanduse":"B","ppt_type":"GHS","ppt_full":"Group Housing","authority":"NOIDA","category":"group-housing","execution_stage":"unknown"}},{"type":"Feature","geometry":{"type":"Polygon","coordinates":[[[77.336582,28.564645],[77.336452,28.564736],[77.336389,28.564665],[77.336519,28.564574],[77.336582,28.564645]]]},"properties":{"objectid":46219,"plotmapid":"37NA089GHS","property_t":"Housing","used":"NA","plotsizesq":0,"plot_size":"NA","plot_no":"089","sector":"37","block":"NA","mplanduse":"B","ppt_type":"GHS","ppt_full":"Group Housing","authority":"NOIDA","category":"group-housing","execution_stage":"unknown"}},{"type":"Feature","geometry":{"type":"Polygon","coordinates":[[[77.337211,28.564123],[77.337257,28.564174],[77.337125,28.564264],[77.33706,28.564192],[77.337192,28.564102],[77.337211,28.564123]]]},"properties":{"objectid":46222,"plotmapid":"37NA110GHS","property_t":"Housing","used":"NA","plotsizesq":0,"plot_size":"NA","plot_no":"110","sector":"37","block":"NA","mplanduse":"B","ppt_type":"GHS","ppt_full":"Group Housing","authority":"NOIDA","category":"group-housing","execution_stage":"unknown"}},{"type":"Feature","geometry":{"type":"Polygon","coordinates":[[[77.337388,28.564084],[77.337257,28.564174],[77.337192,28.564102],[77.337324,28.564012],[77.337388,28.564084]]]},"properties":{"objectid":46224,"plotmapid":"37NA111GHS","property_t":"Housing","used":"NA","plotsizesq":0,"plot_size":"NA","plot_no":"111","sector":"37","block":"NA","mplanduse":"B","ppt_type":"GHS","ppt_full":"Group Housing","authority":"NOIDA","category":"group-housing","execution_stage":"unknown"}},{"type":"Feature","geometry":{"type":"Polygon","coordinates":[[[77.337569,28.56387],[77.337614,28.56392],[77.337482,28.564011],[77.337419,28.56394],[77.33755,28.563849],[77.337569,28.56387]]]},"properties":{"objectid":46226,"plotmapid":"37NA126GHS","property_t":"Housing","used":"NA","plotsizesq":0,"plot_size":"NA","plot_no":"126","sector":"37","block":"NA","mplanduse":"B","ppt_type":"GHS","ppt_full":"Group Housing","authority":"NOIDA","category":"group-housing","execution_stage":"unknown"}},{"type":"Feature","geometry":{"type":"Polygon","coordinates":[[[77.337745,28.563829],[77.337614,28.56392],[77.33755,28.563849],[77.337681,28.563758],[77.337745,28.563829]]]},"properties":{"objectid":46227,"plotmapid":"37NA127GHS","property_t":"Housing","used":"NA","plotsizesq":0,"plot_size":"NA","plot_no":"127","sector":"37","block":"NA","mplanduse":"B","ppt_type":"GHS","ppt_full":"Group Housing","authority":"NOIDA","category":"group-housing","execution_stage":"unknown"}},{"type":"Feature","geometry":{"type":"Polygon","coordinates":[[[77.336109,28.564984],[77.336171,28.565056],[77.336018,28.565163],[77.335952,28.565085],[77.336109,28.564984]]]},"properties":{"objectid":46229,"plotmapid":"37NA068GHS","property_t":"Housing","used":"NA","plotsizesq":0,"plot_size":"NA","plot_no":"068","sector":"37","block":"NA","mplanduse":"B","ppt_type":"GHS","ppt_full":"Group Housing","authority":"NOIDA","category":"group-housing","execution_stage":"unknown"}},{"type":"Feature","geometry":{"type":"Polygon","coordinates":[[[77.336278,28.564982],[77.336171,28.565056],[77.336105,28.564979],[77.336213,28.564905],[77.336278,28.564982]]]},"properties":{"objectid":46231,"plotmapid":"37NA069GHS","property_t":"Housing","used":"NA","plotsizesq":0,"plot_size":"NA","plot_no":"069","sector":"37","block":"NA","mplanduse":"B","ppt_type":"GHS","ppt_full":"Group Housing","authority":"NOIDA","category":"group-housing","execution_stage":"unknown"}},{"type":"Feature","geometry":{"type":"Polygon","coordinates":[[[77.336456,28.56474],[77.336519,28.564811],[77.336389,28.564902],[77.336322,28.564827],[77.336456,28.56474]]]},"properties":{"objectid":46232,"plotmapid":"37NA086GHS","property_t":"Housing","used":"NA","plotsizesq":0,"plot_size":"NA","plot_no":"086","sector":"37","block":"NA","mplanduse":"B","ppt_type":"GHS","ppt_full":"Group Housing","authority":"NOIDA","category":"group-housing","execution_stage":"unknown"}},{"type":"Feature","geometry":{"type":"Polygon","coordinates":[[[77.336649,28.56472],[77.336519,28.564811],[77.336452,28.564736],[77.336582,28.564645],[77.336649,28.56472]]]},"properties":{"objectid":46233,"plotmapid":"37NA087GHS","property_t":"Housing","used":"NA","plotsizesq":0,"plot_size":"NA","plot_no":"087","sector":"37","block":"NA","mplanduse":"B","ppt_type":"GHS","ppt_full":"Group Housing","authority":"NOIDA","category":"group-housing","execution_stage":"unknown"}},{"type":"Feature","geometry":{"type":"Polygon","coordinates":[[[77.337261,28.564179],[77.337325,28.564251],[77.337193,28.564341],[77.337125,28.564264],[77.337261,28.564179]]]},"properties":{"objectid":46237,"plotmapid":"37NA108GHS","property_t":"Housing","used":"NA","plotsizesq":0,"plot_size":"NA","plot_no":"108","sector":"37","block":"NA","mplanduse":"B","ppt_type":"GHS","ppt_full":"Group Housing","authority":"NOIDA","category":"group-housing","execution_stage":"unknown"}},{"type":"Feature","geometry":{"type":"Polygon","coordinates":[[[77.337457,28.564161],[77.337325,28.564251],[77.337257,28.564174],[77.337388,28.564084],[77.337457,28.564161]]]},"properties":{"objectid":46238,"plotmapid":"37NA109GHS","property_t":"Housing","used":"NA","plotsizesq":0,"plot_size":"NA","plot_no":"109","sector":"37","block":"NA","mplanduse":"B","ppt_type":"GHS","ppt_full":"Group Housing","authority":"NOIDA","category":"group-housing","execution_stage":"unknown"}},{"type":"Feature","geometry":{"type":"Polygon","coordinates":[[[77.337618,28.563924],[77.337681,28.563995],[77.33755,28.564086],[77.337482,28.564011],[77.337618,28.563924]]]},"properties":{"objectid":46239,"plotmapid":"37NA124GHS","used":"NA","plotsizesq":0,"plot_size":"NA","plot_no":"124","sector":"37","block":"NA","mplanduse":"B","ppt_type":"GHS","ppt_full":"Group Housing","authority":"NOIDA","category":"group-housing","execution_stage":"unknown"}},{"type":"Feature","geometry":{"type":"Polygon","coordinates":[[[77.337813,28.563904],[77.337681,28.563995],[77.337614,28.56392],[77.337745,28.563829],[77.337813,28.563904]]]},"properties":{"objectid":46240,"plotmapid":"37NA125GHS","property_t":"Housing","used":"NA","plotsizesq":0,"plot_size":"NA","plot_no":"125","sector":"37","block":"NA","mplanduse":"B","ppt_type":"GHS","ppt_full":"Group Housing","authority":"NOIDA","category":"group-housing","execution_stage":"unknown"}},{"type":"Feature","geometry":{"type":"Polygon","coordinates":[[[77.337014,28.565135],[77.337116,28.565214],[77.337049,28.565283],[77.336923,28.565184],[77.33699,28.565116],[77.337014,28.565135]]]},"properties":{"objectid":46250,"plotmapid":"37NA066GHS","property_t":"Housing","used":"NA","plotsizesq":0,"plot_size":"NA","plot_no":"066","sector":"37","block":"NA","mplanduse":"B","ppt_type":"GHS","ppt_full":"Group Housing","authority":"NOIDA","category":"group-housing","execution_stage":"unknown"}},{"type":"Feature","geometry":{"type":"Polygon","coordinates":[[[77.337105,28.565085],[77.337183,28.565146],[77.337116,28.565214],[77.33699,28.565116],[77.337057,28.565047],[77.337105,28.565085]]]},"properties":{"objectid":46251,"plotmapid":"37NA067GHS","property_t":"Housing","used":"NA","plotsizesq":0,"plot_size":"NA","plot_no":"067","sector":"37","block":"NA","mplanduse":"B","ppt_type":"GHS","ppt_full":"Group Housing","authority":"NOIDA","category":"group-housing","execution_stage":"unknown"}},{"type":"Feature","geometry":{"type":"Polygon","coordinates":[[[77.337057,28.565047],[77.33707,28.565033],[77.337197,28.565132],[77.337183,28.565146],[77.337057,28.565047]]]},"properties":{"objectid":46252,"plotmapid":"37NAGHS","property_t":"Housing","used":"NA","plotsizesq":0,"plot_size":"NA","sector":"37","block":"NA","mplanduse":"B","ppt_type":"GHS","ppt_full":"Group Housing","authority":"NOIDA","category":"group-housing","execution_stage":"unknown"}},{"type":"Feature","geometry":{"type":"Polygon","coordinates":[[[77.337593,28.564843],[77.337603,28.564832],[77.337521,28.564769],[77.337578,28.564711],[77.337609,28.564735],[77.337645,28.564699],[77.337719,28.564756],[77.337701,28.564774],[77.337756,28.564816],[77.337774,28.564798],[77.337849,28.564855],[77.337813,28.564891],[77.337844,28.564915],[77.337788,28.564973],[77.337705,28.56491],[77.337613,28.565004],[77.337695,28.565067],[77.337638,28.565124],[77.337607,28.565101],[77.337571,28.565137],[77.337497,28.56508],[77.337515,28.565062],[77.33746,28.56502],[77.337442,28.565038],[77.337367,28.564981],[77.337403,28.564945],[77.337372,28.564921],[77.337428,28.564863],[77.337511,28.564926],[77.337593,28.564843]]]},"properties":{"objectid":46253,"plotmapid":"37NA011GHS","property_t":"Housing","used":"NA","plotsizesq":0,"plot_size":"NA","plot_no":"011","sector":"37","block":"NA","mplanduse":"B","ppt_type":"GHS","ppt_full":"Group Housing","authority":"NOIDA","category":"group-housing","execution_stage":"unknown"}}]}
