{"type":"FeatureCollection","features":[{"type":"Feature","geometry":{"type":"Polygon","coordinates":[[[77.338142,28.559404],[77.339044,28.557636],[77.340225,28.559633],[77.339682,28.559836],[77.339549,28.559862],[77.339344,28.559859],[77.338142,28.559404]]]},"properties":{"objectid":20085,"plotmapid":"44DGH4AGHS","plotsizesq":0,"plot_no":"GH4A","sector":"44","block":"D","mplanduse":"V","ppt_type":"GHS","ppt_full":"Group Housing","remark":"As per drone is vacant ,not Alloted & not buildup","authority":"NOIDA","category":"group-housing","execution_stage":"unknown"}},{"type":"Feature","geometry":{"type":"Polygon","coordinates":[[[77.343885,28.5548],[77.343952,28.554467],[77.344449,28.554614],[77.345077,28.554756],[77.344898,28.556641],[77.343547,28.556496],[77.343885,28.5548]]]},"properties":{"objectid":20702,"plotmapid":"44E006GHS","plotsizesq":0,"plot_no":"006","sector":"44","block":"E","mplanduse":"ISSUE","ppt_type":"GHS","ppt_full":"Group Housing","authority":"NOIDA","category":"group-housing","execution_stage":"unknown"}},{"type":"Feature","geometry":{"type":"Polygon","coordinates":[[[77.343885,28.5548],[77.343547,28.556496],[77.342747,28.556392],[77.342019,28.556202],[77.343026,28.554105],[77.343505,28.554307],[77.343952,28.554467],[77.343885,28.5548]]]},"properties":{"objectid":20703,"plotmapid":"44E005GHS","plotsizesq":0,"plot_no":"005","sector":"44","block":"E","mplanduse":"ISSUE","ppt_type":"GHS","ppt_full":"Group Housing","authority":"NOIDA","category":"group-housing","execution_stage":"unknown"}},{"type":"Feature","geometry":{"type":"Polygon","coordinates":[[[77.340555,28.555614],[77.342153,28.553644],[77.34261,28.553902],[77.343026,28.554105],[77.342019,28.556202],[77.341268,28.555938],[77.340555,28.555614]]]},"properties":{"objectid":20704,"plotmapid":"44E004GHS","plotsizesq":0,"plot_no":"004","sector":"44","block":"E","mplanduse":"ISSUE","ppt_type":"GHS","ppt_full":"Group Housing","authority":"NOIDA","category":"group-housing","execution_stage":"unknown"}},{"type":"Feature","geometry":{"type":"Polygon","coordinates":[[[77.345056,28.554971],[77.345077,28.554756],[77.345571,28.554837],[77.346143,28.554896],[77.346221,28.556744],[77.344898,28.556641],[77.345056,28.554971]]]},"properties":{"objectid":20705,"plotmapid":"44E007GHS","plotsizesq":0,"plot_no":"007","sector":"44","block":"E","mplanduse":"ISSUE","ppt_type":"GHS","ppt_full":"Group Housing","authority":"NOIDA","category":"group-housing","execution_stage":"unknown"}},{"type":"Feature","geometry":{"type":"Polygon","coordinates":[[[77.342153,28.553644],[77.340555,28.555614],[77.339884,28.555235],[77.339342,28.554864],[77.341418,28.553142],[77.341778,28.553403],[77.342153,28.553644]]]},"properties":{"objectid":20706,"plotmapid":"44E003GHS","plotsizesq":0,"plot_no":"003","sector":"44","block":"E","mplanduse":"ISSUE","ppt_type":"GHS","ppt_full":"Group Housing","authority":"NOIDA","category":"group-housing","execution_stage":"unknown"}},{"type":"Feature","geometry":{"type":"Polygon","coordinates":[[[77.346193,28.554608],[77.345645,28.554576],[77.345104,28.554509],[77.344572,28.554407],[77.344106,28.554287],[77.344038,28.553364],[77.344287,28.553352],[77.344517,28.553603],[77.344842,28.553374],[77.344828,28.553355],[77.344861,28.553326],[77.345678,28.553289],[77.346193,28.554608]]]},"properties":{"objectid":20710,"plotmapid":"44E008GHS","plotsizesq":0,"plot_no":"008","sector":"44","block":"E","mplanduse":"ISSUE","ppt_type":"GHS","ppt_full":"Group Housing","authority":"NOIDA","category":"group-housing","execution_stage":"unknown"}},{"type":"Feature","geometry":{"type":"Polygon","coordinates":[[[77.343072,28.558208],[77.343151,28.556708],[77.343881,28.556803],[77.343925,28.558282],[77.343072,28.558208]]]},"properties":{"objectid":20718,"plotmapid":"44D006/CGHS","plotsizesq":0,"plot_no":"006/C","sector":"44","block":"D","mplanduse":"ISSUE","ppt_type":"GHS","ppt_full":"Group Housing","authority":"NOIDA","category":"group-housing","execution_stage":"unknown"}},{"type":"Feature","geometry":{"type":"Polygon","coordinates":[[[77.343881,28.556803],[77.34466,28.556887],[77.344703,28.55835],[77.343925,28.558282],[77.343881,28.556803]]]},"properties":{"objectid":20719,"plotmapid":"44D006/CGHS","plotsizesq":0,"plot_no":"006/C","sector":"44","block":"D","mplanduse":"ISSUE","ppt_type":"GHS","ppt_full":"Group Housing","authority":"NOIDA","category":"group-housing","execution_stage":"unknown"}},{"type":"Feature","geometry":{"type":"Polygon","coordinates":[[[77.34466,28.556887],[77.345438,28.556956],[77.345481,28.558417],[77.344703,28.55835],[77.34466,28.556887]]]},"properties":{"objectid":20720,"plotmapid":"44D006/BGHS","plotsizesq":0,"plot_no":"006/B","sector":"44","block":"D","mplanduse":"ISSUE","ppt_type":"GHS","ppt_full":"Group Housing","authority":"NOIDA","category":"group-housing","execution_stage":"unknown"}},{"type":"Feature","geometry":{"type":"Polygon","coordinates":[[[77.345438,28.556956],[77.346194,28.557008],[77.346256,28.558485],[77.345481,28.558417],[77.345438,28.556956]]]},"properties":{"objectid":20721,"plotmapid":"44D006/AGHS","plotsizesq":0,"plot_no":"006/A","sector":"44","block":"D","mplanduse":"ISSUE","ppt_type":"GHS","ppt_full":"Group Housing","authority":"NOIDA","category":"group-housing","execution_stage":"unknown"}},{"type":"Feature","geometry":{"type":"Polygon","coordinates":[[[77.345242,28.55961],[77.345717,28.558703],[77.346287,28.559024],[77.3461,28.559782],[77.345242,28.55961]]]},"properties":{"objectid":20722,"plotmapid":"44D006GHS","plotsizesq":0,"plot_no":"006","sector":"44","block":"D","mplanduse":"ISSUE","ppt_type":"GHS","ppt_full":"Group Housing","authority":"NOIDA","category":"group-housing","execution_stage":"unknown"}},{"type":"Feature","geometry":{"type":"Polygon","coordinates":[[[77.337454,28.560561],[77.338008,28.559509],[77.338879,28.559831],[77.338527,28.560096],[77.338147,28.560511],[77.338445,28.560757],[77.338353,28.560931],[77.337454,28.560561]]]},"properties":{"objectid":20731,"plotmapid":"44D003AGHS","plotsizesq":0,"plot_no":"003A","sector":"44","block":"D","mplanduse":"B","ppt_type":"GHS","ppt_full":"Group Housing","authority":"NOIDA","category":"group-housing","execution_stage":"unknown"}},{"type":"Feature","geometry":{"type":"Polygon","coordinates":[[[77.338757,28.556715],[77.338988,28.557243],[77.338667,28.557847],[77.338222,28.557505],[77.338007,28.557274],[77.338304,28.55656],[77.338757,28.556715]]]},"properties":{"objectid":20740,"plotmapid":"44D013GHS","plotsizesq":0,"plot_no":"013","sector":"44","block":"D","mplanduse":"B","ppt_type":"GHS","ppt_full":"Group Housing","authority":"NOIDA","category":"group-housing","execution_stage":"unknown"}},{"type":"Feature","geometry":{"type":"Polygon","coordinates":[[[77.341545,28.556368],[77.34235,28.556608],[77.34298,28.556732],[77.342895,28.558368],[77.342693,28.558326],[77.342513,28.558072],[77.34232,28.557848],[77.342176,28.557594],[77.341854,28.557137],[77.34139,28.556667],[77.341545,28.556368]]]},"properties":{"objectid":20742,"plotmapid":"44D006/EGHS","plotsizesq":0,"plot_no":"006/E","sector":"44","block":"D","mplanduse":"ISSUE","ppt_type":"GHS","ppt_full":"Group Housing","authority":"NOIDA","category":"group-housing","execution_stage":"unknown"}},{"type":"Feature","geometry":{"type":"Polygon","coordinates":[[[77.338879,28.559831],[77.339274,28.559977],[77.339954,28.560734],[77.339738,28.560892],[77.33884,28.560391],[77.338525,28.560098],[77.338879,28.559831]]]},"properties":{"objectid":20748,"plotmapid":"44D003GHS","plotsizesq":0,"plot_no":"003","sector":"44","block":"D","mplanduse":"ISSUE","ppt_type":"GHS","ppt_full":"Group Housing","authority":"NOIDA","category":"group-housing","execution_stage":"unknown"}},{"type":"Feature","geometry":{"type":"Polygon","coordinates":[[[77.338659,28.56415],[77.338609,28.564199],[77.338512,28.56412],[77.338455,28.564175],[77.338385,28.564119],[77.338438,28.564055],[77.338453,28.564067],[77.338492,28.56403],[77.338518,28.564051],[77.338493,28.564075],[77.338529,28.564103],[77.338561,28.564072],[77.338659,28.56415]]]},"properties":{"objectid":39564,"plotmapid":"37NAGHS","used":"VI G","plotsizesq":0,"plot_size":"NA","sector":"37","block":"NA","mplanduse":"ISSUE","ppt_type":"GHS","ppt_full":"Group Housing","authority":"NOIDA","category":"group-housing","execution_stage":"unknown"}},{"type":"Feature","geometry":{"type":"Polygon","coordinates":[[[77.338627,28.564182],[77.338663,28.56421],[77.338687,28.564186],[77.338714,28.564207],[77.338675,28.564245],[77.338705,28.564269],[77.338744,28.564232],[77.33877,28.564253],[77.338745,28.564277],[77.338781,28.564305],[77.338707,28.564377],[77.338637,28.564321],[77.338647,28.564311],[77.338633,28.5643],[77.338623,28.56431],[77.338553,28.564254],[77.338627,28.564182]]]},"properties":{"objectid":39565,"plotmapid":"37NA019GHS","property_t":"Housing","used":"NA","plotsizesq":0,"plot_size":"NA","plot_no":"019","sector":"37","block":"NA","mplanduse":"ISSUE","ppt_type":"GHS","ppt_full":"Group Housing","authority":"NOIDA","category":"group-housing","execution_stage":"unknown"}},{"type":"Feature","geometry":{"type":"Polygon","coordinates":[[[77.338748,28.564337],[77.338809,28.564385],[77.338767,28.564425],[77.338707,28.564377],[77.338748,28.564337]]]},"properties":{"objectid":39566,"plotmapid":"37NAGHS","used":"NA","plotsizesq":0,"plot_size":"NA","sector":"37","block":"NA","mplanduse":"ISSUE","ppt_type":"GHS","ppt_full":"Group Housing","authority":"NOIDA","category":"group-housing","execution_stage":"unknown"}},{"type":"Feature","geometry":{"type":"Polygon","coordinates":[[[77.339127,28.56418],[77.339109,28.564165],[77.339175,28.564101],[77.339212,28.564131],[77.339146,28.564195],[77.339127,28.56418]]]},"properties":{"objectid":39567,"plotmapid":"37NAGHS","used":"NA","plotsizesq":0,"plot_size":"NA","sector":"37","block":"NA","mplanduse":"ISSUE","ppt_type":"GHS","ppt_full":"Group Housing","authority":"NOIDA","category":"group-housing","execution_stage":"unknown"}},{"type":"Feature","geometry":{"type":"Polygon","coordinates":[[[77.338988,28.564368],[77.339025,28.564398],[77.338967,28.564454],[77.33893,28.564424],[77.338988,28.564368]]]},"properties":{"objectid":39568,"plotmapid":"37NAGHS","used":"NA","plotsizesq":0,"plot_size":"NA","sector":"37","block":"NA","mplanduse":"ISSUE","ppt_type":"GHS","ppt_full":"Group Housing","authority":"NOIDA","category":"group-housing","execution_stage":"unknown"}},{"type":"Feature","geometry":{"type":"Polygon","coordinates":[[[77.339146,28.564195],[77.339195,28.564234],[77.339118,28.564308],[77.339108,28.564301],[77.339093,28.564316],[77.339102,28.564323],[77.339025,28.564398],[77.338958,28.564344],[77.338997,28.564306],[77.338974,28.564288],[77.339003,28.56426],[77.339039,28.564288],[77.339072,28.564256],[77.339036,28.564228],[77.339065,28.5642],[77.339088,28.564218],[77.339127,28.56418],[77.339146,28.564195]]]},"properties":{"objectid":39569,"plotmapid":"37NA018GHS","property_t":"Housing","used":"NA","plotsizesq":0,"plot_size":"NA","plot_no":"018","sector":"37","block":"NA","mplanduse":"ISSUE","ppt_type":"GHS","ppt_full":"Group Housing","authority":"NOIDA","category":"group-housing","execution_stage":"unknown"}},{"type":"Feature","geometry":{"type":"Polygon","coordinates":[[[77.339212,28.564131],[77.339319,28.564216],[77.339253,28.56428],[77.339146,28.564195],[77.339212,28.564131]]]},"properties":{"objectid":39570,"plotmapid":"37NAGHS","used":"NA","plotsizesq":0,"plot_size":"NA","sector":"37","block":"NA","mplanduse":"ISSUE","ppt_type":"GHS","ppt_full":"Group Housing","authority":"NOIDA","category":"group-housing","execution_stage":"unknown"}},{"type":"Feature","geometry":{"type":"Polygon","coordinates":[[[77.339182,28.564509],[77.3394,28.564683],[77.339251,28.564827],[77.339011,28.564635],[77.339159,28.56449],[77.339182,28.564509]]]},"properties":{"objectid":39571,"plotmapid":"37NA007GHS","used":"NA","plotsizesq":0,"plot_size":"NA","plot_no":"007","sector":"37","block":"NA","mplanduse":"ISSUE","ppt_type":"GHS","ppt_full":"Group Housing","authority":"NOIDA","category":"group-housing","execution_stage":"unknown"}},{"type":"Feature","geometry":{"type":"Polygon","coordinates":[[[77.338686,28.564731],[77.338717,28.564754],[77.338754,28.564716],[77.33883,28.564772],[77.338812,28.564792],[77.338868,28.564833],[77.338886,28.564814],[77.338962,28.564871],[77.338925,28.564909],[77.338957,28.564933],[77.338898,28.564995],[77.338814,28.564932],[77.338718,28.565033],[77.338802,28.565095],[77.338743,28.565157],[77.338711,28.565133],[77.338675,28.565172],[77.338599,28.565115],[77.338617,28.565096],[77.338561,28.565054],[77.338543,28.565074],[77.338467,28.565017],[77.338504,28.564978],[77.338472,28.564954],[77.338531,28.564893],[77.338615,28.564955],[77.33871,28.564855],[77.338627,28.564792],[77.338686,28.564731]]]},"properties":{"objectid":39572,"plotmapid":"37NA005GHS","property_t":"Housing","used":"NA","plotsizesq":0,"plot_size":"NA","plot_no":"005","sector":"37","block":"NA","mplanduse":"ISSUE","ppt_type":"GHS","ppt_full":"Group Housing","authority":"NOIDA","category":"group-housing","execution_stage":"unknown"}},{"type":"Feature","geometry":{"type":"Polygon","coordinates":[[[77.338989,28.564661],[77.339223,28.564849],[77.339164,28.564845],[77.338993,28.564707],[77.338989,28.564661]]]},"properties":{"objectid":39573,"plotmapid":"37NAGHS","used":"NA","plotsizesq":0,"plot_size":"NA","sector":"37","block":"NA","mplanduse":"ISSUE","ppt_type":"GHS","ppt_full":"Group Housing","authority":"NOIDA","category":"group-housing","execution_stage":"unknown"}},{"type":"Feature","geometry":{"type":"Polygon","coordinates":[[[77.339011,28.564635],[77.339251,28.564827],[77.339223,28.564849],[77.338989,28.564661],[77.339011,28.564635]]]},"properties":{"objectid":39574,"plotmapid":"37NAGHS","used":"NA","plotsizesq":0,"plot_size":"NA","sector":"37","block":"NA","mplanduse":"ISSUE","ppt_type":"GHS","ppt_full":"Group Housing","authority":"NOIDA","category":"group-housing","execution_stage":"unknown"}},{"type":"Feature","geometry":{"type":"Polygon","coordinates":[[[77.339331,28.564364],[77.339549,28.564539],[77.3394,28.564683],[77.339159,28.56449],[77.339308,28.564346],[77.339331,28.564364]]]},"properties":{"objectid":39575,"plotmapid":"37NA006GHS","property_t":"Housing","used":"NA","plotsizesq":0,"plot_size":"NA","plot_no":"006","sector":"37","block":"NA","mplanduse":"ISSUE","ppt_type":"GHS","ppt_full":"Group Housing","authority":"NOIDA","category":"group-housing","execution_stage":"unknown"}},{"type":"Feature","geometry":{"type":"Polygon","coordinates":[[[77.339698,28.564395],[77.339549,28.564539],[77.339308,28.564346],[77.339457,28.564202],[77.339698,28.564395]]]},"properties":{"objectid":39576,"plotmapid":"37NA005GHS","property_t":"Housing","used":"NA","plotsizesq":0,"plot_size":"NA","plot_no":"005","sector":"37","block":"NA","mplanduse":"ISSUE","ppt_type":"GHS","ppt_full":"Group Housing","authority":"NOIDA","category":"group-housing","execution_stage":"unknown"}},{"type":"Feature","geometry":{"type":"Polygon","coordinates":[[[77.339806,28.56429],[77.339698,28.564395],[77.339457,28.564202],[77.339565,28.564098],[77.339806,28.56429]]]},"properties":{"objectid":39577,"plotmapid":"37NA004GHS","property_t":"Housing","used":"NA","plotsizesq":0,"plot_size":"NA","plot_no":"004","sector":"37","block":"NA","mplanduse":"ISSUE","ppt_type":"GHS","ppt_full":"Group Housing","authority":"NOIDA","category":"group-housing","execution_stage":"unknown"}},{"type":"Feature","geometry":{"type":"Polygon","coordinates":[[[77.339905,28.564194],[77.339806,28.56429],[77.339565,28.564098],[77.339664,28.564002],[77.339905,28.564194]]]},"properties":{"objectid":39578,"plotmapid":"37NAGHS","property_t":"Housing","used":"NA","plotsizesq":0,"plot_size":"NA","sector":"37","block":"NA","mplanduse":"ISSUE","ppt_type":"GHS","ppt_full":"Group Housing","authority":"NOIDA","category":"group-housing","execution_stage":"unknown"}},{"type":"Feature","geometry":{"type":"Polygon","coordinates":[[[77.340012,28.56409],[77.339905,28.564194],[77.339664,28.564002],[77.339771,28.563897],[77.340012,28.56409]]]},"properties":{"objectid":39579,"plotmapid":"37NA003GHS","property_t":"Housing","used":"NA","plotsizesq":0,"plot_size":"NA","plot_no":"003","sector":"37","block":"NA","mplanduse":"ISSUE","ppt_type":"GHS","ppt_full":"Group Housing","authority":"NOIDA","category":"group-housing","execution_stage":"unknown"}},{"type":"Feature","geometry":{"type":"Polygon","coordinates":[[[77.339943,28.563771],[77.340161,28.563946],[77.340012,28.56409],[77.339771,28.563897],[77.33992,28.563753],[77.339943,28.563771]]]},"properties":{"objectid":39580,"plotmapid":"37NA002GHS","property_t":"Housing","used":"NA","plotsizesq":0,"plot_size":"NA","plot_no":"002","sector":"37","block":"NA","mplanduse":"ISSUE","ppt_type":"GHS","ppt_full":"Group Housing","authority":"NOIDA","category":"group-housing","execution_stage":"unknown"}},{"type":"Feature","geometry":{"type":"Polygon","coordinates":[[[77.340092,28.563627],[77.34031,28.563802],[77.340161,28.563946],[77.33992,28.563753],[77.340069,28.563609],[77.340092,28.563627]]]},"properties":{"objectid":39581,"plotmapid":"37NA001GHS","property_t":"Housing","used":"NA","plotsizesq":0,"plot_size":"NA","plot_no":"001","sector":"37","block":"NA","mplanduse":"ISSUE","ppt_type":"GHS","ppt_full":"Group Housing","authority":"NOIDA","category":"group-housing","execution_stage":"unknown"}},{"type":"Feature","geometry":{"type":"Polygon","coordinates":[[[77.339041,28.564952],[77.339073,28.564976],[77.339114,28.564933],[77.339189,28.564991],[77.339168,28.565012],[77.339224,28.565055],[77.339245,28.565033],[77.33932,28.565091],[77.339279,28.565133],[77.339311,28.565158],[77.339245,28.565226],[77.339162,28.565162],[77.339055,28.565273],[77.339139,28.565336],[77.339073,28.565405],[77.339041,28.56538],[77.339,28.565423],[77.338925,28.565365],[77.338945,28.565344],[77.33889,28.565302],[77.338869,28.565323],[77.338794,28.565265],[77.338835,28.565223],[77.338803,28.565199],[77.338869,28.56513],[77.338952,28.565194],[77.339059,28.565083],[77.338975,28.56502],[77.339041,28.564952]]]},"properties":{"objectid":39582,"plotmapid":"37NA004GHS","property_t":"Housing","used":"NA","plotsizesq":0,"plot_size":"NA","plot_no":"004","sector":"37","block":"NA","mplanduse":"ISSUE","ppt_type":"GHS","ppt_full":"Group Housing","authority":"NOIDA","category":"group-housing","execution_stage":"unknown"}},{"type":"Feature","geometry":{"type":"Polygon","coordinates":[[[77.339503,28.56478],[77.33954,28.56481],[77.339482,28.564866],[77.339445,28.564836],[77.339503,28.56478]]]},"properties":{"objectid":39583,"plotmapid":"37NAGHS","used":"NA","plotsizesq":0,"plot_size":"NA","sector":"37","block":"NA","mplanduse":"ISSUE","ppt_type":"GHS","ppt_full":"Group Housing","authority":"NOIDA","category":"group-housing","execution_stage":"unknown"}},{"type":"Feature","geometry":{"type":"Polygon","coordinates":[[[77.340378,28.563932],[77.340436,28.563875],[77.340474,28.563906],[77.340416,28.563962],[77.340378,28.563932]]]},"properties":{"objectid":39584,"plotmapid":"37NAGHS","used":"NA","plotsizesq":0,"plot_size":"NA","sector":"37","block":"NA","mplanduse":"ISSUE","ppt_type":"GHS","ppt_full":"Group Housing","authority":"NOIDA","category":"group-housing","execution_stage":"unknown"}},{"type":"Feature","geometry":{"type":"Polygon","coordinates":[[[77.339672,28.564616],[77.339614,28.564569],[77.33968,28.564505],[77.339787,28.56459],[77.339721,28.564654],[77.339672,28.564616]]]},"properties":{"objectid":39585,"plotmapid":"37NAGHS","used":"NA","plotsizesq":0,"plot_size":"NA","sector":"37","block":"NA","mplanduse":"ISSUE","ppt_type":"GHS","ppt_full":"Group Housing","authority":"NOIDA","category":"group-housing","execution_stage":"unknown"}},{"type":"Feature","geometry":{"type":"Polygon","coordinates":[[[77.340209,28.564096],[77.340257,28.564135],[77.340191,28.564199],[77.340084,28.564114],[77.34015,28.564049],[77.340209,28.564096]]]},"properties":{"objectid":39586,"plotmapid":"37NAGHS","used":"NA","plotsizesq":0,"plot_size":"NA","sector":"37","block":"NA","mplanduse":"ISSUE","ppt_type":"GHS","ppt_full":"Group Housing","authority":"NOIDA","category":"group-housing","execution_stage":"unknown"}},{"type":"Feature","geometry":{"type":"Polygon","coordinates":[[[77.339787,28.56459],[77.339824,28.56462],[77.339758,28.564685],[77.339721,28.564654],[77.339787,28.56459]]]},"properties":{"objectid":39587,"plotmapid":"37NAGHS","used":"NA","plotsizesq":0,"plot_size":"NA","sector":"37","block":"NA","mplanduse":"ISSUE","ppt_type":"GHS","ppt_full":"Group Housing","authority":"NOIDA","category":"group-housing","execution_stage":"unknown"}},{"type":"Feature","geometry":{"type":"Polygon","coordinates":[[[77.340276,28.56415],[77.340295,28.564165],[77.340229,28.564229],[77.340191,28.564199],[77.340257,28.564135],[77.340276,28.56415]]]},"properties":{"objectid":39588,"plotmapid":"37NAGHS","used":"NA","plotsizesq":0,"plot_size":"NA","sector":"37","block":"NA","mplanduse":"ISSUE","ppt_type":"GHS","ppt_full":"Group Housing","authority":"NOIDA","category":"group-housing","execution_stage":"unknown"}},{"type":"Feature","geometry":{"type":"Polygon","coordinates":[[[77.33974,28.56467],[77.3397,28.564708],[77.339723,28.564726],[77.339694,28.564754],[77.339659,28.564726],[77.339625,28.564758],[77.339661,28.564786],[77.339632,28.564814],[77.339609,28.564796],[77.33957,28.564834],[77.339503,28.56478],[77.33958,28.564705],[77.339589,28.564713],[77.339605,28.564698],[77.339595,28.56469],[77.339672,28.564616],[77.33974,28.56467]]]},"properties":{"objectid":39589,"plotmapid":"37NA015GHS","property_t":"Housing","used":"NA","plotsizesq":0,"plot_size":"NA","plot_no":"015","sector":"37","block":"NA","mplanduse":"ISSUE","ppt_type":"GHS","ppt_full":"Group Housing","authority":"NOIDA","category":"group-housing","execution_stage":"unknown"}},{"type":"Feature","geometry":{"type":"Polygon","coordinates":[[[77.340416,28.563962],[77.340446,28.563986],[77.340406,28.564024],[77.340429,28.564042],[77.3404,28.56407],[77.340365,28.564041],[77.340331,28.564073],[77.340367,28.564102],[77.340338,28.56413],[77.340315,28.564112],[77.340276,28.56415],[77.340209,28.564096],[77.340286,28.564021],[77.340295,28.564029],[77.340311,28.564014],[77.340301,28.564006],[77.340378,28.563932],[77.340416,28.563962]]]},"properties":{"objectid":39590,"plotmapid":"37NA014GHS","property_t":"Housing","used":"NA","plotsizesq":0,"plot_size":"NA","plot_no":"014","sector":"37","block":"NA","mplanduse":"ISSUE","ppt_type":"GHS","ppt_full":"Group Housing","authority":"NOIDA","category":"group-housing","execution_stage":"unknown"}},{"type":"Feature","geometry":{"type":"Polygon","coordinates":[[[77.339524,28.565],[77.339463,28.564952],[77.339505,28.564912],[77.339565,28.56496],[77.339524,28.565]]]},"properties":{"objectid":39591,"plotmapid":"37NAGHS","used":"NA","plotsizesq":0,"plot_size":"NA","sector":"37","block":"NA","mplanduse":"ISSUE","ppt_type":"GHS","ppt_full":"Group Housing","authority":"NOIDA","category":"group-housing","execution_stage":"unknown"}},{"type":"Feature","geometry":{"type":"Polygon","coordinates":[[[77.340588,28.563969],[77.340528,28.563921],[77.340569,28.563881],[77.340629,28.563929],[77.340588,28.563969]]]},"properties":{"objectid":39592,"plotmapid":"37NAGHS","used":"NA","plotsizesq":0,"plot_size":"NA","sector":"37","block":"NA","mplanduse":"ISSUE","ppt_type":"GHS","ppt_full":"Group Housing","authority":"NOIDA","category":"group-housing","execution_stage":"unknown"}},{"type":"Feature","geometry":{"type":"Polygon","coordinates":[[[77.339565,28.56496],[77.339598,28.564928],[77.339634,28.564957],[77.339658,28.564933],[77.339685,28.564954],[77.339646,28.564992],[77.339676,28.565016],[77.339715,28.564978],[77.339741,28.564999],[77.339716,28.565023],[77.339752,28.565052],[77.339678,28.565124],[77.339608,28.565068],[77.339618,28.565057],[77.339604,28.565046],[77.339594,28.565057],[77.339524,28.565],[77.339565,28.56496]]]},"properties":{"objectid":39593,"plotmapid":"37NA016GHS","property_t":"Housing","used":"NA","plotsizesq":0,"plot_size":"NA","plot_no":"016","sector":"37","block":"NA","mplanduse":"ISSUE","ppt_type":"GHS","ppt_full":"Group Housing","authority":"NOIDA","category":"group-housing","execution_stage":"unknown"}},{"type":"Feature","geometry":{"type":"Polygon","coordinates":[[[77.340629,28.563929],[77.340699,28.563985],[77.340689,28.563995],[77.340703,28.564007],[77.340713,28.563996],[77.340784,28.564052],[77.340709,28.564124],[77.340674,28.564096],[77.340649,28.56412],[77.340623,28.564099],[77.340661,28.564061],[77.340631,28.564037],[77.340592,28.564074],[77.340566,28.564053],[77.340591,28.564029],[77.340555,28.564001],[77.340629,28.563929]]]},"properties":{"objectid":39594,"plotmapid":"37NA013GHS","property_t":"Housing","used":"NA","plotsizesq":0,"plot_size":"NA","plot_no":"013","sector":"37","block":"NA","mplanduse":"ISSUE","ppt_type":"GHS","ppt_full":"Group Housing","authority":"NOIDA","category":"group-housing","execution_stage":"unknown"}},{"type":"Feature","geometry":{"type":"Polygon","coordinates":[[[77.340727,28.564107],[77.340825,28.564186],[77.340775,28.564234],[77.340677,28.564156],[77.340727,28.564107]]]},"properties":{"objectid":39595,"plotmapid":"37NAGHS","used":"NA","plotsizesq":0,"plot_size":"NA","sector":"37","block":"NA","mplanduse":"ISSUE","ppt_type":"GHS","ppt_full":"Group Housing","authority":"NOIDA","category":"group-housing","execution_stage":"unknown"}},{"type":"Feature","geometry":{"type":"Polygon","coordinates":[[[77.33985,28.56513],[77.339886,28.565159],[77.33991,28.565135],[77.339937,28.565156],[77.339898,28.565194],[77.339928,28.565218],[77.339967,28.56518],[77.339993,28.565201],[77.339969,28.565225],[77.340004,28.565254],[77.33993,28.565326],[77.33986,28.56527],[77.339871,28.565259],[77.339857,28.565248],[77.339846,28.565258],[77.339776,28.565202],[77.33985,28.56513]]]},"properties":{"objectid":39596,"plotmapid":"37NA017GHS","property_t":"Housing","used":"NA","plotsizesq":0,"plot_size":"NA","plot_no":"017","sector":"37","block":"NA","mplanduse":"ISSUE","ppt_type":"GHS","ppt_full":"Group Housing","authority":"NOIDA","category":"group-housing","execution_stage":"unknown"}},{"type":"Feature","geometry":{"type":"Polygon","coordinates":[[[77.340825,28.564186],[77.340881,28.564131],[77.340952,28.564187],[77.340941,28.564197],[77.340955,28.564208],[77.340966,28.564198],[77.341036,28.564254],[77.340962,28.564326],[77.340926,28.564297],[77.340901,28.564321],[77.340875,28.5643],[77.340914,28.564263],[77.340884,28.564239],[77.340845,28.564276],[77.340818,28.564255],[77.340843,28.564231],[77.340807,28.564203],[77.340825,28.564186]]]},"properties":{"objectid":39597,"plotmapid":"37NA012GHS","property_t":"Housing","used":"NA","plotsizesq":0,"plot_size":"NA","plot_no":"012","sector":"37","block":"NA","mplanduse":"ISSUE","ppt_type":"GHS","ppt_full":"Group Housing","authority":"NOIDA","category":"group-housing","execution_stage":"unknown"}},{"type":"Feature","geometry":{"type":"Polygon","coordinates":[[[77.341036,28.564254],[77.341096,28.564302],[77.341055,28.564342],[77.340994,28.564294],[77.341036,28.564254]]]},"properties":{"objectid":39599,"plotmapid":"37NAGHS","used":"NA","plotsizesq":0,"plot_size":"NA","sector":"37","block":"NA","mplanduse":"ISSUE","ppt_type":"GHS","ppt_full":"Group Housing","authority":"NOIDA","category":"group-housing","execution_stage":"unknown"}},{"type":"Feature","geometry":{"type":"Polygon","coordinates":[[[77.339882,28.565099],[77.339833,28.565147],[77.339735,28.565069],[77.339784,28.565021],[77.339882,28.565099]]]},"properties":{"objectid":39603,"plotmapid":"37NAGHS","used":"NA","plotsizesq":0,"plot_size":"NA","sector":"37","block":"NA","mplanduse":"ISSUE","ppt_type":"GHS","ppt_full":"Group Housing","authority":"NOIDA","category":"group-housing","execution_stage":"unknown"}},{"type":"Feature","geometry":{"type":"Polygon","coordinates":[[[77.33785,28.562839],[77.337968,28.562973],[77.337911,28.563014],[77.337771,28.562855],[77.337828,28.562814],[77.33785,28.562839]]]},"properties":{"objectid":46133,"plotmapid":"37NA067GHS","property_t":"Housing","used":"NA","plotsizesq":0,"plot_size":"NA","plot_no":"067","sector":"37","block":"NA","mplanduse":"B","ppt_type":"GHS","ppt_full":"Group Housing","authority":"NOIDA","category":"group-housing","execution_stage":"unknown"}},{"type":"Feature","geometry":{"type":"Polygon","coordinates":[[[77.337907,28.562798],[77.338025,28.562933],[77.337968,28.562973],[77.337828,28.562814],[77.337885,28.562773],[77.337907,28.562798]]]},"properties":{"objectid":46134,"plotmapid":"37NA068GHS","property_t":"Housing","used":"NA","plotsizesq":0,"plot_size":"NA","plot_no":"068","sector":"37","block":"NA","mplanduse":"B","ppt_type":"GHS","ppt_full":"Group Housing","authority":"NOIDA","category":"group-housing","execution_stage":"unknown"}},{"type":"Feature","geometry":{"type":"Polygon","coordinates":[[[77.337964,28.562757],[77.338082,28.562892],[77.338025,28.562933],[77.337885,28.562773],[77.337942,28.562732],[77.337964,28.562757]]]},"properties":{"objectid":46135,"plotmapid":"37NA069GHS","property_t":"Housing","used":"NA","plotsizesq":0,"plot_size":"NA","plot_no":"069","sector":"37","block":"NA","mplanduse":"B","ppt_type":"GHS","ppt_full":"Group Housing","authority":"NOIDA","category":"group-housing","execution_stage":"unknown"}},{"type":"Feature","geometry":{"type":"Polygon","coordinates":[[[77.338021,28.562716],[77.338139,28.562851],[77.338082,28.562892],[77.337942,28.562732],[77.337999,28.562691],[77.338021,28.562716]]]},"properties":{"objectid":46136,"plotmapid":"37NA070GHS","property_t":"Housing","used":"NA","plotsizesq":0,"plot_size":"NA","plot_no":"070","sector":"37","block":"NA","mplanduse":"B","ppt_type":"GHS","ppt_full":"Group Housing","authority":"NOIDA","category":"group-housing","execution_stage":"unknown"}},{"type":"Feature","geometry":{"type":"Polygon","coordinates":[[[77.338198,28.562594],[77.338319,28.56273],[77.33826,28.562771],[77.338118,28.562609],[77.338176,28.562568],[77.338198,28.562594]]]},"properties":{"objectid":46138,"plotmapid":"37NA071GHS","property_t":"Housing","used":"NA","plotsizesq":0,"plot_size":"NA","plot_no":"071","sector":"37","block":"NA","mplanduse":"B","ppt_type":"GHS","ppt_full":"Group Housing","authority":"NOIDA","category":"group-housing","execution_stage":"unknown"}},{"type":"Feature","geometry":{"type":"Polygon","coordinates":[[[77.338256,28.562553],[77.338377,28.562689],[77.338319,28.56273],[77.338176,28.562568],[77.338234,28.562528],[77.338256,28.562553]]]},"properties":{"objectid":46140,"plotmapid":"37NA072GHS","property_t":"Housing","used":"NA","plotsizesq":0,"plot_size":"NA","plot_no":"072","sector":"37","block":"NA","mplanduse":"B","ppt_type":"GHS","ppt_full":"Group Housing","authority":"NOIDA","category":"group-housing","execution_stage":"unknown"}},{"type":"Feature","geometry":{"type":"Polygon","coordinates":[[[77.338314,28.562512],[77.338435,28.562648],[77.338377,28.562689],[77.338234,28.562528],[77.338292,28.562487],[77.338314,28.562512]]]},"properties":{"objectid":46141,"plotmapid":"37NA073GHS","property_t":"Housing","used":"NA","plotsizesq":0,"plot_size":"NA","plot_no":"073","sector":"37","block":"NA","mplanduse":"B","ppt_type":"GHS","ppt_full":"Group Housing","authority":"NOIDA","category":"group-housing","execution_stage":"unknown"}},{"type":"Feature","geometry":{"type":"Polygon","coordinates":[[[77.338373,28.562471],[77.338493,28.562607],[77.338435,28.562648],[77.338292,28.562487],[77.33835,28.562446],[77.338373,28.562471]]]},"properties":{"objectid":46142,"plotmapid":"37NA074GHS","property_t":"Housing","used":"NA","plotsizesq":0,"plot_size":"NA","plot_no":"074","sector":"37","block":"NA","mplanduse":"B","ppt_type":"GHS","ppt_full":"Group Housing","authority":"NOIDA","category":"group-housing","execution_stage":"unknown"}},{"type":"Feature","geometry":{"type":"Polygon","coordinates":[[[77.338431,28.56243],[77.338551,28.562566],[77.338493,28.562607],[77.33835,28.562446],[77.338408,28.562405],[77.338431,28.56243]]]},"properties":{"objectid":46143,"plotmapid":"37NA075GHS","property_t":"Housing","used":"NA","plotsizesq":0,"plot_size":"NA","plot_no":"075","sector":"37","block":"NA","mplanduse":"B","ppt_type":"GHS","ppt_full":"Group Housing","authority":"NOIDA","category":"group-housing","execution_stage":"unknown"}},{"type":"Feature","geometry":{"type":"Polygon","coordinates":[[[77.338489,28.562389],[77.338609,28.562525],[77.338551,28.562566],[77.338408,28.562405],[77.338467,28.562364],[77.338489,28.562389]]]},"properties":{"objectid":46145,"plotmapid":"37NA076GHS","property_t":"Housing","used":"NA","plotsizesq":0,"plot_size":"NA","plot_no":"076","sector":"37","block":"NA","mplanduse":"B","ppt_type":"GHS","ppt_full":"Group Housing","authority":"NOIDA","category":"group-housing","execution_stage":"unknown"}},{"type":"Feature","geometry":{"type":"Polygon","coordinates":[[[77.338547,28.562348],[77.338667,28.562484],[77.338609,28.562525],[77.338467,28.562364],[77.338525,28.562323],[77.338547,28.562348]]]},"properties":{"objectid":46146,"plotmapid":"37NA077GHS","property_t":"Housing","used":"NA","plotsizesq":0,"plot_size":"NA","plot_no":"077","sector":"37","block":"NA","mplanduse":"B","ppt_type":"GHS","ppt_full":"Group Housing","authority":"NOIDA","category":"group-housing","execution_stage":"unknown"}},{"type":"Feature","geometry":{"type":"Polygon","coordinates":[[[77.338725,28.562444],[77.338667,28.562484],[77.338525,28.562323],[77.33858,28.562284],[77.338725,28.562444]]]},"properties":{"objectid":46148,"plotmapid":"37NA078GHS","property_t":"Housing","used":"NA","plotsizesq":0,"plot_size":"NA","plot_no":"078","sector":"37","block":"NA","mplanduse":"B","ppt_type":"GHS","ppt_full":"Group Housing","authority":"NOIDA","category":"group-housing","execution_stage":"unknown"}},{"type":"Feature","geometry":{"type":"Polygon","coordinates":[[[77.338782,28.562403],[77.338725,28.562444],[77.33858,28.562284],[77.338637,28.562244],[77.338782,28.562403]]]},"properties":{"objectid":46149,"plotmapid":"37NA079GHS","property_t":"Housing","used":"NA","plotsizesq":0,"plot_size":"NA","plot_no":"079","sector":"37","block":"NA","mplanduse":"B","ppt_type":"GHS","ppt_full":"Group Housing","authority":"NOIDA","category":"group-housing","execution_stage":"unknown"}},{"type":"Feature","geometry":{"type":"Polygon","coordinates":[[[77.338848,28.562357],[77.338782,28.562403],[77.338637,28.562244],[77.338703,28.562198],[77.338848,28.562357]]]},"properties":{"objectid":46150,"plotmapid":"37NA080GHS","property_t":"Housing","used":"NA","plotsizesq":0,"plot_size":"NA","plot_no":"080","sector":"37","block":"NA","mplanduse":"B","ppt_type":"GHS","ppt_full":"Group Housing","authority":"NOIDA","category":"group-housing","execution_stage":"unknown"}},{"type":"Feature","geometry":{"type":"Polygon","coordinates":[[[77.338245,28.562925],[77.338254,28.562935],[77.338074,28.563055],[77.338029,28.563002],[77.338209,28.562884],[77.338245,28.562925]]]},"properties":{"objectid":46164,"plotmapid":"37NA042GHS","property_t":"Housing","used":"NA","plotsizesq":0,"plot_size":"NA","plot_no":"042","sector":"37","block":"NA","mplanduse":"B","ppt_type":"GHS","ppt_full":"Group Housing","authority":"NOIDA","category":"group-housing","execution_stage":"unknown"}},{"type":"Feature","geometry":{"type":"Polygon","coordinates":[[[77.338513,28.562747],[77.338331,28.562878],[77.338285,28.562825],[77.338468,28.562694],[77.338513,28.562747]]]},"properties":{"objectid":46167,"plotmapid":"37NA049GHS","property_t":"Housing","used":"NA","plotsizesq":0,"plot_size":"NA","plot_no":"049","sector":"37","block":"NA","mplanduse":"B","ppt_type":"GHS","ppt_full":"Group Housing","authority":"NOIDA","category":"group-housing","execution_stage":"unknown"}},{"type":"Feature","geometry":{"type":"Polygon","coordinates":[[[77.338254,28.562935],[77.33828,28.562966],[77.3381,28.563085],[77.338074,28.563055],[77.338254,28.562935]]]},"properties":{"objectid":46171,"plotmapid":"37NA041GHS","property_t":"Housing","used":"NA","plotsizesq":0,"plot_size":"NA","plot_no":"041","sector":"37","block":"NA","mplanduse":"B","ppt_type":"GHS","ppt_full":"Group Housing","authority":"NOIDA","category":"group-housing","execution_stage":"unknown"}},{"type":"Feature","geometry":{"type":"Polygon","coordinates":[[[77.338559,28.5628],[77.338376,28.562931],[77.338331,28.562878],[77.338513,28.562747],[77.338559,28.5628]]]},"properties":{"objectid":46172,"plotmapid":"37NA048GHS","property_t":"Housing","used":"NA","plotsizesq":0,"plot_size":"NA","plot_no":"048","sector":"37","block":"NA","mplanduse":"B","ppt_type":"GHS","ppt_full":"Group Housing","authority":"NOIDA","category":"group-housing","execution_stage":"unknown"}},{"type":"Feature","geometry":{"type":"Polygon","coordinates":[[[77.338316,28.563008],[77.338135,28.563126],[77.3381,28.563085],[77.33828,28.562966],[77.338316,28.563008]]]},"properties":{"objectid":46180,"plotmapid":"37NA040GHS","property_t":"Housing","used":"NA","plotsizesq":0,"plot_size":"NA","plot_no":"040","sector":"37","block":"NA","mplanduse":"B","ppt_type":"GHS","ppt_full":"Group Housing","authority":"NOIDA","category":"group-housing","execution_stage":"unknown"}},{"type":"Feature","geometry":{"type":"Polygon","coordinates":[[[77.338604,28.562853],[77.338422,28.562984],[77.338376,28.562931],[77.338559,28.5628],[77.338604,28.562853]]]},"properties":{"objectid":46181,"plotmapid":"37NA047GHS","property_t":"Housing","used":"NA","plotsizesq":0,"plot_size":"NA","plot_no":"047","sector":"37","block":"NA","mplanduse":"B","ppt_type":"GHS","ppt_full":"Group Housing","authority":"NOIDA","category":"group-housing","execution_stage":"unknown"}},{"type":"Feature","geometry":{"type":"Polygon","coordinates":[[[77.338855,28.562583],[77.338844,28.562591],[77.338797,28.562539],[77.339012,28.562388],[77.339058,28.562439],[77.338855,28.562583]]]},"properties":{"objectid":46183,"plotmapid":"37NA058GHS","used":"NA","plotsizesq":0,"plot_size":"NA","plot_no":"058","sector":"37","block":"NA","mplanduse":"B","ppt_type":"GHS","ppt_full":"Group Housing","authority":"NOIDA","category":"group-housing","execution_stage":"unknown"}},{"type":"Feature","geometry":{"type":"Polygon","coordinates":[[[77.338342,28.563038],[77.338166,28.563162],[77.338135,28.563126],[77.338316,28.563008],[77.338342,28.563038]]]},"properties":{"objectid":46189,"plotmapid":"37NA039GHS","property_t":"Housing","used":"NA","plotsizesq":0,"plot_size":"NA","plot_no":"039","sector":"37","block":"NA","mplanduse":"B","ppt_type":"GHS","ppt_full":"Group Housing","authority":"NOIDA","category":"group-housing","execution_stage":"unknown"}},{"type":"Feature","geometry":{"type":"Polygon","coordinates":[[[77.33865,28.562906],[77.338468,28.563037],[77.338422,28.562984],[77.338604,28.562853],[77.33865,28.562906]]]},"properties":{"objectid":46192,"plotmapid":"37NA025GHS","property_t":"Housing","used":"NA","plotsizesq":0,"plot_size":"NA","plot_no":"025","sector":"37","block":"NA","mplanduse":"B","ppt_type":"GHS","ppt_full":"Group Housing","authority":"NOIDA","category":"group-housing","execution_stage":"unknown"}},{"type":"Feature","geometry":{"type":"Polygon","coordinates":[[[77.338352,28.563049],[77.338387,28.56309],[77.338207,28.563209],[77.338166,28.563162],[77.338342,28.563038],[77.338352,28.563049]]]},"properties":{"objectid":46199,"plotmapid":"37NA038GHS","property_t":"Housing","used":"NA","plotsizesq":0,"plot_size":"NA","plot_no":"038","sector":"37","block":"NA","mplanduse":"B","ppt_type":"GHS","ppt_full":"Group Housing","authority":"NOIDA","category":"group-housing","execution_stage":"unknown"}},{"type":"Feature","geometry":{"type":"Polygon","coordinates":[[[77.338696,28.562959],[77.338513,28.56309],[77.338468,28.563037],[77.33865,28.562906],[77.338696,28.562959]]]},"properties":{"objectid":46201,"plotmapid":"37NA046GHS","property_t":"Housing","used":"NA","plotsizesq":0,"plot_size":"NA","plot_no":"046","sector":"37","block":"NA","mplanduse":"B","ppt_type":"GHS","ppt_full":"Group Housing","authority":"NOIDA","category":"group-housing","execution_stage":"unknown"}},{"type":"Feature","geometry":{"type":"Polygon","coordinates":[[[77.338965,28.562672],[77.338947,28.562685],[77.338901,28.562634],[77.339122,28.562477],[77.339168,28.562529],[77.338965,28.562672]]]},"properties":{"objectid":46204,"plotmapid":"37NA056GHS","used":"NA","plotsizesq":0,"plot_size":"NA","plot_no":"056","sector":"37","block":"NA","mplanduse":"B","ppt_type":"GHS","ppt_full":"Group Housing","authority":"NOIDA","category":"group-housing","execution_stage":"unknown"}},{"type":"Feature","geometry":{"type":"Polygon","coordinates":[[[77.338423,28.563132],[77.338433,28.563143],[77.338253,28.563263],[77.338207,28.563209],[77.338387,28.56309],[77.338423,28.563132]]]},"properties":{"objectid":46208,"plotmapid":"37NA037GHS","property_t":"Housing","used":"NA","plotsizesq":0,"plot_size":"NA","plot_no":"037","sector":"37","block":"NA","mplanduse":"B","ppt_type":"GHS","ppt_full":"Group Housing","authority":"NOIDA","category":"group-housing","execution_stage":"unknown"}},{"type":"Feature","geometry":{"type":"Polygon","coordinates":[[[77.338741,28.563013],[77.338559,28.563143],[77.338513,28.56309],[77.338696,28.562959],[77.338741,28.563013]]]},"properties":{"objectid":46211,"plotmapid":"37NA045GHS","property_t":"Housing","used":"NA","plotsizesq":0,"plot_size":"NA","plot_no":"045","sector":"37","block":"NA","mplanduse":"B","ppt_type":"GHS","ppt_full":"Group Housing","authority":"NOIDA","category":"group-housing","execution_stage":"unknown"}},{"type":"Feature","geometry":{"type":"Polygon","coordinates":[[[77.339168,28.562529],[77.339215,28.56258],[77.339011,28.562723],[77.338965,28.562672],[77.339168,28.562529]]]},"properties":{"objectid":46214,"plotmapid":"37NA055GHS","property_t":"Housing","used":"NA","plotsizesq":0,"plot_size":"NA","plot_no":"055","sector":"37","block":"NA","mplanduse":"B","ppt_type":"GHS","ppt_full":"Group Housing","authority":"NOIDA","category":"group-housing","execution_stage":"unknown"}},{"type":"Feature","geometry":{"type":"Polygon","coordinates":[[[77.338433,28.563143],[77.338458,28.563173],[77.338278,28.563291],[77.338253,28.563263],[77.338433,28.563143]]]},"properties":{"objectid":46220,"plotmapid":"37NA036GHS","property_t":"Housing","used":"NA","plotsizesq":0,"plot_size":"NA","plot_no":"036","sector":"37","block":"NA","mplanduse":"B","ppt_type":"GHS","ppt_full":"Group Housing","authority":"NOIDA","category":"group-housing","execution_stage":"unknown"}},{"type":"Feature","geometry":{"type":"Polygon","coordinates":[[[77.338787,28.563066],[77.338604,28.563196],[77.338559,28.563143],[77.338741,28.563013],[77.338787,28.563066]]]},"properties":{"objectid":46221,"plotmapid":"37NA044GHS","property_t":"Housing","used":"NA","plotsizesq":0,"plot_size":"NA","plot_no":"044","sector":"37","block":"NA","mplanduse":"B","ppt_type":"GHS","ppt_full":"Group Housing","authority":"NOIDA","category":"group-housing","execution_stage":"unknown"}},{"type":"Feature","geometry":{"type":"Polygon","coordinates":[[[77.339279,28.562618],[77.339058,28.562775],[77.339011,28.562723],[77.339232,28.562567],[77.339279,28.562618]]]},"properties":{"objectid":46223,"plotmapid":"37NA054GHS","property_t":"Housing","used":"NA","plotsizesq":0,"plot_size":"NA","plot_no":"054","sector":"37","block":"NA","mplanduse":"B","ppt_type":"GHS","ppt_full":"Group Housing","authority":"NOIDA","category":"group-housing","execution_stage":"unknown"}},{"type":"Feature","geometry":{"type":"Polygon","coordinates":[[[77.338019,28.563681],[77.337847,28.563804],[77.337801,28.563754],[77.337973,28.563631],[77.338019,28.563681]]]},"properties":{"objectid":46225,"plotmapid":"37NA027GHS","property_t":"Housing","used":"NA","plotsizesq":0,"plot_size":"NA","plot_no":"027","sector":"37","block":"NA","mplanduse":"B","ppt_type":"GHS","ppt_full":"Group Housing","authority":"NOIDA","category":"group-housing","execution_stage":"unknown"}},{"type":"Feature","geometry":{"type":"Polygon","coordinates":[[[77.338488,28.563208],[77.338308,28.563326],[77.338278,28.563291],[77.338458,28.563173],[77.338488,28.563208]]]},"properties":{"objectid":46228,"plotmapid":"37NA035GHS","property_t":"Housing","used":"NA","plotsizesq":0,"plot_size":"NA","plot_no":"035","sector":"37","block":"NA","mplanduse":"B","ppt_type":"GHS","ppt_full":"Group Housing","authority":"NOIDA","category":"group-housing","execution_stage":"unknown"}},{"type":"Feature","geometry":{"type":"Polygon","coordinates":[[[77.338825,28.56311],[77.338643,28.563241],[77.338604,28.563196],[77.338787,28.563066],[77.338825,28.56311]]]},"properties":{"objectid":46230,"plotmapid":"37NA043GHS","property_t":"Housing","used":"NA","plotsizesq":0,"plot_size":"NA","plot_no":"043","sector":"37","block":"NA","mplanduse":"B","ppt_type":"GHS","ppt_full":"Group Housing","authority":"NOIDA","category":"group-housing","execution_stage":"unknown"}},{"type":"Feature","geometry":{"type":"Polygon","coordinates":[[[77.339279,28.562618],[77.339325,28.562669],[77.339122,28.562813],[77.339075,28.562762],[77.339279,28.562618]]]},"properties":{"objectid":46234,"plotmapid":"37NA053GHS","property_t":"Housing","used":"NA","plotsizesq":0,"plot_size":"NA","plot_no":"053","sector":"37","block":"NA","mplanduse":"B","ppt_type":"GHS","ppt_full":"Group Housing","authority":"NOIDA","category":"group-housing","execution_stage":"unknown"}},{"type":"Feature","geometry":{"type":"Polygon","coordinates":[[[77.338065,28.563731],[77.337894,28.563854],[77.337847,28.563804],[77.338019,28.563681],[77.338065,28.563731]]]},"properties":{"objectid":46235,"plotmapid":"37NA026GHS","property_t":"Housing","used":"NA","plotsizesq":0,"plot_size":"NA","plot_no":"026","sector":"37","block":"NA","mplanduse":"B","ppt_type":"GHS","ppt_full":"Group Housing","authority":"NOIDA","category":"group-housing","execution_stage":"unknown"}},{"type":"Feature","geometry":{"type":"Polygon","coordinates":[[[77.339389,28.562708],[77.339168,28.562864],[77.339122,28.562813],[77.339343,28.562657],[77.339389,28.562708]]]},"properties":{"objectid":46241,"plotmapid":"37NA052GHS","used":"NA","plotsizesq":0,"plot_size":"NA","plot_no":"052","sector":"37","block":"NA","mplanduse":"B","ppt_type":"GHS","ppt_full":"Group Housing","authority":"NOIDA","category":"group-housing","execution_stage":"unknown"}},{"type":"Feature","geometry":{"type":"Polygon","coordinates":[[[77.338116,28.563786],[77.337944,28.563909],[77.337894,28.563854],[77.338065,28.563731],[77.338116,28.563786]]]},"properties":{"objectid":46242,"plotmapid":"37NA025GHS","property_t":"Housing","used":"NA","plotsizesq":0,"plot_size":"NA","plot_no":"025","sector":"37","block":"NA","mplanduse":"B","ppt_type":"GHS","ppt_full":"Group Housing","authority":"NOIDA","category":"group-housing","execution_stage":"unknown"}},{"type":"Feature","geometry":{"type":"Polygon","coordinates":[[[77.339389,28.562708],[77.339435,28.562759],[77.339232,28.562903],[77.339186,28.562852],[77.339389,28.562708]]]},"properties":{"objectid":46243,"plotmapid":"37NA051GHS","property_t":"Housing","used":"NA","plotsizesq":0,"plot_size":"NA","plot_no":"051","sector":"37","block":"NA","mplanduse":"B","ppt_type":"GHS","ppt_full":"Group Housing","authority":"NOIDA","category":"group-housing","execution_stage":"unknown"}},{"type":"Feature","geometry":{"type":"Polygon","coordinates":[[[77.3377,28.565172],[77.337757,28.565113],[77.337839,28.565176],[77.337931,28.565081],[77.337849,28.565019],[77.337906,28.56496],[77.337937,28.564984],[77.337973,28.564948],[77.338047,28.565004],[77.338029,28.565022],[77.338084,28.565063],[77.338101,28.565045],[77.338176,28.565102],[77.33814,28.565138],[77.338171,28.565162],[77.338115,28.56522],[77.338033,28.565158],[77.33794,28.565253],[77.338022,28.565315],[77.337966,28.565373],[77.337934,28.565349],[77.337899,28.565386],[77.337825,28.56533],[77.337843,28.565311],[77.337788,28.56527],[77.33777,28.565288],[77.337696,28.565232],[77.337731,28.565196],[77.3377,28.565172]]]},"properties":{"objectid":46268,"plotmapid":"37NA010GHS","property_t":"Housing","used":"NA","plotsizesq":0,"plot_size":"NA","plot_no":"010","sector":"37","block":"NA","mplanduse":"B","ppt_type":"GHS","ppt_full":"Group Housing","authority":"NOIDA","category":"group-housing","execution_stage":"unknown"}},{"type":"Feature","geometry":{"type":"Polygon","coordinates":[[[77.338351,28.564499],[77.338383,28.564523],[77.338419,28.564486],[77.338495,28.564542],[77.338477,28.56456],[77.338533,28.564601],[77.33855,28.564583],[77.338626,28.564639],[77.33859,28.564675],[77.338622,28.564698],[77.338565,28.564757],[77.338481,28.564695],[77.338388,28.56479],[77.338472,28.564852],[77.338415,28.56491],[77.338383,28.564887],[77.338347,28.564923],[77.338271,28.564867],[77.338289,28.564849],[77.338233,28.564808],[77.338216,28.564826],[77.33814,28.564771],[77.338176,28.564734],[77.338144,28.564711],[77.338201,28.564652],[77.338285,28.564714],[77.338378,28.564619],[77.338294,28.564557],[77.338351,28.564499]]]},"properties":{"objectid":46269,"plotmapid":"37NA006GHS","property_t":"Housing","used":"NA","plotsizesq":0,"plot_size":"NA","plot_no":"006","sector":"37","block":"NA","mplanduse":"B","ppt_type":"GHS","ppt_full":"Group Housing","authority":"NOIDA","category":"group-housing","execution_stage":"unknown"}},{"type":"Feature","geometry":{"type":"Polygon","coordinates":[[[77.339111,28.562485],[77.338901,28.562634],[77.338855,28.562583],[77.339065,28.562434],[77.339111,28.562485]]]},"properties":{"objectid":46407,"plotmapid":"37NA057GHS","property_t":"Housing","used":"NA","plotsizesq":0,"plot_size":"NA","plot_no":"057","sector":"37","block":"NA","mplanduse":"B","ppt_type":"GHS","ppt_full":"Group Housing","authority":"NOIDA","category":"group-housing","execution_stage":"unknown"}},{"type":"Feature","geometry":{"type":"Polygon","coordinates":[[[77.342437,28.565299],[77.34239,28.565264],[77.342403,28.565249],[77.342418,28.56526],[77.342436,28.565218],[77.342412,28.5652],[77.342432,28.565178],[77.342397,28.565152],[77.342437,28.565107],[77.342473,28.565133],[77.342493,28.565111],[77.342517,28.565129],[77.342533,28.56511],[77.342545,28.565119],[77.342558,28.565079],[77.342605,28.565114],[77.342592,28.565128],[77.342605,28.565162],[77.342588,28.565181],[77.342612,28.565198],[77.342591,28.565221],[77.342627,28.565247],[77.342587,28.565291],[77.342551,28.565265],[77.342531,28.565288],[77.342507,28.56527],[77.34249,28.565289],[77.342451,28.565284],[77.342437,28.565299]]]},"properties":{"objectid":46409,"plotmapid":"37NA002GHS","property_t":"Housing","used":"NA","plotsizesq":0,"plot_size":"NA","plot_no":"002","sector":"37","block":"NA","mplanduse":"ISSUE","ppt_type":"GHS","ppt_full":"Group Housing","authority":"NOIDA","category":"group-housing","execution_stage":"unknown"}},{"type":"Feature","geometry":{"type":"Polygon","coordinates":[[[77.3418,28.565629],[77.341205,28.565169],[77.341652,28.564727],[77.342247,28.565186],[77.3418,28.565629]],[[77.341438,28.565151],[77.341767,28.565406],[77.341989,28.565185],[77.34166,28.564931],[77.341438,28.565151]]]},"properties":{"objectid":47133,"plotmapid":"37NAGHS","property_t":"Housing","used":"NA","plotsizesq":0,"plot_size":"NA","sector":"37","block":"NA","mplanduse":"ISSUE","ppt_type":"GHS","ppt_full":"Group Housing","authority":"NOIDA","category":"group-housing","execution_stage":"unknown"}}]}
