{"type":"FeatureCollection","features":[{"type":"Feature","geometry":{"type":"Polygon","coordinates":[[[77.509431,28.56787],[77.510327,28.568443],[77.509383,28.569569],[77.506179,28.567669],[77.508361,28.565065],[77.511485,28.567063],[77.510767,28.567918],[77.509871,28.567345],[77.509431,28.56787]]]},"properties":{"objectid":71847,"plotmapid":"ECOTECH-XVINULL1 & 2IND","plotsizesq":101171,"plot_size":"101171","plot_no":"1 & 2","sector":"ECOTECH-XVI","block":"NULL","ppt_type":"IND","ppt_full":"Industry","authority":"GNIDA","category":"industrial","execution_stage":"unknown"}},{"type":"Feature","geometry":{"type":"Polygon","coordinates":[[[77.511669,28.563403],[77.510547,28.56475],[77.509921,28.56435],[77.511032,28.563024],[77.511669,28.563403]]]},"properties":{"objectid":71849,"plotmapid":"ECOTECH-XVINULL5IND","plotsizesq":20234.3,"plot_size":"20234.3","plot_no":"5","sector":"ECOTECH-XVI","block":"NULL","ppt_type":"IND","ppt_full":"Industry","authority":"GNIDA","category":"industrial","execution_stage":"unknown"}},{"type":"Feature","geometry":{"type":"Polygon","coordinates":[[[77.511163,28.565144],[77.510223,28.566256],[77.508361,28.565065],[77.509295,28.56395],[77.511163,28.565144]]]},"properties":{"objectid":71850,"plotmapid":"ECOTECH-XVINULL3IND","plotsizesq":44515.4,"plot_size":"44515.4","plot_no":"3","sector":"ECOTECH-XVI","block":"NULL","ppt_type":"IND","ppt_full":"Industry","authority":"GNIDA","category":"industrial","execution_stage":"unknown"}},{"type":"Feature","geometry":{"type":"Polygon","coordinates":[[[77.513593,28.564549],[77.513111,28.565124],[77.511857,28.564322],[77.51231,28.563785],[77.513593,28.564549]]]},"properties":{"objectid":71851,"plotmapid":"ECOTECH-XVINULL7IND","plotsizesq":20234.3,"plot_size":"20234.3","plot_no":"7","sector":"ECOTECH-XVI","block":"NULL","ppt_type":"IND","ppt_full":"Industry","authority":"GNIDA","category":"industrial","execution_stage":"unknown"}},{"type":"Feature","geometry":{"type":"Polygon","coordinates":[[[77.511032,28.563024],[77.509921,28.56435],[77.509295,28.56395],[77.510391,28.562643],[77.511032,28.563024]]]},"properties":{"objectid":71852,"plotmapid":"ECOTECH-XVINULL4IND","plotsizesq":20234.3,"plot_size":"20234.3","plot_no":"4","sector":"ECOTECH-XVI","block":"NULL","ppt_type":"IND","ppt_full":"Industry","authority":"GNIDA","category":"industrial","execution_stage":"unknown"}},{"type":"Feature","geometry":{"type":"Polygon","coordinates":[[[77.51231,28.563785],[77.511163,28.565144],[77.510547,28.56475],[77.511669,28.563403],[77.51231,28.563785]]]},"properties":{"objectid":71854,"plotmapid":"ECOTECH-XVINULL6IND","plotsizesq":20234.3,"plot_size":"20234.3","plot_no":"6","sector":"ECOTECH-XVI","block":"NULL","ppt_type":"IND","ppt_full":"Industry","authority":"GNIDA","category":"industrial","execution_stage":"unknown"}},{"type":"Feature","geometry":{"type":"Polygon","coordinates":[[[77.513111,28.565124],[77.512548,28.565795],[77.511291,28.564991],[77.511857,28.564322],[77.513111,28.565124]]]},"properties":{"objectid":71855,"plotmapid":"ECOTECH-XVINULL8IND","plotsizesq":20234.3,"plot_size":"20234.3","plot_no":"8","sector":"ECOTECH-XVI","block":"NULL","ppt_type":"IND","ppt_full":"Industry","authority":"GNIDA","category":"industrial","execution_stage":"unknown"}},{"type":"Feature","geometry":{"type":"Polygon","coordinates":[[[77.512548,28.565795],[77.511967,28.566487],[77.510708,28.565682],[77.511291,28.564991],[77.512548,28.565795]]]},"properties":{"objectid":71856,"plotmapid":"ECOTECH-XVINULL9IND","plotsizesq":20234.3,"plot_size":"20234.3","plot_no":"9","sector":"ECOTECH-XVI","block":"NULL","ppt_type":"IND","ppt_full":"Industry","authority":"GNIDA","category":"industrial","execution_stage":"unknown"}}]}
