{"type":"FeatureCollection","features":[{"type":"Feature","geometry":{"type":"Polygon","coordinates":[[[77.467475,28.612864],[77.466798,28.613742],[77.466487,28.613423],[77.465324,28.612686],[77.465846,28.611816],[77.467475,28.612864]]]},"properties":{"objectid":308,"plotmapid":"SECTOR-16NULL1AIND","allot_id":"IND02-13/00005","property_t":"Industry","allotted_p":"Yes","plotsizesq":20000,"plot_size":"20210","plot_no":"1A","sector":"SECTOR-16","block":"NULL","phase":"Phase 1","scheme_cod":"IND02-13/00005","ppt_type":"IND","ppt_full":"Industry","remark":"EditingMatched","authority":"GNIDA","category":"industrial","execution_stage":"allotted"}},{"type":"Feature","geometry":{"type":"Polygon","coordinates":[[[77.465892,28.617487],[77.465236,28.61806],[77.463209,28.61607],[77.464217,28.614458],[77.466557,28.615526],[77.464919,28.616532],[77.465892,28.617487]]]},"properties":{"objectid":309,"plotmapid":"SECTOR-16NULL2IND","allot_id":"IND02479","property_t":"Industry","used":"PLOT NO - 2-Supertech Precast","allotted_p":"Yes","plotsizesq":60000,"plot_size":"58271","plot_no":"2","sector":"SECTOR-16","block":"NULL","phase":"Phase 1","scheme_cod":"IND02479","ppt_type":"IND","ppt_full":"Industry","remark":"EditingMatched","authority":"GNIDA","category":"industrial","execution_stage":"allotted"}},{"type":"Feature","geometry":{"type":"Polygon","coordinates":[[[77.465696,28.613919],[77.465503,28.614204],[77.46464,28.613786],[77.464832,28.613482],[77.465696,28.613919]]]},"properties":{"objectid":310,"plotmapid":"SECTOR-16NULL1C/3IND","allot_id":"ONLIND2016-0200059","property_t":"Industry","allotted_p":"Yes","plotsizesq":3705,"plot_size":"3706","plot_no":"1C/3","sector":"SECTOR-16","block":"NULL","phase":"Phase 1","scheme_cod":"ONLIND2016-0200059","mplanduse":"V","ppt_type":"IND","ppt_full":"Industry","remark":"EditingMatched","authority":"GNIDA","category":"industrial","execution_stage":"allotted"}},{"type":"Feature","geometry":{"type":"Polygon","coordinates":[[[77.465946,28.613495],[77.465696,28.613919],[77.464832,28.613482],[77.465076,28.613076],[77.465946,28.613495]]]},"properties":{"objectid":311,"plotmapid":"SECTOR-16NULL1C/2IND","allot_id":"ONLIND2016-0200008","property_t":"Industry","allotted_p":"Yes","plotsizesq":5000,"plot_size":"5000","plot_no":"1C/2","sector":"SECTOR-16","block":"NULL","phase":"Phase 1","scheme_cod":"ONLIND2016-0200008","ppt_type":"IND","ppt_full":"Industry","remark":"EditingMatched","authority":"GNIDA","category":"industrial","execution_stage":"allotted"}},{"type":"Feature","geometry":{"type":"Polygon","coordinates":[[[77.46619,28.613228],[77.465946,28.613495],[77.465076,28.613076],[77.465324,28.612686],[77.46619,28.613228]]]},"properties":{"objectid":312,"plotmapid":"SECTOR-16NULLIC/1IND","plotsizesq":0,"plot_size":"4268","plot_no":"IC/1","sector":"SECTOR-16","block":"NULL","phase":"Phase 1","mplanduse":"V","ppt_type":"IND","ppt_full":"Industry","remark":"EditingEditing","authority":"GNIDA","category":"industrial","execution_stage":"unknown"}},{"type":"Feature","geometry":{"type":"Polygon","coordinates":[[[77.466702,28.618317],[77.466789,28.618412],[77.466201,28.618948],[77.465959,28.618803],[77.465353,28.618195],[77.466022,28.61762],[77.466702,28.618317]]]},"properties":{"objectid":317,"plotmapid":"SECTOR-16NULL3IND","allot_id":"IND02473","property_t":"Industry","allotted_p":"Yes","plotsizesq":10000,"plot_size":"10028","plot_no":"3","sector":"SECTOR-16","block":"NULL","phase":"Phase 1","scheme_cod":"IND02473","mplanduse":"V","ppt_type":"IND","ppt_full":"Industry","remark":"EditingMatched","authority":"GNIDA","category":"industrial","execution_stage":"allotted"}},{"type":"Feature","geometry":{"type":"Polygon","coordinates":[[[77.467829,28.618455],[77.466666,28.619189],[77.466201,28.618948],[77.466789,28.618412],[77.466704,28.618315],[77.46718,28.617931],[77.467829,28.618455]]]},"properties":{"objectid":318,"plotmapid":"SECTOR-16NULL4IND","allot_id":"IND02476","property_t":"Industry","allotted_p":"Yes","plotsizesq":10000,"plot_size":"10076","plot_no":"4","sector":"SECTOR-16","block":"NULL","phase":"Phase 1","scheme_cod":"IND02476","ppt_type":"IND","ppt_full":"Industry","remark":"EditingMatched","authority":"GNIDA","category":"industrial","execution_stage":"allotted"}},{"type":"Feature","geometry":{"type":"Polygon","coordinates":[[[77.455896,28.599949],[77.455582,28.600395],[77.455237,28.6002],[77.455634,28.599797],[77.455896,28.599949]]]},"properties":{"objectid":350,"plotmapid":"ECOTECH-XIINULL92IND","allot_id":"IND02404","property_t":"Industry","allotted_p":"Yes","plotsizesq":2070,"plot_size":"2070","plot_no":"92","sector":"ECOTECH-XII","block":"NULL","phase":"Phase 1","scheme_cod":"IND02404","ppt_type":"IND","ppt_full":"Industry","remark":"Matched","authority":"GNIDA","category":"industrial","execution_stage":"allotted"}},{"type":"Feature","geometry":{"type":"Polygon","coordinates":[[[77.457212,28.601568],[77.457631,28.601806],[77.457302,28.602257],[77.456884,28.602016],[77.457212,28.601568]]]},"properties":{"objectid":387,"plotmapid":"ECOTECH-XIINULL100IND","allot_id":"IND02415","property_t":"Industry","allotted_p":"Yes","plotsizesq":3000,"plot_size":"3000","plot_no":"100","sector":"ECOTECH-XII","block":"NULL","phase":"Phase 1","scheme_cod":"IND02415","ppt_type":"IND","ppt_full":"Industry","remark":"Matched","authority":"GNIDA","category":"industrial","execution_stage":"allotted"}},{"type":"Feature","geometry":{"type":"Polygon","coordinates":[[[77.46144,28.599927],[77.461107,28.600036],[77.460522,28.599709],[77.460678,28.599489],[77.46144,28.599927]]]},"properties":{"objectid":400,"plotmapid":"ECOTECH-XIINULL75IND","allot_id":"IND02470","property_t":"Industry","allotted_p":"Yes","plotsizesq":2100,"plot_size":"2100","plot_no":"75","sector":"ECOTECH-XII","block":"NULL","phase":"Phase 1","scheme_cod":"IND02470","ppt_type":"IND","ppt_full":"Industry","remark":"Matched","authority":"GNIDA","category":"industrial","execution_stage":"allotted"}},{"type":"Feature","geometry":{"type":"Polygon","coordinates":[[[77.45495,28.600889],[77.455212,28.601047],[77.454884,28.601488],[77.454616,28.601323],[77.45495,28.600889]]]},"properties":{"objectid":401,"plotmapid":"ECOTECH-XIINULL108AIND","allot_id":"IND02461","property_t":"Industry","allotted_p":"Yes","plotsizesq":2036,"plot_size":"2036","plot_no":"108A","sector":"ECOTECH-XII","block":"NULL","phase":"Phase 1","scheme_cod":"IND02461","ppt_type":"IND","ppt_full":"Industry","remark":"Matched","authority":"GNIDA","category":"industrial","execution_stage":"allotted"}},{"type":"Feature","geometry":{"type":"Polygon","coordinates":[[[77.454251,28.601927],[77.453984,28.602286],[77.45338,28.601931],[77.453728,28.601609],[77.454251,28.601927]]]},"properties":{"objectid":402,"plotmapid":"ECOTECH-XIINULL109AIND","allot_id":"IND02463","property_t":"Industry","allotted_p":"Yes","plotsizesq":2169,"plot_size":"2169","plot_no":"109A","sector":"ECOTECH-XII","block":"NULL","phase":"Phase 1","scheme_cod":"IND02463","ppt_type":"IND","ppt_full":"Industry","remark":"Matched","authority":"GNIDA","category":"industrial","execution_stage":"allotted"}},{"type":"Feature","geometry":{"type":"Polygon","coordinates":[[[77.46102,28.599005],[77.460522,28.599709],[77.459957,28.599381],[77.460451,28.598686],[77.46102,28.599005]]]},"properties":{"objectid":403,"plotmapid":"ECOTECH-XIINULL75AIND","allot_id":"IND02455","property_t":"Industry","allotted_p":"Yes","plotsizesq":6000,"plot_size":"6000","plot_no":"75A","sector":"ECOTECH-XII","block":"NULL","phase":"Phase 1","scheme_cod":"IND02455","ppt_type":"IND","ppt_full":"Industry","remark":"Matched","authority":"GNIDA","category":"industrial","execution_stage":"allotted"}},{"type":"Feature","geometry":{"type":"Polygon","coordinates":[[[77.460962,28.593996],[77.460694,28.59437],[77.460177,28.594085],[77.460405,28.593715],[77.460435,28.593695],[77.460962,28.593996]]]},"properties":{"objectid":404,"plotmapid":"ECOTECH-XIINULL1IND","allot_id":"IND02453","property_t":"Industry","allotted_p":"Yes","plotsizesq":3000,"plot_size":"3000","plot_no":"1","sector":"ECOTECH-XII","block":"NULL","phase":"Phase 1","scheme_cod":"IND02453","ppt_type":"IND","ppt_full":"Industry","remark":"Matched","authority":"GNIDA","category":"industrial","execution_stage":"allotted"}},{"type":"Feature","geometry":{"type":"Polygon","coordinates":[[[77.45495,28.600889],[77.454616,28.601323],[77.454265,28.601114],[77.454682,28.600725],[77.45495,28.600889]]]},"properties":{"objectid":405,"plotmapid":"ECOTECH-XIINULL108IND","allot_id":"IND02468","property_t":"Industry","allotted_p":"Yes","plotsizesq":1907,"plot_size":"1907","plot_no":"108","sector":"ECOTECH-XII","block":"NULL","phase":"Phase 1","scheme_cod":"IND02468","ppt_type":"IND","ppt_full":"Industry","remark":"Matched","authority":"GNIDA","category":"industrial","execution_stage":"allotted"}},{"type":"Feature","geometry":{"type":"Polygon","coordinates":[[[77.45454,28.601538],[77.454251,28.601927],[77.453728,28.601609],[77.454096,28.601272],[77.45454,28.601538]]]},"properties":{"objectid":406,"plotmapid":"ECOTECH-XIINULL109IND","allot_id":"IND02464","property_t":"Industry","allotted_p":"Yes","plotsizesq":4000,"plot_size":"4000","plot_no":"109","sector":"ECOTECH-XII","block":"NULL","phase":"Phase 1","scheme_cod":"IND02464","ppt_type":"IND","ppt_full":"Industry","remark":"Matched","authority":"GNIDA","category":"industrial","execution_stage":"allotted"}},{"type":"Feature","geometry":{"type":"Polygon","coordinates":[[[77.456334,28.602591],[77.456853,28.602884],[77.45629,28.603625],[77.455775,28.603332],[77.456334,28.602591]]]},"properties":{"objectid":407,"plotmapid":"ECOTECH-XIINULL114IND","allot_id":"IND02360","property_t":"Industry","allotted_p":"Yes","plotsizesq":6000,"plot_size":"6000","plot_no":"114","sector":"ECOTECH-XII","block":"NULL","phase":"Phase 1","scheme_cod":"IND02360","ppt_type":"IND","ppt_full":"Industry","remark":"Matched","authority":"GNIDA","category":"industrial","execution_stage":"allotted"}},{"type":"Feature","geometry":{"type":"Polygon","coordinates":[[[77.458738,28.600879],[77.458457,28.601038],[77.458197,28.601221],[77.457795,28.601004],[77.458144,28.600549],[77.458738,28.600879]]]},"properties":{"objectid":408,"plotmapid":"ECOTECH-XIINULL84IND","allot_id":"IND02457","property_t":"Industry","allotted_p":"Yes","plotsizesq":3374.37,"plot_size":"3374.37","plot_no":"84","sector":"ECOTECH-XII","block":"NULL","phase":"Phase 1","scheme_cod":"IND02457","ppt_type":"IND","ppt_full":"Industry","remark":"Matched","authority":"GNIDA","category":"industrial","execution_stage":"allotted"}},{"type":"Feature","geometry":{"type":"Polygon","coordinates":[[[77.456334,28.602591],[77.455775,28.603332],[77.455305,28.60306],[77.455861,28.602319],[77.456334,28.602591]]]},"properties":{"objectid":409,"plotmapid":"ECOTECH-XIINULL113IND","allot_id":"IND02369","property_t":"Industry","allotted_p":"Yes","plotsizesq":5504,"plot_size":"5504","plot_no":"113","sector":"ECOTECH-XII","block":"NULL","phase":"Phase 1","scheme_cod":"IND02369","ppt_type":"IND","ppt_full":"Industry","remark":"Matched","authority":"GNIDA","category":"industrial","execution_stage":"allotted"}},{"type":"Feature","geometry":{"type":"Polygon","coordinates":[[[77.455861,28.602319],[77.455305,28.60306],[77.454878,28.602811],[77.455433,28.602069],[77.455861,28.602319]]]},"properties":{"objectid":410,"plotmapid":"ECOTECH-XIINULL112IND","allot_id":"IND02477","property_t":"Industry","allotted_p":"Yes","plotsizesq":5000,"plot_size":"5000","plot_no":"112","sector":"ECOTECH-XII","block":"NULL","phase":"Phase 1","scheme_cod":"IND02477","ppt_type":"IND","ppt_full":"Industry","remark":"Matched","authority":"GNIDA","category":"industrial","execution_stage":"allotted"}},{"type":"Feature","geometry":{"type":"Polygon","coordinates":[[[77.455433,28.602069],[77.454878,28.602811],[77.454452,28.602561],[77.455007,28.601817],[77.455433,28.602069]]]},"properties":{"objectid":411,"plotmapid":"ECOTECH-XIINULL111IND","allot_id":"IND02430","property_t":"Industry","allotted_p":"Yes","plotsizesq":5000,"plot_size":"5000","plot_no":"111","sector":"ECOTECH-XII","block":"NULL","phase":"Phase 1","scheme_cod":"IND02430","ppt_type":"IND","ppt_full":"Industry","remark":"Matched","authority":"GNIDA","category":"industrial","execution_stage":"allotted"}},{"type":"Feature","geometry":{"type":"Polygon","coordinates":[[[77.455007,28.601817],[77.454452,28.602561],[77.453984,28.602286],[77.45454,28.601538],[77.455007,28.601817]]]},"properties":{"objectid":412,"plotmapid":"ECOTECH-XIINULL110IND","allot_id":"IND02359","property_t":"Industry","allotted_p":"Yes","plotsizesq":5500,"plot_size":"5500","plot_no":"110","sector":"ECOTECH-XII","block":"NULL","phase":"Phase 1","scheme_cod":"IND02359","ppt_type":"IND","ppt_full":"Industry","remark":"Matched","authority":"GNIDA","category":"industrial","execution_stage":"allotted"}},{"type":"Feature","geometry":{"type":"Polygon","coordinates":[[[77.455809,28.601401],[77.45548,28.601842],[77.455182,28.601665],[77.45551,28.601225],[77.455809,28.601401]]]},"properties":{"objectid":413,"plotmapid":"ECOTECH-XIINULL106IND","allot_id":"IND01928","property_t":"Industry","allotted_p":"Yes","plotsizesq":2000,"plot_size":"2000","plot_no":"106","sector":"ECOTECH-XII","block":"NULL","phase":"Phase 1","scheme_cod":"IND01928","ppt_type":"IND","ppt_full":"Industry","remark":"Matched","authority":"GNIDA","category":"industrial","execution_stage":"allotted"}},{"type":"Feature","geometry":{"type":"Polygon","coordinates":[[[77.456109,28.601576],[77.45578,28.602017],[77.45548,28.601842],[77.455809,28.601401],[77.456109,28.601576]]]},"properties":{"objectid":415,"plotmapid":"ECOTECH-XIINULL105IND","allot_id":"IND02440","property_t":"Industry","allotted_p":"Yes","plotsizesq":2100,"plot_size":"2100","plot_no":"105","sector":"ECOTECH-XII","block":"NULL","phase":"Phase 1","scheme_cod":"IND02440","ppt_type":"IND","ppt_full":"Industry","remark":"Matched","authority":"GNIDA","category":"industrial","execution_stage":"allotted"}},{"type":"Feature","geometry":{"type":"Polygon","coordinates":[[[77.456411,28.601748],[77.45608,28.602191],[77.45578,28.602017],[77.456109,28.601576],[77.456411,28.601748]]]},"properties":{"objectid":416,"plotmapid":"ECOTECH-XIINULL104IND","allot_id":"IND02446","property_t":"Industry","allotted_p":"Yes","plotsizesq":2100,"plot_size":"2100","plot_no":"104","sector":"ECOTECH-XII","block":"NULL","phase":"Phase 1","scheme_cod":"IND02446","ppt_type":"IND","ppt_full":"Industry","remark":"Matched","authority":"GNIDA","category":"industrial","execution_stage":"allotted"}},{"type":"Feature","geometry":{"type":"Polygon","coordinates":[[[77.456713,28.601919],[77.456381,28.602364],[77.45608,28.602191],[77.456411,28.601748],[77.456713,28.601919]]]},"properties":{"objectid":417,"plotmapid":"ECOTECH-XIINULL103IND","allot_id":"IND02445","property_t":"Industry","allotted_p":"Yes","plotsizesq":2100,"plot_size":"2100","plot_no":"103","sector":"ECOTECH-XII","block":"NULL","phase":"Phase 1","scheme_cod":"IND02445","ppt_type":"IND","ppt_full":"Industry","remark":"Matched","authority":"GNIDA","category":"industrial","execution_stage":"allotted"}},{"type":"Feature","geometry":{"type":"Polygon","coordinates":[[[77.457011,28.602089],[77.456684,28.602536],[77.456381,28.602364],[77.456713,28.601919],[77.457011,28.602089]]]},"properties":{"objectid":418,"plotmapid":"ECOTECH-XIINULL102IND","allot_id":"IND02391","property_t":"Industry","allotted_p":"Yes","plotsizesq":2100,"plot_size":"2100","plot_no":"102","sector":"ECOTECH-XII","block":"NULL","phase":"Phase 1","scheme_cod":"IND02391","ppt_type":"IND","ppt_full":"Industry","remark":"Matched","authority":"GNIDA","category":"industrial","execution_stage":"allotted"}},{"type":"Feature","geometry":{"type":"Polygon","coordinates":[[[77.463238,28.597238],[77.462621,28.598109],[77.461689,28.597584],[77.46233,28.596729],[77.463238,28.597238]]]},"properties":{"objectid":419,"plotmapid":"ECOTECH-XIINULL34IND","allot_id":"IND02429","property_t":"Industry","allotted_p":"Yes","plotsizesq":12000,"plot_size":"12000","plot_no":"34","sector":"ECOTECH-XII","block":"NULL","phase":"Phase 1","scheme_cod":"IND02429","ppt_type":"IND","ppt_full":"Industry","remark":"Matched","authority":"GNIDA","category":"industrial","execution_stage":"allotted"}},{"type":"Feature","geometry":{"type":"Polygon","coordinates":[[[77.464717,28.597061],[77.464183,28.597763],[77.46233,28.596729],[77.462838,28.59602],[77.464717,28.597061]]]},"properties":{"objectid":420,"plotmapid":"ECOTECH-XIINULL32IND","allot_id":"IND02471","property_t":"Industry","allotted_p":"Yes","plotsizesq":20000,"plot_size":"20000","plot_no":"32","sector":"ECOTECH-XII","block":"NULL","phase":"Phase 1","scheme_cod":"IND02471","ppt_type":"IND","ppt_full":"Industry","remark":"Matched","authority":"GNIDA","category":"industrial","execution_stage":"allotted"}},{"type":"Feature","geometry":{"type":"Polygon","coordinates":[[[77.464183,28.597763],[77.463572,28.598603],[77.463547,28.598618],[77.463518,28.598614],[77.462621,28.598109],[77.463238,28.597238],[77.464183,28.597763]]]},"properties":{"objectid":421,"plotmapid":"ECOTECH-XIINULL33IND","allot_id":"IND02412","property_t":"Industry","allotted_p":"Yes","plotsizesq":12379,"plot_size":"12379","plot_no":"33","sector":"ECOTECH-XII","block":"NULL","phase":"Phase 1","scheme_cod":"IND02412","ppt_type":"IND","ppt_full":"Industry","remark":"Matched","authority":"GNIDA","category":"industrial","execution_stage":"allotted"}},{"type":"Feature","geometry":{"type":"Polygon","coordinates":[[[77.463358,28.595315],[77.465232,28.596352],[77.465232,28.59639],[77.464717,28.597061],[77.462838,28.59602],[77.463358,28.595315]]]},"properties":{"objectid":422,"plotmapid":"ECOTECH-XIINULL31IND","allot_id":"IND02352","property_t":"Industry","allotted_p":"Yes","plotsizesq":20000,"plot_size":"20000","plot_no":"31","sector":"ECOTECH-XII","block":"NULL","phase":"Phase 1","scheme_cod":"IND02352","ppt_type":"IND","ppt_full":"Industry","remark":"Matched","authority":"GNIDA","category":"industrial","execution_stage":"allotted"}},{"type":"Feature","geometry":{"type":"Polygon","coordinates":[[[77.459701,28.595923],[77.459424,28.596325],[77.458903,28.596029],[77.458886,28.596002],[77.459162,28.595609],[77.459701,28.595923]]]},"properties":{"objectid":423,"plotmapid":"ECOTECH-XIINULL30IND","allot_id":"IND02443","property_t":"Industry","allotted_p":"Yes","plotsizesq":3351,"plot_size":"3351","plot_no":"30","sector":"ECOTECH-XII","block":"NULL","phase":"Phase 1","scheme_cod":"IND02443","ppt_type":"IND","ppt_full":"Industry","remark":"Matched","authority":"GNIDA","category":"industrial","execution_stage":"allotted"}},{"type":"Feature","geometry":{"type":"Polygon","coordinates":[[[77.459975,28.595528],[77.459701,28.595923],[77.459162,28.595609],[77.459443,28.595201],[77.459975,28.595528]]]},"properties":{"objectid":425,"plotmapid":"ECOTECH-XIINULL17IND","allot_id":"IND02355","property_t":"Industry","allotted_p":"Yes","plotsizesq":3368,"plot_size":"3368","plot_no":"17","sector":"ECOTECH-XII","block":"NULL","phase":"Phase 1","scheme_cod":"IND02355","ppt_type":"IND","ppt_full":"Industry","remark":"Matched","authority":"GNIDA","category":"industrial","execution_stage":"allotted"}},{"type":"Feature","geometry":{"type":"Polygon","coordinates":[[[77.461036,28.596095],[77.460748,28.596497],[77.4604,28.596305],[77.460687,28.595903],[77.461036,28.596095]]]},"properties":{"objectid":426,"plotmapid":"ECOTECH-XIINULL20IND","allot_id":"IND02385","property_t":"Industry","allotted_p":"Yes","plotsizesq":2100,"plot_size":"2100","plot_no":"20","sector":"ECOTECH-XII","block":"NULL","phase":"Phase 1","scheme_cod":"IND02385","mplanduse":"V","ppt_type":"IND","ppt_full":"Industry","remark":"Matched","authority":"GNIDA","category":"industrial","execution_stage":"allotted"}},{"type":"Feature","geometry":{"type":"Polygon","coordinates":[[[77.460687,28.595903],[77.4604,28.596305],[77.460052,28.596113],[77.460337,28.595713],[77.460687,28.595903]]]},"properties":{"objectid":427,"plotmapid":"ECOTECH-XIINULL19IND","allot_id":"IND02383","property_t":"Industry","allotted_p":"Yes","plotsizesq":2100,"plot_size":"2100","plot_no":"19","sector":"ECOTECH-XII","block":"NULL","phase":"Phase 1","scheme_cod":"IND02383","ppt_type":"IND","ppt_full":"Industry","remark":"Matched","authority":"GNIDA","category":"industrial","execution_stage":"allotted"}},{"type":"Feature","geometry":{"type":"Polygon","coordinates":[[[77.460337,28.595713],[77.460052,28.596113],[77.459701,28.595923],[77.459975,28.595528],[77.460337,28.595713]]]},"properties":{"objectid":428,"plotmapid":"ECOTECH-XIINULL18IND","allot_id":"IND02380","property_t":"Industry","allotted_p":"Yes","plotsizesq":2100,"plot_size":"2100","plot_no":"18","sector":"ECOTECH-XII","block":"NULL","phase":"Phase 1","scheme_cod":"IND02380","ppt_type":"IND","ppt_full":"Industry","remark":"Matched","authority":"GNIDA","category":"industrial","execution_stage":"allotted"}},{"type":"Feature","geometry":{"type":"Polygon","coordinates":[[[77.460052,28.596113],[77.459772,28.596511],[77.459424,28.596325],[77.459701,28.595923],[77.460052,28.596113]]]},"properties":{"objectid":429,"plotmapid":"ECOTECH-XIINULL29IND","allot_id":"IND02394","property_t":"Industry","allotted_p":"Yes","plotsizesq":2100,"plot_size":"2100","plot_no":"29","sector":"ECOTECH-XII","block":"NULL","phase":"Phase 1","scheme_cod":"IND02394","ppt_type":"IND","ppt_full":"Industry","remark":"Matched","authority":"GNIDA","category":"industrial","execution_stage":"allotted"}},{"type":"Feature","geometry":{"type":"Polygon","coordinates":[[[77.4604,28.596305],[77.460114,28.596705],[77.459772,28.596511],[77.460052,28.596113],[77.4604,28.596305]]]},"properties":{"objectid":430,"plotmapid":"ECOTECH-XIINULL28IND","allot_id":"IND02393","property_t":"Industry","allotted_p":"Yes","plotsizesq":2100,"plot_size":"2100","plot_no":"28","sector":"ECOTECH-XII","block":"NULL","phase":"Phase 1","scheme_cod":"IND02393","ppt_type":"IND","ppt_full":"Industry","remark":"Matched","authority":"GNIDA","category":"industrial","execution_stage":"allotted"}},{"type":"Feature","geometry":{"type":"Polygon","coordinates":[[[77.460748,28.596497],[77.46046,28.596899],[77.460114,28.596705],[77.4604,28.596305],[77.460748,28.596497]]]},"properties":{"objectid":431,"plotmapid":"ECOTECH-XIINULL27IND","allot_id":"IND(2016)-0100015","property_t":"Industry","allotted_p":"Yes","plotsizesq":2100,"plot_size":"2100","plot_no":"27","sector":"ECOTECH-XII","block":"NULL","phase":"Phase 1","scheme_cod":"IND(2016)-0100015","mplanduse":"V","ppt_type":"IND","ppt_full":"Industry","remark":"Matched","authority":"GNIDA","category":"industrial","execution_stage":"allotted"}},{"type":"Feature","geometry":{"type":"Polygon","coordinates":[[[77.461095,28.596691],[77.460807,28.597093],[77.46046,28.596899],[77.460748,28.596497],[77.461095,28.596691]]]},"properties":{"objectid":432,"plotmapid":"ECOTECH-XIINULL26IND","allot_id":"IND02389","property_t":"Industry","allotted_p":"Yes","plotsizesq":2100,"plot_size":"2100","plot_no":"26","sector":"ECOTECH-XII","block":"NULL","phase":"Phase 1","scheme_cod":"IND02389","ppt_type":"IND","ppt_full":"Industry","remark":"Matched","authority":"GNIDA","category":"industrial","execution_stage":"allotted"}},{"type":"Feature","geometry":{"type":"Polygon","coordinates":[[[77.461384,28.596288],[77.461095,28.596691],[77.460748,28.596497],[77.461036,28.596095],[77.461384,28.596288]]]},"properties":{"objectid":433,"plotmapid":"ECOTECH-XIINULL21IND","allot_id":"IND02386","property_t":"Industry","allotted_p":"Yes","plotsizesq":2100.55,"plot_size":"2100.55","plot_no":"21","sector":"ECOTECH-XII","block":"NULL","phase":"Phase 1","scheme_cod":"IND02386","ppt_type":"IND","ppt_full":"Industry","remark":"Matched","authority":"GNIDA","category":"industrial","execution_stage":"allotted"}},{"type":"Feature","geometry":{"type":"Polygon","coordinates":[[[77.461731,28.596481],[77.461443,28.596884],[77.461095,28.596691],[77.461384,28.596288],[77.461731,28.596481]]]},"properties":{"objectid":434,"plotmapid":"ECOTECH-XIINULL22IND","allot_id":"IND02388","property_t":"Industry","allotted_p":"Yes","plotsizesq":2100,"plot_size":"2100","plot_no":"22","sector":"ECOTECH-XII","block":"NULL","phase":"Phase 1","scheme_cod":"IND02388","ppt_type":"IND","ppt_full":"Industry","remark":"Matched","authority":"GNIDA","category":"industrial","execution_stage":"allotted"}},{"type":"Feature","geometry":{"type":"Polygon","coordinates":[[[77.461443,28.596884],[77.46179,28.597078],[77.461502,28.597482],[77.460807,28.597093],[77.461095,28.596691],[77.461443,28.596884]]]},"properties":{"objectid":435,"plotmapid":"ECOTECH-XIINULL24  25IND","allot_id":"IND01983","property_t":"Industry","allotted_p":"Yes","plotsizesq":4226.5,"plot_size":"4226.5","plot_no":"24  25","sector":"ECOTECH-XII","block":"NULL","phase":"Phase 1","scheme_cod":"IND01983","ppt_type":"IND","ppt_full":"Industry","remark":"Matched","authority":"GNIDA","category":"industrial","execution_stage":"allotted"}},{"type":"Feature","geometry":{"type":"Polygon","coordinates":[[[77.462078,28.596674],[77.46179,28.597078],[77.461443,28.596884],[77.461731,28.596481],[77.462078,28.596674]]]},"properties":{"objectid":436,"plotmapid":"ECOTECH-XIINULL23IND","allot_id":"IND02417","property_t":"Industry","allotted_p":"Yes","plotsizesq":2133,"plot_size":"2133","plot_no":"23","sector":"ECOTECH-XII","block":"NULL","phase":"Phase 1","scheme_cod":"IND02417","mplanduse":"V","ppt_type":"IND","ppt_full":"Industry","remark":"Matched","authority":"GNIDA","category":"industrial","execution_stage":"allotted"}},{"type":"Feature","geometry":{"type":"Polygon","coordinates":[[[77.460255,28.594662],[77.459875,28.595199],[77.459561,28.595034],[77.45992,28.594482],[77.460255,28.594662]]]},"properties":{"objectid":437,"plotmapid":"ECOTECH-XIINULL16IND","allot_id":"IND02448","property_t":"Industry","allotted_p":"Yes","plotsizesq":2500,"plot_size":"2500","plot_no":"16","sector":"ECOTECH-XII","block":"NULL","phase":"Phase 1","scheme_cod":"IND02448","ppt_type":"IND","ppt_full":"Industry","remark":"Matched","authority":"GNIDA","category":"industrial","execution_stage":"allotted"}},{"type":"Feature","geometry":{"type":"Polygon","coordinates":[[[77.460512,28.594811],[77.460129,28.595343],[77.459875,28.595199],[77.460255,28.594662],[77.460512,28.594811]]]},"properties":{"objectid":438,"plotmapid":"ECOTECH-XIINULL15IND","allot_id":"IND02376","property_t":"Industry","allotted_p":"Yes","plotsizesq":2100,"plot_size":"2100","plot_no":"15","sector":"ECOTECH-XII","block":"NULL","phase":"Phase 1","scheme_cod":"IND02376","ppt_type":"IND","ppt_full":"Industry","remark":"Matched","authority":"GNIDA","category":"industrial","execution_stage":"allotted"}},{"type":"Feature","geometry":{"type":"Polygon","coordinates":[[[77.460772,28.594952],[77.460379,28.595484],[77.460129,28.595343],[77.460512,28.594811],[77.460772,28.594952]]]},"properties":{"objectid":439,"plotmapid":"ECOTECH-XIINULL14IND","allot_id":"IND02375","property_t":"Industry","allotted_p":"Yes","plotsizesq":2100,"plot_size":"2100","plot_no":"14","sector":"ECOTECH-XII","block":"NULL","phase":"Phase 1","scheme_cod":"IND02375","ppt_type":"IND","ppt_full":"Industry","remark":"Matched","authority":"GNIDA","category":"industrial","execution_stage":"allotted"}},{"type":"Feature","geometry":{"type":"Polygon","coordinates":[[[77.461027,28.595095],[77.460643,28.595626],[77.460379,28.595484],[77.460772,28.594952],[77.461027,28.595095]]]},"properties":{"objectid":440,"plotmapid":"ECOTECH-XIINULL13IND","allot_id":"IND02373","property_t":"Industry","allotted_p":"Yes","plotsizesq":2100,"plot_size":"2100","plot_no":"13","sector":"ECOTECH-XII","block":"NULL","phase":"Phase 1","scheme_cod":"IND02373","ppt_type":"IND","ppt_full":"Industry","remark":"Matched","authority":"GNIDA","category":"industrial","execution_stage":"allotted"}},{"type":"Feature","geometry":{"type":"Polygon","coordinates":[[[77.461286,28.595237],[77.460905,28.595769],[77.460643,28.595626],[77.461027,28.595095],[77.461286,28.595237]]]},"properties":{"objectid":441,"plotmapid":"ECOTECH-XIINULL12IND","allot_id":"IND02368","property_t":"Industry","allotted_p":"Yes","plotsizesq":2100,"plot_size":"2100","plot_no":"12","sector":"ECOTECH-XII","block":"NULL","phase":"Phase 1","scheme_cod":"IND02368","ppt_type":"IND","ppt_full":"Industry","remark":"Matched","authority":"GNIDA","category":"industrial","execution_stage":"allotted"}},{"type":"Feature","geometry":{"type":"Polygon","coordinates":[[[77.461548,28.595381],[77.461166,28.595913],[77.460905,28.595769],[77.461286,28.595237],[77.461548,28.595381]]]},"properties":{"objectid":442,"plotmapid":"ECOTECH-XIINULL11IND","allot_id":"IND02367","property_t":"Industry","allotted_p":"Yes","plotsizesq":2100,"plot_size":"2100","plot_no":"11","sector":"ECOTECH-XII","block":"NULL","phase":"Phase 1","scheme_cod":"IND02367","ppt_type":"IND","ppt_full":"Industry","remark":"Matched","authority":"GNIDA","category":"industrial","execution_stage":"allotted"}},{"type":"Feature","geometry":{"type":"Polygon","coordinates":[[[77.461809,28.595525],[77.461428,28.596057],[77.461166,28.595913],[77.461548,28.595381],[77.461809,28.595525]]]},"properties":{"objectid":443,"plotmapid":"ECOTECH-XIINULL10IND","allot_id":"IND02366","property_t":"Industry","allotted_p":"Yes","plotsizesq":2100,"plot_size":"2100","plot_no":"10","sector":"ECOTECH-XII","block":"NULL","phase":"Phase 1","scheme_cod":"IND02366","ppt_type":"IND","ppt_full":"Industry","remark":"Matched","authority":"GNIDA","category":"industrial","execution_stage":"allotted"}},{"type":"Feature","geometry":{"type":"Polygon","coordinates":[[[77.46207,28.595669],[77.461688,28.596202],[77.461428,28.596057],[77.461809,28.595525],[77.46207,28.595669]]]},"properties":{"objectid":444,"plotmapid":"ECOTECH-XIINULL9IND","allot_id":"IND02363","property_t":"Industry","allotted_p":"Yes","plotsizesq":2100,"plot_size":"2100","plot_no":"9","sector":"ECOTECH-XII","block":"NULL","phase":"Phase 1","scheme_cod":"IND02363","ppt_type":"IND","ppt_full":"Industry","remark":"Matched","authority":"GNIDA","category":"industrial","execution_stage":"allotted"}},{"type":"Feature","geometry":{"type":"Polygon","coordinates":[[[77.462331,28.595813],[77.461949,28.596347],[77.461688,28.596202],[77.46207,28.595669],[77.462331,28.595813]]]},"properties":{"objectid":445,"plotmapid":"ECOTECH-XIINULL8IND","allot_id":"IND02395","property_t":"Industry","allotted_p":"Yes","plotsizesq":2100,"plot_size":"2100","plot_no":"8","sector":"ECOTECH-XII","block":"NULL","phase":"Phase 1","scheme_cod":"IND02395","ppt_type":"IND","ppt_full":"Industry","remark":"Matched","authority":"GNIDA","category":"industrial","execution_stage":"allotted"}},{"type":"Feature","geometry":{"type":"Polygon","coordinates":[[[77.462592,28.595958],[77.462209,28.596492],[77.461949,28.596347],[77.462331,28.595813],[77.462592,28.595958]]]},"properties":{"objectid":446,"plotmapid":"ECOTECH-XIINULL7IND","allot_id":"IND02374","property_t":"Industry","allotted_p":"Yes","plotsizesq":2100,"plot_size":"2100","plot_no":"7","sector":"ECOTECH-XII","block":"NULL","phase":"Phase 1","scheme_cod":"IND02374","ppt_type":"IND","ppt_full":"Industry","remark":"Matched","authority":"GNIDA","category":"industrial","execution_stage":"allotted"}},{"type":"Feature","geometry":{"type":"Polygon","coordinates":[[[77.462699,28.594946],[77.463142,28.595196],[77.462592,28.595958],[77.462157,28.595717],[77.462699,28.594946]]]},"properties":{"objectid":447,"plotmapid":"ECOTECH-XIINULL6IND","allot_id":"IND02356","property_t":"Industry","allotted_p":"Yes","plotsizesq":5000,"plot_size":"5000","plot_no":"6","sector":"ECOTECH-XII","block":"NULL","phase":"Phase 1","scheme_cod":"IND02356","ppt_type":"IND","ppt_full":"Industry","remark":"Matched","authority":"GNIDA","category":"industrial","execution_stage":"allotted"}},{"type":"Feature","geometry":{"type":"Polygon","coordinates":[[[77.462699,28.594946],[77.462157,28.595717],[77.461722,28.595477],[77.462263,28.594718],[77.462699,28.594946]]]},"properties":{"objectid":448,"plotmapid":"ECOTECH-XIINULL5IND","allot_id":"IND02364","property_t":"Industry","allotted_p":"Yes","plotsizesq":5000,"plot_size":"5000","plot_no":"5","sector":"ECOTECH-XII","block":"NULL","phase":"Phase 1","scheme_cod":"IND02364","ppt_type":"IND","ppt_full":"Industry","remark":"Matched","authority":"GNIDA","category":"industrial","execution_stage":"allotted"}},{"type":"Feature","geometry":{"type":"Polygon","coordinates":[[[77.462263,28.594718],[77.461722,28.595477],[77.461286,28.595237],[77.461827,28.594479],[77.462263,28.594718]]]},"properties":{"objectid":449,"plotmapid":"ECOTECH-XIINULL4IND","allot_id":"IND02362","property_t":"Industry","allotted_p":"Yes","plotsizesq":5000,"plot_size":"5000","plot_no":"4","sector":"ECOTECH-XII","block":"NULL","phase":"Phase 1","scheme_cod":"IND02362","ppt_type":"IND","ppt_full":"Industry","remark":"Matched","authority":"GNIDA","category":"industrial","execution_stage":"allotted"}},{"type":"Feature","geometry":{"type":"Polygon","coordinates":[[[77.461827,28.594479],[77.461286,28.595237],[77.460857,28.595],[77.461388,28.594248],[77.461827,28.594479]]]},"properties":{"objectid":450,"plotmapid":"ECOTECH-XIINULL3IND","allot_id":"IND02361","property_t":"Industry","allotted_p":"Yes","plotsizesq":5000,"plot_size":"5000","plot_no":"3","sector":"ECOTECH-XII","block":"NULL","phase":"Phase 1","scheme_cod":"IND02361","ppt_type":"IND","ppt_full":"Industry","remark":"Matched","authority":"GNIDA","category":"industrial","execution_stage":"allotted"}},{"type":"Feature","geometry":{"type":"Polygon","coordinates":[[[77.461388,28.594248],[77.460857,28.595],[77.460426,28.594761],[77.460962,28.593996],[77.461388,28.594248]]]},"properties":{"objectid":451,"plotmapid":"ECOTECH-XIINULL2IND","allot_id":"IND02354","property_t":"Industry","allotted_p":"Yes","plotsizesq":5000,"plot_size":"5000","plot_no":"2","sector":"ECOTECH-XII","block":"NULL","phase":"Phase 1","scheme_cod":"IND02354","ppt_type":"IND","ppt_full":"Industry","remark":"Matched","authority":"GNIDA","category":"industrial","execution_stage":"allotted"}},{"type":"Feature","geometry":{"type":"Polygon","coordinates":[[[77.460694,28.59437],[77.460426,28.594761],[77.45992,28.594482],[77.460177,28.594085],[77.460694,28.59437]]]},"properties":{"objectid":452,"plotmapid":"ECOTECH-XIINULL1AIND","allot_id":"IND02454","property_t":"Industry","allotted_p":"Yes","plotsizesq":3000,"plot_size":"3000","plot_no":"1A","sector":"ECOTECH-XII","block":"NULL","phase":"Phase 1","scheme_cod":"IND02454","ppt_type":"IND","ppt_full":"Industry","remark":"Matched","authority":"GNIDA","category":"industrial","execution_stage":"allotted"}},{"type":"Feature","geometry":{"type":"Polygon","coordinates":[[[77.456817,28.600458],[77.456489,28.600907],[77.456187,28.600736],[77.456512,28.600291],[77.456817,28.600458]]]},"properties":{"objectid":453,"plotmapid":"ECOTECH-XIINULL89IND","allot_id":"IND02437","property_t":"Industry","allotted_p":"Yes","plotsizesq":2100,"plot_size":"2100","plot_no":"89","sector":"ECOTECH-XII","block":"NULL","phase":"Phase 1","scheme_cod":"IND02437","ppt_type":"IND","ppt_full":"Industry","remark":"Matched","authority":"GNIDA","category":"industrial","execution_stage":"allotted"}},{"type":"Feature","geometry":{"type":"Polygon","coordinates":[[[77.461422,28.598334],[77.461098,28.598792],[77.460796,28.598623],[77.461118,28.598162],[77.461422,28.598334]]]},"properties":{"objectid":455,"plotmapid":"ECOTECH-XIINULL55IND","allot_id":"IND02420","property_t":"Industry","allotted_p":"Yes","plotsizesq":2100,"plot_size":"2100","plot_no":"55","sector":"ECOTECH-XII","block":"NULL","phase":"Phase 1","scheme_cod":"IND02420","ppt_type":"IND","ppt_full":"Industry","remark":"Matched","authority":"GNIDA","category":"industrial","execution_stage":"allotted"}},{"type":"Feature","geometry":{"type":"Polygon","coordinates":[[[77.45629,28.603625],[77.455167,28.605111],[77.454217,28.604571],[77.455337,28.603078],[77.45629,28.603625]]]},"properties":{"objectid":456,"plotmapid":"ECOTECH-XIINULL115IND","allot_id":"IND02387","property_t":"Industry","allotted_p":"Yes","plotsizesq":22240,"plot_size":"22240","plot_no":"115","sector":"ECOTECH-XII","block":"NULL","phase":"Phase 1","scheme_cod":"IND02387","ppt_type":"IND","ppt_full":"Industry","remark":"Matched","authority":"GNIDA","category":"industrial","execution_stage":"allotted"}},{"type":"Feature","geometry":{"type":"Polygon","coordinates":[[[77.454602,28.603666],[77.454308,28.604059],[77.45366,28.603685],[77.453955,28.60329],[77.454602,28.603666]]]},"properties":{"objectid":457,"plotmapid":"ECOTECH-XIINULL116BIND","allot_id":"IND01788","property_t":"Industry","allotted_p":"Yes","plotsizesq":4000,"plot_size":"4000","plot_no":"116B","sector":"ECOTECH-XII","block":"NULL","phase":"Phase 1","scheme_cod":"IND01788","ppt_type":"IND","ppt_full":"Industry","remark":"Matched","authority":"GNIDA","category":"industrial","execution_stage":"allotted"}},{"type":"Feature","geometry":{"type":"Polygon","coordinates":[[[77.453984,28.602286],[77.454484,28.60258],[77.453365,28.604081],[77.451907,28.60324],[77.45338,28.601931],[77.453984,28.602286]]]},"properties":{"objectid":458,"plotmapid":"ECOTECH-XIINULL117IND","allot_id":"IND02358","property_t":"Industry","allotted_p":"Yes","plotsizesq":30000,"plot_size":"30000","plot_no":"117","sector":"ECOTECH-XII","block":"NULL","phase":"Phase 1","scheme_cod":"IND02358","ppt_type":"IND","ppt_full":"Industry","remark":"Matched","authority":"GNIDA","category":"industrial","execution_stage":"allotted"}},{"type":"Feature","geometry":{"type":"Polygon","coordinates":[[[77.457302,28.602257],[77.456989,28.602707],[77.456684,28.602536],[77.457011,28.602089],[77.457302,28.602257]]]},"properties":{"objectid":459,"plotmapid":"ECOTECH-XIINULL101IND","allot_id":"IND02465","property_t":"Industry","allotted_p":"Yes","plotsizesq":2100,"plot_size":"2100","plot_no":"101","sector":"ECOTECH-XII","block":"NULL","phase":"Phase 1","scheme_cod":"IND02465","ppt_type":"IND","ppt_full":"Industry","remark":"Matched","authority":"GNIDA","category":"industrial","execution_stage":"allotted"}},{"type":"Feature","geometry":{"type":"Polygon","coordinates":[[[77.45551,28.601225],[77.455182,28.601665],[77.454884,28.601488],[77.455212,28.601047],[77.45551,28.601225]]]},"properties":{"objectid":460,"plotmapid":"ECOTECH-XIINULL107IND","allot_id":"IND01939","property_t":"Industry","allotted_p":"Yes","plotsizesq":2100,"plot_size":"2100","plot_no":"107","sector":"ECOTECH-XII","block":"NULL","phase":"Phase 1","scheme_cod":"IND01939","ppt_type":"IND","ppt_full":"Industry","remark":"Matched","authority":"GNIDA","category":"industrial","execution_stage":"allotted"}},{"type":"Feature","geometry":{"type":"Polygon","coordinates":[[[77.457212,28.601568],[77.456884,28.602016],[77.456583,28.601846],[77.456912,28.601399],[77.457212,28.601568]]]},"properties":{"objectid":461,"plotmapid":"ECOTECH-XIINULL99IND","allot_id":"IND02469","property_t":"Industry","allotted_p":"Yes","plotsizesq":2100,"plot_size":"2100","plot_no":"99","sector":"ECOTECH-XII","block":"NULL","phase":"Phase 1","scheme_cod":"IND02469","ppt_type":"IND","ppt_full":"Industry","remark":"Matched","authority":"GNIDA","category":"industrial","execution_stage":"allotted"}},{"type":"Feature","geometry":{"type":"Polygon","coordinates":[[[77.456912,28.601399],[77.456583,28.601846],[77.456281,28.601675],[77.456611,28.601229],[77.456912,28.601399]]]},"properties":{"objectid":462,"plotmapid":"ECOTECH-XIINULL98IND","allot_id":"IND02467","property_t":"Industry","allotted_p":"Yes","plotsizesq":2100,"plot_size":"2100","plot_no":"98","sector":"ECOTECH-XII","block":"NULL","phase":"Phase 1","scheme_cod":"IND02467","ppt_type":"IND","ppt_full":"Industry","remark":"Matched","authority":"GNIDA","category":"industrial","execution_stage":"allotted"}},{"type":"Feature","geometry":{"type":"Polygon","coordinates":[[[77.456611,28.601229],[77.456281,28.601675],[77.455981,28.601501],[77.456309,28.601059],[77.456611,28.601229]]]},"properties":{"objectid":463,"plotmapid":"ECOTECH-XIINULL97IND","allot_id":"IND02312","property_t":"Industry","allotted_p":"Yes","plotsizesq":2100,"plot_size":"2100","plot_no":"97","sector":"ECOTECH-XII","block":"NULL","phase":"Phase 1","scheme_cod":"IND02312","ppt_type":"IND","ppt_full":"Industry","remark":"Matched","authority":"GNIDA","category":"industrial","execution_stage":"allotted"}},{"type":"Feature","geometry":{"type":"Polygon","coordinates":[[[77.456309,28.601059],[77.455981,28.601501],[77.455681,28.601326],[77.456006,28.600888],[77.456309,28.601059]]]},"properties":{"objectid":464,"plotmapid":"ECOTECH-XIINULL96IND","allot_id":"IND02449","property_t":"Industry","allotted_p":"Yes","plotsizesq":2100,"plot_size":"2100","plot_no":"96","sector":"ECOTECH-XII","block":"NULL","phase":"Phase 1","scheme_cod":"IND02449","ppt_type":"IND","ppt_full":"Industry","remark":"Matched","authority":"GNIDA","category":"industrial","execution_stage":"allotted"}},{"type":"Feature","geometry":{"type":"Polygon","coordinates":[[[77.455704,28.600715],[77.456006,28.600888],[77.455681,28.601326],[77.455084,28.600971],[77.455404,28.600539],[77.455704,28.600715]]]},"properties":{"objectid":465,"plotmapid":"ECOTECH-XIINULL94&95IND","allot_id":"IND01912","property_t":"Industry","allotted_p":"Yes","plotsizesq":4200,"plot_size":"4200","plot_no":"94 & 95","sector":"ECOTECH-XII","block":"NULL","phase":"Phase 1","scheme_cod":"IND01912","ppt_type":"IND","ppt_full":"Industry","remark":"Matched","authority":"GNIDA","category":"industrial","execution_stage":"allotted"}},{"type":"Feature","geometry":{"type":"Polygon","coordinates":[[[77.455404,28.600539],[77.455084,28.600971],[77.454682,28.600725],[77.455084,28.600344],[77.455404,28.600539]]]},"properties":{"objectid":466,"plotmapid":"ECOTECH-XIINULL93IND","allot_id":"IND02466","property_t":"Industry","allotted_p":"Yes","plotsizesq":2437.5,"plot_size":"2437.5","plot_no":"93","sector":"ECOTECH-XII","block":"NULL","phase":"Phase 1","scheme_cod":"IND02466","ppt_type":"IND","ppt_full":"Industry","remark":"Matched","authority":"GNIDA","category":"industrial","execution_stage":"allotted"}},{"type":"Feature","geometry":{"type":"Polygon","coordinates":[[[77.458197,28.601221],[77.457975,28.601419],[77.457776,28.601635],[77.457398,28.601416],[77.457726,28.600958],[77.458197,28.601221]]]},"properties":{"objectid":467,"plotmapid":"ECOTECH-XIINULL85IND","allot_id":"IND02396","property_t":"Industry","allotted_p":"Yes","plotsizesq":2900,"plot_size":"2900","plot_no":"85","sector":"ECOTECH-XII","block":"NULL","phase":"Phase 1","scheme_cod":"IND02396","ppt_type":"IND","ppt_full":"Industry","remark":"Matched","authority":"GNIDA","category":"industrial","execution_stage":"allotted"}},{"type":"Feature","geometry":{"type":"Polygon","coordinates":[[[77.457726,28.600958],[77.457398,28.601416],[77.457093,28.601245],[77.457422,28.600789],[77.457726,28.600958]]]},"properties":{"objectid":468,"plotmapid":"ECOTECH-XIINULL86IND","allot_id":"IND02452","property_t":"Industry","allotted_p":"Yes","plotsizesq":2100,"plot_size":"2100","plot_no":"86","sector":"ECOTECH-XII","block":"NULL","phase":"Phase 1","scheme_cod":"IND02452","ppt_type":"IND","ppt_full":"Industry","remark":"Matched","authority":"GNIDA","category":"industrial","execution_stage":"allotted"}},{"type":"Feature","geometry":{"type":"Polygon","coordinates":[[[77.457422,28.600789],[77.457093,28.601245],[77.45679,28.601076],[77.457117,28.600619],[77.457422,28.600789]]]},"properties":{"objectid":469,"plotmapid":"ECOTECH-XIINULL87IND","allot_id":"IND02435","property_t":"Industry","allotted_p":"Yes","plotsizesq":2070,"plot_size":"2070","plot_no":"87","sector":"ECOTECH-XII","block":"NULL","phase":"Phase 1","scheme_cod":"IND02435","ppt_type":"IND","ppt_full":"Industry","remark":"Matched","authority":"GNIDA","category":"industrial","execution_stage":"allotted"}},{"type":"Feature","geometry":{"type":"Polygon","coordinates":[[[77.457117,28.600619],[77.45679,28.601076],[77.456489,28.600907],[77.456817,28.600458],[77.457117,28.600619]]]},"properties":{"objectid":470,"plotmapid":"ECOTECH-XIINULL88IND","allot_id":"IND02436","property_t":"Industry","allotted_p":"Yes","plotsizesq":2070,"plot_size":"2070","plot_no":"88","sector":"ECOTECH-XII","block":"NULL","phase":"Phase 1","scheme_cod":"IND02436","ppt_type":"IND","ppt_full":"Industry","remark":"Matched","authority":"GNIDA","category":"industrial","execution_stage":"allotted"}},{"type":"Feature","geometry":{"type":"Polygon","coordinates":[[[77.456512,28.600291],[77.456187,28.600736],[77.455884,28.600566],[77.456206,28.600119],[77.456512,28.600291]]]},"properties":{"objectid":471,"plotmapid":"ECOTECH-XIINULL90IND","allot_id":"IND02438","property_t":"Industry","allotted_p":"Yes","plotsizesq":2100,"plot_size":"2100","plot_no":"90","sector":"ECOTECH-XII","block":"NULL","phase":"Phase 1","scheme_cod":"IND02438","ppt_type":"IND","ppt_full":"Industry","remark":"Matched","authority":"GNIDA","category":"industrial","execution_stage":"allotted"}},{"type":"Feature","geometry":{"type":"Polygon","coordinates":[[[77.456206,28.600119],[77.455884,28.600566],[77.455582,28.600395],[77.455896,28.599949],[77.456206,28.600119]]]},"properties":{"objectid":472,"plotmapid":"ECOTECH-XIINULL91IND","allot_id":"IND02433","property_t":"Industry","allotted_p":"Yes","plotsizesq":2070.2,"plot_size":"2070.2","plot_no":"91","sector":"ECOTECH-XII","block":"NULL","phase":"Phase 1","scheme_cod":"IND02433","ppt_type":"IND","ppt_full":"Industry","remark":"Matched","authority":"GNIDA","category":"industrial","execution_stage":"allotted"}},{"type":"Feature","geometry":{"type":"Polygon","coordinates":[[[77.458144,28.600549],[77.457795,28.601004],[77.4575,28.600832],[77.457836,28.600378],[77.458144,28.600549]]]},"properties":{"objectid":473,"plotmapid":"ECOTECH-XIINULL83IND","allot_id":"IND02428","property_t":"Industry","allotted_p":"Yes","plotsizesq":2100,"plot_size":"2100","plot_no":"83","sector":"ECOTECH-XII","block":"NULL","phase":"Phase 1","scheme_cod":"IND02428","ppt_type":"IND","ppt_full":"Industry","remark":"Matched","authority":"GNIDA","category":"industrial","execution_stage":"allotted"}},{"type":"Feature","geometry":{"type":"Polygon","coordinates":[[[77.457836,28.600378],[77.4575,28.600832],[77.457195,28.600663],[77.457527,28.600207],[77.457836,28.600378]]]},"properties":{"objectid":474,"plotmapid":"ECOTECH-XIINULL82IND","allot_id":"IND01945","property_t":"Industry","allotted_p":"Yes","plotsizesq":2000,"plot_size":"2000","plot_no":"82","sector":"ECOTECH-XII","block":"NULL","phase":"Phase 1","scheme_cod":"IND01945","ppt_type":"IND","ppt_full":"Industry","remark":"Matched","authority":"GNIDA","category":"industrial","execution_stage":"allotted"}},{"type":"Feature","geometry":{"type":"Polygon","coordinates":[[[77.457527,28.600207],[77.457195,28.600663],[77.456892,28.600493],[77.457218,28.600038],[77.457527,28.600207]]]},"properties":{"objectid":475,"plotmapid":"ECOTECH-XIINULL81IND","allot_id":"IND02432","property_t":"Industry","allotted_p":"Yes","plotsizesq":2100,"plot_size":"2100","plot_no":"81","sector":"ECOTECH-XII","block":"NULL","phase":"Phase 1","scheme_cod":"IND02432","ppt_type":"IND","ppt_full":"Industry","remark":"Matched","authority":"GNIDA","category":"industrial","execution_stage":"allotted"}},{"type":"Feature","geometry":{"type":"Polygon","coordinates":[[[77.457218,28.600038],[77.456892,28.600493],[77.456582,28.600327],[77.45691,28.59987],[77.457218,28.600038]]]},"properties":{"objectid":476,"plotmapid":"ECOTECH-XIINULL80IND","allot_id":"IND01932","property_t":"Industry","allotted_p":"Yes","plotsizesq":2100,"plot_size":"2100","plot_no":"80","sector":"ECOTECH-XII","block":"NULL","phase":"Phase 1","scheme_cod":"IND01932","ppt_type":"IND","ppt_full":"Industry","remark":"Matched","authority":"GNIDA","category":"industrial","execution_stage":"allotted"}},{"type":"Feature","geometry":{"type":"Polygon","coordinates":[[[77.45691,28.59987],[77.456582,28.600327],[77.456274,28.600161],[77.456604,28.599702],[77.45691,28.59987]]]},"properties":{"objectid":477,"plotmapid":"ECOTECH-XIINULL79IND","allot_id":"IND02451","property_t":"Industry","allotted_p":"Yes","plotsizesq":2100,"plot_size":"2100","plot_no":"79","sector":"ECOTECH-XII","block":"NULL","phase":"Phase 1","scheme_cod":"IND02451","mplanduse":"V","ppt_type":"IND","ppt_full":"Industry","remark":"Matched","authority":"GNIDA","category":"industrial","execution_stage":"allotted"}},{"type":"Feature","geometry":{"type":"Polygon","coordinates":[[[77.456604,28.599702],[77.456274,28.600161],[77.455973,28.599987],[77.456296,28.599532],[77.456604,28.599702]]]},"properties":{"objectid":478,"plotmapid":"ECOTECH-XIINULL78IND","allot_id":"IND02450","property_t":"Industry","allotted_p":"Yes","plotsizesq":2100,"plot_size":"2100","plot_no":"78","sector":"ECOTECH-XII","block":"NULL","phase":"Phase 1","scheme_cod":"IND02450","ppt_type":"IND","ppt_full":"Industry","remark":"Matched","authority":"GNIDA","category":"industrial","execution_stage":"allotted"}},{"type":"Feature","geometry":{"type":"Polygon","coordinates":[[[77.456296,28.599532],[77.455973,28.599987],[77.455634,28.599797],[77.456042,28.599378],[77.456296,28.599532]]]},"properties":{"objectid":479,"plotmapid":"ECOTECH-XIINULL77IND","allot_id":"IND02382","property_t":"Industry","allotted_p":"Yes","plotsizesq":2100,"plot_size":"2100","plot_no":"77","sector":"ECOTECH-XII","block":"NULL","phase":"Phase 1","scheme_cod":"IND02382","ppt_type":"IND","ppt_full":"Industry","remark":"Matched","authority":"GNIDA","category":"industrial","execution_stage":"allotted"}},{"type":"Feature","geometry":{"type":"Polygon","coordinates":[[[77.462214,28.599674],[77.46144,28.599927],[77.460678,28.599489],[77.46102,28.599005],[77.462214,28.599674]]]},"properties":{"objectid":480,"plotmapid":"ECOTECH-XIINULL75A1IND","allot_id":"IND01892","property_t":"Industry","allotted_p":"Yes","plotsizesq":7400,"plot_size":"7400","plot_no":"75A1","sector":"ECOTECH-XII","block":"NULL","phase":"Phase 1","scheme_cod":"IND01892","ppt_type":"IND","ppt_full":"Industry","remark":"Matched","authority":"GNIDA","category":"industrial","execution_stage":"allotted"}},{"type":"Feature","geometry":{"type":"Polygon","coordinates":[[[77.460522,28.599709],[77.461107,28.600036],[77.459835,28.600466],[77.459366,28.600216],[77.459957,28.599381],[77.460522,28.599709]]]},"properties":{"objectid":481,"plotmapid":"ECOTECH-XIINULL76IND","allot_id":"NA","allotted_p":"Yes","plotsizesq":3950,"plot_size":"3950 SQMT","plot_no":"76","sector":"ECOTECH-XII","block":"NULL","phase":"Phase 1","scheme_cod":"NA","mplanduse":"V","ppt_type":"IND","ppt_full":"Industry","authority":"GNIDA","category":"industrial","execution_stage":"allotted"}},{"type":"Feature","geometry":{"type":"Polygon","coordinates":[[[77.459908,28.59945],[77.459636,28.599833],[77.458768,28.599347],[77.459041,28.598966],[77.459908,28.59945]]]},"properties":{"objectid":482,"plotmapid":"ECOTECH-XIINULL72IND","allot_id":"IND02384","property_t":"Industry","allotted_p":"Yes","plotsizesq":5000,"plot_size":"5000","plot_no":"72","sector":"ECOTECH-XII","block":"NULL","phase":"Phase 1","scheme_cod":"IND02384","ppt_type":"IND","ppt_full":"Industry","remark":"Matched","authority":"GNIDA","category":"industrial","execution_stage":"allotted"}},{"type":"Feature","geometry":{"type":"Polygon","coordinates":[[[77.460451,28.598686],[77.46018,28.599068],[77.459314,28.598584],[77.45959,28.598202],[77.460451,28.598686]]]},"properties":{"objectid":483,"plotmapid":"ECOTECH-XIINULL74IND","allot_id":"IND02462","property_t":"Industry","allotted_p":"Yes","plotsizesq":5000,"plot_size":"5000","plot_no":"74","sector":"ECOTECH-XII","block":"NULL","phase":"Phase 1","scheme_cod":"IND02462","ppt_type":"IND","ppt_full":"Industry","remark":"Matched","authority":"GNIDA","category":"industrial","execution_stage":"allotted"}},{"type":"Feature","geometry":{"type":"Polygon","coordinates":[[[77.46018,28.599068],[77.459908,28.59945],[77.459041,28.598966],[77.459314,28.598584],[77.46018,28.599068]]]},"properties":{"objectid":484,"plotmapid":"ECOTECH-XIINULL73IND","allot_id":"IND02406","property_t":"Industry","allotted_p":"Yes","plotsizesq":5000,"plot_size":"5000","plot_no":"73","sector":"ECOTECH-XII","block":"NULL","phase":"Phase 1","scheme_cod":"IND02406","ppt_type":"IND","ppt_full":"Industry","remark":"Matched","authority":"GNIDA","category":"industrial","execution_stage":"allotted"}},{"type":"Feature","geometry":{"type":"Polygon","coordinates":[[[77.459636,28.599833],[77.459366,28.600216],[77.458495,28.599729],[77.458768,28.599347],[77.459636,28.599833]]]},"properties":{"objectid":485,"plotmapid":"ECOTECH-XIINULL71IND","allot_id":"IND02381","property_t":"Industry","allotted_p":"Yes","plotsizesq":5000,"plot_size":"5000","plot_no":"71","sector":"ECOTECH-XII","block":"NULL","phase":"Phase 1","scheme_cod":"IND02381","ppt_type":"IND","ppt_full":"Industry","remark":"Matched","authority":"GNIDA","category":"industrial","execution_stage":"allotted"}},{"type":"Feature","geometry":{"type":"Polygon","coordinates":[[[77.4585,28.59759],[77.459372,28.598089],[77.459105,28.598468],[77.458229,28.597976],[77.4585,28.59759]]]},"properties":{"objectid":486,"plotmapid":"ECOTECH-XIINULL65IND","allot_id":"IND02357","property_t":"Industry","allotted_p":"Yes","plotsizesq":5000,"plot_size":"5000","plot_no":"65","sector":"ECOTECH-XII","block":"NULL","phase":"Phase 1","scheme_cod":"IND02357","ppt_type":"IND","ppt_full":"Industry","remark":"Matched","authority":"GNIDA","category":"industrial","execution_stage":"allotted"}},{"type":"Feature","geometry":{"type":"Polygon","coordinates":[[[77.458284,28.599611],[77.457879,28.600132],[77.457006,28.599667],[77.457407,28.599119],[77.458284,28.599611]]]},"properties":{"objectid":487,"plotmapid":"ECOTECH-XIINULL69IND","allot_id":"IND02474","property_t":"Industry","allotted_p":"Yes","plotsizesq":7000,"plot_size":"7000","plot_no":"69","sector":"ECOTECH-XII","block":"NULL","phase":"Phase 1","scheme_cod":"IND02474","ppt_type":"IND","ppt_full":"Industry","remark":"Matched","authority":"GNIDA","category":"industrial","execution_stage":"allotted"}},{"type":"Feature","geometry":{"type":"Polygon","coordinates":[[[77.458559,28.59923],[77.458284,28.599611],[77.457407,28.599119],[77.457687,28.598743],[77.458559,28.59923]]]},"properties":{"objectid":488,"plotmapid":"ECOTECH-XIINULL68IND","allot_id":"IND02335","property_t":"Industry","allotted_p":"Yes","plotsizesq":5000,"plot_size":"5000","plot_no":"68","sector":"ECOTECH-XII","block":"NULL","phase":"Phase 1","scheme_cod":"IND02335","ppt_type":"IND","ppt_full":"Industry","remark":"Matched","authority":"GNIDA","category":"industrial","execution_stage":"allotted"}},{"type":"Feature","geometry":{"type":"Polygon","coordinates":[[[77.458832,28.598849],[77.458559,28.59923],[77.457687,28.598743],[77.457959,28.598363],[77.458832,28.598849]]]},"properties":{"objectid":489,"plotmapid":"ECOTECH-XIINULL67IND","allot_id":"IND02371","property_t":"Industry","allotted_p":"Yes","plotsizesq":5000,"plot_size":"5000","plot_no":"67","sector":"ECOTECH-XII","block":"NULL","phase":"Phase 1","scheme_cod":"IND02371","ppt_type":"IND","ppt_full":"Industry","remark":"Matched","authority":"GNIDA","category":"industrial","execution_stage":"allotted"}},{"type":"Feature","geometry":{"type":"Polygon","coordinates":[[[77.459105,28.598468],[77.458832,28.598849],[77.457959,28.598363],[77.458229,28.597976],[77.459105,28.598468]]]},"properties":{"objectid":490,"plotmapid":"ECOTECH-XIINULL66IND","allot_id":"IND02353","property_t":"Industry","allotted_p":"Yes","plotsizesq":5000,"plot_size":"5000","plot_no":"66","sector":"ECOTECH-XII","block":"NULL","phase":"Phase 1","scheme_cod":"IND02353","ppt_type":"IND","ppt_full":"Industry","remark":"Matched","authority":"GNIDA","category":"industrial","execution_stage":"allotted"}},{"type":"Feature","geometry":{"type":"Polygon","coordinates":[[[77.463059,28.599248],[77.462787,28.599426],[77.46249,28.599572],[77.462302,28.599466],[77.462632,28.599011],[77.463059,28.599248]]]},"properties":{"objectid":492,"plotmapid":"ECOTECH-XIINULL50IND","allot_id":"IND02484","property_t":"Industry","allotted_p":"Yes","plotsizesq":1909.3,"plot_size":"1909.3","plot_no":"50","sector":"ECOTECH-XII","block":"NULL","phase":"Phase 1","scheme_cod":"IND02484","ppt_type":"IND","ppt_full":"Industry","remark":"Matched","authority":"GNIDA","category":"industrial","execution_stage":"allotted"}},{"type":"Feature","geometry":{"type":"Polygon","coordinates":[[[77.462632,28.599011],[77.462302,28.599466],[77.462002,28.599298],[77.462331,28.598843],[77.462632,28.599011]]]},"properties":{"objectid":493,"plotmapid":"ECOTECH-XIINULL51IND","allot_id":"IND01924","property_t":"Industry","allotted_p":"Yes","plotsizesq":2100,"plot_size":"2100","plot_no":"51","sector":"ECOTECH-XII","block":"NULL","phase":"Phase 1","scheme_cod":"IND01924","ppt_type":"IND","ppt_full":"Industry","remark":"Matched","authority":"GNIDA","category":"industrial","execution_stage":"allotted"}},{"type":"Feature","geometry":{"type":"Polygon","coordinates":[[[77.462331,28.598843],[77.462002,28.599298],[77.461701,28.59913],[77.462043,28.598677],[77.462331,28.598843]]]},"properties":{"objectid":494,"plotmapid":"ECOTECH-XIINULL52IND","allot_id":"IND02431","property_t":"Industry","allotted_p":"Yes","plotsizesq":2100,"plot_size":"2100","plot_no":"52","sector":"ECOTECH-XII","block":"NULL","phase":"Phase 1","scheme_cod":"IND02431","ppt_type":"IND","ppt_full":"Industry","remark":"Matched","authority":"GNIDA","category":"industrial","execution_stage":"allotted"}},{"type":"Feature","geometry":{"type":"Polygon","coordinates":[[[77.462043,28.598677],[77.461701,28.59913],[77.4614,28.598961],[77.461724,28.598504],[77.462043,28.598677]]]},"properties":{"objectid":495,"plotmapid":"ECOTECH-XIINULL53IND","allot_id":"IND02418","property_t":"Industry","allotted_p":"Yes","plotsizesq":2100,"plot_size":"2100","plot_no":"53","sector":"ECOTECH-XII","block":"NULL","phase":"Phase 1","scheme_cod":"IND02418","ppt_type":"IND","ppt_full":"Industry","remark":"Matched","authority":"GNIDA","category":"industrial","execution_stage":"allotted"}},{"type":"Feature","geometry":{"type":"Polygon","coordinates":[[[77.461724,28.598504],[77.4614,28.598961],[77.461098,28.598792],[77.461422,28.598334],[77.461724,28.598504]]]},"properties":{"objectid":496,"plotmapid":"ECOTECH-XIINULL54IND","allot_id":"IND02419","property_t":"Industry","allotted_p":"Yes","plotsizesq":2100,"plot_size":"2100","plot_no":"54","sector":"ECOTECH-XII","block":"NULL","phase":"Phase 1","scheme_cod":"IND02419","ppt_type":"IND","ppt_full":"Industry","remark":"Matched","authority":"GNIDA","category":"industrial","execution_stage":"allotted"}},{"type":"Feature","geometry":{"type":"Polygon","coordinates":[[[77.461118,28.598162],[77.460796,28.598623],[77.460494,28.598454],[77.460814,28.597991],[77.461118,28.598162]]]},"properties":{"objectid":497,"plotmapid":"ECOTECH-XIINULL56IND","allot_id":"IND02421","property_t":"Industry","allotted_p":"Yes","plotsizesq":2100,"plot_size":"2100","plot_no":"56","sector":"ECOTECH-XII","block":"NULL","phase":"Phase 1","scheme_cod":"IND02421","ppt_type":"IND","ppt_full":"Industry","remark":"Matched","authority":"GNIDA","category":"industrial","execution_stage":"allotted"}},{"type":"Feature","geometry":{"type":"Polygon","coordinates":[[[77.460814,28.597991],[77.460494,28.598454],[77.460193,28.598285],[77.46051,28.597819],[77.460814,28.597991]]]},"properties":{"objectid":498,"plotmapid":"ECOTECH-XIINULL57IND","allot_id":"IND02422","property_t":"Industry","allotted_p":"Yes","plotsizesq":2100,"plot_size":"2100","plot_no":"57","sector":"ECOTECH-XII","block":"NULL","phase":"Phase 1","scheme_cod":"IND02422","ppt_type":"IND","ppt_full":"Industry","remark":"Matched","authority":"GNIDA","category":"industrial","execution_stage":"allotted"}},{"type":"Feature","geometry":{"type":"Polygon","coordinates":[[[77.46051,28.597819],[77.460193,28.598285],[77.459885,28.598109],[77.460206,28.597646],[77.46051,28.597819]]]},"properties":{"objectid":499,"plotmapid":"ECOTECH-XIINULL58IND","allot_id":"IND02423","property_t":"Industry","allotted_p":"Yes","plotsizesq":2100,"plot_size":"2100","plot_no":"58","sector":"ECOTECH-XII","block":"NULL","phase":"Phase 1","scheme_cod":"IND02423","ppt_type":"IND","ppt_full":"Industry","remark":"Matched","authority":"GNIDA","category":"industrial","execution_stage":"allotted"}},{"type":"Feature","geometry":{"type":"Polygon","coordinates":[[[77.460206,28.597646],[77.459885,28.598109],[77.459589,28.597954],[77.459905,28.597482],[77.460206,28.597646]]]},"properties":{"objectid":500,"plotmapid":"ECOTECH-XIINULL59IND","allot_id":"IND02424","property_t":"Industry","allotted_p":"Yes","plotsizesq":2100,"plot_size":"2100","plot_no":"59","sector":"ECOTECH-XII","block":"NULL","phase":"Phase 1","scheme_cod":"IND02424","ppt_type":"IND","ppt_full":"Industry","remark":"Matched","authority":"GNIDA","category":"industrial","execution_stage":"allotted"}},{"type":"Feature","geometry":{"type":"Polygon","coordinates":[[[77.459905,28.597482],[77.459589,28.597954],[77.459275,28.597775],[77.459596,28.597314],[77.459905,28.597482]]]},"properties":{"objectid":501,"plotmapid":"ECOTECH-XIINULL60IND","allot_id":"IND02425","property_t":"Industry","allotted_p":"Yes","plotsizesq":2100,"plot_size":"2100","plot_no":"60","sector":"ECOTECH-XII","block":"NULL","phase":"Phase 1","scheme_cod":"IND02425","ppt_type":"IND","ppt_full":"Industry","remark":"Matched","authority":"GNIDA","category":"industrial","execution_stage":"allotted"}},{"type":"Feature","geometry":{"type":"Polygon","coordinates":[[[77.459596,28.597314],[77.459275,28.597775],[77.458968,28.5976],[77.459294,28.597144],[77.459596,28.597314]]]},"properties":{"objectid":502,"plotmapid":"ECOTECH-XIINULL61IND","allot_id":"IND02426","property_t":"Industry","allotted_p":"Yes","plotsizesq":2100,"plot_size":"2100","plot_no":"61","sector":"ECOTECH-XII","block":"NULL","phase":"Phase 1","scheme_cod":"IND02426","ppt_type":"IND","ppt_full":"Industry","remark":"Matched","authority":"GNIDA","category":"industrial","execution_stage":"allotted"}},{"type":"Feature","geometry":{"type":"Polygon","coordinates":[[[77.459294,28.597144],[77.458968,28.5976],[77.458666,28.597428],[77.458993,28.596974],[77.459294,28.597144]]]},"properties":{"objectid":503,"plotmapid":"ECOTECH-XIINULL62IND","allot_id":"NA","allotted_p":"Yes","plotsizesq":2100,"plot_size":"2100 SQMT","plot_no":"62","sector":"ECOTECH-XII","block":"NULL","phase":"Phase 1","scheme_cod":"NA","ppt_type":"IND","ppt_full":"Industry","authority":"GNIDA","category":"industrial","execution_stage":"allotted"}},{"type":"Feature","geometry":{"type":"Polygon","coordinates":[[[77.458993,28.596974],[77.458666,28.597428],[77.458369,28.597259],[77.458693,28.596805],[77.458993,28.596974]]]},"properties":{"objectid":504,"plotmapid":"ECOTECH-XIINULL63IND","allot_id":"IND02398","property_t":"Industry","allotted_p":"Yes","plotsizesq":2100,"plot_size":"2100","plot_no":"63","sector":"ECOTECH-XII","block":"NULL","phase":"Phase 1","scheme_cod":"IND02398","ppt_type":"IND","ppt_full":"Industry","remark":"Matched","authority":"GNIDA","category":"industrial","execution_stage":"allotted"}},{"type":"Feature","geometry":{"type":"Polygon","coordinates":[[[77.458693,28.596805],[77.458369,28.597259],[77.458064,28.597083],[77.458409,28.596643],[77.458693,28.596805]]]},"properties":{"objectid":505,"plotmapid":"ECOTECH-XIINULL64IND","allot_id":"IND02377","property_t":"Industry","allotted_p":"Yes","plotsizesq":2094.66,"plot_size":"2094.66","plot_no":"64","sector":"ECOTECH-XII","block":"NULL","phase":"Phase 1","scheme_cod":"IND02377","ppt_type":"IND","ppt_full":"Industry","remark":"Matched","authority":"GNIDA","category":"industrial","execution_stage":"allotted"}},{"type":"Feature","geometry":{"type":"Polygon","coordinates":[[[77.463306,28.598751],[77.463424,28.598817],[77.46328,28.599012],[77.463059,28.599248],[77.462678,28.599037],[77.462971,28.598562],[77.463306,28.598751]]]},"properties":{"objectid":506,"plotmapid":"ECOTECH-XIINULL49IND","allot_id":"IND02365","property_t":"Industry","allotted_p":"Yes","plotsizesq":2769.35,"plot_size":"2769.35","plot_no":"49","sector":"ECOTECH-XII","block":"NULL","phase":"Phase 1","scheme_cod":"IND02365","ppt_type":"IND","ppt_full":"Industry","remark":"Matched","authority":"GNIDA","category":"industrial","execution_stage":"allotted"}},{"type":"Feature","geometry":{"type":"Polygon","coordinates":[[[77.462971,28.598562],[77.462678,28.599037],[77.462366,28.598861],[77.462672,28.598394],[77.462971,28.598562]]]},"properties":{"objectid":508,"plotmapid":"ECOTECH-XIINULL48IND","allot_id":"IND02414","property_t":"Industry","allotted_p":"Yes","plotsizesq":2100,"plot_size":"2100","plot_no":"48","sector":"ECOTECH-XII","block":"NULL","phase":"Phase 1","scheme_cod":"IND02414","ppt_type":"IND","ppt_full":"Industry","remark":"Matched","authority":"GNIDA","category":"industrial","execution_stage":"allotted"}},{"type":"Feature","geometry":{"type":"Polygon","coordinates":[[[77.462672,28.598394],[77.462366,28.598861],[77.462061,28.598686],[77.462371,28.598225],[77.462672,28.598394]]]},"properties":{"objectid":509,"plotmapid":"ECOTECH-XIINULL47IND","allot_id":"IND02413","property_t":"Industry","allotted_p":"Yes","plotsizesq":2100,"plot_size":"2100","plot_no":"47","sector":"ECOTECH-XII","block":"NULL","phase":"Phase 1","scheme_cod":"IND02413","ppt_type":"IND","ppt_full":"Industry","remark":"Matched","authority":"GNIDA","category":"industrial","execution_stage":"allotted"}},{"type":"Feature","geometry":{"type":"Polygon","coordinates":[[[77.462371,28.598225],[77.462061,28.598686],[77.461755,28.598518],[77.462069,28.598055],[77.462371,28.598225]]]},"properties":{"objectid":510,"plotmapid":"ECOTECH-XIINULL46IND","allot_id":"IND02411","property_t":"Industry","allotted_p":"Yes","plotsizesq":2100,"plot_size":"2100","plot_no":"46","sector":"ECOTECH-XII","block":"NULL","phase":"Phase 1","scheme_cod":"IND02411","ppt_type":"IND","ppt_full":"Industry","remark":"Matched","authority":"GNIDA","category":"industrial","execution_stage":"allotted"}},{"type":"Feature","geometry":{"type":"Polygon","coordinates":[[[77.462069,28.598055],[77.461755,28.598518],[77.461439,28.598343],[77.461766,28.597885],[77.462069,28.598055]]]},"properties":{"objectid":512,"plotmapid":"ECOTECH-XIINULL45IND","allot_id":"IND02409","property_t":"Industry","allotted_p":"Yes","plotsizesq":2100,"plot_size":"2100","plot_no":"45","sector":"ECOTECH-XII","block":"NULL","phase":"Phase 1","scheme_cod":"IND02409","ppt_type":"IND","ppt_full":"Industry","remark":"Matched","authority":"GNIDA","category":"industrial","execution_stage":"allotted"}},{"type":"Feature","geometry":{"type":"Polygon","coordinates":[[[77.461766,28.597885],[77.461439,28.598343],[77.461136,28.598172],[77.461462,28.597715],[77.461766,28.597885]]]},"properties":{"objectid":513,"plotmapid":"ECOTECH-XIINULL44IND","allot_id":"IND02408","property_t":"Industry","allotted_p":"Yes","plotsizesq":2100,"plot_size":"2100","plot_no":"44","sector":"ECOTECH-XII","block":"NULL","phase":"Phase 1","scheme_cod":"IND02408","ppt_type":"IND","ppt_full":"Industry","remark":"Matched","authority":"GNIDA","category":"industrial","execution_stage":"allotted"}},{"type":"Feature","geometry":{"type":"Polygon","coordinates":[[[77.461462,28.597715],[77.461136,28.598172],[77.460832,28.598001],[77.461158,28.597545],[77.461462,28.597715]]]},"properties":{"objectid":514,"plotmapid":"ECOTECH-XIINULL43IND","allot_id":"IND02407","property_t":"Industry","allotted_p":"Yes","plotsizesq":2100,"plot_size":"2100","plot_no":"43","sector":"ECOTECH-XII","block":"NULL","phase":"Phase 1","scheme_cod":"IND02407","ppt_type":"IND","ppt_full":"Industry","remark":"Matched","authority":"GNIDA","category":"industrial","execution_stage":"allotted"}},{"type":"Feature","geometry":{"type":"Polygon","coordinates":[[[77.461158,28.597545],[77.460832,28.598001],[77.460528,28.597829],[77.460854,28.597374],[77.461158,28.597545]]]},"properties":{"objectid":515,"plotmapid":"ECOTECH-XIINULL42IND","allot_id":"IND01959","property_t":"Industry","allotted_p":"Yes","plotsizesq":2100,"plot_size":"2100","plot_no":"42","sector":"ECOTECH-XII","block":"NULL","phase":"Phase 1","scheme_cod":"IND01959","ppt_type":"IND","ppt_full":"Industry","remark":"Matched","authority":"GNIDA","category":"industrial","execution_stage":"allotted"}},{"type":"Feature","geometry":{"type":"Polygon","coordinates":[[[77.460854,28.597374],[77.460528,28.597829],[77.460223,28.597655],[77.460551,28.597204],[77.460854,28.597374]]]},"properties":{"objectid":516,"plotmapid":"ECOTECH-XIINULL41IND","allot_id":"IND02403","property_t":"Industry","allotted_p":"Yes","plotsizesq":2100,"plot_size":"2100","plot_no":"41","sector":"ECOTECH-XII","block":"NULL","phase":"Phase 1","scheme_cod":"IND02403","ppt_type":"IND","ppt_full":"Industry","remark":"Matched","authority":"GNIDA","category":"industrial","execution_stage":"allotted"}},{"type":"Feature","geometry":{"type":"Polygon","coordinates":[[[77.460551,28.597204],[77.460223,28.597655],[77.459923,28.597491],[77.460247,28.597034],[77.460551,28.597204]]]},"properties":{"objectid":517,"plotmapid":"ECOTECH-XIINULL40IND","allot_id":"IND02402","property_t":"Industry","allotted_p":"Yes","plotsizesq":2100,"plot_size":"2100","plot_no":"40","sector":"ECOTECH-XII","block":"NULL","phase":"Phase 1","scheme_cod":"IND02402","ppt_type":"IND","ppt_full":"Industry","remark":"Matched","authority":"GNIDA","category":"industrial","execution_stage":"allotted"}},{"type":"Feature","geometry":{"type":"Polygon","coordinates":[[[77.460247,28.597034],[77.459923,28.597491],[77.459613,28.597323],[77.459946,28.596865],[77.460247,28.597034]]]},"properties":{"objectid":518,"plotmapid":"ECOTECH-XIINULL39IND","allot_id":"IND02401","property_t":"Industry","allotted_p":"Yes","plotsizesq":2100,"plot_size":"2100","plot_no":"39","sector":"ECOTECH-XII","block":"NULL","phase":"Phase 1","scheme_cod":"IND02401","ppt_type":"IND","ppt_full":"Industry","remark":"Matched","authority":"GNIDA","category":"industrial","execution_stage":"allotted"}},{"type":"Feature","geometry":{"type":"Polygon","coordinates":[[[77.459946,28.596865],[77.459613,28.597323],[77.459311,28.597154],[77.459643,28.596697],[77.459946,28.596865]]]},"properties":{"objectid":519,"plotmapid":"ECOTECH-XIINULL38IND","allot_id":"IND02400","property_t":"Industry","allotted_p":"Yes","plotsizesq":2100,"plot_size":"2100","plot_no":"38","sector":"ECOTECH-XII","block":"NULL","phase":"Phase 1","scheme_cod":"IND02400","ppt_type":"IND","ppt_full":"Industry","remark":"Matched","authority":"GNIDA","category":"industrial","execution_stage":"allotted"}},{"type":"Feature","geometry":{"type":"Polygon","coordinates":[[[77.459643,28.596697],[77.459311,28.597154],[77.45901,28.596984],[77.459337,28.596531],[77.459643,28.596697]]]},"properties":{"objectid":520,"plotmapid":"ECOTECH-XIINULL37IND","allot_id":"IND02399","property_t":"Industry","allotted_p":"Yes","plotsizesq":2100,"plot_size":"2100","plot_no":"37","sector":"ECOTECH-XII","block":"NULL","phase":"Phase 1","scheme_cod":"IND02399","ppt_type":"IND","ppt_full":"Industry","remark":"Matched","authority":"GNIDA","category":"industrial","execution_stage":"allotted"}},{"type":"Feature","geometry":{"type":"Polygon","coordinates":[[[77.459337,28.596531],[77.45901,28.596984],[77.458711,28.596814],[77.459033,28.596362],[77.459337,28.596531]]]},"properties":{"objectid":521,"plotmapid":"ECOTECH-XIINULL36IND","allot_id":"IND02397","property_t":"Industry","allotted_p":"Yes","plotsizesq":2100,"plot_size":"2100","plot_no":"36","sector":"ECOTECH-XII","block":"NULL","phase":"Phase 1","scheme_cod":"IND02397","ppt_type":"IND","ppt_full":"Industry","remark":"Matched","authority":"GNIDA","category":"industrial","execution_stage":"allotted"}},{"type":"Feature","geometry":{"type":"Polygon","coordinates":[[[77.459033,28.596362],[77.458711,28.596814],[77.458409,28.596643],[77.458737,28.596191],[77.459033,28.596362]]]},"properties":{"objectid":522,"plotmapid":"ECOTECH-XIINULL35IND","allot_id":"IND02392","property_t":"Industry","allotted_p":"Yes","plotsizesq":2100,"plot_size":"2100","plot_no":"35","sector":"ECOTECH-XII","block":"NULL","phase":"Phase 1","scheme_cod":"IND02392","ppt_type":"IND","ppt_full":"Industry","remark":"Matched","authority":"GNIDA","category":"industrial","execution_stage":"allotted"}},{"type":"Feature","geometry":{"type":"Polygon","coordinates":[[[77.454878,28.602811],[77.455337,28.603078],[77.455101,28.603391],[77.454249,28.602895],[77.454484,28.60258],[77.454878,28.602811]]]},"properties":{"objectid":523,"plotmapid":"ECOTECH-XIINULL116DIND","allot_id":"IND02252","property_t":"Industry","allotted_p":"Yes","plotsizesq":4000,"plot_size":"4000","plot_no":"116D","sector":"ECOTECH-XII","block":"NULL","phase":"Phase 1","scheme_cod":"IND02252","ppt_type":"IND","ppt_full":"Industry","remark":"Matched","authority":"GNIDA","category":"industrial","execution_stage":"allotted"}},{"type":"Feature","geometry":{"type":"Polygon","coordinates":[[[77.454897,28.603273],[77.454602,28.603666],[77.453955,28.60329],[77.454249,28.602895],[77.454897,28.603273]]]},"properties":{"objectid":525,"plotmapid":"ECOTECH-XIINULL116CIND","allot_id":"IND02339","property_t":"Industry","allotted_p":"Yes","plotsizesq":4000,"plot_size":"4000","plot_no":"116C","sector":"ECOTECH-XII","block":"NULL","phase":"Phase 1","scheme_cod":"IND02339","ppt_type":"IND","ppt_full":"Industry","remark":"Matched","authority":"GNIDA","category":"industrial","execution_stage":"allotted"}},{"type":"Feature","geometry":{"type":"Polygon","coordinates":[[[77.454308,28.604059],[77.454012,28.604454],[77.453365,28.604081],[77.45366,28.603685],[77.454308,28.604059]]]},"properties":{"objectid":526,"plotmapid":"ECOTECH-XIINULL116AIND","allot_id":"IND02315","property_t":"Industry","allotted_p":"Yes","plotsizesq":4000,"plot_size":"4000","plot_no":"116A","sector":"ECOTECH-XII","block":"NULL","phase":"Phase 1","scheme_cod":"IND02315","ppt_type":"IND","ppt_full":"Industry","remark":"Matched","authority":"GNIDA","category":"industrial","execution_stage":"allotted"}},{"type":"Feature","geometry":{"type":"Polygon","coordinates":[[[77.469953,28.614484],[77.469521,28.61498],[77.46927,28.614824],[77.469706,28.61432],[77.469953,28.614484]]]},"properties":{"objectid":2351,"plotmapid":"SECTOR-16NULL17IND","allot_id":"IND02483","property_t":"Industry","allotted_p":"Yes","plotsizesq":2100,"plot_size":"0","plot_no":"17","sector":"SECTOR-16","block":"NULL","phase":"Phase 1","scheme_cod":"IND02483","mplanduse":"V","ppt_type":"IND","ppt_full":"Industry","remark":"Matched","authority":"GNIDA","category":"industrial","execution_stage":"allotted"}},{"type":"Feature","geometry":{"type":"Polygon","coordinates":[[[77.469296,28.615902],[77.468831,28.616468],[77.468592,28.616293],[77.46905,28.615745],[77.469296,28.615902]]]},"properties":{"objectid":2352,"plotmapid":"SECTOR-16NULL6IND","allot_id":"IND02478","property_t":"Industry","allotted_p":"Yes","plotsizesq":2100,"plot_size":"0","plot_no":"6","sector":"SECTOR-16","block":"NULL","phase":"Phase 1","scheme_cod":"IND02478","mplanduse":"V","ppt_type":"IND","ppt_full":"Industry","remark":"Matched","authority":"GNIDA","category":"industrial","execution_stage":"allotted"}},{"type":"Feature","geometry":{"type":"Polygon","coordinates":[[[77.4702,28.614647],[77.469773,28.615136],[77.469521,28.61498],[77.469953,28.614484],[77.4702,28.614647]]]},"properties":{"objectid":2353,"plotmapid":"SECTOR-16NULL16IND","allot_id":"IND02480","property_t":"Industry","allotted_p":"Yes","plotsizesq":2100,"plot_size":"0","plot_no":"16","sector":"SECTOR-16","block":"NULL","phase":"Phase 1","scheme_cod":"IND02480","ppt_type":"IND","ppt_full":"Industry","remark":"Matched","authority":"GNIDA","category":"industrial","execution_stage":"allotted"}},{"type":"Feature","geometry":{"type":"Polygon","coordinates":[[[77.470447,28.61481],[77.470024,28.615292],[77.469773,28.615136],[77.4702,28.614647],[77.470447,28.61481]]]},"properties":{"objectid":2355,"plotmapid":"SECTOR-16NULL15IND","allot_id":"ONLIND2016-0200003","property_t":"Industry","allotted_p":"Yes","plotsizesq":2100,"plot_size":"0","plot_no":"15","sector":"SECTOR-16","block":"NULL","phase":"Phase 1","scheme_cod":"ONLIND2016-0200003","mplanduse":"V","ppt_type":"IND","ppt_full":"Industry","remark":"Matched","authority":"GNIDA","category":"industrial","execution_stage":"allotted"}},{"type":"Feature","geometry":{"type":"Polygon","coordinates":[[[77.470383,28.615531],[77.469986,28.61604],[77.469583,28.615799],[77.470024,28.615292],[77.470383,28.615531]]]},"properties":{"objectid":2357,"plotmapid":"SECTOR-16NULL13IND","allot_id":"IND02485","property_t":"Industry","allotted_p":"Yes","plotsizesq":2100,"plot_size":"0","plot_no":"13","sector":"SECTOR-16","block":"NULL","phase":"Phase 1","scheme_cod":"IND02485","mplanduse":"V","ppt_type":"IND","ppt_full":"Industry","remark":"Matched","authority":"GNIDA","category":"industrial","execution_stage":"allotted"}},{"type":"Feature","geometry":{"type":"Polygon","coordinates":[[[77.46879,28.61558],[77.468351,28.61612],[77.468108,28.615947],[77.468551,28.61543],[77.46879,28.61558]]]},"properties":{"objectid":2359,"plotmapid":"SECTOR-16NULL8IND","allot_id":"IND02475","property_t":"Industry","allotted_p":"Yes","plotsizesq":2100,"plot_size":"0","plot_no":"8","sector":"SECTOR-16","block":"NULL","phase":"Phase 1","scheme_cod":"IND02475","mplanduse":"V","ppt_type":"IND","ppt_full":"Industry","remark":"Matched","authority":"GNIDA","category":"industrial","execution_stage":"allotted"}},{"type":"Feature","geometry":{"type":"Polygon","coordinates":[[[77.46905,28.615745],[77.468592,28.616293],[77.468351,28.61612],[77.46879,28.61558],[77.46905,28.615745]]]},"properties":{"objectid":2360,"plotmapid":"SECTOR-16NULL7IND","allot_id":"IND02486","property_t":"Industry","allotted_p":"Yes","plotsizesq":2100,"plot_size":"0","plot_no":"7","sector":"SECTOR-16","block":"NULL","phase":"Phase 1","scheme_cod":"IND02486","mplanduse":"V","ppt_type":"IND","ppt_full":"Industry","remark":"Matched","authority":"GNIDA","category":"industrial","execution_stage":"allotted"}},{"type":"Feature","geometry":{"type":"Polygon","coordinates":[[[77.469822,28.616268],[77.469367,28.616896],[77.468831,28.616468],[77.469296,28.615902],[77.469822,28.616268]]]},"properties":{"objectid":2363,"plotmapid":"SECTOR-16NULL5IND","allot_id":"IND02492","property_t":"Industry","allotted_p":"Yes","plotsizesq":4000,"plot_size":"0","plot_no":"5","sector":"SECTOR-16","block":"NULL","phase":"Phase 1","scheme_cod":"IND02492","mplanduse":"V","ppt_type":"IND","ppt_full":"Industry","remark":"Matched","authority":"GNIDA","category":"industrial","execution_stage":"allotted"}},{"type":"Feature","geometry":{"type":"Polygon","coordinates":[[[77.46883,28.615333],[77.468465,28.615102],[77.468964,28.614629],[77.46927,28.614824],[77.46883,28.615333]]]},"properties":{"objectid":2364,"plotmapid":"SECTOR-16NULL9IND","allot_id":"IND02481","property_t":"Industry","allotted_p":"Yes","plotsizesq":2100,"plot_size":"0","plot_no":"9","sector":"SECTOR-16","block":"NULL","phase":"Phase 1","scheme_cod":"IND02481","mplanduse":"V","ppt_type":"IND","ppt_full":"Industry","remark":"Matched","authority":"GNIDA","category":"industrial","execution_stage":"allotted"}},{"type":"Feature","geometry":{"type":"Polygon","coordinates":[[[77.469081,28.615488],[77.46883,28.615333],[77.46927,28.614824],[77.469521,28.61498],[77.469081,28.615488]]]},"properties":{"objectid":2365,"plotmapid":"SECTOR-16NULL10IND","allot_id":"IND02482","property_t":"Industry","allotted_p":"Yes","plotsizesq":2100,"plot_size":"0","plot_no":"10","sector":"SECTOR-16","block":"NULL","phase":"Phase 1","scheme_cod":"IND02482","mplanduse":"V","ppt_type":"IND","ppt_full":"Industry","remark":"Matched","authority":"GNIDA","category":"industrial","execution_stage":"allotted"}},{"type":"Feature","geometry":{"type":"Polygon","coordinates":[[[77.469773,28.615136],[77.469332,28.615644],[77.469081,28.615488],[77.469521,28.61498],[77.469773,28.615136]]]},"properties":{"objectid":2366,"plotmapid":"SECTOR-16NULL11IND","allot_id":"IND02490","property_t":"Industry","allotted_p":"Yes","plotsizesq":2100,"plot_size":"0","plot_no":"11","sector":"SECTOR-16","block":"NULL","phase":"Phase 1","scheme_cod":"IND02490","mplanduse":"V","ppt_type":"IND","ppt_full":"Industry","remark":"Matched","authority":"GNIDA","category":"industrial","execution_stage":"allotted"}},{"type":"Feature","geometry":{"type":"Polygon","coordinates":[[[77.470024,28.615292],[77.469583,28.615799],[77.469332,28.615644],[77.469773,28.615136],[77.470024,28.615292]]]},"properties":{"objectid":2367,"plotmapid":"SECTOR-16NULL12IND","allot_id":"NA","allotted_p":"Yes","plotsizesq":0,"plot_size":"0","plot_no":"12","sector":"SECTOR-16","block":"NULL","phase":"Phase 1","scheme_cod":"NA","mplanduse":"V","ppt_type":"IND","ppt_full":"Industry","authority":"GNIDA","category":"industrial","execution_stage":"allotted"}},{"type":"Feature","geometry":{"type":"Polygon","coordinates":[[[77.468964,28.614629],[77.469459,28.614157],[77.469706,28.61432],[77.46927,28.614824],[77.468964,28.614629]]]},"properties":{"objectid":2368,"plotmapid":"SECTOR-16NULL18IND","allot_id":"IND02489","property_t":"Industry","allotted_p":"Yes","plotsizesq":2100,"plot_size":"0","plot_no":"18","sector":"SECTOR-16","block":"NULL","phase":"Phase 1","scheme_cod":"IND02489","mplanduse":"V","ppt_type":"IND","ppt_full":"Industry","remark":"Matched","authority":"GNIDA","category":"industrial","execution_stage":"allotted"}},{"type":"Feature","geometry":{"type":"Polygon","coordinates":[[[77.465503,28.614204],[77.465328,28.614499],[77.464449,28.61409],[77.46464,28.613786],[77.465503,28.614204]]]},"properties":{"objectid":3610,"plotmapid":"SECTOR-16NULL1C/4IND","property_t":"Industry","allotted_p":"Yes","plotsizesq":3705,"plot_size":"3706","plot_no":"1C/4","sector":"SECTOR-16","block":"NULL","phase":"Phase 1","mplanduse":"V","ppt_type":"IND","ppt_full":"Industry","remark":"EditingMatched","authority":"GNIDA","category":"industrial","execution_stage":"allotted"}},{"type":"Feature","geometry":{"type":"Polygon","coordinates":[[[77.464356,28.614251],[77.464449,28.61409],[77.465328,28.614499],[77.465223,28.614655],[77.464356,28.614251]]]},"properties":{"objectid":3611,"plotmapid":"SECTOR-16NULL1C/5IND","property_t":"Industry","allotted_p":"Yes","plotsizesq":3705,"plot_size":"3706","plot_no":"1C/5","sector":"SECTOR-16","block":"NULL","phase":"Phase 1","scheme_cod":"ONLIND2016-0200059","mplanduse":"V","ppt_type":"IND","ppt_full":"Industry","remark":"EditingMatched","authority":"GNIDA","category":"industrial","execution_stage":"allotted"}}]}
