{"type":"FeatureCollection","features":[{"type":"Feature","geometry":{"type":"Polygon","coordinates":[[[77.425609,28.528341],[77.425595,28.528481],[77.425286,28.528456],[77.425302,28.528281],[77.425609,28.528341]]]},"properties":{"objectid":61377,"plotmapid":"88C018IND","property_t":"Industrial","used":"NA","allotted_p":"Yes","plotsizesq":571.5,"plot_no":"018","sector":"88","block":"C","mplanduse":"V","ppt_type":"IND","ppt_full":"Industrial","authority":"NOIDA","category":"industrial","execution_stage":"allotted"}},{"type":"Feature","geometry":{"type":"Polygon","coordinates":[[[77.424945,28.528835],[77.425247,28.528859],[77.425234,28.528995],[77.424931,28.528971],[77.424945,28.528835]]]},"properties":{"objectid":61378,"plotmapid":"88C013IND","property_t":"Industrial","used":"NA","allotted_p":"Yes","plotsizesq":450,"plot_size":"450 SQMT","plot_no":"013","sector":"88","block":"C","mplanduse":"B","ppt_type":"IND","ppt_full":"Industrial","authority":"NOIDA","category":"industrial","execution_stage":"allotted"}},{"type":"Feature","geometry":{"type":"Polygon","coordinates":[[[77.425945,28.528909],[77.425935,28.528998],[77.425731,28.528981],[77.425739,28.528892],[77.425945,28.528909]]]},"properties":{"objectid":61379,"plotmapid":"88C040IND","property_t":"Industrial","used":"NA","allotted_p":"Yes","plotsizesq":200,"plot_size":"200 SQMT","plot_no":"040","sector":"88","block":"C","mplanduse":"V","ppt_type":"IND","ppt_full":"Industrial","authority":"NOIDA","category":"industrial","execution_stage":"allotted"}},{"type":"Feature","geometry":{"type":"Polygon","coordinates":[[[77.426142,28.528922],[77.426133,28.529012],[77.425935,28.528998],[77.425945,28.528909],[77.426142,28.528922]]]},"properties":{"objectid":61381,"plotmapid":"88C051IND","property_t":"Industrial","used":"NA","allotted_p":"Yes","plotsizesq":200,"plot_size":"200 SQMT","plot_no":"051","sector":"88","block":"C","mplanduse":"B","ppt_type":"IND","ppt_full":"Industrial","authority":"NOIDA","category":"industrial","execution_stage":"allotted"}},{"type":"Feature","geometry":{"type":"Polygon","coordinates":[[[77.425898,28.529355],[77.42589,28.529445],[77.425686,28.529428],[77.425695,28.529338],[77.425898,28.529355]]]},"properties":{"objectid":61383,"plotmapid":"88C035IND","property_t":"Industrial","used":"NA","allotted_p":"Yes","plotsizesq":200,"plot_size":"200 SQMT","plot_no":"035","sector":"88","block":"C","mplanduse":"B","ppt_type":"IND","ppt_full":"Industrial","authority":"NOIDA","category":"industrial","execution_stage":"allotted"}},{"type":"Feature","geometry":{"type":"Polygon","coordinates":[[[77.426105,28.529282],[77.426096,28.529372],[77.425898,28.529355],[77.425907,28.529266],[77.426105,28.529282]]]},"properties":{"objectid":61386,"plotmapid":"88C055IND","property_t":"Industrial","used":"NA","allotted_p":"Yes","plotsizesq":200,"plot_size":"200 SQMT","plot_no":"055","sector":"88","block":"C","mplanduse":"B","ppt_type":"IND","ppt_full":"Industrial","authority":"NOIDA","category":"industrial","execution_stage":"allotted"}},{"type":"Feature","geometry":{"type":"Polygon","coordinates":[[[77.425461,28.529829],[77.425447,28.529969],[77.425144,28.529945],[77.425157,28.529809],[77.425461,28.529829]]]},"properties":{"objectid":61387,"plotmapid":"88C029IND","property_t":"Industrial","used":"NA","allotted_p":"Yes","plotsizesq":450,"plot_size":"450 SQMT","plot_no":"029","sector":"88","block":"C","mplanduse":"B","ppt_type":"IND","ppt_full":"Industrial","authority":"NOIDA","category":"industrial","execution_stage":"allotted"}},{"type":"Feature","geometry":{"type":"Polygon","coordinates":[[[77.427505,28.529617],[77.427414,28.529671],[77.427301,28.529521],[77.427394,28.529467],[77.427505,28.529617]]]},"properties":{"objectid":61389,"plotmapid":"88C069IND","property_t":"Industrial","used":"NA","allotted_p":"Yes","plotsizesq":200,"plot_size":"200 SQMT","plot_no":"069","sector":"88","block":"C","mplanduse":"V","ppt_type":"IND","ppt_full":"Industrial","authority":"NOIDA","category":"industrial","execution_stage":"allotted"}},{"type":"Feature","geometry":{"type":"Polygon","coordinates":[[[77.425302,28.528281],[77.425286,28.528456],[77.424985,28.528432],[77.425005,28.528222],[77.425302,28.528281]]]},"properties":{"objectid":61847,"plotmapid":"88C017IND","property_t":"Industrial","used":"NA","allotted_p":"Yes","plotsizesq":634.5,"plot_no":"017","sector":"88","block":"C","mplanduse":"B","ppt_type":"IND","ppt_full":"Industrial","authority":"NOIDA","category":"industrial","execution_stage":"allotted"}},{"type":"Feature","geometry":{"type":"Polygon","coordinates":[[[77.425286,28.528456],[77.425273,28.52859],[77.424972,28.528567],[77.424985,28.528432],[77.425286,28.528456]]]},"properties":{"objectid":61853,"plotmapid":"88C016IND","property_t":"Industrial","used":"NA","allotted_p":"Yes","plotsizesq":450,"plot_size":"450 SQMT","plot_no":"016","sector":"88","block":"C","mplanduse":"B","ppt_type":"IND","ppt_full":"Industrial","authority":"NOIDA","category":"industrial","execution_stage":"allotted"}},{"type":"Feature","geometry":{"type":"Polygon","coordinates":[[[77.425273,28.52859],[77.42526,28.528724],[77.424958,28.528701],[77.424972,28.528567],[77.425273,28.52859]]]},"properties":{"objectid":61860,"plotmapid":"88C015IND","property_t":"Industrial","used":"NA","allotted_p":"Yes","plotsizesq":450,"plot_size":"450 SQMT","plot_no":"015","sector":"88","block":"C","mplanduse":"B","ppt_type":"IND","ppt_full":"Industrial","authority":"NOIDA","category":"industrial","execution_stage":"allotted"}},{"type":"Feature","geometry":{"type":"Polygon","coordinates":[[[77.425595,28.528481],[77.425582,28.528613],[77.425273,28.52859],[77.425286,28.528456],[77.425595,28.528481]]]},"properties":{"objectid":61863,"plotmapid":"88C019IND","property_t":"Industrial","used":"NA","allotted_p":"Yes","plotsizesq":450,"plot_size":"450 SQMT","plot_no":"019","sector":"88","block":"C","mplanduse":"B","ppt_type":"IND","ppt_full":"Industrial","authority":"NOIDA","category":"industrial","execution_stage":"allotted"}},{"type":"Feature","geometry":{"type":"Polygon","coordinates":[[[77.42526,28.528724],[77.425247,28.528859],[77.424945,28.528835],[77.424958,28.528701],[77.42526,28.528724]]]},"properties":{"objectid":61866,"plotmapid":"88C014IND","property_t":"Industrial","used":"NA","allotted_p":"Yes","plotsizesq":450,"plot_size":"450 SQMT","plot_no":"014","sector":"88","block":"C","mplanduse":"B","ppt_type":"IND","ppt_full":"Industrial","authority":"NOIDA","category":"industrial","execution_stage":"allotted"}},{"type":"Feature","geometry":{"type":"Polygon","coordinates":[[[77.425582,28.528613],[77.425568,28.528748],[77.42526,28.528724],[77.425273,28.52859],[77.425582,28.528613]]]},"properties":{"objectid":61869,"plotmapid":"88C020IND","property_t":"Industrial","used":"NA","allotted_p":"Yes","plotsizesq":450,"plot_size":"450 SQMT","plot_no":"020","sector":"88","block":"C","mplanduse":"B","ppt_type":"IND","ppt_full":"Industrial","authority":"NOIDA","category":"industrial","execution_stage":"allotted"}},{"type":"Feature","geometry":{"type":"Polygon","coordinates":[[[77.425568,28.528748],[77.425555,28.528884],[77.425247,28.528859],[77.42526,28.528724],[77.425568,28.528748]]]},"properties":{"objectid":61875,"plotmapid":"88C021IND","property_t":"Industrial","used":"NA","allotted_p":"Yes","plotsizesq":450,"plot_size":"450 SQMT","plot_no":"021","sector":"88","block":"C","mplanduse":"B","ppt_type":"IND","ppt_full":"Industrial","authority":"NOIDA","category":"industrial","execution_stage":"allotted"}},{"type":"Feature","geometry":{"type":"Polygon","coordinates":[[[77.42598,28.528545],[77.425773,28.52853],[77.425788,28.528376],[77.425993,28.528421],[77.42598,28.528545]]]},"properties":{"objectid":61876,"plotmapid":"88C045IND","property_t":"Industrial","used":"NA","allotted_p":"Yes","plotsizesq":295,"plot_no":"045","sector":"88","block":"C","mplanduse":"B","ppt_type":"IND","ppt_full":"Industrial","authority":"NOIDA","category":"industrial","execution_stage":"allotted"}},{"type":"Feature","geometry":{"type":"Polygon","coordinates":[[[77.424931,28.528971],[77.425234,28.528995],[77.425221,28.529131],[77.424917,28.529107],[77.424931,28.528971]]]},"properties":{"objectid":61877,"plotmapid":"88C012IND","property_t":"Industrial","used":"NA","allotted_p":"Yes","plotsizesq":450,"plot_size":"450 SQMT","plot_no":"012","sector":"88","block":"C","mplanduse":"B","ppt_type":"IND","ppt_full":"Industrial","authority":"NOIDA","category":"industrial","execution_stage":"allotted"}},{"type":"Feature","geometry":{"type":"Polygon","coordinates":[[[77.42598,28.528545],[77.425971,28.528636],[77.425764,28.52862],[77.425773,28.52853],[77.42598,28.528545]]]},"properties":{"objectid":61883,"plotmapid":"88C044IND","property_t":"Industrial","used":"NA","allotted_p":"Yes","plotsizesq":200,"plot_size":"200 SQMT","plot_no":"044","sector":"88","block":"C","mplanduse":"B","ppt_type":"IND","ppt_full":"Industrial","authority":"NOIDA","category":"industrial","execution_stage":"allotted"}},{"type":"Feature","geometry":{"type":"Polygon","coordinates":[[[77.425555,28.528884],[77.425542,28.529019],[77.425234,28.528995],[77.425247,28.528859],[77.425555,28.528884]]]},"properties":{"objectid":61884,"plotmapid":"88C022IND","property_t":"Industrial","used":"NA","allotted_p":"Yes","plotsizesq":450,"plot_size":"450 SQMT","plot_no":"022","sector":"88","block":"C","mplanduse":"B","ppt_type":"IND","ppt_full":"Industrial","authority":"NOIDA","category":"industrial","execution_stage":"allotted"}},{"type":"Feature","geometry":{"type":"Polygon","coordinates":[[[77.424917,28.529107],[77.425221,28.529131],[77.425208,28.529266],[77.424903,28.529242],[77.424917,28.529107]]]},"properties":{"objectid":61885,"plotmapid":"88C011IND","property_t":"Industrial","used":"NA","allotted_p":"Yes","plotsizesq":450,"plot_size":"450 SQMT","plot_no":"011","sector":"88","block":"C","mplanduse":"B","ppt_type":"IND","ppt_full":"Industrial","authority":"NOIDA","category":"industrial","execution_stage":"allotted"}},{"type":"Feature","geometry":{"type":"Polygon","coordinates":[[[77.425755,28.528712],[77.425764,28.52862],[77.425971,28.528636],[77.425962,28.528728],[77.425755,28.528712]]]},"properties":{"objectid":61888,"plotmapid":"88C043IND","property_t":"Industrial","used":"NA","allotted_p":"Yes","plotsizesq":200,"plot_size":"200 SQMT","plot_no":"043","sector":"88","block":"C","mplanduse":"B","ppt_type":"IND","ppt_full":"Industrial","authority":"NOIDA","category":"industrial","execution_stage":"allotted"}},{"type":"Feature","geometry":{"type":"Polygon","coordinates":[[[77.42598,28.528545],[77.425993,28.528421],[77.426188,28.528464],[77.426178,28.52856],[77.42598,28.528545]]]},"properties":{"objectid":61889,"plotmapid":"88C046IND","property_t":"Industrial","used":"NA","allotted_p":"Yes","plotsizesq":239,"plot_no":"046","sector":"88","block":"C","mplanduse":"B","ppt_type":"IND","ppt_full":"Industrial","authority":"NOIDA","category":"industrial","execution_stage":"allotted"}},{"type":"Feature","geometry":{"type":"Polygon","coordinates":[[[77.425542,28.529019],[77.425528,28.529155],[77.425221,28.529131],[77.425234,28.528995],[77.425542,28.529019]]]},"properties":{"objectid":61890,"plotmapid":"88C023IND","property_t":"Industrial","used":"NA","allotted_p":"Yes","plotsizesq":450,"plot_size":"450 SQMT","plot_no":"023","sector":"88","block":"C","mplanduse":"B","ppt_type":"IND","ppt_full":"Industrial","authority":"NOIDA","category":"industrial","execution_stage":"allotted"}},{"type":"Feature","geometry":{"type":"Polygon","coordinates":[[[77.426178,28.52856],[77.426169,28.528652],[77.425971,28.528636],[77.42598,28.528545],[77.426178,28.52856]]]},"properties":{"objectid":61892,"plotmapid":"88C047IND","property_t":"Industrial","used":"NA","allotted_p":"Yes","plotsizesq":200,"plot_size":"200 SQMT","plot_no":"047","sector":"88","block":"C","mplanduse":"B","ppt_type":"IND","ppt_full":"Industrial","authority":"NOIDA","category":"industrial","execution_stage":"allotted"}},{"type":"Feature","geometry":{"type":"Polygon","coordinates":[[[77.425962,28.528728],[77.425953,28.52882],[77.425747,28.528802],[77.425755,28.528712],[77.425962,28.528728]]]},"properties":{"objectid":61893,"plotmapid":"88C042IND","property_t":"Industrial","used":"NA","allotted_p":"Yes","plotsizesq":200,"plot_size":"200 SQMT","plot_no":"042","sector":"88","block":"C","mplanduse":"B","ppt_type":"IND","ppt_full":"Industrial","authority":"NOIDA","category":"industrial","execution_stage":"allotted"}},{"type":"Feature","geometry":{"type":"Polygon","coordinates":[[[77.424903,28.529242],[77.425208,28.529266],[77.425196,28.529402],[77.424889,28.529378],[77.424903,28.529242]]]},"properties":{"objectid":61894,"plotmapid":"88C010IND","property_t":"Industrial","used":"NA","allotted_p":"Yes","plotsizesq":450,"plot_size":"450 SQMT","plot_no":"010","sector":"88","block":"C","mplanduse":"B","ppt_type":"IND","ppt_full":"Industrial","authority":"NOIDA","category":"industrial","execution_stage":"allotted"}},{"type":"Feature","geometry":{"type":"Polygon","coordinates":[[[77.425953,28.52882],[77.425945,28.528909],[77.425739,28.528892],[77.425747,28.528802],[77.425953,28.52882]]]},"properties":{"objectid":61898,"plotmapid":"88C041IND","property_t":"Industrial","used":"NA","allotted_p":"Yes","plotsizesq":200,"plot_size":"200 SQMT","plot_no":"041","sector":"88","block":"C","mplanduse":"B","ppt_type":"IND","ppt_full":"Industrial","authority":"NOIDA","category":"industrial","execution_stage":"allotted"}},{"type":"Feature","geometry":{"type":"Polygon","coordinates":[[[77.425962,28.528728],[77.425971,28.528636],[77.426169,28.528652],[77.42616,28.528743],[77.425962,28.528728]]]},"properties":{"objectid":61899,"plotmapid":"88C048IND","property_t":"Industrial","used":"NA","allotted_p":"Yes","plotsizesq":200,"plot_size":"200 SQMT","plot_no":"048","sector":"88","block":"C","mplanduse":"B","ppt_type":"IND","ppt_full":"Industrial","authority":"NOIDA","category":"industrial","execution_stage":"allotted"}},{"type":"Feature","geometry":{"type":"Polygon","coordinates":[[[77.425528,28.529155],[77.425515,28.529291],[77.425208,28.529266],[77.425221,28.529131],[77.425528,28.529155]]]},"properties":{"objectid":61900,"plotmapid":"88C024IND","property_t":"Industrial","used":"NA","allotted_p":"Yes","plotsizesq":450,"plot_size":"450 SQMT","plot_no":"024","sector":"88","block":"C","mplanduse":"B","ppt_type":"IND","ppt_full":"Industrial","authority":"NOIDA","category":"industrial","execution_stage":"allotted"}},{"type":"Feature","geometry":{"type":"Polygon","coordinates":[[[77.424889,28.529378],[77.425196,28.529402],[77.425183,28.529538],[77.424875,28.529514],[77.424889,28.529378]]]},"properties":{"objectid":61902,"plotmapid":"88C009IND","property_t":"Industrial","used":"NA","plotsizesq":450,"plot_size":"450 SQMT","plot_no":"009","sector":"88","block":"C","mplanduse":"B","ppt_type":"IND","ppt_full":"Industrial","authority":"NOIDA","category":"industrial","execution_stage":"unknown"}},{"type":"Feature","geometry":{"type":"Polygon","coordinates":[[[77.42616,28.528743],[77.42615,28.528836],[77.425953,28.52882],[77.425962,28.528728],[77.42616,28.528743]]]},"properties":{"objectid":61905,"plotmapid":"88C049IND","property_t":"Industrial","used":"NA","allotted_p":"Yes","plotsizesq":200,"plot_size":"200 SQMT","plot_no":"049","sector":"88","block":"C","mplanduse":"B","ppt_type":"IND","ppt_full":"Industrial","authority":"NOIDA","category":"industrial","execution_stage":"allotted"}},{"type":"Feature","geometry":{"type":"Polygon","coordinates":[[[77.425196,28.529402],[77.425208,28.529266],[77.425515,28.529291],[77.425502,28.529423],[77.425196,28.529402]]]},"properties":{"objectid":61906,"plotmapid":"88C025IND","property_t":"Industrial","used":"NA","allotted_p":"Yes","plotsizesq":450,"plot_size":"450 SQMT","plot_no":"025","sector":"88","block":"C","mplanduse":"B","ppt_type":"IND","ppt_full":"Industrial","authority":"NOIDA","category":"industrial","execution_stage":"allotted"}},{"type":"Feature","geometry":{"type":"Polygon","coordinates":[[[77.425945,28.528909],[77.425953,28.52882],[77.42615,28.528836],[77.426142,28.528922],[77.425945,28.528909]]]},"properties":{"objectid":61907,"plotmapid":"88C050IND","property_t":"Industrial","used":"NA","allotted_p":"Yes","plotsizesq":200,"plot_size":"200 SQMT","plot_no":"050","sector":"88","block":"C","mplanduse":"B","ppt_type":"IND","ppt_full":"Industrial","authority":"NOIDA","category":"industrial","execution_stage":"allotted"}},{"type":"Feature","geometry":{"type":"Polygon","coordinates":[[[77.425935,28.528998],[77.425925,28.529087],[77.425721,28.52907],[77.425731,28.528981],[77.425935,28.528998]]]},"properties":{"objectid":61908,"plotmapid":"88C039IND","property_t":"Industrial","used":"NA","allotted_p":"Yes","plotsizesq":200,"plot_size":"200 SQMT","plot_no":"039","sector":"88","block":"C","mplanduse":"B","ppt_type":"IND","ppt_full":"Industrial","authority":"NOIDA","category":"industrial","execution_stage":"allotted"}},{"type":"Feature","geometry":{"type":"Polygon","coordinates":[[[77.424862,28.529647],[77.424875,28.529514],[77.425183,28.529538],[77.42517,28.52967],[77.424862,28.529647]]]},"properties":{"objectid":61909,"plotmapid":"88C008IND","property_t":"Industrial","used":"NA","plotsizesq":450,"plot_size":"450 SQMT","plot_no":"008","sector":"88","block":"C","mplanduse":"B","ppt_type":"IND","ppt_full":"Industrial","authority":"NOIDA","category":"industrial","execution_stage":"unknown"}},{"type":"Feature","geometry":{"type":"Polygon","coordinates":[[[77.425925,28.529087],[77.425915,28.529177],[77.425711,28.52916],[77.425721,28.52907],[77.425925,28.529087]]]},"properties":{"objectid":61912,"plotmapid":"88C038IND","property_t":"Industrial","used":"NA","allotted_p":"Yes","plotsizesq":200,"plot_size":"200 SQMT","plot_no":"038","sector":"88","block":"C","mplanduse":"B","ppt_type":"IND","ppt_full":"Industrial","authority":"NOIDA","category":"industrial","execution_stage":"allotted"}},{"type":"Feature","geometry":{"type":"Polygon","coordinates":[[[77.425502,28.529423],[77.425488,28.529562],[77.425183,28.529538],[77.425196,28.529402],[77.425502,28.529423]]]},"properties":{"objectid":61913,"plotmapid":"88C026IND","property_t":"Industrial","used":"NA","allotted_p":"Yes","plotsizesq":450,"plot_size":"450 SQMT","plot_no":"026","sector":"88","block":"C","mplanduse":"B","ppt_type":"IND","ppt_full":"Industrial","authority":"NOIDA","category":"industrial","execution_stage":"allotted"}},{"type":"Feature","geometry":{"type":"Polygon","coordinates":[[[77.42517,28.52967],[77.425157,28.529809],[77.424849,28.529785],[77.424862,28.529647],[77.42517,28.52967]]]},"properties":{"objectid":61914,"plotmapid":"88C007IND","property_t":"Industrial","used":"NA","plotsizesq":450,"plot_size":"450 SQMT","plot_no":"007","sector":"88","block":"C","mplanduse":"B","ppt_type":"IND","ppt_full":"Industrial","authority":"NOIDA","category":"industrial","execution_stage":"unknown"}},{"type":"Feature","geometry":{"type":"Polygon","coordinates":[[[77.426133,28.529012],[77.426123,28.529104],[77.425925,28.529087],[77.425935,28.528998],[77.426133,28.529012]]]},"properties":{"objectid":61916,"plotmapid":"88C052IND","property_t":"Industrial","used":"NA","allotted_p":"Yes","plotsizesq":200,"plot_size":"200 SQMT","plot_no":"052","sector":"88","block":"C","mplanduse":"B","ppt_type":"IND","ppt_full":"Industrial","authority":"NOIDA","category":"industrial","execution_stage":"allotted"}},{"type":"Feature","geometry":{"type":"Polygon","coordinates":[[[77.425915,28.529177],[77.425907,28.529266],[77.425703,28.529249],[77.425711,28.52916],[77.425915,28.529177]]]},"properties":{"objectid":61917,"plotmapid":"88C037IND","property_t":"Industrial","used":"NA","allotted_p":"Yes","plotsizesq":200,"plot_size":"200 SQMT","plot_no":"037","sector":"88","block":"C","mplanduse":"B","ppt_type":"IND","ppt_full":"Industrial","authority":"NOIDA","category":"industrial","execution_stage":"allotted"}},{"type":"Feature","geometry":{"type":"Polygon","coordinates":[[[77.42517,28.52967],[77.425183,28.529538],[77.425488,28.529562],[77.425475,28.529694],[77.42517,28.52967]]]},"properties":{"objectid":61918,"plotmapid":"88C027IND","property_t":"Industrial","used":"NA","allotted_p":"Yes","plotsizesq":450,"plot_size":"450 SQMT","plot_no":"027","sector":"88","block":"C","mplanduse":"B","ppt_type":"IND","ppt_full":"Industrial","authority":"NOIDA","category":"industrial","execution_stage":"allotted"}},{"type":"Feature","geometry":{"type":"Polygon","coordinates":[[[77.426123,28.529104],[77.426114,28.529193],[77.425915,28.529177],[77.425925,28.529087],[77.426123,28.529104]]]},"properties":{"objectid":61920,"plotmapid":"88C053IND","property_t":"Industrial","used":"NA","allotted_p":"Yes","plotsizesq":200,"plot_size":"200 SQMT","plot_no":"053","sector":"88","block":"C","mplanduse":"B","ppt_type":"IND","ppt_full":"Industrial","authority":"NOIDA","category":"industrial","execution_stage":"allotted"}},{"type":"Feature","geometry":{"type":"Polygon","coordinates":[[[77.425907,28.529266],[77.425898,28.529355],[77.425695,28.529338],[77.425703,28.529249],[77.425907,28.529266]]]},"properties":{"objectid":61921,"plotmapid":"88C036IND","property_t":"Industrial","used":"NA","allotted_p":"Yes","plotsizesq":200,"plot_size":"200 SQMT","plot_no":"036","sector":"88","block":"C","mplanduse":"B","ppt_type":"IND","ppt_full":"Industrial","authority":"NOIDA","category":"industrial","execution_stage":"allotted"}},{"type":"Feature","geometry":{"type":"Polygon","coordinates":[[[77.424849,28.529785],[77.425157,28.529809],[77.425144,28.529945],[77.424836,28.52992],[77.424849,28.529785]]]},"properties":{"objectid":61922,"plotmapid":"88C006IND","property_t":"Industrial","used":"NA","plotsizesq":450,"plot_size":"450 SQMT","plot_no":"006","sector":"88","block":"C","mplanduse":"B","ppt_type":"IND","ppt_full":"Industrial","authority":"NOIDA","category":"industrial","execution_stage":"unknown"}},{"type":"Feature","geometry":{"type":"Polygon","coordinates":[[[77.425157,28.529809],[77.42517,28.52967],[77.425475,28.529694],[77.425461,28.529829],[77.425157,28.529809]]]},"properties":{"objectid":61924,"plotmapid":"88C028IND","property_t":"Industrial","used":"NA","allotted_p":"Yes","plotsizesq":450,"plot_size":"450 SQMT","plot_no":"028","sector":"88","block":"C","mplanduse":"B","ppt_type":"IND","ppt_full":"Industrial","authority":"NOIDA","category":"industrial","execution_stage":"allotted"}},{"type":"Feature","geometry":{"type":"Polygon","coordinates":[[[77.426114,28.529193],[77.426105,28.529282],[77.425907,28.529266],[77.425915,28.529177],[77.426114,28.529193]]]},"properties":{"objectid":61925,"plotmapid":"88C054IND","property_t":"Industrial","used":"NA","allotted_p":"Yes","plotsizesq":200,"plot_size":"200 SQMT","plot_no":"054","sector":"88","block":"C","mplanduse":"B","ppt_type":"IND","ppt_full":"Industrial","authority":"NOIDA","category":"industrial","execution_stage":"allotted"}},{"type":"Feature","geometry":{"type":"Polygon","coordinates":[[[77.424822,28.530052],[77.424836,28.52992],[77.425144,28.529945],[77.42513,28.530077],[77.424822,28.530052]]]},"properties":{"objectid":61926,"plotmapid":"88C005IND","property_t":"Industrial","used":"NA","plotsizesq":450,"plot_size":"450 SQMT","plot_no":"005","sector":"88","block":"C","mplanduse":"B","ppt_type":"IND","ppt_full":"Industrial","authority":"NOIDA","category":"industrial","execution_stage":"unknown"}},{"type":"Feature","geometry":{"type":"Polygon","coordinates":[[[77.426096,28.529372],[77.426088,28.529461],[77.42589,28.529445],[77.425898,28.529355],[77.426096,28.529372]]]},"properties":{"objectid":61927,"plotmapid":"88C056IND","property_t":"Industrial","used":"NA","allotted_p":"Yes","plotsizesq":200,"plot_size":"200 SQMT","plot_no":"056","sector":"88","block":"C","mplanduse":"B","ppt_type":"IND","ppt_full":"Industrial","authority":"NOIDA","category":"industrial","execution_stage":"allotted"}},{"type":"Feature","geometry":{"type":"Polygon","coordinates":[[[77.42513,28.530077],[77.425116,28.530213],[77.424808,28.530188],[77.424822,28.530052],[77.42513,28.530077]]]},"properties":{"objectid":61928,"plotmapid":"88C004IND","property_t":"Industrial","used":"NA","plotsizesq":450,"plot_size":"450 SQMT","plot_no":"004","sector":"88","block":"C","mplanduse":"B","ppt_type":"IND","ppt_full":"Industrial","authority":"NOIDA","category":"industrial","execution_stage":"unknown"}},{"type":"Feature","geometry":{"type":"Polygon","coordinates":[[[77.42513,28.530077],[77.425144,28.529945],[77.425447,28.529969],[77.425434,28.530103],[77.42513,28.530077]]]},"properties":{"objectid":61929,"plotmapid":"88C030IND","property_t":"Industrial","used":"NA","allotted_p":"Yes","plotsizesq":450,"plot_size":"450 SQMT","plot_no":"030","sector":"88","block":"C","mplanduse":"B","ppt_type":"IND","ppt_full":"Industrial","authority":"NOIDA","category":"industrial","execution_stage":"allotted"}},{"type":"Feature","geometry":{"type":"Polygon","coordinates":[[[77.425116,28.530213],[77.425102,28.530345],[77.424794,28.530321],[77.424808,28.530188],[77.425116,28.530213]]]},"properties":{"objectid":61930,"plotmapid":"88C003IND","property_t":"Industrial","used":"NA","plotsizesq":450,"plot_size":"450 SQMT","plot_no":"003","sector":"88","block":"C","mplanduse":"B","ppt_type":"IND","ppt_full":"Industrial","authority":"NOIDA","category":"industrial","execution_stage":"unknown"}},{"type":"Feature","geometry":{"type":"Polygon","coordinates":[[[77.425434,28.530103],[77.425421,28.530237],[77.425116,28.530213],[77.42513,28.530077],[77.425434,28.530103]]]},"properties":{"objectid":61931,"plotmapid":"88C031IND","property_t":"Industrial","used":"NA","allotted_p":"Yes","plotsizesq":450,"plot_size":"450 SQMT","plot_no":"031","sector":"88","block":"C","mplanduse":"B","ppt_type":"IND","ppt_full":"Industrial","authority":"NOIDA","category":"industrial","execution_stage":"allotted"}},{"type":"Feature","geometry":{"type":"Polygon","coordinates":[[[77.425102,28.530345],[77.425087,28.530483],[77.424781,28.530459],[77.424794,28.530321],[77.425102,28.530345]]]},"properties":{"objectid":61932,"plotmapid":"88C002IND","property_t":"Industrial","used":"NA","plotsizesq":450,"plot_size":"450 SQMT","plot_no":"002","sector":"88","block":"C","mplanduse":"B","ppt_type":"IND","ppt_full":"Industrial","authority":"NOIDA","category":"industrial","execution_stage":"unknown"}},{"type":"Feature","geometry":{"type":"Polygon","coordinates":[[[77.425421,28.530237],[77.425408,28.530368],[77.425102,28.530345],[77.425116,28.530213],[77.425421,28.530237]]]},"properties":{"objectid":61933,"plotmapid":"88C032IND","property_t":"Industrial","used":"NA","allotted_p":"Yes","plotsizesq":450,"plot_size":"450 SQMT","plot_no":"032","sector":"88","block":"C","mplanduse":"B","ppt_type":"IND","ppt_full":"Industrial","authority":"NOIDA","category":"industrial","execution_stage":"allotted"}},{"type":"Feature","geometry":{"type":"Polygon","coordinates":[[[77.425067,28.530678],[77.424757,28.530707],[77.424781,28.530459],[77.425087,28.530483],[77.425067,28.530678]]]},"properties":{"objectid":61934,"plotmapid":"88C001IND","property_t":"Industrial","used":"NA","plotsizesq":0,"plot_no":"001","sector":"88","block":"C","mplanduse":"B","ppt_type":"IND","ppt_full":"Industrial","authority":"NOIDA","category":"industrial","execution_stage":"unknown"}},{"type":"Feature","geometry":{"type":"Polygon","coordinates":[[[77.425408,28.530368],[77.425394,28.530507],[77.425087,28.530483],[77.425102,28.530345],[77.425408,28.530368]]]},"properties":{"objectid":61935,"plotmapid":"88C033IND","property_t":"Industrial","used":"NA","allotted_p":"Yes","plotsizesq":450,"plot_size":"450 SQMT","plot_no":"033","sector":"88","block":"C","mplanduse":"B","ppt_type":"IND","ppt_full":"Industrial","authority":"NOIDA","category":"industrial","execution_stage":"allotted"}},{"type":"Feature","geometry":{"type":"Polygon","coordinates":[[[77.425394,28.530507],[77.42538,28.53065],[77.425067,28.530678],[77.425087,28.530483],[77.425394,28.530507]]]},"properties":{"objectid":61937,"plotmapid":"88C034IND","property_t":"Industrial","used":"NA","allotted_p":"Yes","plotsizesq":583.5,"plot_no":"034","sector":"88","block":"C","mplanduse":"B","ppt_type":"IND","ppt_full":"Industrial","authority":"NOIDA","category":"industrial","execution_stage":"allotted"}},{"type":"Feature","geometry":{"type":"Polygon","coordinates":[[[77.426509,28.529773],[77.42662,28.529917],[77.426536,28.529965],[77.426428,28.529821],[77.426509,28.529773]]]},"properties":{"objectid":61938,"plotmapid":"88C057IND","property_t":"Industrial","used":"NA","allotted_p":"Yes","plotsizesq":200,"plot_size":"200 SQMT","plot_no":"057","sector":"88","block":"C","mplanduse":"B","ppt_type":"IND","ppt_full":"Industrial","authority":"NOIDA","category":"industrial","execution_stage":"allotted"}},{"type":"Feature","geometry":{"type":"Polygon","coordinates":[[[77.426595,28.529722],[77.426706,28.529867],[77.42662,28.529917],[77.426509,28.529773],[77.426595,28.529722]]]},"properties":{"objectid":61939,"plotmapid":"88C058IND","property_t":"Industrial","used":"NA","allotted_p":"Yes","plotsizesq":200,"plot_size":"200 SQMT","plot_no":"058","sector":"88","block":"C","mplanduse":"B","ppt_type":"IND","ppt_full":"Industrial","authority":"NOIDA","category":"industrial","execution_stage":"allotted"}},{"type":"Feature","geometry":{"type":"Polygon","coordinates":[[[77.426792,28.529816],[77.426706,28.529867],[77.426595,28.529722],[77.426681,28.529671],[77.426792,28.529816]]]},"properties":{"objectid":61940,"plotmapid":"88C059IND","property_t":"Industrial","used":"NA","allotted_p":"Yes","plotsizesq":200,"plot_size":"200 SQMT","plot_no":"059","sector":"88","block":"C","mplanduse":"B","ppt_type":"IND","ppt_full":"Industrial","authority":"NOIDA","category":"industrial","execution_stage":"allotted"}},{"type":"Feature","geometry":{"type":"Polygon","coordinates":[[[77.426884,28.529763],[77.426792,28.529816],[77.426681,28.529671],[77.426772,28.529617],[77.426884,28.529763]]]},"properties":{"objectid":61941,"plotmapid":"88C060IND","property_t":"Industrial","used":"NA","allotted_p":"Yes","plotsizesq":200,"plot_size":"200 SQMT","plot_no":"060","sector":"88","block":"C","mplanduse":"B","ppt_type":"IND","ppt_full":"Industrial","authority":"NOIDA","category":"industrial","execution_stage":"allotted"}},{"type":"Feature","geometry":{"type":"Polygon","coordinates":[[[77.426772,28.529617],[77.426853,28.529569],[77.426965,28.529716],[77.426884,28.529763],[77.426772,28.529617]]]},"properties":{"objectid":61942,"plotmapid":"88C061IND","property_t":"Industrial","used":"NA","allotted_p":"Yes","plotsizesq":200,"plot_size":"200 SQMT","plot_no":"061","sector":"88","block":"C","mplanduse":"B","ppt_type":"IND","ppt_full":"Industrial","authority":"NOIDA","category":"industrial","execution_stage":"allotted"}},{"type":"Feature","geometry":{"type":"Polygon","coordinates":[[[77.426938,28.529518],[77.427052,28.529666],[77.426965,28.529716],[77.426853,28.529569],[77.426938,28.529518]]]},"properties":{"objectid":61943,"plotmapid":"88C062IND","property_t":"Industrial","used":"NA","allotted_p":"Yes","plotsizesq":200,"plot_size":"200 SQMT","plot_no":"062","sector":"88","block":"C","mplanduse":"B","ppt_type":"IND","ppt_full":"Industrial","authority":"NOIDA","category":"industrial","execution_stage":"allotted"}},{"type":"Feature","geometry":{"type":"Polygon","coordinates":[[[77.427024,28.529467],[77.427138,28.529616],[77.427052,28.529666],[77.426938,28.529518],[77.427024,28.529467]]]},"properties":{"objectid":61944,"plotmapid":"88C063IND","property_t":"Industrial","used":"NA","allotted_p":"Yes","plotsizesq":200,"plot_size":"200 SQMT","plot_no":"063","sector":"88","block":"C","mplanduse":"B","ppt_type":"IND","ppt_full":"Industrial","authority":"NOIDA","category":"industrial","execution_stage":"allotted"}},{"type":"Feature","geometry":{"type":"Polygon","coordinates":[[[77.427225,28.529565],[77.427138,28.529616],[77.427024,28.529467],[77.42711,28.529416],[77.427225,28.529565]]]},"properties":{"objectid":61945,"plotmapid":"88C064IND","property_t":"Industrial","used":"NA","allotted_p":"Yes","plotsizesq":200,"plot_size":"200 SQMT","plot_no":"064","sector":"88","block":"C","mplanduse":"B","ppt_type":"IND","ppt_full":"Industrial","authority":"NOIDA","category":"industrial","execution_stage":"allotted"}},{"type":"Feature","geometry":{"type":"Polygon","coordinates":[[[77.427301,28.529521],[77.427225,28.529565],[77.42711,28.529416],[77.427197,28.529366],[77.427311,28.529515],[77.427301,28.529521]]]},"properties":{"objectid":61946,"plotmapid":"88C065IND","property_t":"Industrial","used":"NA","allotted_p":"Yes","plotsizesq":200,"plot_size":"200 SQMT","plot_no":"065","sector":"88","block":"C","mplanduse":"B","ppt_type":"IND","ppt_full":"Industrial","authority":"NOIDA","category":"industrial","execution_stage":"allotted"}},{"type":"Feature","geometry":{"type":"Polygon","coordinates":[[[77.427394,28.529467],[77.427311,28.529515],[77.427197,28.529366],[77.427278,28.529317],[77.427394,28.529467]]]},"properties":{"objectid":61947,"plotmapid":"88C066IND","property_t":"Industrial","used":"NA","allotted_p":"Yes","plotsizesq":200,"plot_size":"200 SQMT","plot_no":"066","sector":"88","block":"C","mplanduse":"B","ppt_type":"IND","ppt_full":"Industrial","authority":"NOIDA","category":"industrial","execution_stage":"allotted"}},{"type":"Feature","geometry":{"type":"Polygon","coordinates":[[[77.427368,28.529264],[77.427522,28.529385],[77.427394,28.529467],[77.427278,28.529317],[77.427368,28.529264]]]},"properties":{"objectid":61948,"plotmapid":"88C067IND","property_t":"Industrial","used":"NA","allotted_p":"Yes","plotsizesq":259,"plot_no":"067","sector":"88","block":"C","mplanduse":"B","ppt_type":"IND","ppt_full":"Industrial","authority":"NOIDA","category":"industrial","execution_stage":"allotted"}},{"type":"Feature","geometry":{"type":"Polygon","coordinates":[[[77.426536,28.529965],[77.42662,28.529917],[77.426734,28.530066],[77.426649,28.530115],[77.426536,28.529965]]]},"properties":{"objectid":61950,"plotmapid":"88C078IND","property_t":"Industrial","used":"NA","allotted_p":"Yes","plotsizesq":200,"plot_size":"200 SQMT","plot_no":"078","sector":"88","block":"C","mplanduse":"B","ppt_type":"IND","ppt_full":"Industrial","authority":"NOIDA","category":"industrial","execution_stage":"allotted"}},{"type":"Feature","geometry":{"type":"Polygon","coordinates":[[[77.426706,28.529867],[77.42682,28.530016],[77.426734,28.530066],[77.42662,28.529917],[77.426706,28.529867]]]},"properties":{"objectid":61951,"plotmapid":"88C077IND","property_t":"Industrial","used":"NA","allotted_p":"Yes","plotsizesq":200,"plot_size":"200 SQMT","plot_no":"077","sector":"88","block":"C","mplanduse":"B","ppt_type":"IND","ppt_full":"Industrial","authority":"NOIDA","category":"industrial","execution_stage":"allotted"}},{"type":"Feature","geometry":{"type":"Polygon","coordinates":[[[77.426792,28.529816],[77.426907,28.529965],[77.42682,28.530016],[77.426706,28.529867],[77.426792,28.529816]]]},"properties":{"objectid":61952,"plotmapid":"88C076IND","property_t":"Industrial","used":"NA","allotted_p":"Yes","plotsizesq":200,"plot_size":"200 SQMT","plot_no":"076","sector":"88","block":"C","mplanduse":"B","ppt_type":"IND","ppt_full":"Industrial","authority":"NOIDA","category":"industrial","execution_stage":"allotted"}},{"type":"Feature","geometry":{"type":"Polygon","coordinates":[[[77.426998,28.529912],[77.426907,28.529965],[77.426792,28.529816],[77.426884,28.529763],[77.426998,28.529912]]]},"properties":{"objectid":61953,"plotmapid":"88C075IND","property_t":"Industrial","used":"NA","allotted_p":"Yes","plotsizesq":200,"plot_size":"200 SQMT","plot_no":"075","sector":"88","block":"C","mplanduse":"B","ppt_type":"IND","ppt_full":"Industrial","authority":"NOIDA","category":"industrial","execution_stage":"allotted"}},{"type":"Feature","geometry":{"type":"Polygon","coordinates":[[[77.426884,28.529763],[77.426965,28.529716],[77.42708,28.529865],[77.426998,28.529912],[77.426884,28.529763]]]},"properties":{"objectid":61954,"plotmapid":"88C074IND","property_t":"Industrial","used":"NA","allotted_p":"Yes","plotsizesq":200,"plot_size":"200 SQMT","plot_no":"074","sector":"88","block":"C","mplanduse":"B","ppt_type":"IND","ppt_full":"Industrial","authority":"NOIDA","category":"industrial","execution_stage":"allotted"}},{"type":"Feature","geometry":{"type":"Polygon","coordinates":[[[77.427052,28.529666],[77.427166,28.529815],[77.42708,28.529865],[77.426965,28.529716],[77.427052,28.529666]]]},"properties":{"objectid":61955,"plotmapid":"88C073IND","property_t":"Industrial","used":"NA","allotted_p":"Yes","plotsizesq":200,"plot_size":"200 SQMT","plot_no":"073","sector":"88","block":"C","mplanduse":"B","ppt_type":"IND","ppt_full":"Industrial","authority":"NOIDA","category":"industrial","execution_stage":"allotted"}},{"type":"Feature","geometry":{"type":"Polygon","coordinates":[[[77.427138,28.529616],[77.427253,28.529765],[77.427166,28.529815],[77.427052,28.529666],[77.427138,28.529616]]]},"properties":{"objectid":61956,"plotmapid":"88C072IND","property_t":"Industrial","used":"NA","allotted_p":"Yes","plotsizesq":200,"plot_size":"200 SQMT","plot_no":"072","sector":"88","block":"C","mplanduse":"B","ppt_type":"IND","ppt_full":"Industrial","authority":"NOIDA","category":"industrial","execution_stage":"allotted"}},{"type":"Feature","geometry":{"type":"Polygon","coordinates":[[[77.427339,28.529714],[77.427253,28.529765],[77.427138,28.529616],[77.427225,28.529565],[77.427339,28.529714]]]},"properties":{"objectid":61957,"plotmapid":"88C071IND","property_t":"Industrial","used":"NA","allotted_p":"Yes","plotsizesq":200,"plot_size":"200 SQMT","plot_no":"071","sector":"88","block":"C","mplanduse":"B","ppt_type":"IND","ppt_full":"Industrial","authority":"NOIDA","category":"industrial","execution_stage":"allotted"}},{"type":"Feature","geometry":{"type":"Polygon","coordinates":[[[77.427414,28.529671],[77.427339,28.529714],[77.427225,28.529565],[77.427301,28.529521],[77.427414,28.529671]]]},"properties":{"objectid":61958,"plotmapid":"88C070IND","property_t":"Industrial","used":"NA","allotted_p":"Yes","plotsizesq":200,"plot_size":"200 SQMT","plot_no":"070","sector":"88","block":"C","mplanduse":"B","ppt_type":"IND","ppt_full":"Industrial","authority":"NOIDA","category":"industrial","execution_stage":"allotted"}},{"type":"Feature","geometry":{"type":"Polygon","coordinates":[[[77.427679,28.529509],[77.427505,28.529617],[77.427394,28.529467],[77.427522,28.529385],[77.427679,28.529509]]]},"properties":{"objectid":61959,"plotmapid":"88C068IND","property_t":"Industrial","used":"NA","allotted_p":"Yes","plotsizesq":366,"plot_no":"068","sector":"88","block":"C","mplanduse":"B","ppt_type":"IND","ppt_full":"Industrial","authority":"NOIDA","category":"industrial","execution_stage":"allotted"}},{"type":"Feature","geometry":{"type":"Polygon","coordinates":[[[77.42757,28.529716],[77.427784,28.52959],[77.428104,28.529834],[77.427791,28.530019],[77.42757,28.529716]]]},"properties":{"objectid":61960,"plotmapid":"88C084IND","property_t":"Industrial","used":"NA","allotted_p":"Yes","plotsizesq":1220,"plot_no":"084","sector":"88","block":"C","mplanduse":"B","ppt_type":"IND","ppt_full":"Industrial","authority":"NOIDA","category":"industrial","execution_stage":"allotted"}},{"type":"Feature","geometry":{"type":"Polygon","coordinates":[[[77.427845,28.530417],[77.427621,28.530448],[77.427451,28.530214],[77.427616,28.530115],[77.427845,28.530417]]]},"properties":{"objectid":61963,"plotmapid":"88C088IND","property_t":"Industrial","used":"NA","allotted_p":"Yes","plotsizesq":717,"plot_size":"800 SQMT","plot_no":"088","sector":"88","block":"C","mplanduse":"B","ppt_type":"IND","ppt_full":"Industrial","authority":"NOIDA","category":"industrial","execution_stage":"allotted"}},{"type":"Feature","geometry":{"type":"Polygon","coordinates":[[[77.427791,28.530019],[77.428016,28.530318],[77.427845,28.530417],[77.427616,28.530115],[77.427791,28.530019]]]},"properties":{"objectid":61964,"plotmapid":"88C087IND","property_t":"Industrial","used":"NA","allotted_p":"Yes","plotsizesq":800,"plot_size":"800 SQMT","plot_no":"087","sector":"88","block":"C","mplanduse":"B","ppt_type":"IND","ppt_full":"Industrial","authority":"NOIDA","category":"industrial","execution_stage":"allotted"}},{"type":"Feature","geometry":{"type":"Polygon","coordinates":[[[77.427966,28.529916],[77.42819,28.530215],[77.428016,28.530318],[77.427791,28.530019],[77.427966,28.529916]]]},"properties":{"objectid":61965,"plotmapid":"88C086IND","property_t":"Industrial","used":"NA","allotted_p":"Yes","plotsizesq":800,"plot_size":"800 SQMT","plot_no":"086","sector":"88","block":"C","mplanduse":"B","ppt_type":"IND","ppt_full":"Industrial","authority":"NOIDA","category":"industrial","execution_stage":"allotted"}},{"type":"Feature","geometry":{"type":"Polygon","coordinates":[[[77.428104,28.529834],[77.428417,28.530079],[77.42819,28.530215],[77.427966,28.529916],[77.428104,28.529834]]]},"properties":{"objectid":61966,"plotmapid":"88C085IND","property_t":"Industrial","used":"NA","allotted_p":"Yes","plotsizesq":880,"plot_no":"085","sector":"88","block":"C","mplanduse":"B","ppt_type":"IND","ppt_full":"Industrial","authority":"NOIDA","category":"industrial","execution_stage":"allotted"}},{"type":"Feature","geometry":{"type":"Polygon","coordinates":[[[77.424335,28.534456],[77.424465,28.533234],[77.426629,28.533416],[77.426507,28.534638],[77.424335,28.534456]]]},"properties":{"objectid":61970,"plotmapid":"88A004IND","property_t":"Industrial","used":"(INDUSTRIAL USE)","allotted_p":"Yes","plotsizesq":29111.04,"plot_size":"29400 SQMT","plot_no":"004","sector":"88","block":"A","mplanduse":"B","ppt_type":"IND","ppt_full":"Industrial","authority":"NOIDA","category":"industrial","execution_stage":"allotted"}},{"type":"Feature","geometry":{"type":"Polygon","coordinates":[[[77.426952,28.530512],[77.426727,28.530212],[77.426888,28.530116],[77.42711,28.530416],[77.426952,28.530512]]]},"properties":{"objectid":61976,"plotmapid":"88C079IND","property_t":"Industrial","used":"NA","allotted_p":"Yes","plotsizesq":724,"plot_size":"800 SQMT","plot_no":"079","sector":"88","block":"C","mplanduse":"B","ppt_type":"IND","ppt_full":"Industrial","authority":"NOIDA","category":"industrial","execution_stage":"allotted"}},{"type":"Feature","geometry":{"type":"Polygon","coordinates":[[[77.427058,28.530019],[77.427278,28.530318],[77.42711,28.530416],[77.426888,28.530116],[77.427058,28.530019]]]},"properties":{"objectid":61977,"plotmapid":"88C080IND","property_t":"Industrial","used":"NA","allotted_p":"Yes","plotsizesq":800,"plot_size":"800 SQMT","plot_no":"080","sector":"88","block":"C","mplanduse":"B","ppt_type":"IND","ppt_full":"Industrial","authority":"NOIDA","category":"industrial","execution_stage":"allotted"}},{"type":"Feature","geometry":{"type":"Polygon","coordinates":[[[77.427451,28.530214],[77.427278,28.530318],[77.427057,28.530017],[77.427229,28.529914],[77.427451,28.530214]]]},"properties":{"objectid":61978,"plotmapid":"88C081IND","property_t":"Industrial","used":"NA","allotted_p":"Yes","plotsizesq":800,"plot_size":"800 SQMT","plot_no":"081","sector":"88","block":"C","mplanduse":"B","ppt_type":"IND","ppt_full":"Industrial","authority":"NOIDA","category":"industrial","execution_stage":"allotted"}},{"type":"Feature","geometry":{"type":"Polygon","coordinates":[[[77.427403,28.529815],[77.427616,28.530115],[77.427451,28.530214],[77.427229,28.529914],[77.427403,28.529815]]]},"properties":{"objectid":61979,"plotmapid":"88C082IND","property_t":"Industrial","used":"NA","allotted_p":"Yes","plotsizesq":800,"plot_size":"800 SQMT","plot_no":"082","sector":"88","block":"C","mplanduse":"B","ppt_type":"IND","ppt_full":"Industrial","authority":"NOIDA","category":"industrial","execution_stage":"allotted"}},{"type":"Feature","geometry":{"type":"Polygon","coordinates":[[[77.427791,28.530019],[77.427616,28.530115],[77.427401,28.529813],[77.42757,28.529716],[77.427791,28.530019]]]},"properties":{"objectid":61980,"plotmapid":"88C083IND","property_t":"Industrial","used":"NA","allotted_p":"Yes","plotsizesq":800,"plot_size":"800 SQMT","plot_no":"083","sector":"88","block":"C","mplanduse":"B","ppt_type":"IND","ppt_full":"Industrial","authority":"NOIDA","category":"industrial","execution_stage":"allotted"}},{"type":"Feature","geometry":{"type":"Polygon","coordinates":[[[77.427417,28.531793],[77.427406,28.53187],[77.427245,28.531856],[77.427256,28.531778],[77.427417,28.531793]]]},"properties":{"objectid":67280,"plotmapid":"88-TNB007IND","property_t":"Industrial","used":"NA","plotsizesq":120,"plot_size":"120 SQMT","plot_no":"007","sector":"88-TN","block":"B","mplanduse":"V","ppt_type":"IND","ppt_full":"Industrial","authority":"NOIDA","category":"industrial","execution_stage":"unknown"}},{"type":"Feature","geometry":{"type":"Polygon","coordinates":[[[77.427467,28.531432],[77.427455,28.531517],[77.427295,28.531502],[77.427307,28.531417],[77.427467,28.531432]]]},"properties":{"objectid":67317,"plotmapid":"88-TNB002IND","property_t":"Industrial","used":"NA","plotsizesq":120,"plot_size":"120 SQMT","plot_no":"002","sector":"88-TN","block":"B","mplanduse":"V","ppt_type":"IND","ppt_full":"Industrial","authority":"NOIDA","category":"industrial","execution_stage":"unknown"}},{"type":"Feature","geometry":{"type":"Polygon","coordinates":[[[77.427621,28.531446],[77.427611,28.531531],[77.427455,28.531517],[77.427467,28.531432],[77.427621,28.531446]]]},"properties":{"objectid":67318,"plotmapid":"88-TNB017IND","property_t":"Industrial","used":"NA","plotsizesq":120,"plot_size":"120 SQMT","plot_no":"017","sector":"88-TN","block":"B","mplanduse":"V","ppt_type":"IND","ppt_full":"Industrial","authority":"NOIDA","category":"industrial","execution_stage":"unknown"}},{"type":"Feature","geometry":{"type":"Polygon","coordinates":[[[77.427395,28.531947],[77.427385,28.532019],[77.427225,28.532005],[77.427235,28.531932],[77.427395,28.531947]]]},"properties":{"objectid":67319,"plotmapid":"88-TNB009IND","property_t":"Industrial","used":"NA","plotsizesq":120,"plot_size":"120 SQMT","plot_no":"009","sector":"88-TN","block":"B","mplanduse":"V","ppt_type":"IND","ppt_full":"Industrial","authority":"NOIDA","category":"industrial","execution_stage":"unknown"}},{"type":"Feature","geometry":{"type":"Polygon","coordinates":[[[77.427557,28.531961],[77.427548,28.532034],[77.427385,28.532019],[77.427395,28.531947],[77.427557,28.531961]]]},"properties":{"objectid":67320,"plotmapid":"88-TNB010IND","property_t":"Industrial","used":"NA","plotsizesq":120,"plot_size":"120 SQMT","plot_no":"010","sector":"88-TN","block":"B","mplanduse":"V","ppt_type":"IND","ppt_full":"Industrial","authority":"NOIDA","category":"industrial","execution_stage":"unknown"}},{"type":"Feature","geometry":{"type":"Polygon","coordinates":[[[77.427406,28.53187],[77.427395,28.531947],[77.427235,28.531932],[77.427245,28.531856],[77.427406,28.53187]]]},"properties":{"objectid":67321,"plotmapid":"88-TNB008IND","property_t":"Industrial","used":"NA","plotsizesq":120,"plot_size":"120 SQMT","plot_no":"008","sector":"88-TN","block":"B","mplanduse":"V","ppt_type":"IND","ppt_full":"Industrial","authority":"NOIDA","category":"industrial","execution_stage":"unknown"}},{"type":"Feature","geometry":{"type":"Polygon","coordinates":[[[77.427566,28.531885],[77.427557,28.531961],[77.427395,28.531947],[77.427406,28.53187],[77.427566,28.531885]]]},"properties":{"objectid":67322,"plotmapid":"88-TNB011IND","property_t":"Industrial","used":"NA","plotsizesq":120,"plot_size":"120 SQMT","plot_no":"011","sector":"88-TN","block":"B","mplanduse":"V","ppt_type":"IND","ppt_full":"Industrial","authority":"NOIDA","category":"industrial","execution_stage":"unknown"}},{"type":"Feature","geometry":{"type":"Polygon","coordinates":[[[77.427576,28.531807],[77.427566,28.531885],[77.427406,28.53187],[77.427417,28.531793],[77.427576,28.531807]]]},"properties":{"objectid":67323,"plotmapid":"88-TNB012IND","property_t":"Industrial","used":"NA","plotsizesq":120,"plot_size":"120 SQMT","plot_no":"012","sector":"88-TN","block":"B","mplanduse":"V","ppt_type":"IND","ppt_full":"Industrial","authority":"NOIDA","category":"industrial","execution_stage":"unknown"}},{"type":"Feature","geometry":{"type":"Polygon","coordinates":[[[77.427428,28.531712],[77.427417,28.531793],[77.427256,28.531778],[77.427268,28.531697],[77.427428,28.531712]]]},"properties":{"objectid":67324,"plotmapid":"88-TNB006IND","property_t":"Industrial","used":"NA","plotsizesq":120,"plot_size":"120 SQMT","plot_no":"006","sector":"88-TN","block":"B","mplanduse":"V","ppt_type":"IND","ppt_full":"Industrial","authority":"NOIDA","category":"industrial","execution_stage":"unknown"}},{"type":"Feature","geometry":{"type":"Polygon","coordinates":[[[77.427586,28.531726],[77.427576,28.531807],[77.427417,28.531793],[77.427428,28.531712],[77.427586,28.531726]]]},"properties":{"objectid":67325,"plotmapid":"88-TNB013IND","property_t":"Industrial","used":"NA","plotsizesq":120,"plot_size":"120 SQMT","plot_no":"013","sector":"88-TN","block":"B","mplanduse":"V","ppt_type":"IND","ppt_full":"Industrial","authority":"NOIDA","category":"industrial","execution_stage":"unknown"}},{"type":"Feature","geometry":{"type":"Polygon","coordinates":[[[77.427438,28.531644],[77.427428,28.531712],[77.427268,28.531697],[77.427277,28.53163],[77.427438,28.531644]]]},"properties":{"objectid":67326,"plotmapid":"88-TNB005IND","property_t":"Industrial","used":"NA","plotsizesq":120,"plot_size":"120 SQMT","plot_no":"005","sector":"88-TN","block":"B","mplanduse":"V","ppt_type":"IND","ppt_full":"Industrial","authority":"NOIDA","category":"industrial","execution_stage":"unknown"}},{"type":"Feature","geometry":{"type":"Polygon","coordinates":[[[77.427595,28.531659],[77.427586,28.531726],[77.427428,28.531712],[77.427438,28.531644],[77.427595,28.531659]]]},"properties":{"objectid":67327,"plotmapid":"88-TNB014IND","property_t":"Industrial","used":"NA","plotsizesq":120,"plot_size":"120 SQMT","plot_no":"014","sector":"88-TN","block":"B","mplanduse":"V","ppt_type":"IND","ppt_full":"Industrial","authority":"NOIDA","category":"industrial","execution_stage":"unknown"}},{"type":"Feature","geometry":{"type":"Polygon","coordinates":[[[77.427447,28.531576],[77.427438,28.531644],[77.427277,28.53163],[77.427286,28.531562],[77.427447,28.531576]]]},"properties":{"objectid":67328,"plotmapid":"88-TNB004IND","property_t":"Industrial","used":"NA","plotsizesq":120,"plot_size":"120 SQMT","plot_no":"004","sector":"88-TN","block":"B","mplanduse":"V","ppt_type":"IND","ppt_full":"Industrial","authority":"NOIDA","category":"industrial","execution_stage":"unknown"}},{"type":"Feature","geometry":{"type":"Polygon","coordinates":[[[77.427603,28.53159],[77.427595,28.531659],[77.427438,28.531644],[77.427447,28.531576],[77.427603,28.53159]]]},"properties":{"objectid":67329,"plotmapid":"88-TNB015IND","property_t":"Industrial","used":"NA","plotsizesq":120,"plot_size":"120 SQMT","plot_no":"015","sector":"88-TN","block":"B","mplanduse":"V","ppt_type":"IND","ppt_full":"Industrial","authority":"NOIDA","category":"industrial","execution_stage":"unknown"}},{"type":"Feature","geometry":{"type":"Polygon","coordinates":[[[77.427455,28.531517],[77.427447,28.531576],[77.427286,28.531562],[77.427295,28.531502],[77.427455,28.531517]]]},"properties":{"objectid":67330,"plotmapid":"88-TNB003IND","property_t":"Industrial","used":"NA","plotsizesq":120,"plot_size":"120 SQMT","plot_no":"003","sector":"88-TN","block":"B","mplanduse":"V","ppt_type":"IND","ppt_full":"Industrial","authority":"NOIDA","category":"industrial","execution_stage":"unknown"}},{"type":"Feature","geometry":{"type":"Polygon","coordinates":[[[77.427611,28.531531],[77.427603,28.53159],[77.427447,28.531576],[77.427455,28.531517],[77.427611,28.531531]]]},"properties":{"objectid":67331,"plotmapid":"88-TNB016IND","property_t":"Industrial","used":"NA","plotsizesq":120,"plot_size":"120 SQMT","plot_no":"016","sector":"88-TN","block":"B","mplanduse":"V","ppt_type":"IND","ppt_full":"Industrial","authority":"NOIDA","category":"industrial","execution_stage":"unknown"}},{"type":"Feature","geometry":{"type":"Polygon","coordinates":[[[77.427307,28.531417],[77.427315,28.531357],[77.427476,28.531372],[77.427467,28.531432],[77.427307,28.531417]]]},"properties":{"objectid":67332,"plotmapid":"88-TNB001IND","property_t":"Industrial","used":"NA","plotsizesq":120,"plot_size":"120 SQMT","plot_no":"001","sector":"88-TN","block":"B","mplanduse":"V","ppt_type":"IND","ppt_full":"Industrial","authority":"NOIDA","category":"industrial","execution_stage":"unknown"}},{"type":"Feature","geometry":{"type":"Polygon","coordinates":[[[77.427467,28.531432],[77.427476,28.531372],[77.427629,28.531386],[77.427621,28.531446],[77.427467,28.531432]]]},"properties":{"objectid":67333,"plotmapid":"88-TNB018IND","property_t":"Industrial","used":"NA","plotsizesq":120,"plot_size":"120 SQMT","plot_no":"018","sector":"88-TN","block":"B","mplanduse":"V","ppt_type":"IND","ppt_full":"Industrial","authority":"NOIDA","category":"industrial","execution_stage":"unknown"}},{"type":"Feature","geometry":{"type":"Polygon","coordinates":[[[77.427888,28.531466],[77.427876,28.531551],[77.427715,28.531537],[77.427727,28.531452],[77.427888,28.531466]]]},"properties":{"objectid":67334,"plotmapid":"88-TNB020IND","property_t":"Industrial","used":"NA","plotsizesq":120,"plot_size":"120 SQMT","plot_no":"020","sector":"88-TN","block":"B","mplanduse":"V","ppt_type":"IND","ppt_full":"Industrial","authority":"NOIDA","category":"industrial","execution_stage":"unknown"}},{"type":"Feature","geometry":{"type":"Polygon","coordinates":[[[77.428042,28.53148],[77.428031,28.531565],[77.427876,28.531551],[77.427888,28.531466],[77.428042,28.53148]]]},"properties":{"objectid":67335,"plotmapid":"88-TNB035IND","property_t":"Industrial","used":"NA","plotsizesq":120,"plot_size":"120 SQMT","plot_no":"035","sector":"88-TN","block":"B","mplanduse":"V","ppt_type":"IND","ppt_full":"Industrial","authority":"NOIDA","category":"industrial","execution_stage":"unknown"}},{"type":"Feature","geometry":{"type":"Polygon","coordinates":[[[77.427816,28.531981],[77.427806,28.532054],[77.427645,28.532039],[77.427655,28.531967],[77.427816,28.531981]]]},"properties":{"objectid":67336,"plotmapid":"88-TNB027IND","property_t":"Industrial","used":"NA","plotsizesq":120,"plot_size":"120 SQMT","plot_no":"027","sector":"88-TN","block":"B","mplanduse":"V","ppt_type":"IND","ppt_full":"Industrial","authority":"NOIDA","category":"industrial","execution_stage":"unknown"}},{"type":"Feature","geometry":{"type":"Polygon","coordinates":[[[77.427978,28.531996],[77.427969,28.532068],[77.427806,28.532054],[77.427816,28.531981],[77.427978,28.531996]]]},"properties":{"objectid":67337,"plotmapid":"88-TNB028IND","property_t":"Industrial","used":"NA","plotsizesq":120,"plot_size":"120 SQMT","plot_no":"028","sector":"88-TN","block":"B","mplanduse":"V","ppt_type":"IND","ppt_full":"Industrial","authority":"NOIDA","category":"industrial","execution_stage":"unknown"}},{"type":"Feature","geometry":{"type":"Polygon","coordinates":[[[77.427827,28.531905],[77.427816,28.531981],[77.427655,28.531967],[77.427666,28.53189],[77.427827,28.531905]]]},"properties":{"objectid":67338,"plotmapid":"88-TNB026IND","property_t":"Industrial","used":"NA","plotsizesq":120,"plot_size":"120 SQMT","plot_no":"026","sector":"88-TN","block":"B","mplanduse":"V","ppt_type":"IND","ppt_full":"Industrial","authority":"NOIDA","category":"industrial","execution_stage":"unknown"}},{"type":"Feature","geometry":{"type":"Polygon","coordinates":[[[77.427987,28.531919],[77.427978,28.531996],[77.427816,28.531981],[77.427827,28.531905],[77.427987,28.531919]]]},"properties":{"objectid":67339,"plotmapid":"88-TNB029IND","property_t":"Industrial","used":"NA","plotsizesq":120,"plot_size":"120 SQMT","plot_no":"029","sector":"88-TN","block":"B","mplanduse":"V","ppt_type":"IND","ppt_full":"Industrial","authority":"NOIDA","category":"industrial","execution_stage":"unknown"}},{"type":"Feature","geometry":{"type":"Polygon","coordinates":[[[77.427838,28.531827],[77.427827,28.531905],[77.427666,28.53189],[77.427677,28.531812],[77.427838,28.531827]]]},"properties":{"objectid":67340,"plotmapid":"88-TNB025IND","property_t":"Industrial","used":"NA","plotsizesq":120,"plot_size":"120 SQMT","plot_no":"025","sector":"88-TN","block":"B","mplanduse":"V","ppt_type":"IND","ppt_full":"Industrial","authority":"NOIDA","category":"industrial","execution_stage":"unknown"}},{"type":"Feature","geometry":{"type":"Polygon","coordinates":[[[77.427997,28.531841],[77.427987,28.531919],[77.427827,28.531905],[77.427838,28.531827],[77.427997,28.531841]]]},"properties":{"objectid":67341,"plotmapid":"88-TNB030IND","property_t":"Industrial","used":"NA","plotsizesq":120,"plot_size":"120 SQMT","plot_no":"030","sector":"88-TN","block":"B","mplanduse":"V","ppt_type":"IND","ppt_full":"Industrial","authority":"NOIDA","category":"industrial","execution_stage":"unknown"}},{"type":"Feature","geometry":{"type":"Polygon","coordinates":[[[77.427849,28.531746],[77.427838,28.531827],[77.427677,28.531812],[77.427688,28.531732],[77.427849,28.531746]]]},"properties":{"objectid":67342,"plotmapid":"88-TNB024IND","property_t":"Industrial","used":"NA","plotsizesq":120,"plot_size":"120 SQMT","plot_no":"024","sector":"88-TN","block":"B","mplanduse":"V","ppt_type":"IND","ppt_full":"Industrial","authority":"NOIDA","category":"industrial","execution_stage":"unknown"}},{"type":"Feature","geometry":{"type":"Polygon","coordinates":[[[77.428007,28.531761],[77.427997,28.531841],[77.427838,28.531827],[77.427849,28.531746],[77.428007,28.531761]]]},"properties":{"objectid":67343,"plotmapid":"88-TNB031IND","property_t":"Industrial","used":"NA","plotsizesq":120,"plot_size":"120 SQMT","plot_no":"031","sector":"88-TN","block":"B","mplanduse":"V","ppt_type":"IND","ppt_full":"Industrial","authority":"NOIDA","category":"industrial","execution_stage":"unknown"}},{"type":"Feature","geometry":{"type":"Polygon","coordinates":[[[77.427858,28.531679],[77.427849,28.531746],[77.427688,28.531732],[77.427698,28.531664],[77.427858,28.531679]]]},"properties":{"objectid":67344,"plotmapid":"88-TNB023IND","property_t":"Industrial","used":"NA","plotsizesq":120,"plot_size":"120 SQMT","plot_no":"023","sector":"88-TN","block":"B","mplanduse":"V","ppt_type":"IND","ppt_full":"Industrial","authority":"NOIDA","category":"industrial","execution_stage":"unknown"}},{"type":"Feature","geometry":{"type":"Polygon","coordinates":[[[77.428015,28.531693],[77.428007,28.531761],[77.427849,28.531746],[77.427858,28.531679],[77.428015,28.531693]]]},"properties":{"objectid":67345,"plotmapid":"88-TNB032IND","property_t":"Industrial","used":"NA","plotsizesq":120,"plot_size":"120 SQMT","plot_no":"032","sector":"88-TN","block":"B","mplanduse":"V","ppt_type":"IND","ppt_full":"Industrial","authority":"NOIDA","category":"industrial","execution_stage":"unknown"}},{"type":"Feature","geometry":{"type":"Polygon","coordinates":[[[77.427868,28.531611],[77.427858,28.531679],[77.427698,28.531664],[77.427707,28.531596],[77.427868,28.531611]]]},"properties":{"objectid":67346,"plotmapid":"88-TNB022IND","property_t":"Industrial","used":"NA","plotsizesq":120,"plot_size":"120 SQMT","plot_no":"022","sector":"88-TN","block":"B","mplanduse":"V","ppt_type":"IND","ppt_full":"Industrial","authority":"NOIDA","category":"industrial","execution_stage":"unknown"}},{"type":"Feature","geometry":{"type":"Polygon","coordinates":[[[77.428024,28.531625],[77.428015,28.531693],[77.427858,28.531679],[77.427868,28.531611],[77.428024,28.531625]]]},"properties":{"objectid":67347,"plotmapid":"88-TNB033IND","property_t":"Industrial","used":"NA","plotsizesq":120,"plot_size":"120 SQMT","plot_no":"033","sector":"88-TN","block":"B","mplanduse":"V","ppt_type":"IND","ppt_full":"Industrial","authority":"NOIDA","category":"industrial","execution_stage":"unknown"}},{"type":"Feature","geometry":{"type":"Polygon","coordinates":[[[77.427876,28.531551],[77.427868,28.531611],[77.427707,28.531596],[77.427715,28.531537],[77.427876,28.531551]]]},"properties":{"objectid":67348,"plotmapid":"88-TNB021IND","property_t":"Industrial","used":"NA","plotsizesq":120,"plot_size":"120 SQMT","plot_no":"021","sector":"88-TN","block":"B","mplanduse":"V","ppt_type":"IND","ppt_full":"Industrial","authority":"NOIDA","category":"industrial","execution_stage":"unknown"}},{"type":"Feature","geometry":{"type":"Polygon","coordinates":[[[77.428031,28.531565],[77.428024,28.531625],[77.427868,28.531611],[77.427876,28.531551],[77.428031,28.531565]]]},"properties":{"objectid":67349,"plotmapid":"88-TNB034IND","property_t":"Industrial","used":"NA","plotsizesq":120,"plot_size":"120 SQMT","plot_no":"034","sector":"88-TN","block":"B","mplanduse":"V","ppt_type":"IND","ppt_full":"Industrial","authority":"NOIDA","category":"industrial","execution_stage":"unknown"}},{"type":"Feature","geometry":{"type":"Polygon","coordinates":[[[77.427727,28.531452],[77.427736,28.531392],[77.427896,28.531407],[77.427888,28.531466],[77.427727,28.531452]]]},"properties":{"objectid":67350,"plotmapid":"88-TNB019IND","property_t":"Industrial","used":"NA","plotsizesq":120,"plot_size":"120 SQMT","plot_no":"019","sector":"88-TN","block":"B","mplanduse":"V","ppt_type":"IND","ppt_full":"Industrial","authority":"NOIDA","category":"industrial","execution_stage":"unknown"}},{"type":"Feature","geometry":{"type":"Polygon","coordinates":[[[77.427888,28.531466],[77.427896,28.531407],[77.428049,28.531421],[77.428042,28.53148],[77.427888,28.531466]]]},"properties":{"objectid":67351,"plotmapid":"88-TNB036IND","property_t":"Industrial","used":"NA","plotsizesq":120,"plot_size":"120 SQMT","plot_no":"036","sector":"88-TN","block":"B","mplanduse":"V","ppt_type":"IND","ppt_full":"Industrial","authority":"NOIDA","category":"industrial","execution_stage":"unknown"}},{"type":"Feature","geometry":{"type":"Polygon","coordinates":[[[77.428308,28.531493],[77.428298,28.531578],[77.428142,28.531564],[77.428154,28.531479],[77.428308,28.531493]]]},"properties":{"objectid":67352,"plotmapid":"88-TNB038IND","property_t":"Industrial","used":"NA","plotsizesq":120,"plot_size":"120 SQMT","plot_no":"038","sector":"88-TN","block":"B","mplanduse":"V","ppt_type":"IND","ppt_full":"Industrial","authority":"NOIDA","category":"industrial","execution_stage":"unknown"}},{"type":"Feature","geometry":{"type":"Polygon","coordinates":[[[77.428273,28.531773],[77.428263,28.531854],[77.428104,28.53184],[77.428115,28.531759],[77.428273,28.531773]]]},"properties":{"objectid":67353,"plotmapid":"88-TNB042IND","property_t":"Industrial","used":"NA","plotsizesq":120,"plot_size":"120 SQMT","plot_no":"042","sector":"88-TN","block":"B","mplanduse":"V","ppt_type":"IND","ppt_full":"Industrial","authority":"NOIDA","category":"industrial","execution_stage":"unknown"}},{"type":"Feature","geometry":{"type":"Polygon","coordinates":[[[77.428282,28.531706],[77.428273,28.531773],[77.428115,28.531759],[77.428125,28.531691],[77.428282,28.531706]]]},"properties":{"objectid":67354,"plotmapid":"88-TNB041IND","property_t":"Industrial","used":"NA","plotsizesq":120,"plot_size":"120 SQMT","plot_no":"041","sector":"88-TN","block":"B","mplanduse":"V","ppt_type":"IND","ppt_full":"Industrial","authority":"NOIDA","category":"industrial","execution_stage":"unknown"}},{"type":"Feature","geometry":{"type":"Polygon","coordinates":[[[77.42829,28.531637],[77.428282,28.531706],[77.428125,28.531691],[77.428134,28.531623],[77.42829,28.531637]]]},"properties":{"objectid":67355,"plotmapid":"88-TNB040IND","property_t":"Industrial","used":"NA","plotsizesq":120,"plot_size":"120 SQMT","plot_no":"040","sector":"88-TN","block":"B","mplanduse":"V","ppt_type":"IND","ppt_full":"Industrial","authority":"NOIDA","category":"industrial","execution_stage":"unknown"}},{"type":"Feature","geometry":{"type":"Polygon","coordinates":[[[77.428298,28.531578],[77.42829,28.531637],[77.428134,28.531623],[77.428142,28.531564],[77.428298,28.531578]]]},"properties":{"objectid":67356,"plotmapid":"88-TNB039IND","property_t":"Industrial","used":"NA","plotsizesq":120,"plot_size":"120 SQMT","plot_no":"039","sector":"88-TN","block":"B","mplanduse":"V","ppt_type":"IND","ppt_full":"Industrial","authority":"NOIDA","category":"industrial","execution_stage":"unknown"}},{"type":"Feature","geometry":{"type":"Polygon","coordinates":[[[77.428154,28.531479],[77.428163,28.531419],[77.428316,28.531433],[77.428308,28.531493],[77.428154,28.531479]]]},"properties":{"objectid":67357,"plotmapid":"88-TNB037IND","property_t":"Industrial","used":"NA","plotsizesq":120,"plot_size":"120 SQMT","plot_no":"037","sector":"88-TN","block":"B","mplanduse":"V","ppt_type":"IND","ppt_full":"Industrial","authority":"NOIDA","category":"industrial","execution_stage":"unknown"}},{"type":"Feature","geometry":{"type":"Polygon","coordinates":[[[77.427132,28.533575],[77.427113,28.533719],[77.42702,28.533711],[77.427039,28.533567],[77.427132,28.533575]]]},"properties":{"objectid":67358,"plotmapid":"88-TNA019IND","property_t":"Industrial","used":"NA","plotsizesq":120,"plot_size":"120 SQMT","plot_no":"019","sector":"88-TN","block":"A","mplanduse":"V","ppt_type":"IND","ppt_full":"Industrial","authority":"NOIDA","category":"industrial","execution_stage":"unknown"}},{"type":"Feature","geometry":{"type":"Polygon","coordinates":[[[77.427169,28.533205],[77.427149,28.533349],[77.427051,28.533341],[77.427067,28.533199],[77.427169,28.533205]]]},"properties":{"objectid":67359,"plotmapid":"88-TNA037IND","property_t":"Industrial","used":"NA","plotsizesq":120,"plot_size":"120 SQMT","plot_no":"037","sector":"88-TN","block":"A","mplanduse":"V","ppt_type":"IND","ppt_full":"Industrial","authority":"NOIDA","category":"industrial","execution_stage":"unknown"}},{"type":"Feature","geometry":{"type":"Polygon","coordinates":[[[77.427113,28.533719],[77.427094,28.533872],[77.427001,28.533863],[77.42702,28.533711],[77.427113,28.533719]]]},"properties":{"objectid":67364,"plotmapid":"88-TNA004IND","property_t":"Industrial","used":"NA","plotsizesq":120,"plot_size":"120 SQMT","plot_no":"004","sector":"88-TN","block":"A","mplanduse":"V","ppt_type":"IND","ppt_full":"Industrial","authority":"NOIDA","category":"industrial","execution_stage":"unknown"}},{"type":"Feature","geometry":{"type":"Polygon","coordinates":[[[77.42761,28.533617],[77.42779,28.533633],[77.427731,28.533777],[77.427591,28.533764],[77.42761,28.533617]]]},"properties":{"objectid":67365,"plotmapid":"88-TNA012IND","property_t":"Industrial","used":"NA","plotsizesq":120,"plot_size":"120 SQMT","plot_no":"012","sector":"88-TN","block":"A","mplanduse":"V","ppt_type":"IND","ppt_full":"Industrial","authority":"NOIDA","category":"industrial","execution_stage":"unknown"}},{"type":"Feature","geometry":{"type":"Polygon","coordinates":[[[77.427591,28.533764],[77.427731,28.533777],[77.427671,28.533926],[77.427572,28.533917],[77.427591,28.533764]]]},"properties":{"objectid":67366,"plotmapid":"88-TNA011IND","property_t":"Industrial","used":"NA","plotsizesq":120,"plot_size":"120 SQMT","plot_no":"011","sector":"88-TN","block":"A","mplanduse":"V","ppt_type":"IND","ppt_full":"Industrial","authority":"NOIDA","category":"industrial","execution_stage":"unknown"}},{"type":"Feature","geometry":{"type":"Polygon","coordinates":[[[77.427519,28.533609],[77.42761,28.533617],[77.427591,28.533764],[77.4275,28.533756],[77.427519,28.533609]]]},"properties":{"objectid":67367,"plotmapid":"88-TNA013IND","property_t":"Industrial","used":"NA","plotsizesq":120,"plot_size":"120 SQMT","plot_no":"013","sector":"88-TN","block":"A","mplanduse":"V","ppt_type":"IND","ppt_full":"Industrial","authority":"NOIDA","category":"industrial","execution_stage":"unknown"}},{"type":"Feature","geometry":{"type":"Polygon","coordinates":[[[77.4275,28.533756],[77.427591,28.533764],[77.427572,28.533917],[77.42748,28.533908],[77.4275,28.533756]]]},"properties":{"objectid":67368,"plotmapid":"88-TNA010IND","property_t":"Industrial","used":"NA","plotsizesq":120,"plot_size":"120 SQMT","plot_no":"010","sector":"88-TN","block":"A","mplanduse":"V","ppt_type":"IND","ppt_full":"Industrial","authority":"NOIDA","category":"industrial","execution_stage":"unknown"}},{"type":"Feature","geometry":{"type":"Polygon","coordinates":[[[77.427456,28.533604],[77.427519,28.533609],[77.4275,28.533756],[77.427438,28.53375],[77.427456,28.533604]]]},"properties":{"objectid":67369,"plotmapid":"88-TNA014IND","property_t":"Industrial","used":"NA","plotsizesq":120,"plot_size":"120 SQMT","plot_no":"014","sector":"88-TN","block":"A","mplanduse":"V","ppt_type":"IND","ppt_full":"Industrial","authority":"NOIDA","category":"industrial","execution_stage":"unknown"}},{"type":"Feature","geometry":{"type":"Polygon","coordinates":[[[77.427438,28.53375],[77.4275,28.533756],[77.42748,28.533908],[77.427418,28.533902],[77.427438,28.53375]]]},"properties":{"objectid":67370,"plotmapid":"88-TNA009IND","property_t":"Industrial","used":"NA","plotsizesq":120,"plot_size":"120 SQMT","plot_no":"009","sector":"88-TN","block":"A","mplanduse":"V","ppt_type":"IND","ppt_full":"Industrial","authority":"NOIDA","category":"industrial","execution_stage":"unknown"}},{"type":"Feature","geometry":{"type":"Polygon","coordinates":[[[77.427374,28.533596],[77.427456,28.533604],[77.427438,28.53375],[77.427355,28.533742],[77.427374,28.533596]]]},"properties":{"objectid":67371,"plotmapid":"88-TNA015IND","property_t":"Industrial","used":"NA","plotsizesq":120,"plot_size":"120 SQMT","plot_no":"015","sector":"88-TN","block":"A","mplanduse":"V","ppt_type":"IND","ppt_full":"Industrial","authority":"NOIDA","category":"industrial","execution_stage":"unknown"}},{"type":"Feature","geometry":{"type":"Polygon","coordinates":[[[77.427355,28.533742],[77.427438,28.53375],[77.427418,28.533902],[77.427336,28.533894],[77.427355,28.533742]]]},"properties":{"objectid":67372,"plotmapid":"88-TNA008IND","property_t":"Industrial","used":"NA","plotsizesq":120,"plot_size":"120 SQMT","plot_no":"008","sector":"88-TN","block":"A","mplanduse":"V","ppt_type":"IND","ppt_full":"Industrial","authority":"NOIDA","category":"industrial","execution_stage":"unknown"}},{"type":"Feature","geometry":{"type":"Polygon","coordinates":[[[77.427291,28.533589],[77.427374,28.533596],[77.427355,28.533742],[77.427272,28.533734],[77.427291,28.533589]]]},"properties":{"objectid":67373,"plotmapid":"88-TNA016IND","property_t":"Industrial","used":"NA","plotsizesq":120,"plot_size":"120 SQMT","plot_no":"016","sector":"88-TN","block":"A","mplanduse":"V","ppt_type":"IND","ppt_full":"Industrial","authority":"NOIDA","category":"industrial","execution_stage":"unknown"}},{"type":"Feature","geometry":{"type":"Polygon","coordinates":[[[77.427272,28.533734],[77.427355,28.533742],[77.427336,28.533894],[77.427253,28.533887],[77.427272,28.533734]]]},"properties":{"objectid":67374,"plotmapid":"88-TNA007IND","property_t":"Industrial","used":"NA","plotsizesq":120,"plot_size":"120 SQMT","plot_no":"007","sector":"88-TN","block":"A","mplanduse":"V","ppt_type":"IND","ppt_full":"Industrial","authority":"NOIDA","category":"industrial","execution_stage":"unknown"}},{"type":"Feature","geometry":{"type":"Polygon","coordinates":[[[77.427209,28.533582],[77.427291,28.533589],[77.427272,28.533734],[77.427191,28.533727],[77.427209,28.533582]]]},"properties":{"objectid":67375,"plotmapid":"88-TNA017IND","property_t":"Industrial","used":"NA","plotsizesq":120,"plot_size":"120 SQMT","plot_no":"017","sector":"88-TN","block":"A","mplanduse":"V","ppt_type":"IND","ppt_full":"Industrial","authority":"NOIDA","category":"industrial","execution_stage":"unknown"}},{"type":"Feature","geometry":{"type":"Polygon","coordinates":[[[77.427191,28.533727],[77.427272,28.533734],[77.427253,28.533887],[77.427171,28.533879],[77.427191,28.533727]]]},"properties":{"objectid":67376,"plotmapid":"88-TNA006IND","property_t":"Industrial","used":"NA","plotsizesq":120,"plot_size":"120 SQMT","plot_no":"006","sector":"88-TN","block":"A","mplanduse":"V","ppt_type":"IND","ppt_full":"Industrial","authority":"NOIDA","category":"industrial","execution_stage":"unknown"}},{"type":"Feature","geometry":{"type":"Polygon","coordinates":[[[77.427132,28.533575],[77.427209,28.533582],[77.427191,28.533727],[77.427113,28.533719],[77.427132,28.533575]]]},"properties":{"objectid":67377,"plotmapid":"88-TNA018IND","property_t":"Industrial","used":"NA","plotsizesq":120,"plot_size":"120 SQMT","plot_no":"018","sector":"88-TN","block":"A","mplanduse":"V","ppt_type":"IND","ppt_full":"Industrial","authority":"NOIDA","category":"industrial","execution_stage":"unknown"}},{"type":"Feature","geometry":{"type":"Polygon","coordinates":[[[77.427113,28.533719],[77.427191,28.533727],[77.427171,28.533879],[77.427094,28.533872],[77.427113,28.533719]]]},"properties":{"objectid":67378,"plotmapid":"88-TNA005IND","property_t":"Industrial","used":"NA","plotsizesq":120,"plot_size":"120 SQMT","plot_no":"005","sector":"88-TN","block":"A","mplanduse":"V","ppt_type":"IND","ppt_full":"Industrial","authority":"NOIDA","category":"industrial","execution_stage":"unknown"}},{"type":"Feature","geometry":{"type":"Polygon","coordinates":[[[77.42719,28.534032],[77.427181,28.534116],[77.426967,28.534097],[77.426976,28.534013],[77.42719,28.534032]]]},"properties":{"objectid":67379,"plotmapid":"88-TNA002IND","property_t":"Industrial","used":"NA","plotsizesq":120,"plot_size":"120 SQMT","plot_no":"002","sector":"88-TN","block":"A","mplanduse":"V","ppt_type":"IND","ppt_full":"Industrial","authority":"NOIDA","category":"industrial","execution_stage":"unknown"}},{"type":"Feature","geometry":{"type":"Polygon","coordinates":[[[77.427181,28.534116],[77.42717,28.534207],[77.426957,28.534188],[77.426967,28.534097],[77.427181,28.534116]]]},"properties":{"objectid":67380,"plotmapid":"88-TNA001IND","property_t":"Industrial","used":"NA","plotsizesq":120,"plot_size":"120 SQMT","plot_no":"001","sector":"88-TN","block":"A","mplanduse":"V","ppt_type":"IND","ppt_full":"Industrial","authority":"NOIDA","category":"industrial","execution_stage":"unknown"}},{"type":"Feature","geometry":{"type":"Polygon","coordinates":[[[77.426976,28.534013],[77.426985,28.533934],[77.427199,28.53395],[77.42719,28.534032],[77.426976,28.534013]]]},"properties":{"objectid":67381,"plotmapid":"88-TNA003IND","property_t":"Industrial","used":"NA","plotsizesq":120,"plot_size":"120 SQMT","plot_no":"003","sector":"88-TN","block":"A","mplanduse":"V","ppt_type":"IND","ppt_full":"Industrial","authority":"NOIDA","category":"industrial","execution_stage":"unknown"}},{"type":"Feature","geometry":{"type":"Polygon","coordinates":[[[77.427149,28.533349],[77.427128,28.533495],[77.427034,28.533487],[77.427051,28.533341],[77.427149,28.533349]]]},"properties":{"objectid":67382,"plotmapid":"88-TNA020IND","property_t":"Industrial","used":"NA","plotsizesq":120,"plot_size":"120 SQMT","plot_no":"020","sector":"88-TN","block":"A","mplanduse":"V","ppt_type":"IND","ppt_full":"Industrial","authority":"NOIDA","category":"industrial","execution_stage":"unknown"}},{"type":"Feature","geometry":{"type":"Polygon","coordinates":[[[77.427833,28.533245],[77.427848,28.533249],[77.427818,28.533401],[77.427735,28.533394],[77.427757,28.533241],[77.427833,28.533245]]]},"properties":{"objectid":67383,"plotmapid":"88-TNA029IND","property_t":"Industrial","used":"NA","plotsizesq":120,"plot_size":"120 SQMT","plot_no":"029","sector":"88-TN","block":"A","mplanduse":"V","ppt_type":"IND","ppt_full":"Industrial","authority":"NOIDA","category":"industrial","execution_stage":"unknown"}},{"type":"Feature","geometry":{"type":"Polygon","coordinates":[[[77.427811,28.5334],[77.42779,28.533546],[77.427714,28.53354],[77.427735,28.533394],[77.427811,28.5334]]]},"properties":{"objectid":67384,"plotmapid":"88-TNA028IND","property_t":"Industrial","used":"NA","plotsizesq":120,"plot_size":"120 SQMT","plot_no":"028","sector":"88-TN","block":"A","mplanduse":"V","ppt_type":"IND","ppt_full":"Industrial","authority":"NOIDA","category":"industrial","execution_stage":"unknown"}},{"type":"Feature","geometry":{"type":"Polygon","coordinates":[[[77.427693,28.533237],[77.427757,28.533241],[77.427735,28.533394],[77.427671,28.533389],[77.427693,28.533237]]]},"properties":{"objectid":67385,"plotmapid":"88-TNA030IND","property_t":"Industrial","used":"NA","plotsizesq":120,"plot_size":"120 SQMT","plot_no":"030","sector":"88-TN","block":"A","mplanduse":"V","ppt_type":"IND","ppt_full":"Industrial","authority":"NOIDA","category":"industrial","execution_stage":"unknown"}},{"type":"Feature","geometry":{"type":"Polygon","coordinates":[[[77.427671,28.533389],[77.427735,28.533394],[77.427714,28.53354],[77.427651,28.533535],[77.427671,28.533389]]]},"properties":{"objectid":67386,"plotmapid":"88-TNA027IND","property_t":"Industrial","used":"NA","plotsizesq":120,"plot_size":"120 SQMT","plot_no":"027","sector":"88-TN","block":"A","mplanduse":"V","ppt_type":"IND","ppt_full":"Industrial","authority":"NOIDA","category":"industrial","execution_stage":"unknown"}},{"type":"Feature","geometry":{"type":"Polygon","coordinates":[[[77.427613,28.533232],[77.427693,28.533237],[77.427671,28.533389],[77.427592,28.533383],[77.427613,28.533232]]]},"properties":{"objectid":67387,"plotmapid":"88-TNA031IND","property_t":"Industrial","used":"NA","plotsizesq":120,"plot_size":"120 SQMT","plot_no":"031","sector":"88-TN","block":"A","mplanduse":"V","ppt_type":"IND","ppt_full":"Industrial","authority":"NOIDA","category":"industrial","execution_stage":"unknown"}},{"type":"Feature","geometry":{"type":"Polygon","coordinates":[[[77.427592,28.533383],[77.427671,28.533389],[77.427651,28.533535],[77.427571,28.533529],[77.427592,28.533383]]]},"properties":{"objectid":67388,"plotmapid":"88-TNA026IND","property_t":"Industrial","used":"NA","plotsizesq":120,"plot_size":"120 SQMT","plot_no":"026","sector":"88-TN","block":"A","mplanduse":"V","ppt_type":"IND","ppt_full":"Industrial","authority":"NOIDA","category":"industrial","execution_stage":"unknown"}},{"type":"Feature","geometry":{"type":"Polygon","coordinates":[[[77.427533,28.533227],[77.427613,28.533232],[77.427592,28.533383],[77.427512,28.533377],[77.427533,28.533227]]]},"properties":{"objectid":67389,"plotmapid":"88-TNA032IND","property_t":"Industrial","used":"NA","plotsizesq":120,"plot_size":"120 SQMT","plot_no":"032","sector":"88-TN","block":"A","mplanduse":"V","ppt_type":"IND","ppt_full":"Industrial","authority":"NOIDA","category":"industrial","execution_stage":"unknown"}},{"type":"Feature","geometry":{"type":"Polygon","coordinates":[[[77.427512,28.533377],[77.427592,28.533383],[77.427571,28.533529],[77.427491,28.533523],[77.427512,28.533377]]]},"properties":{"objectid":67390,"plotmapid":"88-TNA025IND","property_t":"Industrial","used":"NA","plotsizesq":120,"plot_size":"120 SQMT","plot_no":"025","sector":"88-TN","block":"A","mplanduse":"V","ppt_type":"IND","ppt_full":"Industrial","authority":"NOIDA","category":"industrial","execution_stage":"unknown"}},{"type":"Feature","geometry":{"type":"Polygon","coordinates":[[[77.427442,28.533222],[77.427533,28.533227],[77.427512,28.533377],[77.42742,28.53337],[77.427442,28.533222]]]},"properties":{"objectid":67391,"plotmapid":"88-TNA033IND","property_t":"Industrial","used":"NA","plotsizesq":120,"plot_size":"120 SQMT","plot_no":"033","sector":"88-TN","block":"A","mplanduse":"V","ppt_type":"IND","ppt_full":"Industrial","authority":"NOIDA","category":"industrial","execution_stage":"unknown"}},{"type":"Feature","geometry":{"type":"Polygon","coordinates":[[[77.42742,28.53337],[77.427512,28.533377],[77.427491,28.533523],[77.4274,28.533516],[77.42742,28.53337]]]},"properties":{"objectid":67392,"plotmapid":"88-TNA024IND","property_t":"Industrial","used":"NA","plotsizesq":120,"plot_size":"120 SQMT","plot_no":"024","sector":"88-TN","block":"A","mplanduse":"V","ppt_type":"IND","ppt_full":"Industrial","authority":"NOIDA","category":"industrial","execution_stage":"unknown"}},{"type":"Feature","geometry":{"type":"Polygon","coordinates":[[[77.427347,28.533216],[77.427442,28.533222],[77.42742,28.53337],[77.427326,28.533363],[77.427347,28.533216]]]},"properties":{"objectid":67393,"plotmapid":"88-TNA034IND","property_t":"Industrial","used":"NA","plotsizesq":120,"plot_size":"120 SQMT","plot_no":"034","sector":"88-TN","block":"A","mplanduse":"V","ppt_type":"IND","ppt_full":"Industrial","authority":"NOIDA","category":"industrial","execution_stage":"unknown"}},{"type":"Feature","geometry":{"type":"Polygon","coordinates":[[[77.427326,28.533363],[77.42742,28.53337],[77.4274,28.533516],[77.427305,28.533508],[77.427326,28.533363]]]},"properties":{"objectid":67394,"plotmapid":"88-TNA023IND","property_t":"Industrial","used":"NA","plotsizesq":120,"plot_size":"120 SQMT","plot_no":"023","sector":"88-TN","block":"A","mplanduse":"V","ppt_type":"IND","ppt_full":"Industrial","authority":"NOIDA","category":"industrial","execution_stage":"unknown"}},{"type":"Feature","geometry":{"type":"Polygon","coordinates":[[[77.427257,28.533211],[77.427347,28.533216],[77.427326,28.533363],[77.427236,28.533356],[77.427257,28.533211]]]},"properties":{"objectid":67395,"plotmapid":"88-TNA035IND","property_t":"Industrial","used":"NA","plotsizesq":120,"plot_size":"120 SQMT","plot_no":"035","sector":"88-TN","block":"A","mplanduse":"V","ppt_type":"IND","ppt_full":"Industrial","authority":"NOIDA","category":"industrial","execution_stage":"unknown"}},{"type":"Feature","geometry":{"type":"Polygon","coordinates":[[[77.427236,28.533356],[77.427326,28.533363],[77.427305,28.533508],[77.427215,28.533501],[77.427236,28.533356]]]},"properties":{"objectid":67396,"plotmapid":"88-TNA022IND","property_t":"Industrial","used":"NA","plotsizesq":120,"plot_size":"120 SQMT","plot_no":"022","sector":"88-TN","block":"A","mplanduse":"V","ppt_type":"IND","ppt_full":"Industrial","authority":"NOIDA","category":"industrial","execution_stage":"unknown"}},{"type":"Feature","geometry":{"type":"Polygon","coordinates":[[[77.427169,28.533205],[77.427257,28.533211],[77.427236,28.533356],[77.427149,28.533349],[77.427169,28.533205]]]},"properties":{"objectid":67397,"plotmapid":"88-TNA036IND","property_t":"Industrial","used":"NA","plotsizesq":120,"plot_size":"120 SQMT","plot_no":"036","sector":"88-TN","block":"A","mplanduse":"V","ppt_type":"IND","ppt_full":"Industrial","authority":"NOIDA","category":"industrial","execution_stage":"unknown"}},{"type":"Feature","geometry":{"type":"Polygon","coordinates":[[[77.427149,28.533349],[77.427236,28.533356],[77.427215,28.533501],[77.427128,28.533495],[77.427149,28.533349]]]},"properties":{"objectid":67398,"plotmapid":"88-TNA021IND","property_t":"Industrial","used":"NA","plotsizesq":120,"plot_size":"120 SQMT","plot_no":"021","sector":"88-TN","block":"A","mplanduse":"V","ppt_type":"IND","ppt_full":"Industrial","authority":"NOIDA","category":"industrial","execution_stage":"unknown"}}]}
