{"type":"FeatureCollection","features":[{"type":"Feature","geometry":{"type":"Polygon","coordinates":[[[77.357425,28.610638],[77.357013,28.610656],[77.357068,28.610441],[77.357485,28.610421],[77.357425,28.610638]]]},"properties":{"objectid":5244,"plotmapid":"58C059IND","property_t":"Industrial","used":"NA","allotted_p":"Yes","plotsizesq":1000,"plot_size":"1000 SQMT","plot_no":"059","sector":"58","block":"C","mplanduse":"V","ppt_type":"IND","ppt_full":"Industrial","authority":"NOIDA","category":"industrial","execution_stage":"allotted"}},{"type":"Feature","geometry":{"type":"Polygon","coordinates":[[[77.356967,28.610901],[77.356682,28.610934],[77.356785,28.610414],[77.357122,28.610201],[77.356967,28.610901]]]},"properties":{"objectid":5245,"plotmapid":"58C061IND","property_t":"Industrial","used":"NA","allotted_p":"Yes","plotsizesq":1880.4,"plot_size":"1880.4 SQMT","plot_no":"061","sector":"58","block":"C","mplanduse":"V","ppt_type":"IND","ppt_full":"Industrial","authority":"NOIDA","category":"industrial","execution_stage":"allotted"}},{"type":"Feature","geometry":{"type":"Polygon","coordinates":[[[77.36059,28.610455],[77.360591,28.610494],[77.360188,28.61054],[77.36011,28.610483],[77.3601,28.610246],[77.360582,28.610228],[77.36059,28.610455]]]},"properties":{"objectid":5574,"plotmapid":"58C041IND","property_t":"Industrial","used":"NA","allotted_p":"Yes","plotsizesq":1150.5,"plot_size":"1150.5 SQMT","plot_no":"041","sector":"58","block":"C","mplanduse":"B","ppt_type":"IND","ppt_full":"Industrial","authority":"NOIDA","category":"industrial","execution_stage":"allotted"}},{"type":"Feature","geometry":{"type":"Polygon","coordinates":[[[77.359507,28.610616],[77.359467,28.61062],[77.359453,28.610314],[77.35988,28.610247],[77.359887,28.610521],[77.359841,28.610576],[77.359507,28.610616]]]},"properties":{"objectid":5600,"plotmapid":"58C047IND","property_t":"Industrial","used":"NA","allotted_p":"Yes","plotsizesq":1371,"plot_size":"1371 SQMT","plot_no":"047","sector":"58","block":"C","mplanduse":"B","ppt_type":"IND","ppt_full":"Industrial","authority":"NOIDA","category":"industrial","execution_stage":"allotted"}},{"type":"Feature","geometry":{"type":"Polygon","coordinates":[[[77.359048,28.610377],[77.359453,28.610314],[77.359467,28.61062],[77.359108,28.61066],[77.359058,28.610624],[77.359048,28.610377]]]},"properties":{"objectid":5615,"plotmapid":"58C048IND","property_t":"Industrial","used":"NA","allotted_p":"Yes","plotsizesq":1066.4,"plot_size":"1066.4 SQMT","plot_no":"048","sector":"58","block":"C","mplanduse":"B","ppt_type":"IND","ppt_full":"Industrial","authority":"NOIDA","category":"industrial","execution_stage":"allotted"}},{"type":"Feature","geometry":{"type":"Polygon","coordinates":[[[77.358925,28.610253],[77.358943,28.610625],[77.358888,28.610681],[77.358592,28.610715],[77.358584,28.61031],[77.358925,28.610253]]]},"properties":{"objectid":5631,"plotmapid":"58C052IND","property_t":"Industrial","used":"NA","allotted_p":"Yes","plotsizesq":1535.83,"plot_size":"1535.83 SQMT","plot_no":"052","sector":"58","block":"C","mplanduse":"B","ppt_type":"IND","ppt_full":"Industrial","authority":"NOIDA","category":"industrial","execution_stage":"allotted"}},{"type":"Feature","geometry":{"type":"Polygon","coordinates":[[[77.358592,28.610715],[77.358248,28.61072],[77.358236,28.61034],[77.358585,28.610333],[77.358592,28.610715]]]},"properties":{"objectid":5645,"plotmapid":"58C053IND","property_t":"Industrial","used":"NA","allotted_p":"Yes","plotsizesq":1453.04,"plot_size":"1453.04 SQMT","plot_no":"053","sector":"58","block":"C","mplanduse":"B","ppt_type":"IND","ppt_full":"Industrial","authority":"NOIDA","category":"industrial","execution_stage":"allotted"}},{"type":"Feature","geometry":{"type":"Polygon","coordinates":[[[77.357376,28.610815],[77.357323,28.61086],[77.356967,28.610901],[77.357013,28.610656],[77.357425,28.610638],[77.357376,28.610815]]]},"properties":{"objectid":5691,"plotmapid":"58C060IND","property_t":"Industrial","used":"NA","allotted_p":"Yes","plotsizesq":2626.53,"plot_size":"2626.53 SQMT","plot_no":"060","sector":"58","block":"C","mplanduse":"B","ppt_type":"IND","ppt_full":"Industrial","authority":"NOIDA","category":"industrial","execution_stage":"allotted"}},{"type":"Feature","geometry":{"type":"Polygon","coordinates":[[[77.356785,28.610414],[77.356682,28.610934],[77.356395,28.610965],[77.356465,28.610594],[77.356785,28.610414]]]},"properties":{"objectid":5700,"plotmapid":"58C062IND","property_t":"Industrial","used":"NA","allotted_p":"Yes","plotsizesq":1359.3,"plot_size":"1359.3 SQMT","plot_no":"062","sector":"58","block":"C","mplanduse":"B","ppt_type":"IND","ppt_full":"Industrial","authority":"NOIDA","category":"industrial","execution_stage":"allotted"}},{"type":"Feature","geometry":{"type":"Polygon","coordinates":[[[77.356465,28.610594],[77.356395,28.610965],[77.356105,28.610999],[77.356195,28.610746],[77.356465,28.610594]]]},"properties":{"objectid":5712,"plotmapid":"58C063IND","property_t":"Industrial","used":"NA","allotted_p":"Yes","plotsizesq":990,"plot_size":"990 SQMT","plot_no":"063","sector":"58","block":"C","mplanduse":"B","ppt_type":"IND","ppt_full":"Industrial","authority":"NOIDA","category":"industrial","execution_stage":"allotted"}},{"type":"Feature","geometry":{"type":"Polygon","coordinates":[[[77.355296,28.610603],[77.355112,28.61083],[77.354818,28.610647],[77.355325,28.610023],[77.355618,28.610206],[77.355296,28.610603]]]},"properties":{"objectid":12510,"plotmapid":"58C066IND","property_t":"Industrial","used":"NA","allotted_p":"Yes","plotsizesq":1381.32,"plot_size":"1381.32 SQMT","plot_no":"066","sector":"58","block":"C","mplanduse":"B","ppt_type":"IND","ppt_full":"Industrial","authority":"NOIDA","category":"industrial","execution_stage":"allotted"}}]}
