{"type":"FeatureCollection","features":[{"type":"Feature","geometry":{"type":"Polygon","coordinates":[[[77.404722,28.515672],[77.404898,28.515954],[77.404272,28.51626],[77.404086,28.515969],[77.404722,28.515672]]]},"properties":{"objectid":1594,"plotmapid":"85C026IND","property_t":"Industrial","used":"NA","allotted_p":"Yes","plotsizesq":2100,"plot_size":"2100 SQMT","plot_no":"026","sector":"85","block":"C","mplanduse":"V","ppt_type":"IND","ppt_full":"Industrial","authority":"NOIDA","category":"industrial","execution_stage":"allotted"}},{"type":"Feature","geometry":{"type":"Polygon","coordinates":[[[77.405047,28.516189],[77.405196,28.516427],[77.404579,28.516732],[77.404425,28.516497],[77.405047,28.516189]]]},"properties":{"objectid":1624,"plotmapid":"85C024IND","property_t":"Industrial","used":"NA","allotted_p":"Yes","plotsizesq":2100,"plot_size":"2100 SQMT","plot_no":"024","sector":"85","block":"C","mplanduse":"B","ppt_type":"IND","ppt_full":"Industrial","authority":"NOIDA","category":"industrial","execution_stage":"allotted"}},{"type":"Feature","geometry":{"type":"Polygon","coordinates":[[[77.404898,28.515954],[77.405047,28.516189],[77.404425,28.516497],[77.404272,28.51626],[77.404898,28.515954]]]},"properties":{"objectid":1626,"plotmapid":"85C025IND","property_t":"Industrial","used":"NA","allotted_p":"Yes","plotsizesq":2100,"plot_size":"2100 SQMT","plot_no":"025","sector":"85","block":"C","mplanduse":"B","ppt_type":"IND","ppt_full":"Industrial","authority":"NOIDA","category":"industrial","execution_stage":"allotted"}}]}
