{"type":"FeatureCollection","features":[{"type":"Feature","geometry":{"type":"Polygon","coordinates":[[[77.330381,28.586198],[77.330395,28.586209],[77.330128,28.586505],[77.330022,28.586463],[77.330211,28.586071],[77.330381,28.586198]]]},"properties":{"objectid":26358,"plotmapid":"10A001IND","property_t":"Industrial","allotted_p":"Yes","plotsizesq":680.06,"plot_size":"680.06 SQMT","plot_no":"001","sector":"10","block":"A","mplanduse":"B","ppt_type":"IND","ppt_full":"Industrial","authority":"NOIDA","category":"industrial","execution_stage":"allotted"}},{"type":"Feature","geometry":{"type":"Polygon","coordinates":[[[77.330542,28.586318],[77.330277,28.586616],[77.330128,28.586505],[77.330395,28.586209],[77.330542,28.586318]]]},"properties":{"objectid":26359,"plotmapid":"10A002IND","property_t":"Industrial","allotted_p":"Yes","plotsizesq":820,"plot_size":"820 SQMT","plot_no":"002","sector":"10","block":"A","mplanduse":"B","ppt_type":"IND","ppt_full":"Industrial","authority":"NOIDA","category":"industrial","execution_stage":"allotted"}},{"type":"Feature","geometry":{"type":"Polygon","coordinates":[[[77.330705,28.58644],[77.330434,28.586733],[77.330277,28.586616],[77.330547,28.586322],[77.330705,28.58644]]]},"properties":{"objectid":26360,"plotmapid":"10A003IND","property_t":"Industrial","allotted_p":"Yes","plotsizesq":820,"plot_size":"820 SQMT","plot_no":"003","sector":"10","block":"A","mplanduse":"B","ppt_type":"IND","ppt_full":"Industrial","authority":"NOIDA","category":"industrial","execution_stage":"allotted"}},{"type":"Feature","geometry":{"type":"Polygon","coordinates":[[[77.330862,28.586558],[77.330588,28.586849],[77.330434,28.586733],[77.330705,28.58644],[77.330862,28.586558]]]},"properties":{"objectid":26361,"plotmapid":"10A004IND","property_t":"Industrial","allotted_p":"Yes","plotsizesq":820,"plot_size":"820 SQMT","plot_no":"004","sector":"10","block":"A","mplanduse":"B","ppt_type":"IND","ppt_full":"Industrial","authority":"NOIDA","category":"industrial","execution_stage":"allotted"}},{"type":"Feature","geometry":{"type":"Polygon","coordinates":[[[77.331018,28.586674],[77.330744,28.586966],[77.330588,28.586849],[77.330862,28.586558],[77.331018,28.586674]]]},"properties":{"objectid":26362,"plotmapid":"10A005IND","property_t":"Industrial","allotted_p":"Yes","plotsizesq":820,"plot_size":"820 SQMT","plot_no":"005","sector":"10","block":"A","mplanduse":"B","ppt_type":"IND","ppt_full":"Industrial","authority":"NOIDA","category":"industrial","execution_stage":"allotted"}},{"type":"Feature","geometry":{"type":"Polygon","coordinates":[[[77.331175,28.586792],[77.330906,28.587087],[77.330744,28.586966],[77.331018,28.586674],[77.331175,28.586792]]]},"properties":{"objectid":26363,"plotmapid":"10A006IND","property_t":"Industrial","allotted_p":"Yes","plotsizesq":737.68,"plot_size":"737.68 SQMT","plot_no":"006","sector":"10","block":"A","mplanduse":"B","ppt_type":"IND","ppt_full":"Industrial","authority":"NOIDA","category":"industrial","execution_stage":"allotted"}},{"type":"Feature","geometry":{"type":"Polygon","coordinates":[[[77.330232,28.586583],[77.33026,28.586603],[77.330121,28.58673],[77.330076,28.586696],[77.330212,28.586568],[77.330232,28.586583]]]},"properties":{"objectid":26385,"plotmapid":"10A025IND","property_t":"Industrial","allotted_p":"Yes","plotsizesq":114,"plot_size":"114 SQMT","plot_no":"025","sector":"10","block":"A","mplanduse":"B","ppt_type":"IND","ppt_full":"Industrial","authority":"NOIDA","category":"industrial","execution_stage":"allotted"}},{"type":"Feature","geometry":{"type":"Polygon","coordinates":[[[77.330305,28.586637],[77.33017,28.586766],[77.330121,28.58673],[77.33026,28.586603],[77.330305,28.586637]]]},"properties":{"objectid":26386,"plotmapid":"10A024IND","property_t":"Industrial","allotted_p":"Yes","plotsizesq":114,"plot_size":"114 SQMT","plot_no":"024","sector":"10","block":"A","mplanduse":"B","ppt_type":"IND","ppt_full":"Industrial","authority":"NOIDA","category":"industrial","execution_stage":"allotted"}},{"type":"Feature","geometry":{"type":"Polygon","coordinates":[[[77.330329,28.586655],[77.330353,28.586673],[77.330216,28.5868],[77.33017,28.586766],[77.330305,28.586637],[77.330329,28.586655]]]},"properties":{"objectid":26387,"plotmapid":"10A023IND","property_t":"Industrial","allotted_p":"Yes","plotsizesq":114,"plot_size":"114 SQMT","plot_no":"023","sector":"10","block":"A","mplanduse":"B","ppt_type":"IND","ppt_full":"Industrial","authority":"NOIDA","category":"industrial","execution_stage":"allotted"}},{"type":"Feature","geometry":{"type":"Polygon","coordinates":[[[77.330377,28.586691],[77.330397,28.586706],[77.330262,28.586835],[77.330216,28.5868],[77.330353,28.586673],[77.330377,28.586691]]]},"properties":{"objectid":26388,"plotmapid":"10A022IND","property_t":"Industrial","allotted_p":"Yes","plotsizesq":114,"plot_size":"114 SQMT","plot_no":"022","sector":"10","block":"A","mplanduse":"B","ppt_type":"IND","ppt_full":"Industrial","authority":"NOIDA","category":"industrial","execution_stage":"allotted"}},{"type":"Feature","geometry":{"type":"Polygon","coordinates":[[[77.330445,28.586742],[77.33031,28.586871],[77.330262,28.586835],[77.330397,28.586706],[77.330445,28.586742]]]},"properties":{"objectid":26389,"plotmapid":"10A021IND","property_t":"Industrial","allotted_p":"Yes","plotsizesq":114,"plot_size":"114 SQMT","plot_no":"021","sector":"10","block":"A","mplanduse":"B","ppt_type":"IND","ppt_full":"Industrial","authority":"NOIDA","category":"industrial","execution_stage":"allotted"}},{"type":"Feature","geometry":{"type":"Polygon","coordinates":[[[77.330473,28.586763],[77.330491,28.586777],[77.330358,28.586907],[77.33031,28.586871],[77.330445,28.586742],[77.330473,28.586763]]]},"properties":{"objectid":26390,"plotmapid":"10A020IND","property_t":"Industrial","allotted_p":"Yes","plotsizesq":114,"plot_size":"114 SQMT","plot_no":"020","sector":"10","block":"A","mplanduse":"B","ppt_type":"IND","ppt_full":"Industrial","authority":"NOIDA","category":"industrial","execution_stage":"allotted"}},{"type":"Feature","geometry":{"type":"Polygon","coordinates":[[[77.330521,28.586799],[77.330539,28.586813],[77.330409,28.586945],[77.330358,28.586907],[77.330491,28.586777],[77.330521,28.586799]]]},"properties":{"objectid":26391,"plotmapid":"10A019IND","property_t":"Industrial","allotted_p":"Yes","plotsizesq":114,"plot_size":"114 SQMT","plot_no":"019","sector":"10","block":"A","mplanduse":"B","ppt_type":"IND","ppt_full":"Industrial","authority":"NOIDA","category":"industrial","execution_stage":"allotted"}},{"type":"Feature","geometry":{"type":"Polygon","coordinates":[[[77.330569,28.586835],[77.330588,28.586849],[77.33045,28.586975],[77.330409,28.586945],[77.330539,28.586813],[77.330569,28.586835]]]},"properties":{"objectid":26392,"plotmapid":"10A018IND","property_t":"Industrial","allotted_p":"Yes","plotsizesq":114,"plot_size":"114 SQMT","plot_no":"018","sector":"10","block":"A","mplanduse":"B","ppt_type":"IND","ppt_full":"Industrial","authority":"NOIDA","category":"industrial","execution_stage":"allotted"}},{"type":"Feature","geometry":{"type":"Polygon","coordinates":[[[77.330617,28.586871],[77.330633,28.586883],[77.330498,28.587012],[77.33045,28.586975],[77.330588,28.586849],[77.330617,28.586871]]]},"properties":{"objectid":26393,"plotmapid":"10A017IND","property_t":"Industrial","allotted_p":"Yes","plotsizesq":114,"plot_size":"114 SQMT","plot_no":"017","sector":"10","block":"A","mplanduse":"B","ppt_type":"IND","ppt_full":"Industrial","authority":"NOIDA","category":"industrial","execution_stage":"allotted"}}]}
