{"type":"FeatureCollection","features":[{"type":"Feature","geometry":{"type":"Polygon","coordinates":[[[77.407925,28.51571],[77.407508,28.515914],[77.407365,28.515683],[77.407588,28.51558],[77.407925,28.51571]]]},"properties":{"objectid":1580,"plotmapid":"85C014AIND","property_t":"Industrial","used":"NA","plotsizesq":975.44,"plot_size":"975.44 SQMT","plot_no":"014A","sector":"85","block":"C","mplanduse":"V","ppt_type":"IND","ppt_full":"Industrial","remark":"As per drone is vacant ,not Alloted & not buildup","authority":"NOIDA","category":"industrial","execution_stage":"unknown"}},{"type":"Feature","geometry":{"type":"Polygon","coordinates":[[[77.415976,28.511268],[77.416219,28.511667],[77.415503,28.512004],[77.415256,28.511609],[77.415976,28.511268]]]},"properties":{"objectid":1581,"plotmapid":"9090/020IND","property_t":"Industrial","used":"NA","plotsizesq":5000,"plot_size":"5000 SQMT","plot_no":"90/020","sector":"90","mplanduse":"V","ppt_type":"IND","ppt_full":"Industrial","remark":"As per drone is vacant ,not Alloted & not buildup","authority":"NOIDA","category":"industrial","execution_stage":"unknown"}},{"type":"Feature","geometry":{"type":"Polygon","coordinates":[[[77.415268,28.513145],[77.415983,28.512801],[77.416232,28.513204],[77.415507,28.513548],[77.415268,28.513145]]]},"properties":{"objectid":1582,"plotmapid":"9090/012IND","property_t":"Industrial","used":"NA","plotsizesq":5000,"plot_size":"5000 SQMT","plot_no":"90/012","sector":"90","mplanduse":"V","ppt_type":"IND","ppt_full":"Industrial","remark":"As per drone is vacant ,not Alloted & not buildup","authority":"NOIDA","category":"industrial","execution_stage":"unknown"}},{"type":"Feature","geometry":{"type":"Polygon","coordinates":[[[77.407002,28.516782],[77.406196,28.517177],[77.405765,28.516491],[77.406562,28.516076],[77.407002,28.516782]]]},"properties":{"objectid":1589,"plotmapid":"85C17-18IND","property_t":"Industrial","used":"NA","plotsizesq":4050,"plot_size":"4050 SQMT","plot_no":"17-18","sector":"85","block":"C","mplanduse":"V","ppt_type":"IND","ppt_full":"Industrial","remark":"DD","authority":"NOIDA","category":"industrial","execution_stage":"unknown"}},{"type":"Feature","geometry":{"type":"Polygon","coordinates":[[[77.408043,28.515755],[77.408636,28.515991],[77.407804,28.516392],[77.407508,28.515914],[77.407925,28.51571],[77.408043,28.515755]]]},"properties":{"objectid":1597,"plotmapid":"85C014IND","property_t":"Industrial","used":"NA","allotted_p":"Yes","plotsizesq":4050,"plot_no":"014","sector":"85","block":"C","mplanduse":"V","ppt_type":"IND","ppt_full":"Industrial","authority":"NOIDA","category":"industrial","execution_stage":"allotted"}},{"type":"Feature","geometry":{"type":"Polygon","coordinates":[[[77.415023,28.511224],[77.41574,28.510881],[77.415976,28.511268],[77.415256,28.511609],[77.415023,28.511224]]]},"properties":{"objectid":1600,"plotmapid":"90NA021IND","property_t":"Industrial","used":"NA","plotsizesq":5000,"plot_size":"5000 SQMT","plot_no":"021","sector":"90","block":"NA","mplanduse":"V","ppt_type":"IND","ppt_full":"Industrial","authority":"NOIDA","category":"industrial","execution_stage":"unknown"}},{"type":"Feature","geometry":{"type":"Polygon","coordinates":[[[77.416461,28.512065],[77.416713,28.512463],[77.415983,28.512801],[77.415741,28.512407],[77.416461,28.512065]]]},"properties":{"objectid":1602,"plotmapid":"90NA018IND","property_t":"Industrial","used":"NA","plotsizesq":5000,"plot_size":"5000 SQMT","plot_no":"018","sector":"90","block":"NA","mplanduse":"V","ppt_type":"IND","ppt_full":"Industrial","authority":"NOIDA","category":"industrial","execution_stage":"unknown"}},{"type":"Feature","geometry":{"type":"Polygon","coordinates":[[[77.415507,28.513548],[77.416232,28.513204],[77.416477,28.513597],[77.415751,28.51395],[77.415507,28.513548]]]},"properties":{"objectid":1603,"plotmapid":"90NA013IND","property_t":"Industrial","used":"NA","plotsizesq":5000,"plot_size":"5000 SQMT","plot_no":"013","sector":"90","block":"NA","mplanduse":"V","ppt_type":"IND","ppt_full":"Industrial","authority":"NOIDA","category":"industrial","execution_stage":"unknown"}},{"type":"Feature","geometry":{"type":"Polygon","coordinates":[[[77.414879,28.514785],[77.41513,28.51519],[77.414204,28.515617],[77.413957,28.51522],[77.414879,28.514785]]]},"properties":{"objectid":1604,"plotmapid":"90NA002IND","property_t":"Industrial","used":"NA","plotsizesq":5000,"plot_size":"5000 SQMT","plot_no":"002","sector":"90","block":"NA","mplanduse":"V","ppt_type":"IND","ppt_full":"Industrial","authority":"NOIDA","category":"industrial","execution_stage":"unknown"}},{"type":"Feature","geometry":{"type":"Polygon","coordinates":[[[77.409269,28.516959],[77.409163,28.517011],[77.408913,28.516616],[77.409498,28.516331],[77.410085,28.516558],[77.409269,28.516959]]]},"properties":{"objectid":1608,"plotmapid":"85C012/001IND","property_t":"Industrial","used":"NA","plotsizesq":4250,"plot_size":"4250 SQMT","plot_no":"012/001","sector":"85","block":"C","mplanduse":"B","ppt_type":"IND","ppt_full":"Industrial","authority":"NOIDA","category":"industrial","execution_stage":"unknown"}},{"type":"Feature","geometry":{"type":"Polygon","coordinates":[[[77.408914,28.516099],[77.409498,28.516331],[77.408913,28.516616],[77.408669,28.516221],[77.408914,28.516099]]]},"properties":{"objectid":1610,"plotmapid":"85C012/2IND","property_t":"Industrial","used":"NA","plotsizesq":2400,"plot_size":"2400 SQMT","plot_no":"012/2","sector":"85","block":"C","mplanduse":"B","ppt_type":"IND","ppt_full":"Industrial","authority":"NOIDA","category":"industrial","execution_stage":"unknown"}},{"type":"Feature","geometry":{"type":"Polygon","coordinates":[[[77.408669,28.516221],[77.409163,28.517011],[77.408885,28.517146],[77.408391,28.516357],[77.408669,28.516221]]]},"properties":{"objectid":1611,"plotmapid":"85C12/3IND","property_t":"Industrial","plotsizesq":3100,"plot_size":"31 SQMT","plot_no":"12/3","sector":"85","block":"C","mplanduse":"B","ppt_type":"IND","ppt_full":"Industrial","authority":"NOIDA","category":"industrial","execution_stage":"unknown"}},{"type":"Feature","geometry":{"type":"Polygon","coordinates":[[[77.40745,28.515821],[77.407804,28.516392],[77.407002,28.516782],[77.406562,28.516076],[77.407365,28.515683],[77.40745,28.515821]]]},"properties":{"objectid":1646,"plotmapid":"85C15-16IND","property_t":"Industrial","used":"NA","plotsizesq":4050,"plot_size":"4050 SQMT","plot_no":"15-16","sector":"85","block":"C","mplanduse":"B","ppt_type":"IND","ppt_full":"Industrial","authority":"NOIDA","category":"industrial","execution_stage":"unknown"}},{"type":"Feature","geometry":{"type":"Polygon","coordinates":[[[77.414284,28.511578],[77.415023,28.511224],[77.415256,28.511609],[77.414534,28.511957],[77.414284,28.511578]]]},"properties":{"objectid":1654,"plotmapid":"90NA008IND","property_t":"Industrial","used":"NA","plotsizesq":5000,"plot_size":"5000 SQMT","plot_no":"008","sector":"90","block":"NA","mplanduse":"B","ppt_type":"IND","ppt_full":"Industrial","authority":"NOIDA","category":"industrial","execution_stage":"unknown"}},{"type":"Feature","geometry":{"type":"Polygon","coordinates":[[[77.413598,28.512736],[77.413843,28.513137],[77.412947,28.51357],[77.412457,28.512766],[77.413359,28.512343],[77.413598,28.512736]]]},"properties":{"objectid":1655,"plotmapid":"90NA006 & 007IND","property_t":"Industrial","used":"NA","plotsizesq":5000,"plot_size":"5000 SQMT","plot_no":"006 & 007","sector":"90","block":"NA","mplanduse":"B","ppt_type":"IND","ppt_full":"Industrial","authority":"NOIDA","category":"industrial","execution_stage":"unknown"}},{"type":"Feature","geometry":{"type":"Polygon","coordinates":[[[77.415256,28.511609],[77.415503,28.512004],[77.414781,28.512352],[77.414534,28.511957],[77.415256,28.511609]]]},"properties":{"objectid":1656,"plotmapid":"90NA009IND","property_t":"Industrial","used":"NA","plotsizesq":5000,"plot_size":"5000 SQMT","plot_no":"009","sector":"90","block":"NA","mplanduse":"B","ppt_type":"IND","ppt_full":"Industrial","authority":"NOIDA","category":"industrial","execution_stage":"unknown"}},{"type":"Feature","geometry":{"type":"Polygon","coordinates":[[[77.415503,28.512004],[77.415741,28.512407],[77.415024,28.51275],[77.414781,28.512352],[77.415503,28.512004]]]},"properties":{"objectid":1657,"plotmapid":"90010IND","property_t":"Industrial","used":"NA","allotted_p":"Yes","plotsizesq":4000,"plot_size":"5000 SQMT","plot_no":"010","sector":"90","mplanduse":"B","ppt_type":"IND","ppt_full":"Industrial","authority":"NOIDA","category":"industrial","execution_stage":"allotted"}},{"type":"Feature","geometry":{"type":"Polygon","coordinates":[[[77.416219,28.511667],[77.416461,28.512065],[77.415741,28.512407],[77.415503,28.512004],[77.416219,28.511667]]]},"properties":{"objectid":1658,"plotmapid":"9090/019IND","property_t":"Industrial","used":"NA","plotsizesq":5000,"plot_size":"5000 SQMT","plot_no":"90/019","sector":"90","mplanduse":"B","ppt_type":"IND","ppt_full":"Industrial","authority":"NOIDA","category":"industrial","execution_stage":"unknown"}},{"type":"Feature","geometry":{"type":"Polygon","coordinates":[[[77.414095,28.513532],[77.413193,28.513965],[77.412947,28.51357],[77.413843,28.513137],[77.414095,28.513532]]]},"properties":{"objectid":1659,"plotmapid":"90NA005IND","property_t":"Industrial","used":"NA","plotsizesq":5000,"plot_size":"5000 SQMT","plot_no":"005","sector":"90","block":"NA","mplanduse":"B","ppt_type":"IND","ppt_full":"Industrial","authority":"NOIDA","category":"industrial","execution_stage":"unknown"}},{"type":"Feature","geometry":{"type":"Polygon","coordinates":[[[77.415741,28.512407],[77.415983,28.512801],[77.415268,28.513145],[77.415024,28.51275],[77.415741,28.512407]]]},"properties":{"objectid":1660,"plotmapid":"90NA011IND","property_t":"Industrial","used":"NA","plotsizesq":5000,"plot_size":"5000 SQMT","plot_no":"011","sector":"90","block":"NA","mplanduse":"B","ppt_type":"IND","ppt_full":"Industrial","authority":"NOIDA","category":"industrial","execution_stage":"unknown"}},{"type":"Feature","geometry":{"type":"Polygon","coordinates":[[[77.414347,28.513927],[77.413435,28.514363],[77.413193,28.513965],[77.414095,28.513532],[77.414347,28.513927]]]},"properties":{"objectid":1661,"plotmapid":"9090/004IND","property_t":"Industrial","used":"NA","plotsizesq":5000,"plot_size":"5000 SQMT","plot_no":"90/004","sector":"90","mplanduse":"B","ppt_type":"IND","ppt_full":"Industrial","authority":"NOIDA","category":"industrial","execution_stage":"unknown"}},{"type":"Feature","geometry":{"type":"Polygon","coordinates":[[[77.416713,28.512463],[77.416947,28.512861],[77.416232,28.513204],[77.415983,28.512801],[77.416713,28.512463]]]},"properties":{"objectid":1662,"plotmapid":"90NA017IND","property_t":"Industrial","used":"NA","plotsizesq":5000,"plot_size":"5000 SQMT","plot_no":"017","sector":"90","block":"NA","mplanduse":"B","ppt_type":"IND","ppt_full":"Industrial","authority":"NOIDA","category":"industrial","execution_stage":"unknown"}},{"type":"Feature","geometry":{"type":"Polygon","coordinates":[[[77.414641,28.514387],[77.413718,28.514825],[77.413435,28.514363],[77.414347,28.513927],[77.414641,28.514387]]]},"properties":{"objectid":1663,"plotmapid":"90NA003AIND","property_t":"Industrial","used":"NA","plotsizesq":5000,"plot_size":"5000 SQMT","plot_no":"003A","sector":"90","block":"NA","mplanduse":"B","ppt_type":"IND","ppt_full":"Industrial","authority":"NOIDA","category":"industrial","execution_stage":"unknown"}},{"type":"Feature","geometry":{"type":"Polygon","coordinates":[[[77.417193,28.513254],[77.416477,28.513597],[77.416232,28.513204],[77.416947,28.512861],[77.417193,28.513254]]]},"properties":{"objectid":1664,"plotmapid":"9090/016IND","property_t":"Industrial","used":"NA","plotsizesq":5000,"plot_size":"5000 SQMT","plot_no":"90/016","sector":"90","mplanduse":"B","ppt_type":"IND","ppt_full":"Industrial","authority":"NOIDA","category":"industrial","execution_stage":"unknown"}},{"type":"Feature","geometry":{"type":"Polygon","coordinates":[[[77.414877,28.514781],[77.413957,28.51522],[77.413718,28.514825],[77.414641,28.514387],[77.414877,28.514781]]]},"properties":{"objectid":1665,"plotmapid":"90NA90/003IND","property_t":"Industrial","used":"NA","plotsizesq":5000,"plot_size":"5000 SQMT","plot_no":"90/003","sector":"90","block":"NA","mplanduse":"B","ppt_type":"IND","ppt_full":"Industrial","authority":"NOIDA","category":"industrial","execution_stage":"unknown"}},{"type":"Feature","geometry":{"type":"Polygon","coordinates":[[[77.415751,28.51395],[77.416477,28.513597],[77.41672,28.513994],[77.415996,28.514352],[77.415751,28.51395]]]},"properties":{"objectid":1667,"plotmapid":"90014IND","property_t":"Industrial","used":"NA","plotsizesq":5000,"plot_size":"5000 SQMT","plot_no":"014","sector":"90","mplanduse":"B","ppt_type":"IND","ppt_full":"Industrial","authority":"NOIDA","category":"industrial","execution_stage":"unknown"}},{"type":"Feature","geometry":{"type":"Polygon","coordinates":[[[77.417195,28.513258],[77.417438,28.513651],[77.41672,28.513994],[77.416477,28.513597],[77.417195,28.513258]]]},"properties":{"objectid":1668,"plotmapid":"90NA015IND","property_t":"Industrial","used":"NA","plotsizesq":5000,"plot_size":"5000 SQMT","plot_no":"015","sector":"90","block":"NA","mplanduse":"B","ppt_type":"IND","ppt_full":"Industrial","authority":"NOIDA","category":"industrial","execution_stage":"unknown"}},{"type":"Feature","geometry":{"type":"Polygon","coordinates":[[[77.412457,28.512766],[77.414204,28.515617],[77.413475,28.515964],[77.410289,28.514647],[77.408507,28.513884],[77.412093,28.512168],[77.412457,28.512766]]]},"properties":{"objectid":1670,"plotmapid":"9090/001IND","property_t":"Industrial","used":"NA","plotsizesq":100000,"plot_size":"100000 SQMT","plot_no":"90/001","sector":"90","mplanduse":"B","ppt_type":"IND","ppt_full":"Industrial","authority":"NOIDA","category":"industrial","execution_stage":"unknown"}},{"type":"Feature","geometry":{"type":"Polygon","coordinates":[[[77.415525,28.515645],[77.416018,28.516441],[77.41566,28.516611],[77.415166,28.515815],[77.415525,28.515645]]]},"properties":{"objectid":17390,"plotmapid":"138NA001IND","property_t":"Industrial","used":"NA","plotsizesq":0,"plot_no":"001","sector":"138","block":"NA","mplanduse":"V","ppt_type":"IND","ppt_full":"Industrial","authority":"NOIDA","category":"industrial","execution_stage":"unknown"}},{"type":"Feature","geometry":{"type":"Polygon","coordinates":[[[77.415884,28.515475],[77.416377,28.51627],[77.416018,28.516441],[77.415525,28.515645],[77.415884,28.515475]]]},"properties":{"objectid":17391,"plotmapid":"138NA002IND","property_t":"Industrial","used":"NA","plotsizesq":0,"plot_no":"002","sector":"138","block":"NA","mplanduse":"V","ppt_type":"IND","ppt_full":"Industrial","authority":"NOIDA","category":"industrial","execution_stage":"unknown"}},{"type":"Feature","geometry":{"type":"Polygon","coordinates":[[[77.416242,28.515304],[77.416735,28.5161],[77.416377,28.51627],[77.415884,28.515475],[77.416242,28.515304]]]},"properties":{"objectid":17392,"plotmapid":"138NA003IND","property_t":"Industrial","used":"NA","plotsizesq":0,"plot_no":"003","sector":"138","block":"NA","mplanduse":"B","ppt_type":"IND","ppt_full":"Industrial","authority":"NOIDA","category":"industrial","execution_stage":"unknown"}},{"type":"Feature","geometry":{"type":"Polygon","coordinates":[[[77.416601,28.515134],[77.417094,28.51593],[77.416735,28.5161],[77.416242,28.515304],[77.416601,28.515134]]]},"properties":{"objectid":17393,"plotmapid":"138NA004IND","property_t":"Industrial","used":"NA","plotsizesq":0,"plot_no":"004","sector":"138","block":"NA","mplanduse":"B","ppt_type":"IND","ppt_full":"Industrial","authority":"NOIDA","category":"industrial","execution_stage":"unknown"}},{"type":"Feature","geometry":{"type":"Polygon","coordinates":[[[77.41696,28.514964],[77.417453,28.51576],[77.417094,28.51593],[77.416601,28.515134],[77.41696,28.514964]]]},"properties":{"objectid":17394,"plotmapid":"138NA138/005IND","property_t":"Industrial","used":"NA","plotsizesq":0,"plot_no":"138/005","sector":"138","block":"NA","mplanduse":"V","ppt_type":"IND","ppt_full":"Industrial","authority":"NOIDA","category":"industrial","execution_stage":"unknown"}},{"type":"Feature","geometry":{"type":"Polygon","coordinates":[[[77.416691,28.516781],[77.41651,28.516866],[77.416316,28.516546],[77.416495,28.516461],[77.416691,28.516781]]]},"properties":{"objectid":17400,"plotmapid":"138NA030IND","property_t":"Industrial","used":"NA","plotsizesq":0,"plot_no":"030","sector":"138","block":"NA","mplanduse":"V","ppt_type":"IND","ppt_full":"Industrial","authority":"NOIDA","category":"industrial","execution_stage":"unknown"}},{"type":"Feature","geometry":{"type":"Polygon","coordinates":[[[77.416872,28.516695],[77.416691,28.516781],[77.416495,28.516461],[77.416675,28.516376],[77.416872,28.516695]]]},"properties":{"objectid":17401,"plotmapid":"138NA029IND","property_t":"Industrial","used":"NA","plotsizesq":0,"plot_no":"029","sector":"138","block":"NA","mplanduse":"V","ppt_type":"IND","ppt_full":"Industrial","authority":"NOIDA","category":"industrial","execution_stage":"unknown"}},{"type":"Feature","geometry":{"type":"Polygon","coordinates":[[[77.417051,28.516609],[77.416872,28.516695],[77.416675,28.516376],[77.416859,28.516289],[77.417051,28.516609]]]},"properties":{"objectid":17402,"plotmapid":"138NA028IND","property_t":"Industrial","used":"NA","plotsizesq":0,"plot_no":"028","sector":"138","block":"NA","mplanduse":"B","ppt_type":"IND","ppt_full":"Industrial","authority":"NOIDA","category":"industrial","execution_stage":"unknown"}},{"type":"Feature","geometry":{"type":"Polygon","coordinates":[[[77.416859,28.516289],[77.417039,28.516203],[77.417235,28.516522],[77.417051,28.516609],[77.416859,28.516289]]]},"properties":{"objectid":17403,"plotmapid":"138NA027IND","property_t":"Industrial","used":"NA","plotsizesq":0,"plot_no":"027","sector":"138","block":"NA","mplanduse":"B","ppt_type":"IND","ppt_full":"Industrial","authority":"NOIDA","category":"industrial","execution_stage":"unknown"}},{"type":"Feature","geometry":{"type":"Polygon","coordinates":[[[77.417039,28.516203],[77.417213,28.516121],[77.41741,28.516439],[77.417235,28.516522],[77.417039,28.516203]]]},"properties":{"objectid":17404,"plotmapid":"138NA026IND","property_t":"Industrial","used":"NA","plotsizesq":0,"plot_no":"026","sector":"138","block":"NA","mplanduse":"V","ppt_type":"IND","ppt_full":"Industrial","authority":"NOIDA","category":"industrial","execution_stage":"unknown"}},{"type":"Feature","geometry":{"type":"Polygon","coordinates":[[[77.417235,28.516522],[77.41741,28.516439],[77.417607,28.516757],[77.417428,28.516843],[77.417235,28.516522]]]},"properties":{"objectid":17413,"plotmapid":"138NA041IND","property_t":"Industrial","used":"NA","plotsizesq":0,"plot_no":"041","sector":"138","block":"NA","mplanduse":"B","ppt_type":"IND","ppt_full":"Industrial","authority":"NOIDA","category":"industrial","execution_stage":"unknown"}},{"type":"Feature","geometry":{"type":"Polygon","coordinates":[[[77.41813,28.516014],[77.417542,28.516296],[77.417394,28.516051],[77.417985,28.515777],[77.41813,28.516014]]]},"properties":{"objectid":17460,"plotmapid":"138NA025IND","property_t":"Industrial","used":"NA","plotsizesq":0,"plot_no":"025","sector":"138","block":"NA","mplanduse":"B","ppt_type":"IND","ppt_full":"Industrial","authority":"NOIDA","category":"industrial","execution_stage":"unknown"}},{"type":"Feature","geometry":{"type":"Polygon","coordinates":[[[77.419192,28.516504],[77.418601,28.516788],[77.418445,28.516532],[77.419037,28.516248],[77.419192,28.516504]]]},"properties":{"objectid":17461,"plotmapid":"138NA009IND","property_t":"Industrial","used":"NA","plotsizesq":0,"plot_no":"009","sector":"138","block":"NA","mplanduse":"B","ppt_type":"IND","ppt_full":"Industrial","authority":"NOIDA","category":"industrial","execution_stage":"unknown"}},{"type":"Feature","geometry":{"type":"Polygon","coordinates":[[[77.41813,28.516014],[77.418724,28.515729],[77.418881,28.515989],[77.418286,28.516272],[77.41813,28.516014]]]},"properties":{"objectid":17462,"plotmapid":"138NA138/007IND","property_t":"Industrial","used":"NA","plotsizesq":0,"plot_no":"138/007","sector":"138","block":"NA","mplanduse":"B","ppt_type":"IND","ppt_full":"Industrial","authority":"NOIDA","category":"industrial","execution_stage":"unknown"}},{"type":"Feature","geometry":{"type":"Polygon","coordinates":[[[77.418445,28.516532],[77.417856,28.516815],[77.417697,28.516552],[77.418286,28.516272],[77.418445,28.516532]]]},"properties":{"objectid":17465,"plotmapid":"138NA023IND","property_t":"Industrial","used":"NA","plotsizesq":0,"plot_no":"023","sector":"138","block":"NA","mplanduse":"B","ppt_type":"IND","ppt_full":"Industrial","authority":"NOIDA","category":"industrial","execution_stage":"unknown"}},{"type":"Feature","geometry":{"type":"Polygon","coordinates":[[[77.418724,28.515729],[77.41813,28.516014],[77.417985,28.515777],[77.418585,28.515499],[77.418724,28.515729]]]},"properties":{"objectid":17468,"plotmapid":"138NA006IND","property_t":"Industrial","used":"NA","plotsizesq":0,"plot_no":"006","sector":"138","block":"NA","mplanduse":"B","ppt_type":"IND","ppt_full":"Industrial","authority":"NOIDA","category":"industrial","execution_stage":"unknown"}},{"type":"Feature","geometry":{"type":"Polygon","coordinates":[[[77.418286,28.516272],[77.417697,28.516552],[77.417542,28.516296],[77.41813,28.516014],[77.418286,28.516272]]]},"properties":{"objectid":17470,"plotmapid":"138NA024IND","property_t":"Industrial","used":"NA","plotsizesq":0,"plot_no":"024","sector":"138","block":"NA","mplanduse":"B","ppt_type":"IND","ppt_full":"Industrial","authority":"NOIDA","category":"industrial","execution_stage":"unknown"}},{"type":"Feature","geometry":{"type":"Polygon","coordinates":[[[77.418286,28.516272],[77.418881,28.515989],[77.419037,28.516248],[77.418445,28.516532],[77.418286,28.516272]]]},"properties":{"objectid":17473,"plotmapid":"138NA008IND","property_t":"Industrial","used":"NA","plotsizesq":0,"plot_no":"008","sector":"138","block":"NA","mplanduse":"B","ppt_type":"IND","ppt_full":"Industrial","authority":"NOIDA","category":"industrial","execution_stage":"unknown"}},{"type":"Feature","geometry":{"type":"Polygon","coordinates":[[[77.420177,28.51528],[77.420132,28.515302],[77.419114,28.513722],[77.420036,28.513278],[77.421025,28.514867],[77.420177,28.51528]]]},"properties":{"objectid":17479,"plotmapid":"140NA002IND","property_t":"Industrial","used":"NA","allotted_p":"Yes","plotsizesq":20000,"plot_size":"2000 SQMT","plot_no":"002","sector":"140","block":"NA","mplanduse":"V","ppt_type":"IND","ppt_full":"Industrial","authority":"NOIDA","category":"industrial","execution_stage":"allotted"}},{"type":"Feature","geometry":{"type":"Polygon","coordinates":[[[77.42041,28.513099],[77.420954,28.512837],[77.421924,28.514439],[77.421025,28.514867],[77.420036,28.513278],[77.42041,28.513099]]]},"properties":{"objectid":17480,"plotmapid":"140 003IND","property_t":"Industrial","used":"NA","plotsizesq":2000,"plot_size":"2000 SQMT","plot_no":"003","sector":"140","mplanduse":"V","ppt_type":"IND","ppt_full":"Industrial","authority":"NOIDA","category":"industrial","execution_stage":"unknown"}},{"type":"Feature","geometry":{"type":"Polygon","coordinates":[[[77.421893,28.512474],[77.422827,28.514004],[77.421924,28.514439],[77.420954,28.512837],[77.421852,28.512407],[77.421893,28.512474]]]},"properties":{"objectid":17481,"plotmapid":"140NA004IND","property_t":"Industrial","used":"NA","allotted_p":"Yes","plotsizesq":20000,"plot_size":"2000 SQMT","plot_no":"004","sector":"140","block":"NA","mplanduse":"V","ppt_type":"IND","ppt_full":"Industrial","authority":"NOIDA","category":"industrial","execution_stage":"allotted"}},{"type":"Feature","geometry":{"type":"Polygon","coordinates":[[[77.419543,28.515578],[77.419835,28.516051],[77.419502,28.516197],[77.419231,28.515726],[77.419543,28.515578]]]},"properties":{"objectid":17482,"plotmapid":"140NA014IND","property_t":"Industrial","used":"NA","allotted_p":"Yes","plotsizesq":2100,"plot_size":"2100 SQMT","plot_no":"014","sector":"140","block":"NA","mplanduse":"V","ppt_type":"IND","ppt_full":"Industrial","authority":"NOIDA","category":"industrial","execution_stage":"allotted"}},{"type":"Feature","geometry":{"type":"Polygon","coordinates":[[[77.420177,28.51528],[77.420465,28.515752],[77.420146,28.515903],[77.419867,28.515436],[77.420177,28.51528]]]},"properties":{"objectid":17483,"plotmapid":"140 140/012IND","property_t":"Industrial","used":"NA","plotsizesq":2100,"plot_size":"2100 SQMT","plot_no":"140/012","sector":"140","mplanduse":"V","ppt_type":"IND","ppt_full":"Industrial","authority":"NOIDA","category":"industrial","execution_stage":"unknown"}},{"type":"Feature","geometry":{"type":"Polygon","coordinates":[[[77.420489,28.515124],[77.420783,28.5156],[77.420465,28.515752],[77.420177,28.51528],[77.420489,28.515124]]]},"properties":{"objectid":17484,"plotmapid":"140NA011IND","property_t":"Industrial","used":"NA","allotted_p":"Yes","plotsizesq":2100,"plot_size":"2100 SQMT","plot_no":"011","sector":"140","block":"NA","mplanduse":"V","ppt_type":"IND","ppt_full":"Industrial","authority":"NOIDA","category":"industrial","execution_stage":"allotted"}},{"type":"Feature","geometry":{"type":"Polygon","coordinates":[[[77.421933,28.515302],[77.422232,28.515785],[77.421917,28.515937],[77.421613,28.515457],[77.421933,28.515302]]]},"properties":{"objectid":17485,"plotmapid":"140 140/030IND","property_t":"Industrial","used":"NA","plotsizesq":2100,"plot_size":"2100 SQMT","plot_no":"140/030","sector":"140","mplanduse":"V","ppt_type":"IND","ppt_full":"Industrial","authority":"NOIDA","category":"industrial","execution_stage":"unknown"}},{"type":"Feature","geometry":{"type":"Polygon","coordinates":[[[77.422263,28.515142],[77.42256,28.515628],[77.422232,28.515785],[77.421933,28.515302],[77.422263,28.515142]]]},"properties":{"objectid":17486,"plotmapid":"140NA031IND","property_t":"Industrial","used":"NA","allotted_p":"Yes","plotsizesq":2100,"plot_size":"2100 SQMT","plot_no":"031","sector":"140","block":"NA","mplanduse":"V","ppt_type":"IND","ppt_full":"Industrial","authority":"NOIDA","category":"industrial","execution_stage":"allotted"}},{"type":"Feature","geometry":{"type":"Polygon","coordinates":[[[77.42256,28.515628],[77.422856,28.516113],[77.422525,28.516264],[77.422232,28.515785],[77.42256,28.515628]]]},"properties":{"objectid":17488,"plotmapid":"140 140/032IND","property_t":"Industrial","used":"NA","plotsizesq":0,"plot_size":"NA","plot_no":"140/032","sector":"140","mplanduse":"V","ppt_type":"IND","ppt_full":"Industrial","authority":"NOIDA","category":"industrial","execution_stage":"unknown"}},{"type":"Feature","geometry":{"type":"Polygon","coordinates":[[[77.419543,28.515578],[77.419231,28.515726],[77.418719,28.51493],[77.418178,28.514141],[77.41821,28.514106],[77.419088,28.513682],[77.420132,28.515302],[77.419543,28.515578]]]},"properties":{"objectid":17494,"plotmapid":"140 140/001IND","property_t":"Industrial","used":"NA","plotsizesq":2000,"plot_size":"2000 SQMT","plot_no":"140/001","sector":"140","mplanduse":"B","ppt_type":"IND","ppt_full":"Industrial","authority":"NOIDA","category":"industrial","execution_stage":"unknown"}},{"type":"Feature","geometry":{"type":"Polygon","coordinates":[[[77.421468,28.516347],[77.421666,28.51667],[77.420949,28.517013],[77.420744,28.516694],[77.421468,28.516347]]]},"properties":{"objectid":17495,"plotmapid":"140 140/026IND","property_t":"Industrial","used":"NA","plotsizesq":3200,"plot_size":"3200 SQMT","plot_no":"140/026","sector":"140","mplanduse":"B","ppt_type":"IND","ppt_full":"Industrial","authority":"NOIDA","category":"industrial","execution_stage":"unknown"}},{"type":"Feature","geometry":{"type":"Polygon","coordinates":[[[77.423051,28.512363],[77.423601,28.513281],[77.423442,28.513712],[77.422827,28.514004],[77.421852,28.512407],[77.422807,28.511957],[77.423051,28.512363]]]},"properties":{"objectid":17496,"plotmapid":"140 140/005IND","property_t":"Industrial","used":"NA","plotsizesq":2000,"plot_size":"2000 SQMT","plot_no":"140/005","sector":"140","mplanduse":"B","ppt_type":"IND","ppt_full":"Industrial","authority":"NOIDA","category":"industrial","execution_stage":"unknown"}},{"type":"Feature","geometry":{"type":"Polygon","coordinates":[[[77.419867,28.515436],[77.420146,28.515903],[77.419835,28.516051],[77.419543,28.515578],[77.419867,28.515436]]]},"properties":{"objectid":17497,"plotmapid":"140 12AIND","property_t":"Industrial","used":"NA","plotsizesq":2100,"plot_size":"2100 SQMT","plot_no":"12A","sector":"140","mplanduse":"B","ppt_type":"IND","ppt_full":"Industrial","authority":"NOIDA","category":"industrial","execution_stage":"unknown"}},{"type":"Feature","geometry":{"type":"Polygon","coordinates":[[[77.420932,28.515183],[77.421091,28.515449],[77.420783,28.5156],[77.420489,28.515124],[77.420807,28.514973],[77.420932,28.515183]]]},"properties":{"objectid":17498,"plotmapid":"140NA010IND","property_t":"Industrial","used":"NA","allotted_p":"Yes","plotsizesq":2100,"plot_size":"2100 SQMT","plot_no":"140/010","sector":"140","block":"NA","mplanduse":"B","ppt_type":"IND","ppt_full":"Industrial","authority":"NOIDA","category":"industrial","execution_stage":"allotted"}},{"type":"Feature","geometry":{"type":"Polygon","coordinates":[[[77.421252,28.515034],[77.421415,28.515298],[77.421091,28.515449],[77.420807,28.514973],[77.421125,28.51482],[77.421252,28.515034]]]},"properties":{"objectid":17499,"plotmapid":"140NA009IND","property_t":"Industrial","used":"NA","plotsizesq":2100,"plot_size":"2100 SQMT","plot_no":"009","sector":"140","mplanduse":"B","ppt_type":"IND","ppt_full":"Industrial","authority":"NOIDA","category":"industrial","execution_stage":"unknown"}},{"type":"Feature","geometry":{"type":"Polygon","coordinates":[[[77.421571,28.514884],[77.421736,28.515147],[77.421415,28.515298],[77.421125,28.51482],[77.421438,28.514672],[77.421571,28.514884]]]},"properties":{"objectid":17500,"plotmapid":"140 140/008IND","property_t":"Industrial","used":"NA","plotsizesq":2100,"plot_size":"2100 SQMT","plot_no":"140/008","sector":"140","mplanduse":"B","ppt_type":"IND","ppt_full":"Industrial","authority":"NOIDA","category":"industrial","execution_stage":"unknown"}},{"type":"Feature","geometry":{"type":"Polygon","coordinates":[[[77.421883,28.514735],[77.422044,28.514995],[77.421736,28.515147],[77.421438,28.514672],[77.421749,28.51452],[77.421883,28.514735]]]},"properties":{"objectid":17501,"plotmapid":"140 007IND","property_t":"Industrial","used":"NA","plotsizesq":2100,"plot_size":"2100 SQMT","plot_no":"007","sector":"140","mplanduse":"B","ppt_type":"IND","ppt_full":"Industrial","authority":"NOIDA","category":"industrial","execution_stage":"unknown"}},{"type":"Feature","geometry":{"type":"Polygon","coordinates":[[[77.422203,28.514586],[77.422367,28.514844],[77.422044,28.514995],[77.421749,28.51452],[77.422071,28.514369],[77.422203,28.514586]]]},"properties":{"objectid":17502,"plotmapid":"140 140/006IND","property_t":"Industrial","used":"NA","plotsizesq":2100,"plot_size":"2100 SQMT","plot_no":"140/006","sector":"140","mplanduse":"B","ppt_type":"IND","ppt_full":"Industrial","authority":"NOIDA","category":"industrial","execution_stage":"unknown"}},{"type":"Feature","geometry":{"type":"Polygon","coordinates":[[[77.42036,28.516054],[77.420551,28.516375],[77.419832,28.516716],[77.419638,28.516397],[77.42036,28.516054]]]},"properties":{"objectid":17503,"plotmapid":"140 015IND","property_t":"Industrial","used":"NA","plotsizesq":2100,"plot_size":"2100 SQMT","plot_no":"015","sector":"140","mplanduse":"B","ppt_type":"IND","ppt_full":"Industrial","authority":"NOIDA","category":"industrial","execution_stage":"unknown"}},{"type":"Feature","geometry":{"type":"Polygon","coordinates":[[[77.421076,28.515706],[77.421276,28.516024],[77.420551,28.516375],[77.42036,28.516054],[77.421076,28.515706]]]},"properties":{"objectid":17504,"plotmapid":"140NA028IND","property_t":"Industrial","used":"NA","allotted_p":"Yes","plotsizesq":3200,"plot_size":"2100 SQMT","plot_no":"028","sector":"140","block":"NA","mplanduse":"B","ppt_type":"IND","ppt_full":"Industrial","authority":"NOIDA","category":"industrial","execution_stage":"allotted"}},{"type":"Feature","geometry":{"type":"Polygon","coordinates":[[[77.421613,28.515457],[77.421917,28.515937],[77.421596,28.516089],[77.421293,28.515597],[77.421613,28.515457]]]},"properties":{"objectid":17505,"plotmapid":"140NA029IND","property_t":"Industrial","used":"NA","allotted_p":"Yes","plotsizesq":2100,"plot_size":"2100 SQMT","plot_no":"029","sector":"140","block":"NA","mplanduse":"B","ppt_type":"IND","ppt_full":"Industrial","authority":"NOIDA","category":"industrial","execution_stage":"allotted"}},{"type":"Feature","geometry":{"type":"Polygon","coordinates":[[[77.421276,28.516024],[77.421468,28.516347],[77.420744,28.516694],[77.420551,28.516375],[77.421276,28.516024]]]},"properties":{"objectid":17507,"plotmapid":"140NA027IND","property_t":"Industrial","used":"NA","allotted_p":"Yes","plotsizesq":3200,"plot_size":"3200 SQMT","plot_no":"027","sector":"140","block":"NA","mplanduse":"B","ppt_type":"IND","ppt_full":"Industrial","authority":"NOIDA","category":"industrial","execution_stage":"allotted"}},{"type":"Feature","geometry":{"type":"Polygon","coordinates":[[[77.421917,28.515937],[77.42221,28.516413],[77.421882,28.516566],[77.421596,28.516089],[77.421917,28.515937]]]},"properties":{"objectid":17508,"plotmapid":"140 034IND","property_t":"Industrial","used":"NA","plotsizesq":0,"plot_size":"NA","plot_no":"034","sector":"140","mplanduse":"B","ppt_type":"IND","ppt_full":"Industrial","authority":"NOIDA","category":"industrial","execution_stage":"unknown"}},{"type":"Feature","geometry":{"type":"Polygon","coordinates":[[[77.422232,28.515785],[77.422525,28.516264],[77.42221,28.516413],[77.421917,28.515937],[77.422232,28.515785]]]},"properties":{"objectid":17509,"plotmapid":"140NA033IND","property_t":"Industrial","used":"NA","allotted_p":"Yes","plotsizesq":2100,"plot_size":"NA","plot_no":"033","sector":"140","block":"NA","mplanduse":"B","ppt_type":"IND","ppt_full":"Industrial","authority":"NOIDA","category":"industrial","execution_stage":"allotted"}},{"type":"Feature","geometry":{"type":"Polygon","coordinates":[[[77.420491,28.511993],[77.420165,28.512151],[77.419869,28.511672],[77.420196,28.511517],[77.420491,28.511993]]]},"properties":{"objectid":17520,"plotmapid":"140AA014IND","property_t":"Industrial","used":"NA","plotsizesq":2100,"plot_size":"2100 SQMT","plot_no":"A014","sector":"140A","block":"NA","mplanduse":"V","ppt_type":"IND","ppt_full":"Industrial","authority":"NOIDA","category":"industrial","execution_stage":"unknown"}},{"type":"Feature","geometry":{"type":"Polygon","coordinates":[[[77.421115,28.511687],[77.420801,28.511839],[77.420507,28.511363],[77.42082,28.511211],[77.421115,28.511687]]]},"properties":{"objectid":17521,"plotmapid":"140A012IND","property_t":"Industrial","used":"NA","plotsizesq":2100,"plot_size":"2100 SQMT","plot_no":"012","sector":"140A","mplanduse":"V","ppt_type":"IND","ppt_full":"Industrial","authority":"NOIDA","category":"industrial","execution_stage":"unknown"}},{"type":"Feature","geometry":{"type":"Polygon","coordinates":[[[77.422316,28.510975],[77.422381,28.511079],[77.422067,28.511233],[77.421766,28.510754],[77.422081,28.510602],[77.422316,28.510975]]]},"properties":{"objectid":17522,"plotmapid":"140ANA008IND","property_t":"Industrial","used":"NA","plotsizesq":2100,"plot_size":"2100 SQMT","plot_no":"008","sector":"140A","block":"NA","mplanduse":"V","ppt_type":"IND","ppt_full":"Industrial","authority":"NOIDA","category":"industrial","execution_stage":"unknown"}},{"type":"Feature","geometry":{"type":"Polygon","coordinates":[[[77.417029,28.512139],[77.419233,28.51109],[77.420255,28.512724],[77.418039,28.51379],[77.417029,28.512139]]]},"properties":{"objectid":17523,"plotmapid":"140ANA01AIND","property_t":"Industrial","used":"NA","plotsizesq":100000,"plot_size":"100000 SQMT","plot_no":"01A","sector":"140A","block":"NA","mplanduse":"V","ppt_type":"IND","ppt_full":"Industrial","authority":"NOIDA","category":"industrial","execution_stage":"unknown"}},{"type":"Feature","geometry":{"type":"Polygon","coordinates":[[[77.421407,28.512164],[77.421097,28.512316],[77.420801,28.511839],[77.421115,28.511687],[77.421407,28.512164]]]},"properties":{"objectid":17524,"plotmapid":"140ANA017IND","property_t":"Industrial","used":"NA","plotsizesq":2100,"plot_size":"2100 SQMT","plot_no":"017","sector":"140A","block":"NA","mplanduse":"V","ppt_type":"IND","ppt_full":"Industrial","authority":"NOIDA","category":"industrial","execution_stage":"unknown"}},{"type":"Feature","geometry":{"type":"Polygon","coordinates":[[[77.422358,28.511705],[77.422037,28.511859],[77.421745,28.511385],[77.422067,28.511233],[77.422358,28.511705]]]},"properties":{"objectid":17525,"plotmapid":"140A A/020IND","property_t":"Industrial","used":"NA","plotsizesq":2100,"plot_size":"2100 SQMT","plot_no":"A/020","sector":"140A","block":"NA","mplanduse":"V","ppt_type":"IND","ppt_full":"Industrial","authority":"NOIDA","category":"industrial","execution_stage":"unknown"}},{"type":"Feature","geometry":{"type":"Polygon","coordinates":[[[77.422986,28.511402],[77.422672,28.511555],[77.422381,28.511079],[77.422695,28.510928],[77.422986,28.511402]]]},"properties":{"objectid":17526,"plotmapid":"140A A/022IND","property_t":"Industrial","used":"NA","plotsizesq":2100,"plot_size":"2100 SQMT","plot_no":"A/022","sector":"140A","mplanduse":"V","ppt_type":"IND","ppt_full":"Industrial","authority":"NOIDA","category":"industrial","execution_stage":"unknown"}},{"type":"Feature","geometry":{"type":"Polygon","coordinates":[[[77.423298,28.511252],[77.422986,28.511402],[77.422695,28.510928],[77.42301,28.510777],[77.423298,28.511252]]]},"properties":{"objectid":17527,"plotmapid":"140A A/023IND","property_t":"Industrial","used":"NA","plotsizesq":2100,"plot_size":"2100 SQMT","plot_no":"A/023","sector":"140A","block":"NA","mplanduse":"B","ppt_type":"IND","ppt_full":"Industrial","authority":"NOIDA","category":"industrial","execution_stage":"unknown"}},{"type":"Feature","geometry":{"type":"Polygon","coordinates":[[[77.423428,28.51119],[77.423298,28.511252],[77.42301,28.510777],[77.423325,28.510625],[77.423615,28.511098],[77.423428,28.51119]]]},"properties":{"objectid":17528,"plotmapid":"140A A/024IND","property_t":"Industrial","used":"NA","plotsizesq":2100,"plot_size":"2100 SQMT","plot_no":"A/024","sector":"140A","block":"NA","mplanduse":"B","ppt_type":"IND","ppt_full":"Industrial","authority":"NOIDA","category":"industrial","execution_stage":"unknown"}},{"type":"Feature","geometry":{"type":"Polygon","coordinates":[[[77.424733,28.507403],[77.425715,28.508925],[77.425331,28.509795],[77.425008,28.510438],[77.423837,28.510998],[77.421813,28.50775],[77.424221,28.506604],[77.424733,28.507403]]]},"properties":{"objectid":17529,"plotmapid":"140ANA003IND","property_t":"Industrial","used":"NA","plotsizesq":100000,"plot_size":"100000 SQMT","plot_no":"003","sector":"140A","block":"NA","mplanduse":"V","ppt_type":"IND","ppt_full":"Industrial","authority":"NOIDA","category":"industrial","execution_stage":"unknown"}},{"type":"Feature","geometry":{"type":"Polygon","coordinates":[[[77.423154,28.509902],[77.419571,28.511631],[77.418228,28.509482],[77.421813,28.50775],[77.423154,28.509902]]]},"properties":{"objectid":17532,"plotmapid":"140ANA002IND","property_t":"Industrial","used":"NA","plotsizesq":100000,"plot_size":"100000 SQMT","plot_no":"002","sector":"140A","block":"NA","mplanduse":"B","ppt_type":"IND","ppt_full":"Industrial","authority":"NOIDA","category":"industrial","execution_stage":"unknown"}},{"type":"Feature","geometry":{"type":"Polygon","coordinates":[[[77.420801,28.511839],[77.420491,28.511993],[77.420196,28.511517],[77.420507,28.511363],[77.420801,28.511839]]]},"properties":{"objectid":17533,"plotmapid":"140A 012IND","property_t":"Industrial","used":"NA","plotsizesq":2100,"plot_size":"2100 SQMT","plot_no":"012A","sector":"140A","block":"NA","mplanduse":"B","ppt_type":"IND","ppt_full":"Industrial","authority":"NOIDA","category":"industrial","execution_stage":"unknown"}},{"type":"Feature","geometry":{"type":"Polygon","coordinates":[[[77.421433,28.511534],[77.421115,28.511687],[77.42082,28.511211],[77.42114,28.511061],[77.421433,28.511534]]]},"properties":{"objectid":17534,"plotmapid":"140AA011IND","property_t":"Industrial","used":"NA","plotsizesq":2100,"plot_size":"2100 SQMT","plot_no":"011","sector":"140A","block":"A","mplanduse":"B","ppt_type":"IND","ppt_full":"Industrial","authority":"NOIDA","category":"industrial","execution_stage":"unknown"}},{"type":"Feature","geometry":{"type":"Polygon","coordinates":[[[77.42114,28.511061],[77.421446,28.510908],[77.421745,28.511385],[77.421433,28.511534],[77.42114,28.511061]]]},"properties":{"objectid":17535,"plotmapid":"140ANA010IND","property_t":"Industrial","used":"NA","plotsizesq":2100,"plot_size":"2100 SQMT","plot_no":"010","sector":"140A","block":"NA","mplanduse":"B","ppt_type":"IND","ppt_full":"Industrial","authority":"NOIDA","category":"industrial","execution_stage":"unknown"}},{"type":"Feature","geometry":{"type":"Polygon","coordinates":[[[77.422002,28.511129],[77.422067,28.511233],[77.421745,28.511385],[77.421446,28.510908],[77.421766,28.510754],[77.422002,28.511129]]]},"properties":{"objectid":17536,"plotmapid":"140ANA009IND","property_t":"Industrial","used":"NA","plotsizesq":2100,"plot_size":"2100 SQMT","plot_no":"009","sector":"140A","block":"NA","mplanduse":"B","ppt_type":"IND","ppt_full":"Industrial","authority":"NOIDA","category":"industrial","execution_stage":"unknown"}},{"type":"Feature","geometry":{"type":"Polygon","coordinates":[[[77.422692,28.510929],[77.422381,28.511079],[77.422081,28.510602],[77.422393,28.510452],[77.422692,28.510929]]]},"properties":{"objectid":17537,"plotmapid":"140A 007IND","property_t":"Industrial","used":"NA","plotsizesq":2100,"plot_size":"2100 SQMT","plot_no":"007","sector":"140A","mplanduse":"B","ppt_type":"IND","ppt_full":"Industrial","authority":"NOIDA","category":"industrial","execution_stage":"unknown"}},{"type":"Feature","geometry":{"type":"Polygon","coordinates":[[[77.423006,28.510771],[77.422692,28.510929],[77.422393,28.510452],[77.422709,28.510298],[77.423006,28.510771]]]},"properties":{"objectid":17538,"plotmapid":"140A A/006IND","property_t":"Industrial","used":"NA","plotsizesq":2100,"plot_size":"2100 SQMT","plot_no":"A/006","sector":"140A","block":"NA","mplanduse":"B","ppt_type":"IND","ppt_full":"Industrial","authority":"NOIDA","category":"industrial","execution_stage":"unknown"}},{"type":"Feature","geometry":{"type":"Polygon","coordinates":[[[77.422709,28.510298],[77.423024,28.510142],[77.423325,28.510625],[77.42301,28.510777],[77.422709,28.510298]]]},"properties":{"objectid":17539,"plotmapid":"140ANA005IND","property_t":"Industrial","used":"NA","plotsizesq":2100,"plot_size":"2100 SQMT","plot_no":"005","sector":"140A","block":"NA","mplanduse":"B","ppt_type":"IND","ppt_full":"Industrial","authority":"NOIDA","category":"industrial","execution_stage":"unknown"}},{"type":"Feature","geometry":{"type":"Polygon","coordinates":[[[77.420168,28.512156],[77.420491,28.511993],[77.420781,28.51247],[77.420459,28.512628],[77.420168,28.512156]]]},"properties":{"objectid":17540,"plotmapid":"140A A/015IND","property_t":"Industrial","used":"NA","plotsizesq":2100,"plot_size":"2100 SQMT","plot_no":"A/015","sector":"140A","block":"NA","mplanduse":"B","ppt_type":"IND","ppt_full":"Industrial","authority":"NOIDA","category":"industrial","execution_stage":"unknown"}},{"type":"Feature","geometry":{"type":"Polygon","coordinates":[[[77.420803,28.511842],[77.421097,28.512316],[77.420781,28.51247],[77.420491,28.511993],[77.420803,28.511842]]]},"properties":{"objectid":17541,"plotmapid":"140A 016IND","property_t":"Industrial","used":"NA","plotsizesq":2100,"plot_size":"2100 SQMT","plot_no":"016","sector":"140A","mplanduse":"B","ppt_type":"IND","ppt_full":"Industrial","authority":"NOIDA","category":"industrial","execution_stage":"unknown"}},{"type":"Feature","geometry":{"type":"Polygon","coordinates":[[[77.421725,28.512009],[77.421407,28.512164],[77.421115,28.511687],[77.421433,28.511534],[77.421725,28.512009]]]},"properties":{"objectid":17542,"plotmapid":"140A A/018IND","property_t":"Industrial","used":"NA","plotsizesq":2100,"plot_size":"2100 SQMT","plot_no":"A/018","sector":"140A","block":"NA","mplanduse":"B","ppt_type":"IND","ppt_full":"Industrial","authority":"NOIDA","category":"industrial","execution_stage":"unknown"}},{"type":"Feature","geometry":{"type":"Polygon","coordinates":[[[77.422037,28.511859],[77.421725,28.512009],[77.421433,28.511534],[77.421745,28.511385],[77.422037,28.511859]]]},"properties":{"objectid":17543,"plotmapid":"140ANA019IND","property_t":"Industrial","used":"NA","plotsizesq":2100,"plot_size":"2100 SQMT","plot_no":"019","sector":"140A","block":"NA","mplanduse":"B","ppt_type":"IND","ppt_full":"Industrial","authority":"NOIDA","category":"industrial","execution_stage":"unknown"}},{"type":"Feature","geometry":{"type":"Polygon","coordinates":[[[77.422672,28.511555],[77.422358,28.511705],[77.422067,28.511233],[77.422381,28.511079],[77.422672,28.511555]]]},"properties":{"objectid":17544,"plotmapid":"140ANA021IND","property_t":"Industrial","used":"NA","plotsizesq":2100,"plot_size":"2100 SQMT","plot_no":"021","sector":"140A","block":"NA","mplanduse":"B","ppt_type":"IND","ppt_full":"Industrial","authority":"NOIDA","category":"industrial","execution_stage":"unknown"}},{"type":"Feature","geometry":{"type":"Polygon","coordinates":[[[77.419233,28.51109],[77.417029,28.512139],[77.416038,28.510524],[77.418228,28.509482],[77.419233,28.51109]]]},"properties":{"objectid":17545,"plotmapid":"140ANA001BIND","property_t":"Industrial","used":"NA","plotsizesq":100000,"plot_size":"100000 SQMT","plot_no":"001B","sector":"140A","block":"NA","mplanduse":"V","ppt_type":"IND","ppt_full":"Industrial","authority":"NOIDA","category":"industrial","execution_stage":"unknown"}}]}
