{"type":"FeatureCollection","features":[{"type":"Feature","geometry":{"type":"Polygon","coordinates":[[[77.377201,28.613084],[77.377049,28.613095],[77.377032,28.612916],[77.377184,28.612905],[77.377201,28.613084]]]},"properties":{"objectid":2884,"plotmapid":"64B003/01IND","property_t":"Industrial","used":"NA","plotsizesq":300,"plot_size":"300 SQMT","plot_no":"003/01","sector":"64","block":"B","mplanduse":"V","ppt_type":"IND","ppt_full":"Industrial","remark":"As per drone is vacant ,not Alloted & not buildup","authority":"NOIDA","category":"industrial","execution_stage":"unknown"}},{"type":"Feature","geometry":{"type":"Polygon","coordinates":[[[77.374665,28.612178],[77.374706,28.612583],[77.373889,28.612644],[77.373844,28.612195],[77.374661,28.612134],[77.374665,28.612178]]]},"properties":{"objectid":2927,"plotmapid":"64A071IND","property_t":"Industrial","used":"PLOT","plotsizesq":4000,"plot_size":"4000 SQMT","plot_no":"071","sector":"64","block":"A","mplanduse":"B","ppt_type":"IND","ppt_full":"Industrial","authority":"NOIDA","category":"industrial","execution_stage":"unknown"}},{"type":"Feature","geometry":{"type":"Polygon","coordinates":[[[77.375251,28.611863],[77.374639,28.611909],[77.374613,28.611649],[77.375225,28.611603],[77.375251,28.611863]]]},"properties":{"objectid":3309,"plotmapid":"64A054IND","property_t":"Industrial","used":"PLOT","plotsizesq":1800,"plot_size":"1800 SQMT","plot_no":"054","sector":"64","block":"A","mplanduse":"B","ppt_type":"IND","ppt_full":"Industrial","authority":"NOIDA","category":"industrial","execution_stage":"unknown"}},{"type":"Feature","geometry":{"type":"Polygon","coordinates":[[[77.374661,28.612134],[77.374252,28.612164],[77.374206,28.611679],[77.374613,28.611649],[77.374661,28.612134]]]},"properties":{"objectid":3310,"plotmapid":"64A072AIND","property_t":"Industrial","used":"PLOT","plotsizesq":2000,"plot_size":"2000 SQMT","plot_no":"072A","sector":"64","block":"A","mplanduse":"B","ppt_type":"IND","ppt_full":"Industrial","authority":"NOIDA","category":"industrial","execution_stage":"unknown"}},{"type":"Feature","geometry":{"type":"Polygon","coordinates":[[[77.374252,28.612164],[77.373844,28.612195],[77.373796,28.61171],[77.374206,28.611679],[77.374252,28.612164]]]},"properties":{"objectid":3311,"plotmapid":"64A072IND","property_t":"Industrial","used":"PLOT","plotsizesq":2000,"plot_size":"2000 SQMT","plot_no":"072","sector":"64","block":"A","mplanduse":"B","ppt_type":"IND","ppt_full":"Industrial","authority":"NOIDA","category":"industrial","execution_stage":"unknown"}},{"type":"Feature","geometry":{"type":"Polygon","coordinates":[[[77.375278,28.612132],[77.374665,28.612178],[77.374639,28.611909],[77.375251,28.611863],[77.375278,28.612132]]]},"properties":{"objectid":3312,"plotmapid":"64A055IND","property_t":"Industrial","used":"PLOT","plotsizesq":1800,"plot_size":"1800 SQMT","plot_no":"055","sector":"64","block":"A","mplanduse":"B","ppt_type":"IND","ppt_full":"Industrial","authority":"NOIDA","category":"industrial","execution_stage":"unknown"}},{"type":"Feature","geometry":{"type":"Polygon","coordinates":[[[77.375305,28.612402],[77.374692,28.612448],[77.374665,28.612178],[77.375278,28.612132],[77.375305,28.612402]]]},"properties":{"objectid":3313,"plotmapid":"64A056IND","property_t":"Industrial","used":"PLOT","plotsizesq":1800,"plot_size":"1800 SQMT","plot_no":"056","sector":"64","block":"A","mplanduse":"B","ppt_type":"IND","ppt_full":"Industrial","authority":"NOIDA","category":"industrial","execution_stage":"unknown"}},{"type":"Feature","geometry":{"type":"Polygon","coordinates":[[[77.375332,28.612671],[77.374719,28.612717],[77.374692,28.612448],[77.375305,28.612402],[77.375332,28.612671]]]},"properties":{"objectid":3314,"plotmapid":"64A057IND","property_t":"Industrial","used":"PLOT","plotsizesq":1800,"plot_size":"1800 SQMT","plot_no":"057","sector":"64","block":"A","mplanduse":"B","ppt_type":"IND","ppt_full":"Industrial","authority":"NOIDA","category":"industrial","execution_stage":"unknown"}},{"type":"Feature","geometry":{"type":"Polygon","coordinates":[[[77.375358,28.61294],[77.374746,28.612987],[77.374719,28.612717],[77.375332,28.612671],[77.375358,28.61294]]]},"properties":{"objectid":3315,"plotmapid":"64A058IND","property_t":"Industrial","used":"PLOT","plotsizesq":1800,"plot_size":"1800 SQMT","plot_no":"058","sector":"64","block":"A","mplanduse":"B","ppt_type":"IND","ppt_full":"Industrial","authority":"NOIDA","category":"industrial","execution_stage":"unknown"}},{"type":"Feature","geometry":{"type":"Polygon","coordinates":[[[77.37475,28.613031],[77.373933,28.613093],[77.373889,28.612644],[77.374706,28.612583],[77.37475,28.613031]]]},"properties":{"objectid":3316,"plotmapid":"64A070IND","property_t":"Industrial","used":"PLOT","plotsizesq":4000,"plot_size":"4000 SQMT","plot_no":"070","sector":"64","block":"A","mplanduse":"B","ppt_type":"IND","ppt_full":"Industrial","authority":"NOIDA","category":"industrial","execution_stage":"unknown"}},{"type":"Feature","geometry":{"type":"Polygon","coordinates":[[[77.377184,28.612905],[77.377032,28.612916],[77.377014,28.612737],[77.377167,28.612726],[77.377184,28.612905]]]},"properties":{"objectid":3317,"plotmapid":"64B003/02IND","property_t":"Industrial","used":"NA","plotsizesq":300,"plot_size":"300 SQMT","plot_no":"003/02","sector":"64","block":"B","mplanduse":"B","ppt_type":"IND","ppt_full":"Industrial","authority":"NOIDA","category":"industrial","execution_stage":"unknown"}},{"type":"Feature","geometry":{"type":"Polygon","coordinates":[[[77.375385,28.61321],[77.374773,28.613256],[77.374746,28.612987],[77.375358,28.61294],[77.375385,28.61321]]]},"properties":{"objectid":3318,"plotmapid":"64A059IND","property_t":"Industrial","used":"PLOT","plotsizesq":1800,"plot_size":"1800 SQMT","plot_no":"059","sector":"64","block":"A","mplanduse":"B","ppt_type":"IND","ppt_full":"Industrial","authority":"NOIDA","category":"industrial","execution_stage":"unknown"}},{"type":"Feature","geometry":{"type":"Polygon","coordinates":[[[77.374773,28.613256],[77.374795,28.61348],[77.373978,28.613542],[77.373933,28.613093],[77.37475,28.613031],[77.374773,28.613256]]]},"properties":{"objectid":3321,"plotmapid":"64A069IND","property_t":"Industrial","used":"PLOT","plotsizesq":4000,"plot_size":"4000 SQMT","plot_no":"069","sector":"64","block":"A","mplanduse":"B","ppt_type":"IND","ppt_full":"Industrial","authority":"NOIDA","category":"industrial","execution_stage":"unknown"}},{"type":"Feature","geometry":{"type":"Polygon","coordinates":[[[77.375412,28.613479],[77.374799,28.613525],[77.374773,28.613256],[77.375385,28.61321],[77.375412,28.613479]]]},"properties":{"objectid":3322,"plotmapid":"64A060IND","property_t":"Industrial","used":"PLOT","plotsizesq":1800,"plot_size":"1800 SQMT","plot_no":"060","sector":"64","block":"A","mplanduse":"B","ppt_type":"IND","ppt_full":"Industrial","authority":"NOIDA","category":"industrial","execution_stage":"unknown"}},{"type":"Feature","geometry":{"type":"Polygon","coordinates":[[[77.375439,28.613749],[77.374826,28.613795],[77.374799,28.613525],[77.375412,28.613479],[77.375439,28.613749]]]},"properties":{"objectid":3323,"plotmapid":"64A061IND","property_t":"Industrial","used":"PLOT","plotsizesq":1800,"plot_size":"1800 SQMT","plot_no":"061","sector":"64","block":"A","mplanduse":"B","ppt_type":"IND","ppt_full":"Industrial","authority":"NOIDA","category":"industrial","execution_stage":"unknown"}},{"type":"Feature","geometry":{"type":"Polygon","coordinates":[[[77.37484,28.613929],[77.374023,28.613991],[77.373978,28.613542],[77.374795,28.61348],[77.37484,28.613929]]]},"properties":{"objectid":3324,"plotmapid":"64A068IND","property_t":"Industrial","used":"PLOT","plotsizesq":4000,"plot_size":"4000 SQMT","plot_no":"068","sector":"64","block":"A","mplanduse":"B","ppt_type":"IND","ppt_full":"Industrial","authority":"NOIDA","category":"industrial","execution_stage":"unknown"}},{"type":"Feature","geometry":{"type":"Polygon","coordinates":[[[77.375466,28.614018],[77.374853,28.614064],[77.374826,28.613795],[77.375439,28.613749],[77.375466,28.614018]]]},"properties":{"objectid":3325,"plotmapid":"64A062IND","property_t":"Industrial","used":"PLOT","plotsizesq":1800,"plot_size":"1800 SQMT","plot_no":"062","sector":"64","block":"A","mplanduse":"B","ppt_type":"IND","ppt_full":"Industrial","authority":"NOIDA","category":"industrial","execution_stage":"unknown"}},{"type":"Feature","geometry":{"type":"Polygon","coordinates":[[[77.375492,28.614287],[77.37488,28.614333],[77.374853,28.614064],[77.375466,28.614018],[77.375492,28.614287]]]},"properties":{"objectid":3326,"plotmapid":"64A063IND","property_t":"Industrial","used":"PLOT","plotsizesq":1800,"plot_size":"1800 SQMT","plot_no":"063","sector":"64","block":"A","mplanduse":"B","ppt_type":"IND","ppt_full":"Industrial","authority":"NOIDA","category":"industrial","execution_stage":"unknown"}},{"type":"Feature","geometry":{"type":"Polygon","coordinates":[[[77.374884,28.614378],[77.374067,28.61444],[77.374023,28.613991],[77.37484,28.613929],[77.374884,28.614378]]]},"properties":{"objectid":3327,"plotmapid":"64A067IND","property_t":"Industrial","used":"PLOT","plotsizesq":4000,"plot_size":"4000 SQMT","plot_no":"067","sector":"64","block":"A","mplanduse":"B","ppt_type":"IND","ppt_full":"Industrial","authority":"NOIDA","category":"industrial","execution_stage":"unknown"}},{"type":"Feature","geometry":{"type":"Polygon","coordinates":[[[77.375519,28.614557],[77.374907,28.614603],[77.37488,28.614333],[77.375492,28.614287],[77.375519,28.614557]]]},"properties":{"objectid":3328,"plotmapid":"64A064IND","property_t":"Industrial","used":"PLOT","plotsizesq":1800,"plot_size":"1800 SQMT","plot_no":"064","sector":"64","block":"A","mplanduse":"B","ppt_type":"IND","ppt_full":"Industrial","authority":"NOIDA","category":"industrial","execution_stage":"unknown"}},{"type":"Feature","geometry":{"type":"Polygon","coordinates":[[[77.375519,28.614557],[77.375545,28.614817],[77.374932,28.614863],[77.374907,28.614603],[77.375519,28.614557]]]},"properties":{"objectid":3329,"plotmapid":"64A065IND","property_t":"Industrial","used":"PLOT","plotsizesq":1800,"plot_size":"1800 SQMT","plot_no":"065","sector":"64","block":"A","mplanduse":"B","ppt_type":"IND","ppt_full":"Industrial","authority":"NOIDA","category":"industrial","execution_stage":"unknown"}},{"type":"Feature","geometry":{"type":"Polygon","coordinates":[[[77.374932,28.614863],[77.374116,28.614925],[77.374067,28.61444],[77.374884,28.614378],[77.374932,28.614863]]]},"properties":{"objectid":3330,"plotmapid":"64A066IND","property_t":"Industrial","used":"PLOT","plotsizesq":4000,"plot_size":"4000 SQMT","plot_no":"066","sector":"64","block":"A","mplanduse":"B","ppt_type":"IND","ppt_full":"Industrial","authority":"NOIDA","category":"industrial","execution_stage":"unknown"}},{"type":"Feature","geometry":{"type":"Polygon","coordinates":[[[77.37677,28.61472],[77.375727,28.614799],[77.375639,28.613903],[77.376683,28.613824],[77.37677,28.61472]]]},"properties":{"objectid":3331,"plotmapid":"64A008,009IND","property_t":"Industrial","used":"PLOT","plotsizesq":5000,"plot_size":"5000 SQMT","plot_no":"008,009","sector":"64","block":"A","mplanduse":"B","ppt_type":"IND","ppt_full":"Industrial","authority":"NOIDA","category":"industrial","execution_stage":"unknown"}},{"type":"Feature","geometry":{"type":"Polygon","coordinates":[[[77.375975,28.613877],[77.375639,28.613903],[77.375587,28.61337],[77.375923,28.613345],[77.375975,28.613877]]]},"properties":{"objectid":3332,"plotmapid":"64A010IND","property_t":"Industrial","used":"PLOT","plotsizesq":1680,"plot_size":"1680 SQMT","plot_no":"010","sector":"64","block":"A","mplanduse":"B","ppt_type":"IND","ppt_full":"Industrial","authority":"NOIDA","category":"industrial","execution_stage":"unknown"}},{"type":"Feature","geometry":{"type":"Polygon","coordinates":[[[77.377286,28.614681],[77.37677,28.61472],[77.376683,28.613824],[77.377198,28.613785],[77.377286,28.614681]]]},"properties":{"objectid":3336,"plotmapid":"64A007IND","property_t":"Industrial","used":"PLOT","plotsizesq":5000,"plot_size":"5000 SQMT","plot_no":"007","sector":"64","block":"A","mplanduse":"B","ppt_type":"IND","ppt_full":"Industrial","authority":"NOIDA","category":"industrial","execution_stage":"unknown"}},{"type":"Feature","geometry":{"type":"Polygon","coordinates":[[[77.376683,28.613824],[77.376556,28.613834],[77.376503,28.613301],[77.376783,28.61328],[77.376835,28.613813],[77.376683,28.613824]]]},"properties":{"objectid":3339,"plotmapid":"64A013IND","property_t":"Industrial","used":"PLOT","plotsizesq":1680,"plot_size":"1680 SQMT","plot_no":"013","sector":"64","block":"A","mplanduse":"B","ppt_type":"IND","ppt_full":"Industrial","authority":"NOIDA","category":"industrial","execution_stage":"unknown"}},{"type":"Feature","geometry":{"type":"Polygon","coordinates":[[[77.377198,28.613785],[77.377124,28.613791],[77.377072,28.613258],[77.377353,28.613237],[77.377405,28.61377],[77.377198,28.613785]]]},"properties":{"objectid":3340,"plotmapid":"64A015IND","property_t":"Industrial","used":"PLOT","plotsizesq":1680,"plot_size":"1680 SQMT","plot_no":"015","sector":"64","block":"A","mplanduse":"B","ppt_type":"IND","ppt_full":"Industrial","authority":"NOIDA","category":"industrial","execution_stage":"unknown"}},{"type":"Feature","geometry":{"type":"Polygon","coordinates":[[[77.376048,28.613872],[77.375975,28.613877],[77.375923,28.613345],[77.376209,28.613323],[77.376261,28.613856],[77.376048,28.613872]]]},"properties":{"objectid":3345,"plotmapid":"64A011IND","property_t":"Industrial","used":"PLOT","plotsizesq":1680,"plot_size":"1680 SQMT","plot_no":"011","sector":"64","block":"A","mplanduse":"B","ppt_type":"IND","ppt_full":"Industrial","authority":"NOIDA","category":"industrial","execution_stage":"unknown"}},{"type":"Feature","geometry":{"type":"Polygon","coordinates":[[[77.377124,28.613791],[77.376835,28.613813],[77.376783,28.61328],[77.377072,28.613258],[77.377124,28.613791]]]},"properties":{"objectid":3350,"plotmapid":"64A014IND","property_t":"Industrial","used":"PLOT","plotsizesq":1680,"plot_size":"1680 SQMT","plot_no":"014","sector":"64","block":"A","mplanduse":"B","ppt_type":"IND","ppt_full":"Industrial","authority":"NOIDA","category":"industrial","execution_stage":"unknown"}},{"type":"Feature","geometry":{"type":"Polygon","coordinates":[[[77.376556,28.613834],[77.376261,28.613856],[77.376209,28.613323],[77.376503,28.613301],[77.376556,28.613834]]]},"properties":{"objectid":3352,"plotmapid":"64A012IND","property_t":"Industrial","used":"PLOT","plotsizesq":1680,"plot_size":"1680 SQMT","plot_no":"012","sector":"64","block":"A","mplanduse":"B","ppt_type":"IND","ppt_full":"Industrial","authority":"NOIDA","category":"industrial","execution_stage":"unknown"}},{"type":"Feature","geometry":{"type":"Polygon","coordinates":[[[77.377519,28.612959],[77.377529,28.613059],[77.377383,28.613071],[77.377372,28.612971],[77.377519,28.612959]]]},"properties":{"objectid":3423,"plotmapid":"64B004IND","property_t":"Industrial","used":"PLOT","allotted_p":"Yes","plotsizesq":19100,"plot_size":"NA","plot_no":"004","sector":"64","block":"B","mplanduse":"B","ppt_type":"IND","ppt_full":"Industrial","authority":"NOIDA","category":"industrial","execution_stage":"allotted"}},{"type":"Feature","geometry":{"type":"Polygon","coordinates":[[[77.377463,28.612417],[77.377317,28.612429],[77.37731,28.612364],[77.377457,28.612353],[77.377463,28.612417]]]},"properties":{"objectid":3425,"plotmapid":"64B013IND","property_t":"Industrial","used":"PLOT","allotted_p":"Yes","plotsizesq":1800,"plot_size":"98 SQMT","plot_no":"013","sector":"64","block":"B","mplanduse":"B","ppt_type":"IND","ppt_full":"Industrial","authority":"NOIDA","category":"industrial","execution_stage":"allotted"}},{"type":"Feature","geometry":{"type":"Polygon","coordinates":[[[77.377512,28.612893],[77.377366,28.612904],[77.377359,28.612839],[77.377505,28.612828],[77.377512,28.612893]]]},"properties":{"objectid":3426,"plotmapid":"64B006IND","property_t":"Industrial","used":"PLOT","allotted_p":"Yes","plotsizesq":1800,"plot_size":"98 SQMT","plot_no":"006","sector":"64","block":"B","mplanduse":"B","ppt_type":"IND","ppt_full":"Industrial","authority":"NOIDA","category":"industrial","execution_stage":"allotted"}},{"type":"Feature","geometry":{"type":"Polygon","coordinates":[[[77.377519,28.612959],[77.377372,28.612971],[77.377366,28.612904],[77.377512,28.612893],[77.377519,28.612959]]]},"properties":{"objectid":3427,"plotmapid":"64B005IND","property_t":"Industrial","used":"PLOT","allotted_p":"Yes","plotsizesq":1800,"plot_size":"98 SQMT","plot_no":"005","sector":"64","block":"B","mplanduse":"B","ppt_type":"IND","ppt_full":"Industrial","authority":"NOIDA","category":"industrial","execution_stage":"allotted"}},{"type":"Feature","geometry":{"type":"Polygon","coordinates":[[[77.377395,28.611742],[77.377248,28.611753],[77.377241,28.611687],[77.377388,28.611675],[77.377395,28.611742]]]},"properties":{"objectid":3428,"plotmapid":"64B023IND","property_t":"Industrial","used":"PLOT","allotted_p":"Yes","plotsizesq":800,"plot_size":"98 SQMT","plot_no":"023","sector":"64","block":"B","mplanduse":"B","ppt_type":"IND","ppt_full":"Industrial","authority":"NOIDA","category":"industrial","execution_stage":"allotted"}},{"type":"Feature","geometry":{"type":"Polygon","coordinates":[[[77.377429,28.612081],[77.377283,28.612093],[77.377276,28.612026],[77.377422,28.612015],[77.377429,28.612081]]]},"properties":{"objectid":3429,"plotmapid":"64B018IND","property_t":"Industrial","used":"PLOT","allotted_p":"Yes","plotsizesq":1040,"plot_size":"98 SQMT","plot_no":"018","sector":"64","block":"B","mplanduse":"B","ppt_type":"IND","ppt_full":"Industrial","authority":"NOIDA","category":"industrial","execution_stage":"allotted"}},{"type":"Feature","geometry":{"type":"Polygon","coordinates":[[[77.37745,28.612282],[77.377303,28.612294],[77.377297,28.612227],[77.377443,28.612216],[77.37745,28.612282]]]},"properties":{"objectid":3430,"plotmapid":"64B015IND","property_t":"Industrial","used":"PLOT","allotted_p":"Yes","plotsizesq":1800,"plot_size":"98 SQMT","plot_no":"015","sector":"64","block":"B","mplanduse":"B","ppt_type":"IND","ppt_full":"Industrial","authority":"NOIDA","category":"industrial","execution_stage":"allotted"}},{"type":"Feature","geometry":{"type":"Polygon","coordinates":[[[77.377484,28.612621],[77.377338,28.612633],[77.377331,28.612566],[77.377477,28.612554],[77.377484,28.612621]]]},"properties":{"objectid":3431,"plotmapid":"64B010IND","property_t":"Industrial","used":"PLOT","plotsizesq":98,"plot_size":"98 SQMT","plot_no":"010","sector":"64","block":"B","mplanduse":"B","ppt_type":"IND","ppt_full":"Industrial","authority":"NOIDA","category":"industrial","execution_stage":"unknown"}},{"type":"Feature","geometry":{"type":"Polygon","coordinates":[[[77.377436,28.612148],[77.37729,28.61216],[77.377283,28.612093],[77.377429,28.612081],[77.377436,28.612148]]]},"properties":{"objectid":3432,"plotmapid":"64B017IND","property_t":"Industrial","used":"PLOT","allotted_p":"Yes","plotsizesq":1800,"plot_size":"98 SQMT","plot_no":"017","sector":"64","block":"B","mplanduse":"B","ppt_type":"IND","ppt_full":"Industrial","authority":"NOIDA","category":"industrial","execution_stage":"allotted"}},{"type":"Feature","geometry":{"type":"Polygon","coordinates":[[[77.377388,28.611675],[77.377241,28.611687],[77.377235,28.61162],[77.377381,28.611608],[77.377388,28.611675]]]},"properties":{"objectid":3433,"plotmapid":"64B024IND","property_t":"Industrial","used":"PLOT","allotted_p":"Yes","plotsizesq":800,"plot_size":"98 SQMT","plot_no":"024","sector":"64","block":"B","mplanduse":"B","ppt_type":"IND","ppt_full":"Industrial","authority":"NOIDA","category":"industrial","execution_stage":"allotted"}},{"type":"Feature","geometry":{"type":"Polygon","coordinates":[[[77.377408,28.611878],[77.377262,28.61189],[77.377255,28.611822],[77.377402,28.611811],[77.377408,28.611878]]]},"properties":{"objectid":3434,"plotmapid":"64B021IND","property_t":"Industrial","used":"PLOT","allotted_p":"Yes","plotsizesq":800,"plot_size":"98 SQMT","plot_no":"021","sector":"64","block":"B","mplanduse":"B","ppt_type":"IND","ppt_full":"Industrial","authority":"NOIDA","category":"industrial","execution_stage":"allotted"}},{"type":"Feature","geometry":{"type":"Polygon","coordinates":[[[77.377443,28.612216],[77.377297,28.612227],[77.37729,28.61216],[77.377436,28.612148],[77.377443,28.612216]]]},"properties":{"objectid":3435,"plotmapid":"64B016IND","property_t":"Industrial","used":"PLOT","allotted_p":"Yes","plotsizesq":1800,"plot_size":"98 SQMT","plot_no":"016","sector":"64","block":"B","mplanduse":"B","ppt_type":"IND","ppt_full":"Industrial","authority":"NOIDA","category":"industrial","execution_stage":"allotted"}},{"type":"Feature","geometry":{"type":"Polygon","coordinates":[[[77.377477,28.612554],[77.377331,28.612566],[77.377324,28.612498],[77.377471,28.612486],[77.377477,28.612554]]]},"properties":{"objectid":3436,"plotmapid":"64B011IND","property_t":"Industrial","used":"PLOT","allotted_p":"Yes","plotsizesq":1800,"plot_size":"98 SQMT","plot_no":"011","sector":"64","block":"B","mplanduse":"B","ppt_type":"IND","ppt_full":"Industrial","authority":"NOIDA","category":"industrial","execution_stage":"allotted"}},{"type":"Feature","geometry":{"type":"Polygon","coordinates":[[[77.377505,28.612828],[77.377359,28.612839],[77.377352,28.612771],[77.377498,28.612759],[77.377505,28.612828]]]},"properties":{"objectid":3437,"plotmapid":"64B007IND","property_t":"Industrial","used":"PLOT","allotted_p":"Yes","plotsizesq":1800,"plot_size":"98 SQMT","plot_no":"007","sector":"64","block":"B","mplanduse":"B","ppt_type":"IND","ppt_full":"Industrial","authority":"NOIDA","category":"industrial","execution_stage":"allotted"}},{"type":"Feature","geometry":{"type":"Polygon","coordinates":[[[77.377422,28.612015],[77.377276,28.612026],[77.377269,28.611958],[77.377415,28.611947],[77.377422,28.612015]]]},"properties":{"objectid":3438,"plotmapid":"64B019IND","property_t":"Industrial","used":"PLOT","allotted_p":"Yes","plotsizesq":800,"plot_size":"98 SQMT","plot_no":"019","sector":"64","block":"B","mplanduse":"B","ppt_type":"IND","ppt_full":"Industrial","authority":"NOIDA","category":"industrial","execution_stage":"allotted"}},{"type":"Feature","geometry":{"type":"Polygon","coordinates":[[[77.377415,28.611947],[77.377269,28.611958],[77.377262,28.61189],[77.377408,28.611878],[77.377415,28.611947]]]},"properties":{"objectid":3439,"plotmapid":"64B020IND","property_t":"Industrial","used":"PLOT","allotted_p":"Yes","plotsizesq":800,"plot_size":"98 SQMT","plot_no":"020","sector":"64","block":"B","mplanduse":"B","ppt_type":"IND","ppt_full":"Industrial","authority":"NOIDA","category":"industrial","execution_stage":"allotted"}},{"type":"Feature","geometry":{"type":"Polygon","coordinates":[[[77.377471,28.612486],[77.377324,28.612498],[77.377317,28.612429],[77.377463,28.612417],[77.377471,28.612486]]]},"properties":{"objectid":3440,"plotmapid":"64B012IND","property_t":"Industrial","used":"PLOT","allotted_p":"Yes","plotsizesq":1800,"plot_size":"98 SQMT","plot_no":"012","sector":"64","block":"B","mplanduse":"B","ppt_type":"IND","ppt_full":"Industrial","authority":"NOIDA","category":"industrial","execution_stage":"allotted"}},{"type":"Feature","geometry":{"type":"Polygon","coordinates":[[[77.377491,28.61269],[77.377345,28.612702],[77.377338,28.612633],[77.377484,28.612621],[77.377491,28.61269]]]},"properties":{"objectid":3441,"plotmapid":"64B009IND","property_t":"Industrial","used":"PLOT","plotsizesq":98,"plot_size":"98 SQMT","plot_no":"009","sector":"64","block":"B","mplanduse":"B","ppt_type":"IND","ppt_full":"Industrial","authority":"NOIDA","category":"industrial","execution_stage":"unknown"}},{"type":"Feature","geometry":{"type":"Polygon","coordinates":[[[77.377498,28.612759],[77.377352,28.612771],[77.377345,28.612702],[77.377491,28.61269],[77.377498,28.612759]]]},"properties":{"objectid":3442,"plotmapid":"64B008IND","property_t":"Industrial","used":"PLOT","allotted_p":"Yes","plotsizesq":1800,"plot_size":"98 SQMT","plot_no":"008","sector":"64","block":"B","mplanduse":"B","ppt_type":"IND","ppt_full":"Industrial","authority":"NOIDA","category":"industrial","execution_stage":"allotted"}},{"type":"Feature","geometry":{"type":"Polygon","coordinates":[[[77.377402,28.611811],[77.377255,28.611822],[77.377248,28.611753],[77.377395,28.611742],[77.377402,28.611811]]]},"properties":{"objectid":3443,"plotmapid":"64B022IND","property_t":"Industrial","used":"PLOT","allotted_p":"Yes","plotsizesq":800,"plot_size":"98 SQMT","plot_no":"022","sector":"64","block":"B","mplanduse":"B","ppt_type":"IND","ppt_full":"Industrial","authority":"NOIDA","category":"industrial","execution_stage":"allotted"}},{"type":"Feature","geometry":{"type":"Polygon","coordinates":[[[77.377381,28.611608],[77.377235,28.61162],[77.377227,28.61155],[77.377374,28.611539],[77.377381,28.611608]]]},"properties":{"objectid":3444,"plotmapid":"64B025IND","property_t":"Industrial","used":"PLOT","allotted_p":"Yes","plotsizesq":800,"plot_size":"98 SQMT","plot_no":"025","sector":"64","block":"B","mplanduse":"B","ppt_type":"IND","ppt_full":"Industrial","authority":"NOIDA","category":"industrial","execution_stage":"allotted"}},{"type":"Feature","geometry":{"type":"Polygon","coordinates":[[[77.377457,28.612353],[77.37731,28.612364],[77.377303,28.612294],[77.37745,28.612282],[77.377457,28.612353]]]},"properties":{"objectid":3445,"plotmapid":"64B014IND","property_t":"Industrial","used":"PLOT","allotted_p":"Yes","plotsizesq":1800,"plot_size":"98 SQMT","plot_no":"014","sector":"64","block":"B","mplanduse":"B","ppt_type":"IND","ppt_full":"Industrial","authority":"NOIDA","category":"industrial","execution_stage":"allotted"}},{"type":"Feature","geometry":{"type":"Polygon","coordinates":[[[77.377374,28.611539],[77.377227,28.61155],[77.377218,28.611454],[77.377364,28.611443],[77.377374,28.611539]]]},"properties":{"objectid":3446,"plotmapid":"64B026IND","property_t":"Industrial","used":"PLOT","allotted_p":"Yes","plotsizesq":800,"plot_size":"NA","plot_no":"026","sector":"64","block":"B","mplanduse":"B","ppt_type":"IND","ppt_full":"Industrial","authority":"NOIDA","category":"industrial","execution_stage":"allotted"}},{"type":"Feature","geometry":{"type":"Polygon","coordinates":[[[77.377538,28.61173],[77.377395,28.611742],[77.377388,28.611675],[77.377531,28.611664],[77.377538,28.61173]]]},"properties":{"objectid":3450,"plotmapid":"64B030IND","property_t":"Industrial","used":"PLOT","allotted_p":"Yes","plotsizesq":1040,"plot_size":"98 SQMT","plot_no":"030","sector":"64","block":"B","mplanduse":"B","ppt_type":"IND","ppt_full":"Industrial","authority":"NOIDA","category":"industrial","execution_stage":"allotted"}},{"type":"Feature","geometry":{"type":"Polygon","coordinates":[[[77.377531,28.611664],[77.377388,28.611675],[77.377381,28.611608],[77.377524,28.611597],[77.377531,28.611664]]]},"properties":{"objectid":3455,"plotmapid":"64B029IND","property_t":"Industrial","used":"PLOT","allotted_p":"Yes","plotsizesq":1040,"plot_size":"98 SQMT","plot_no":"029","sector":"64","block":"B","mplanduse":"B","ppt_type":"IND","ppt_full":"Industrial","authority":"NOIDA","category":"industrial","execution_stage":"allotted"}},{"type":"Feature","geometry":{"type":"Polygon","coordinates":[[[77.377524,28.611597],[77.377381,28.611608],[77.377374,28.611539],[77.377517,28.611527],[77.377524,28.611597]]]},"properties":{"objectid":3466,"plotmapid":"64B028IND","property_t":"Industrial","used":"PLOT","allotted_p":"Yes","plotsizesq":800,"plot_size":"98 SQMT","plot_no":"028","sector":"64","block":"B","mplanduse":"B","ppt_type":"IND","ppt_full":"Industrial","authority":"NOIDA","category":"industrial","execution_stage":"allotted"}},{"type":"Feature","geometry":{"type":"Polygon","coordinates":[[[77.377517,28.611527],[77.377374,28.611539],[77.377364,28.611443],[77.377508,28.611431],[77.377517,28.611527]]]},"properties":{"objectid":3468,"plotmapid":"64B027IND","property_t":"Industrial","used":"PLOT","allotted_p":"Yes","plotsizesq":800,"plot_size":"NA","plot_no":"027","sector":"64","block":"B","mplanduse":"B","ppt_type":"IND","ppt_full":"Industrial","authority":"NOIDA","category":"industrial","execution_stage":"allotted"}},{"type":"Feature","geometry":{"type":"Polygon","coordinates":[[[77.374662,28.611485],[77.374437,28.611502],[77.374402,28.611144],[77.374627,28.611127],[77.374662,28.611485]]]},"properties":{"objectid":3470,"plotmapid":"64A038GIND","property_t":"Industrial","used":"PLOT","plotsizesq":860,"plot_size":"860 SQMT","plot_no":"038G","sector":"64","block":"A","mplanduse":"B","ppt_type":"IND","ppt_full":"Industrial","authority":"NOIDA","category":"industrial","execution_stage":"unknown"}},{"type":"Feature","geometry":{"type":"Polygon","coordinates":[[[77.376524,28.610982],[77.376428,28.610989],[77.376353,28.610267],[77.376753,28.610235],[77.376828,28.610959],[77.376524,28.610982]]]},"properties":{"objectid":3471,"plotmapid":"64A035IND","property_t":"Industrial","used":"PLOT","plotsizesq":3200,"plot_size":"3200 SQMT","plot_no":"035","sector":"64","block":"A","mplanduse":"B","ppt_type":"IND","ppt_full":"Industrial","authority":"NOIDA","category":"industrial","execution_stage":"unknown"}},{"type":"Feature","geometry":{"type":"Polygon","coordinates":[[[77.377339,28.610919],[77.377241,28.610927],[77.377167,28.610202],[77.377569,28.61017],[77.377643,28.610896],[77.377339,28.610919]]]},"properties":{"objectid":3472,"plotmapid":"64A033IND","property_t":"Industrial","used":"PLOT","plotsizesq":3200,"plot_size":"3200 SQMT","plot_no":"033","sector":"64","block":"A","mplanduse":"B","ppt_type":"IND","ppt_full":"Industrial","authority":"NOIDA","category":"industrial","execution_stage":"unknown"}},{"type":"Feature","geometry":{"type":"Polygon","coordinates":[[[77.373963,28.611178],[77.373755,28.611193],[77.373681,28.610478],[77.374094,28.610446],[77.374168,28.611162],[77.373963,28.611178]]]},"properties":{"objectid":3473,"plotmapid":"64A038CIND","property_t":"Industrial","used":"PLOT","plotsizesq":3440,"plot_size":"3440 SQMT","plot_no":"038C","sector":"64","block":"A","mplanduse":"B","ppt_type":"IND","ppt_full":"Industrial","authority":"NOIDA","category":"industrial","execution_stage":"unknown"}},{"type":"Feature","geometry":{"type":"Polygon","coordinates":[[[77.376115,28.611013],[77.376014,28.611021],[77.375939,28.610299],[77.376353,28.610267],[77.376428,28.610989],[77.376115,28.611013]]]},"properties":{"objectid":3475,"plotmapid":"64A036IND","property_t":"Industrial","used":"PLOT","plotsizesq":3200,"plot_size":"3200 SQMT","plot_no":"036","sector":"64","block":"A","mplanduse":"B","ppt_type":"IND","ppt_full":"Industrial","authority":"NOIDA","category":"industrial","execution_stage":"unknown"}},{"type":"Feature","geometry":{"type":"Polygon","coordinates":[[[77.376928,28.610951],[77.376828,28.610959],[77.376753,28.610235],[77.377167,28.610202],[77.377241,28.610927],[77.376928,28.610951]]]},"properties":{"objectid":3476,"plotmapid":"64A034IND","property_t":"Industrial","used":"PLOT","plotsizesq":3200,"plot_size":"3200 SQMT","plot_no":"034","sector":"64","block":"A","mplanduse":"B","ppt_type":"IND","ppt_full":"Industrial","authority":"NOIDA","category":"industrial","execution_stage":"unknown"}},{"type":"Feature","geometry":{"type":"Polygon","coordinates":[[[77.374184,28.611161],[77.374168,28.611162],[77.37462,28.611126],[77.374546,28.61041],[77.374987,28.610375],[77.375061,28.611094],[77.374184,28.611161]]]},"properties":{"objectid":3477,"plotmapid":"64A038AIND","property_t":"Industrial","used":"PLOT","plotsizesq":3440,"plot_size":"3440 SQMT","plot_no":"038A","sector":"64","block":"A","mplanduse":"B","ppt_type":"IND","ppt_full":"Industrial","authority":"NOIDA","category":"industrial","execution_stage":"unknown"}},{"type":"Feature","geometry":{"type":"Polygon","coordinates":[[[77.375063,28.611093],[77.374987,28.610375],[77.375431,28.61034],[77.375505,28.61106],[77.375063,28.611093]]]},"properties":{"objectid":3478,"plotmapid":"64A038IND","property_t":"Industrial","used":"PLOT","plotsizesq":3440,"plot_size":"3440 SQMT","plot_no":"038","sector":"64","block":"A","mplanduse":"B","ppt_type":"IND","ppt_full":"Industrial","authority":"NOIDA","category":"industrial","execution_stage":"unknown"}},{"type":"Feature","geometry":{"type":"Polygon","coordinates":[[[77.374546,28.61041],[77.37462,28.611126],[77.374168,28.611162],[77.374094,28.610446],[77.374546,28.61041]]]},"properties":{"objectid":3479,"plotmapid":"64A038BIND","property_t":"Industrial","used":"PLOT","plotsizesq":3440,"plot_size":"3440 SQMT","plot_no":"038B","sector":"64","block":"A","mplanduse":"B","ppt_type":"IND","ppt_full":"Industrial","authority":"NOIDA","category":"industrial","execution_stage":"unknown"}},{"type":"Feature","geometry":{"type":"Polygon","coordinates":[[[77.375505,28.61106],[77.375431,28.61034],[77.375939,28.610299],[77.376014,28.611021],[77.375505,28.61106]]]},"properties":{"objectid":3480,"plotmapid":"64A037IND","property_t":"Industrial","used":"PLOT","plotsizesq":3200,"plot_size":"3200 SQMT","plot_no":"037","sector":"64","block":"A","mplanduse":"B","ppt_type":"IND","ppt_full":"Industrial","authority":"NOIDA","category":"industrial","execution_stage":"unknown"}},{"type":"Feature","geometry":{"type":"Polygon","coordinates":[[[77.375945,28.611387],[77.375745,28.611402],[77.375709,28.611044],[77.37591,28.611029],[77.375945,28.611387]]]},"properties":{"objectid":3481,"plotmapid":"64A040IND","property_t":"Industrial","used":"PLOT","plotsizesq":800,"plot_size":"800 SQMT","plot_no":"040","sector":"64","block":"A","mplanduse":"B","ppt_type":"IND","ppt_full":"Industrial","authority":"NOIDA","category":"industrial","execution_stage":"unknown"}},{"type":"Feature","geometry":{"type":"Polygon","coordinates":[[[77.376963,28.611309],[77.376762,28.611324],[77.376726,28.610966],[77.376928,28.610951],[77.376963,28.611309]]]},"properties":{"objectid":3483,"plotmapid":"64A045IND","property_t":"Industrial","used":"PLOT","plotsizesq":800,"plot_size":"800 SQMT","plot_no":"045","sector":"64","block":"A","mplanduse":"B","ppt_type":"IND","ppt_full":"Industrial","authority":"NOIDA","category":"industrial","execution_stage":"unknown"}},{"type":"Feature","geometry":{"type":"Polygon","coordinates":[[[77.376762,28.611324],[77.376559,28.61134],[77.376524,28.610982],[77.376726,28.610966],[77.376762,28.611324]]]},"properties":{"objectid":3484,"plotmapid":"64A044IND","property_t":"Industrial","used":"PLOT","plotsizesq":800,"plot_size":"800 SQMT","plot_no":"044","sector":"64","block":"A","mplanduse":"B","ppt_type":"IND","ppt_full":"Industrial","authority":"NOIDA","category":"industrial","execution_stage":"unknown"}},{"type":"Feature","geometry":{"type":"Polygon","coordinates":[[[77.377577,28.611262],[77.377374,28.611277],[77.377339,28.610919],[77.377542,28.610904],[77.377577,28.611262]]]},"properties":{"objectid":3485,"plotmapid":"64A048IND","property_t":"Industrial","used":"PLOT","plotsizesq":800,"plot_size":"800 SQMT","plot_no":"048","sector":"64","block":"A","mplanduse":"B","ppt_type":"IND","ppt_full":"Industrial","authority":"NOIDA","category":"industrial","execution_stage":"unknown"}},{"type":"Feature","geometry":{"type":"Polygon","coordinates":[[[77.375745,28.611402],[77.375541,28.611417],[77.375505,28.61106],[77.375709,28.611044],[77.375745,28.611402]]]},"properties":{"objectid":3486,"plotmapid":"64A039IND","property_t":"Industrial","used":"PLOT","plotsizesq":800,"plot_size":"800 SQMT","plot_no":"039","sector":"64","block":"A","mplanduse":"B","ppt_type":"IND","ppt_full":"Industrial","authority":"NOIDA","category":"industrial","execution_stage":"unknown"}},{"type":"Feature","geometry":{"type":"Polygon","coordinates":[[[77.376559,28.61134],[77.376355,28.611355],[77.37632,28.610997],[77.376524,28.610982],[77.376559,28.61134]]]},"properties":{"objectid":3487,"plotmapid":"64A043IND","property_t":"Industrial","used":"PLOT","plotsizesq":800,"plot_size":"800 SQMT","plot_no":"043","sector":"64","block":"A","mplanduse":"B","ppt_type":"IND","ppt_full":"Industrial","authority":"NOIDA","category":"industrial","execution_stage":"unknown"}},{"type":"Feature","geometry":{"type":"Polygon","coordinates":[[[77.377374,28.611277],[77.37717,28.611293],[77.377134,28.610935],[77.377339,28.610919],[77.377374,28.611277]]]},"properties":{"objectid":3489,"plotmapid":"64A047IND","property_t":"Industrial","used":"PLOT","plotsizesq":800,"plot_size":"800 SQMT","plot_no":"047","sector":"64","block":"A","mplanduse":"B","ppt_type":"IND","ppt_full":"Industrial","authority":"NOIDA","category":"industrial","execution_stage":"unknown"}},{"type":"Feature","geometry":{"type":"Polygon","coordinates":[[[77.376355,28.611355],[77.37615,28.611371],[77.376115,28.611013],[77.37632,28.610997],[77.376355,28.611355]]]},"properties":{"objectid":3490,"plotmapid":"64A042IND","property_t":"Industrial","used":"PLOT","plotsizesq":800,"plot_size":"800 SQMT","plot_no":"042","sector":"64","block":"A","mplanduse":"B","ppt_type":"IND","ppt_full":"Industrial","authority":"NOIDA","category":"industrial","execution_stage":"unknown"}},{"type":"Feature","geometry":{"type":"Polygon","coordinates":[[[77.37615,28.611371],[77.375945,28.611387],[77.37591,28.611029],[77.376115,28.611013],[77.37615,28.611371]]]},"properties":{"objectid":3491,"plotmapid":"64A041IND","property_t":"Industrial","used":"PLOT","plotsizesq":800,"plot_size":"800 SQMT","plot_no":"041","sector":"64","block":"A","mplanduse":"B","ppt_type":"IND","ppt_full":"Industrial","authority":"NOIDA","category":"industrial","execution_stage":"unknown"}},{"type":"Feature","geometry":{"type":"Polygon","coordinates":[[[77.37717,28.611293],[77.376963,28.611309],[77.376928,28.610951],[77.377134,28.610935],[77.37717,28.611293]]]},"properties":{"objectid":3495,"plotmapid":"64A046IND","property_t":"Industrial","used":"PLOT","plotsizesq":800,"plot_size":"800 SQMT","plot_no":"046","sector":"64","block":"A","mplanduse":"B","ppt_type":"IND","ppt_full":"Industrial","authority":"NOIDA","category":"industrial","execution_stage":"unknown"}},{"type":"Feature","geometry":{"type":"Polygon","coordinates":[[[77.373999,28.611535],[77.373791,28.611551],[77.373755,28.611193],[77.373963,28.611178],[77.373999,28.611535]]]},"properties":{"objectid":3496,"plotmapid":"64A038DIND","property_t":"Industrial","used":"PLOT","plotsizesq":0,"plot_size":"NA","plot_no":"038D","sector":"64","block":"A","mplanduse":"B","ppt_type":"IND","ppt_full":"Industrial","authority":"NOIDA","category":"industrial","execution_stage":"unknown"}},{"type":"Feature","geometry":{"type":"Polygon","coordinates":[[[77.374877,28.611468],[77.374662,28.611485],[77.374627,28.611127],[77.374841,28.61111],[77.374877,28.611468]]]},"properties":{"objectid":3497,"plotmapid":"64A038HIND","property_t":"Industrial","used":"PLOT","plotsizesq":860,"plot_size":"860 SQMT","plot_no":"038H","sector":"64","block":"A","mplanduse":"B","ppt_type":"IND","ppt_full":"Industrial","authority":"NOIDA","category":"industrial","execution_stage":"unknown"}},{"type":"Feature","geometry":{"type":"Polygon","coordinates":[[[77.374437,28.611502],[77.373999,28.611535],[77.373963,28.611178],[77.374402,28.611144],[77.374437,28.611502]]]},"properties":{"objectid":3498,"plotmapid":"64A038E&FIND","property_t":"Industrial","used":"PLOT","plotsizesq":860,"plot_size":"860 SQMT","plot_no":"038E&F","sector":"64","block":"A","mplanduse":"B","ppt_type":"IND","ppt_full":"Industrial","authority":"NOIDA","category":"industrial","execution_stage":"unknown"}},{"type":"Feature","geometry":{"type":"Polygon","coordinates":[[[77.375319,28.611434],[77.375099,28.611451],[77.375063,28.611093],[77.375283,28.611077],[77.375319,28.611434]]]},"properties":{"objectid":3499,"plotmapid":"64A038JIND","property_t":"Industrial","used":"PLOT","plotsizesq":0,"plot_size":"NA","plot_no":"038J","sector":"64","block":"A","mplanduse":"B","ppt_type":"IND","ppt_full":"Industrial","authority":"NOIDA","category":"industrial","execution_stage":"unknown"}},{"type":"Feature","geometry":{"type":"Polygon","coordinates":[[[77.375099,28.611451],[77.374877,28.611468],[77.374841,28.61111],[77.375063,28.611093],[77.375099,28.611451]]]},"properties":{"objectid":3500,"plotmapid":"64A038IIND","property_t":"Industrial","used":"PLOT","plotsizesq":860,"plot_size":"860 SQMT","plot_no":"038I","sector":"64","block":"A","mplanduse":"B","ppt_type":"IND","ppt_full":"Industrial","authority":"NOIDA","category":"industrial","execution_stage":"unknown"}},{"type":"Feature","geometry":{"type":"Polygon","coordinates":[[[77.375541,28.611417],[77.375319,28.611434],[77.375283,28.611077],[77.375505,28.61106],[77.375541,28.611417]]]},"properties":{"objectid":3501,"plotmapid":"64A038KIND","property_t":"Industrial","used":"PLOT","plotsizesq":0,"plot_size":"NA","plot_no":"038K","sector":"64","block":"A","mplanduse":"B","ppt_type":"IND","ppt_full":"Industrial","authority":"NOIDA","category":"industrial","execution_stage":"unknown"}},{"type":"Feature","geometry":{"type":"Polygon","coordinates":[[[77.376743,28.615316],[77.376129,28.615363],[77.376097,28.615047],[77.376711,28.615005],[77.376743,28.615316]]]},"properties":{"objectid":9487,"plotmapid":"63B005IND","property_t":"Industrial","used":"PLOT","allotted_p":"Yes","plotsizesq":1800,"plot_size":"1800 SQMT","plot_no":"005","sector":"63","block":"B","mplanduse":"B","ppt_type":"IND","ppt_full":"Industrial","authority":"NOIDA","category":"industrial","execution_stage":"allotted"}},{"type":"Feature","geometry":{"type":"Polygon","coordinates":[[[77.377541,28.615275],[77.377283,28.615294],[77.377251,28.614961],[77.377509,28.614941],[77.377541,28.615275]]]},"properties":{"objectid":9499,"plotmapid":"63B149IND","property_t":"Industrial","used":"PLOT","plotsizesq":1000,"plot_size":"1000 SQMT","plot_no":"149","sector":"63","block":"B","mplanduse":"B","ppt_type":"IND","ppt_full":"Industrial","authority":"NOIDA","category":"industrial","execution_stage":"unknown"}},{"type":"Feature","geometry":{"type":"Polygon","coordinates":[[[77.377283,28.615294],[77.376926,28.615321],[77.376895,28.614987],[77.377251,28.614961],[77.377283,28.615294]]]},"properties":{"objectid":9500,"plotmapid":"63B148IND","property_t":"Industrial","used":"PLOT","plotsizesq":0,"plot_size":"NA","plot_no":"148","sector":"63","block":"B","mplanduse":"B","ppt_type":"IND","ppt_full":"Industrial","authority":"NOIDA","category":"industrial","execution_stage":"unknown"}},{"type":"Feature","geometry":{"type":"Polygon","coordinates":[[[77.376769,28.615587],[77.376156,28.615634],[77.376129,28.615363],[77.376743,28.615316],[77.376769,28.615587]]]},"properties":{"objectid":9520,"plotmapid":"63B006IND","property_t":"Industrial","used":"PLOT","plotsizesq":1800,"plot_size":"1800 SQMT","plot_no":"006","sector":"63","block":"B","mplanduse":"B","ppt_type":"IND","ppt_full":"Industrial","authority":"NOIDA","category":"industrial","execution_stage":"unknown"}},{"type":"Feature","geometry":{"type":"Polygon","coordinates":[[[77.377573,28.615608],[77.377315,28.615627],[77.377283,28.615294],[77.377541,28.615275],[77.377573,28.615608]]]},"properties":{"objectid":9543,"plotmapid":"63B146IND","property_t":"Industrial","used":"PLOT","plotsizesq":1000,"plot_size":"1000 SQMT","plot_no":"146","sector":"63","block":"B","mplanduse":"B","ppt_type":"IND","ppt_full":"Industrial","authority":"NOIDA","category":"industrial","execution_stage":"unknown"}},{"type":"Feature","geometry":{"type":"Polygon","coordinates":[[[77.377315,28.615627],[77.376958,28.615654],[77.376926,28.615321],[77.377283,28.615294],[77.377315,28.615627]]]},"properties":{"objectid":9544,"plotmapid":"63B147IND","property_t":"Industrial","used":"PLOT","allotted_p":"Yes","plotsizesq":1295,"plot_size":"NA","plot_no":"147","sector":"63","block":"B","mplanduse":"B","ppt_type":"IND","ppt_full":"Industrial","authority":"NOIDA","category":"industrial","execution_stage":"allotted"}},{"type":"Feature","geometry":{"type":"Polygon","coordinates":[[[77.376795,28.615856],[77.376183,28.615905],[77.376156,28.615634],[77.376769,28.615587],[77.376795,28.615856]]]},"properties":{"objectid":9551,"plotmapid":"63B007IND","property_t":"Industrial","used":"PLOT","plotsizesq":1800,"plot_size":"1800 SQMT","plot_no":"007","sector":"63","block":"B","mplanduse":"B","ppt_type":"IND","ppt_full":"Industrial","authority":"NOIDA","category":"industrial","execution_stage":"unknown"}},{"type":"Feature","geometry":{"type":"Polygon","coordinates":[[[77.376821,28.616125],[77.376209,28.616172],[77.376183,28.615905],[77.376795,28.615856],[77.376821,28.616125]]]},"properties":{"objectid":9592,"plotmapid":"63B008IND","property_t":"Industrial","used":"PLOT","plotsizesq":1800,"plot_size":"1800 SQMT","plot_no":"008","sector":"63","block":"B","mplanduse":"B","ppt_type":"IND","ppt_full":"Industrial","authority":"NOIDA","category":"industrial","execution_stage":"unknown"}},{"type":"Feature","geometry":{"type":"Polygon","coordinates":[[[77.376872,28.616666],[77.376263,28.616713],[77.376209,28.616172],[77.376821,28.616125],[77.376872,28.616666]]]},"properties":{"objectid":9627,"plotmapid":"63B009,10IND","property_t":"Industrial","used":"PLOT","plotsizesq":1800,"plot_size":"1800 SQMT","plot_no":"009,10","sector":"63","block":"B","mplanduse":"B","ppt_type":"IND","ppt_full":"Industrial","authority":"NOIDA","category":"industrial","execution_stage":"unknown"}},{"type":"Feature","geometry":{"type":"Polygon","coordinates":[[[77.376187,28.615946],[77.374243,28.616092],[77.374153,28.615197],[77.376097,28.615047],[77.376187,28.615946]]]},"properties":{"objectid":9657,"plotmapid":"63B004IND","property_t":"Industrial","used":"PLOT","allotted_p":"Yes","plotsizesq":19100,"plot_size":"19100 SQMT","plot_no":"004","sector":"63","block":"B","mplanduse":"B","ppt_type":"IND","ppt_full":"Industrial","authority":"NOIDA","category":"industrial","execution_stage":"allotted"}},{"type":"Feature","geometry":{"type":"Polygon","coordinates":[[[77.376366,28.617747],[77.374426,28.617889],[77.374335,28.61699],[77.376276,28.616846],[77.376366,28.617747]]]},"properties":{"objectid":9779,"plotmapid":"63B002IND","property_t":"Industrial","used":"PLOT","allotted_p":"Yes","plotsizesq":19100,"plot_size":"19100 SQMT","plot_no":"002","sector":"63","block":"B","mplanduse":"B","ppt_type":"IND","ppt_full":"Industrial","authority":"NOIDA","category":"industrial","execution_stage":"allotted"}},{"type":"Feature","geometry":{"type":"Polygon","coordinates":[[[77.376455,28.618643],[77.374516,28.618787],[77.374426,28.617889],[77.376366,28.617747],[77.376455,28.618643]]]},"properties":{"objectid":9935,"plotmapid":"63B001IND","property_t":"Industrial","used":"PLOT","allotted_p":"Yes","plotsizesq":19100,"plot_size":"19100 SQMT","plot_no":"001","sector":"63","block":"B","mplanduse":"B","ppt_type":"IND","ppt_full":"Industrial","authority":"NOIDA","category":"industrial","execution_stage":"allotted"}},{"type":"Feature","geometry":{"type":"Polygon","coordinates":[[[77.377569,28.618849],[77.377585,28.619016],[77.37728,28.619038],[77.377264,28.618866],[77.377569,28.618849]]]},"properties":{"objectid":9958,"plotmapid":"63A153IND","property_t":"Industrial","used":"PLOT","plotsizesq":0,"plot_size":"NA","plot_no":"153","sector":"63","block":"A","mplanduse":"B","ppt_type":"IND","ppt_full":"Industrial","authority":"NOIDA","category":"industrial","execution_stage":"unknown"}},{"type":"Feature","geometry":{"type":"Polygon","coordinates":[[[77.375059,28.619028],[77.37515,28.620149],[77.374575,28.620193],[77.374468,28.619072],[77.375059,28.619028]]]},"properties":{"objectid":9964,"plotmapid":"63A155/CIND","property_t":"Industrial","used":"NA","plotsizesq":7500,"plot_size":"75 SQMT","plot_no":"155/C","sector":"63","block":"A","mplanduse":"V","ppt_type":"IND","ppt_full":"Industrial","remark":"As per drone is vacant ,not Alloted & not buildup","authority":"NOIDA","category":"industrial","execution_stage":"unknown"}},{"type":"Feature","geometry":{"type":"Polygon","coordinates":[[[77.376021,28.621226],[77.375386,28.621272],[77.375287,28.620102],[77.375911,28.620055],[77.376021,28.621226]]]},"properties":{"objectid":9965,"plotmapid":"63A155/BIND","property_t":"Industrial","used":"NA","plotsizesq":7500,"plot_size":"75 SQMT","plot_no":"155/B","sector":"63","block":"A","mplanduse":"V","ppt_type":"IND","ppt_full":"Industrial","remark":"As per drone is vacant ,not Alloted & not buildup","authority":"NOIDA","category":"industrial","execution_stage":"unknown"}},{"type":"Feature","geometry":{"type":"Polygon","coordinates":[[[77.37647,28.621935],[77.376422,28.621467],[77.37691,28.621427],[77.377046,28.621584],[77.37671,28.621806],[77.376699,28.62179],[77.37647,28.621935]]]},"properties":{"objectid":9966,"plotmapid":"63A061BIND","property_t":"Industrial","used":"NA","plotsizesq":2087.7,"plot_size":"2087.70 SQMT","plot_no":"061B","sector":"63","block":"A","mplanduse":"V","ppt_type":"IND","ppt_full":"Industrial","remark":"As per drone is vacant ,not Alloted & not buildup","authority":"NOIDA","category":"industrial","execution_stage":"unknown"}},{"type":"Feature","geometry":{"type":"Polygon","coordinates":[[[77.377246,28.620646],[77.377292,28.621134],[77.376021,28.621226],[77.375974,28.620741],[77.377246,28.620646]]]},"properties":{"objectid":9989,"plotmapid":"63A154IND","property_t":"Industrial","used":"PLOT","plotsizesq":6230,"plot_size":"6230 SQMT","plot_no":"154","sector":"63","block":"A","mplanduse":"V","ppt_type":"IND","ppt_full":"Industrial","authority":"NOIDA","category":"industrial","execution_stage":"unknown"}},{"type":"Feature","geometry":{"type":"Polygon","coordinates":[[[77.377598,28.61915],[77.377293,28.619173],[77.37728,28.619038],[77.377585,28.619016],[77.377598,28.61915]]]},"properties":{"objectid":10113,"plotmapid":"63A152IND","property_t":"Industrial","used":"PLOT","plotsizesq":4560,"plot_size":"4560 SQMT","plot_no":"152","sector":"63","block":"A","mplanduse":"B","ppt_type":"IND","ppt_full":"Industrial","authority":"NOIDA","category":"industrial","execution_stage":"unknown"}},{"type":"Feature","geometry":{"type":"Polygon","coordinates":[[[77.37761,28.619275],[77.377306,28.619307],[77.377293,28.619173],[77.377598,28.61915],[77.37761,28.619275]]]},"properties":{"objectid":10123,"plotmapid":"63A151IND","property_t":"Industrial","used":"PLOT","plotsizesq":4560,"plot_size":"4560 SQMT","plot_no":"151","sector":"63","block":"A","mplanduse":"B","ppt_type":"IND","ppt_full":"Industrial","authority":"NOIDA","category":"industrial","execution_stage":"unknown"}},{"type":"Feature","geometry":{"type":"Polygon","coordinates":[[[77.377622,28.619395],[77.377624,28.619419],[77.377319,28.619442],[77.377306,28.619307],[77.377611,28.619284],[77.377622,28.619395]]]},"properties":{"objectid":10138,"plotmapid":"63A150IND","property_t":"Industrial","used":"PLOT","plotsizesq":4560,"plot_size":"4560 SQMT","plot_no":"150","sector":"63","block":"A","mplanduse":"B","ppt_type":"IND","ppt_full":"Industrial","authority":"NOIDA","category":"industrial","execution_stage":"unknown"}},{"type":"Feature","geometry":{"type":"Polygon","coordinates":[[[77.377161,28.61973],[77.377163,28.619747],[77.37653,28.619792],[77.376447,28.61893],[77.377085,28.618885],[77.377161,28.61973]]]},"properties":{"objectid":10164,"plotmapid":"63A154CIND","property_t":"Industrial","used":"PLOT","plotsizesq":5952,"plot_size":"5952 SQMT","plot_no":"154C","sector":"63","block":"A","mplanduse":"B","ppt_type":"IND","ppt_full":"Industrial","authority":"NOIDA","category":"industrial","execution_stage":"unknown"}},{"type":"Feature","geometry":{"type":"Polygon","coordinates":[[[77.376529,28.619778],[77.37653,28.619792],[77.375892,28.619839],[77.375813,28.618981],[77.376447,28.61893],[77.376529,28.619778]]]},"properties":{"objectid":10165,"plotmapid":"63A154DIND","property_t":"Industrial","used":"PLOT","plotsizesq":5952,"plot_size":"5952 SQMT","plot_no":"154D","sector":"63","block":"A","mplanduse":"B","ppt_type":"IND","ppt_full":"Industrial","authority":"NOIDA","category":"industrial","execution_stage":"unknown"}},{"type":"Feature","geometry":{"type":"Polygon","coordinates":[[[77.377182,28.619954],[77.377204,28.620198],[77.375933,28.620288],[77.375892,28.619839],[77.377163,28.619747],[77.377182,28.619954]]]},"properties":{"objectid":10203,"plotmapid":"63A154BIND","property_t":"Industrial","used":"PLOT","plotsizesq":6230,"plot_size":"6230 SQMT","plot_no":"154B","sector":"63","block":"A","mplanduse":"B","ppt_type":"IND","ppt_full":"Industrial","authority":"NOIDA","category":"industrial","execution_stage":"unknown"}},{"type":"Feature","geometry":{"type":"Polygon","coordinates":[[[77.377246,28.620646],[77.375974,28.620741],[77.375933,28.620288],[77.377204,28.620198],[77.377246,28.620646]]]},"properties":{"objectid":10210,"plotmapid":"63A154AIND","property_t":"Industrial","used":"PLOT","plotsizesq":6230,"plot_size":"6230 SQMT","plot_no":"154A","sector":"63","block":"A","mplanduse":"B","ppt_type":"IND","ppt_full":"Industrial","authority":"NOIDA","category":"industrial","execution_stage":"unknown"}},{"type":"Feature","geometry":{"type":"Polygon","coordinates":[[[77.374658,28.621599],[77.37533,28.62155],[77.375353,28.621797],[77.374679,28.621846],[77.374658,28.621599]]]},"properties":{"objectid":10217,"plotmapid":"63A61B/3IND","property_t":"Industrial","used":"PLOT","plotsizesq":1800,"plot_size":"18 SQMT","plot_no":"61B/3","sector":"63","block":"A","mplanduse":"B","ppt_type":"IND","ppt_full":"Industrial","authority":"NOIDA","category":"industrial","execution_stage":"unknown"}},{"type":"Feature","geometry":{"type":"Polygon","coordinates":[[[77.374679,28.621846],[77.375353,28.621797],[77.375372,28.621992],[77.374695,28.622044],[77.374679,28.621846]]]},"properties":{"objectid":10220,"plotmapid":"63A61B/4IND","property_t":"Industrial","used":"PLOT","plotsizesq":1309,"plot_size":"139 SQMT","plot_no":"61B/4","sector":"63","block":"A","mplanduse":"B","ppt_type":"IND","ppt_full":"Industrial","authority":"NOIDA","category":"industrial","execution_stage":"unknown"}},{"type":"Feature","geometry":{"type":"Polygon","coordinates":[[[77.3776,28.621708],[77.377269,28.621946],[77.377046,28.621584],[77.37691,28.621427],[77.377319,28.621396],[77.3776,28.621708]]]},"properties":{"objectid":10221,"plotmapid":"63A061CIND","property_t":"Industrial","used":"NA","plotsizesq":2087.7,"plot_size":"2087.70 SQMT","plot_no":"061C","sector":"63","block":"A","mplanduse":"B","ppt_type":"IND","ppt_full":"Industrial","authority":"NOIDA","category":"industrial","execution_stage":"unknown"}},{"type":"Feature","geometry":{"type":"Polygon","coordinates":[[[77.37647,28.621935],[77.375893,28.62234],[77.375814,28.621514],[77.376422,28.621467],[77.37647,28.621935]]]},"properties":{"objectid":10228,"plotmapid":"63A061AIND","property_t":"Industrial","used":"PLOT","plotsizesq":0.47400000000000003,"plot_size":"0.4740 HJACT(APPX)","plot_no":"061A","sector":"63","block":"A","mplanduse":"B","ppt_type":"IND","ppt_full":"Industrial","authority":"NOIDA","category":"industrial","execution_stage":"unknown"}},{"type":"Feature","geometry":{"type":"Polygon","coordinates":[[[77.376903,28.616932],[77.37629,28.616979],[77.376263,28.616713],[77.376879,28.616665],[77.376903,28.616932]]]},"properties":{"objectid":10391,"plotmapid":"63B011IND","property_t":"Industrial","used":"PLOT","plotsizesq":1800,"plot_size":"1800 SQMT","plot_no":"011","sector":"63","block":"B","mplanduse":"B","ppt_type":"IND","ppt_full":"Industrial","authority":"NOIDA","category":"industrial","execution_stage":"unknown"}},{"type":"Feature","geometry":{"type":"Polygon","coordinates":[[[77.376921,28.617206],[77.376317,28.617249],[77.37629,28.616979],[77.376903,28.616932],[77.376921,28.617206]]]},"properties":{"objectid":10392,"plotmapid":"63B012IND","property_t":"Industrial","used":"PLOT","plotsizesq":1800,"plot_size":"1800 SQMT","plot_no":"012","sector":"63","block":"B","mplanduse":"B","ppt_type":"IND","ppt_full":"Industrial","authority":"NOIDA","category":"industrial","execution_stage":"unknown"}},{"type":"Feature","geometry":{"type":"Polygon","coordinates":[[[77.376945,28.617471],[77.376343,28.617517],[77.376317,28.617249],[77.376921,28.617206],[77.376945,28.617471]]]},"properties":{"objectid":10393,"plotmapid":"63B013IND","property_t":"Industrial","used":"PLOT","plotsizesq":1800,"plot_size":"1800 SQMT","plot_no":"013","sector":"63","block":"B","mplanduse":"B","ppt_type":"IND","ppt_full":"Industrial","authority":"NOIDA","category":"industrial","execution_stage":"unknown"}},{"type":"Feature","geometry":{"type":"Polygon","coordinates":[[[77.376983,28.617741],[77.37637,28.617788],[77.376343,28.617517],[77.376955,28.61747],[77.376983,28.617741]]]},"properties":{"objectid":10394,"plotmapid":"63B014IND","property_t":"Industrial","used":"PLOT","plotsizesq":1800,"plot_size":"1800 SQMT","plot_no":"014","sector":"63","block":"B","mplanduse":"B","ppt_type":"IND","ppt_full":"Industrial","authority":"NOIDA","category":"industrial","execution_stage":"unknown"}},{"type":"Feature","geometry":{"type":"Polygon","coordinates":[[[77.377011,28.61801],[77.376397,28.618057],[77.37637,28.617788],[77.376983,28.617741],[77.377011,28.61801]]]},"properties":{"objectid":10395,"plotmapid":"63B015IND","property_t":"Industrial","used":"PLOT","plotsizesq":1800,"plot_size":"1800 SQMT","plot_no":"015","sector":"63","block":"B","mplanduse":"B","ppt_type":"IND","ppt_full":"Industrial","authority":"NOIDA","category":"industrial","execution_stage":"unknown"}},{"type":"Feature","geometry":{"type":"Polygon","coordinates":[[[77.377012,28.618026],[77.377039,28.618283],[77.376424,28.618329],[77.376397,28.618057],[77.377011,28.61801],[77.377012,28.618026]]]},"properties":{"objectid":10396,"plotmapid":"63B016IND","property_t":"Industrial","used":"PLOT","plotsizesq":1800,"plot_size":"1800 SQMT","plot_no":"016","sector":"63","block":"B","mplanduse":"B","ppt_type":"IND","ppt_full":"Industrial","authority":"NOIDA","category":"industrial","execution_stage":"unknown"}},{"type":"Feature","geometry":{"type":"Polygon","coordinates":[[[77.377039,28.618283],[77.377072,28.6186],[77.376455,28.618643],[77.376424,28.618329],[77.377039,28.618283]]]},"properties":{"objectid":10397,"plotmapid":"63B017IND","property_t":"Industrial","used":"PLOT","allotted_p":"Yes","plotsizesq":1800,"plot_size":"1800 SQMT","plot_no":"017","sector":"63","block":"B","mplanduse":"B","ppt_type":"IND","ppt_full":"Industrial","authority":"NOIDA","category":"industrial","execution_stage":"allotted"}},{"type":"Feature","geometry":{"type":"Polygon","coordinates":[[[77.37623,28.616378],[77.376276,28.616846],[77.374335,28.61699],[77.37429,28.616541],[77.37623,28.616378]]]},"properties":{"objectid":10398,"plotmapid":"63B003AIND","property_t":"Industrial","used":"PLOT","plotsizesq":19100,"plot_size":"19100 SQMT","plot_no":"003A","sector":"63","block":"B","mplanduse":"B","ppt_type":"IND","ppt_full":"Industrial","authority":"NOIDA","category":"industrial","execution_stage":"unknown"}},{"type":"Feature","geometry":{"type":"Polygon","coordinates":[[[77.377257,28.618581],[77.37722,28.618221],[77.377485,28.618201],[77.377521,28.618562],[77.377257,28.618581]]]},"properties":{"objectid":10524,"plotmapid":"63B018IND","property_t":"Industrial","used":"PLOT","allotted_p":"Yes","plotsizesq":1040,"plot_size":"NA","plot_no":"018","sector":"63","block":"B","mplanduse":"B","ppt_type":"IND","ppt_full":"Industrial","authority":"NOIDA","category":"industrial","execution_stage":"allotted"}},{"type":"Feature","geometry":{"type":"Polygon","coordinates":[[[77.37722,28.618221],[77.377187,28.617866],[77.377448,28.617847],[77.377482,28.618202],[77.37722,28.618221]]]},"properties":{"objectid":10535,"plotmapid":"63B041IND","property_t":"Industrial","used":"PLOT","allotted_p":"Yes","plotsizesq":800,"plot_size":"NA","plot_no":"041","sector":"63","block":"B","mplanduse":"B","ppt_type":"IND","ppt_full":"Industrial","authority":"NOIDA","category":"industrial","execution_stage":"allotted"}},{"type":"Feature","geometry":{"type":"Polygon","coordinates":[[[77.377303,28.615953],[77.377,28.615975],[77.376985,28.615811],[77.377287,28.615789],[77.377303,28.615953]]]},"properties":{"objectid":10536,"plotmapid":"63B055IND","property_t":"Industrial","used":"PLOT","plotsizesq":0,"plot_size":"NA","plot_no":"055","sector":"63","block":"B","mplanduse":"B","ppt_type":"IND","ppt_full":"Industrial","authority":"NOIDA","category":"industrial","execution_stage":"unknown"}},{"type":"Feature","geometry":{"type":"Polygon","coordinates":[[[77.377606,28.61593],[77.377303,28.615953],[77.377287,28.615789],[77.377591,28.615766],[77.377606,28.61593]]]},"properties":{"objectid":10537,"plotmapid":"63B056IND","property_t":"Industrial","used":"PLOT","plotsizesq":0,"plot_size":"NA","plot_no":"056","sector":"63","block":"B","mplanduse":"B","ppt_type":"IND","ppt_full":"Industrial","authority":"NOIDA","category":"industrial","execution_stage":"unknown"}},{"type":"Feature","geometry":{"type":"Polygon","coordinates":[[[77.377379,28.616759],[77.377076,28.616782],[77.377063,28.616649],[77.377366,28.616626],[77.377379,28.616759]]]},"properties":{"objectid":10538,"plotmapid":"63B049IND","property_t":"Industrial","used":"PLOT","plotsizesq":450,"plot_size":"450 SQMT","plot_no":"049","sector":"63","block":"B","mplanduse":"B","ppt_type":"IND","ppt_full":"Industrial","authority":"NOIDA","category":"industrial","execution_stage":"unknown"}},{"type":"Feature","geometry":{"type":"Polygon","coordinates":[[[77.377315,28.616086],[77.377012,28.616109],[77.377,28.615975],[77.377303,28.615953],[77.377315,28.616086]]]},"properties":{"objectid":10539,"plotmapid":"63B054IND","property_t":"Industrial","used":"PLOT","plotsizesq":450,"plot_size":"450 SQMT","plot_no":"054","sector":"63","block":"B","mplanduse":"B","ppt_type":"IND","ppt_full":"Industrial","authority":"NOIDA","category":"industrial","execution_stage":"unknown"}},{"type":"Feature","geometry":{"type":"Polygon","coordinates":[[[77.377353,28.616492],[77.37705,28.616514],[77.377038,28.616381],[77.377341,28.616358],[77.377353,28.616492]]]},"properties":{"objectid":10540,"plotmapid":"63B051IND","property_t":"Industrial","used":"PLOT","plotsizesq":450,"plot_size":"450 SQMT","plot_no":"051","sector":"63","block":"B","mplanduse":"B","ppt_type":"IND","ppt_full":"Industrial","authority":"NOIDA","category":"industrial","execution_stage":"unknown"}},{"type":"Feature","geometry":{"type":"Polygon","coordinates":[[[77.377328,28.61622],[77.377025,28.616243],[77.377012,28.616109],[77.377315,28.616086],[77.377328,28.61622]]]},"properties":{"objectid":10541,"plotmapid":"63B053IND","property_t":"Industrial","used":"PLOT","plotsizesq":450,"plot_size":"450 SQMT","plot_no":"053","sector":"63","block":"B","mplanduse":"B","ppt_type":"IND","ppt_full":"Industrial","authority":"NOIDA","category":"industrial","execution_stage":"unknown"}},{"type":"Feature","geometry":{"type":"Polygon","coordinates":[[[77.377406,28.617031],[77.377103,28.617053],[77.37709,28.616919],[77.377393,28.616896],[77.377406,28.617031]]]},"properties":{"objectid":10542,"plotmapid":"63B047IND","property_t":"Industrial","used":"PLOT","plotsizesq":450,"plot_size":"450 SQMT","plot_no":"047","sector":"63","block":"B","mplanduse":"B","ppt_type":"IND","ppt_full":"Industrial","authority":"NOIDA","category":"industrial","execution_stage":"unknown"}},{"type":"Feature","geometry":{"type":"Polygon","coordinates":[[[77.377366,28.616626],[77.377063,28.616649],[77.37705,28.616514],[77.377353,28.616492],[77.377366,28.616626]]]},"properties":{"objectid":10543,"plotmapid":"63B050IND","property_t":"Industrial","used":"PLOT","plotsizesq":450,"plot_size":"450 SQMT","plot_no":"050","sector":"63","block":"B","mplanduse":"B","ppt_type":"IND","ppt_full":"Industrial","authority":"NOIDA","category":"industrial","execution_stage":"unknown"}},{"type":"Feature","geometry":{"type":"Polygon","coordinates":[[[77.377433,28.6173],[77.37713,28.617323],[77.377116,28.617189],[77.377419,28.617166],[77.377433,28.6173]]]},"properties":{"objectid":10544,"plotmapid":"63B045IND","property_t":"Industrial","used":"PLOT","plotsizesq":450,"plot_size":"450 SQMT","plot_no":"045","sector":"63","block":"B","mplanduse":"B","ppt_type":"IND","ppt_full":"Industrial","authority":"NOIDA","category":"industrial","execution_stage":"unknown"}},{"type":"Feature","geometry":{"type":"Polygon","coordinates":[[[77.377446,28.617435],[77.377143,28.617458],[77.37713,28.617323],[77.377433,28.6173],[77.377446,28.617435]]]},"properties":{"objectid":10545,"plotmapid":"63B044IND","property_t":"Industrial","used":"PLOT","plotsizesq":450,"plot_size":"450 SQMT","plot_no":"044","sector":"63","block":"B","mplanduse":"B","ppt_type":"IND","ppt_full":"Industrial","authority":"NOIDA","category":"industrial","execution_stage":"unknown"}},{"type":"Feature","geometry":{"type":"Polygon","coordinates":[[[77.377419,28.617166],[77.377116,28.617189],[77.377103,28.617053],[77.377406,28.617031],[77.377419,28.617166]]]},"properties":{"objectid":10546,"plotmapid":"63B46IND","property_t":"Industrial","used":"PLOT","plotsizesq":450,"plot_size":"450 SQMT","plot_no":"46","sector":"63","block":"B","mplanduse":"B","ppt_type":"IND","ppt_full":"Industrial","authority":"NOIDA","category":"industrial","execution_stage":"unknown"}},{"type":"Feature","geometry":{"type":"Polygon","coordinates":[[[77.377393,28.616896],[77.37709,28.616919],[77.377076,28.616782],[77.377379,28.616759],[77.377393,28.616896]]]},"properties":{"objectid":10547,"plotmapid":"63B048IND","property_t":"Industrial","used":"PLOT","plotsizesq":450,"plot_size":"450 SQMT","plot_no":"048","sector":"63","block":"B","mplanduse":"B","ppt_type":"IND","ppt_full":"Industrial","authority":"NOIDA","category":"industrial","execution_stage":"unknown"}},{"type":"Feature","geometry":{"type":"Polygon","coordinates":[[[77.377341,28.616358],[77.377038,28.616381],[77.377025,28.616243],[77.377328,28.61622],[77.377341,28.616358]]]},"properties":{"objectid":10548,"plotmapid":"63B052IND","property_t":"Industrial","used":"PLOT","plotsizesq":450,"plot_size":"450 SQMT","plot_no":"052","sector":"63","block":"B","mplanduse":"B","ppt_type":"IND","ppt_full":"Industrial","authority":"NOIDA","category":"industrial","execution_stage":"unknown"}},{"type":"Feature","geometry":{"type":"Polygon","coordinates":[[[77.37746,28.617572],[77.377156,28.617592],[77.377143,28.617458],[77.377446,28.617435],[77.37746,28.617572]]]},"properties":{"objectid":10549,"plotmapid":"63B043IND","property_t":"Industrial","used":"PLOT","plotsizesq":450,"plot_size":"450 SQMT","plot_no":"043","sector":"63","block":"B","mplanduse":"B","ppt_type":"IND","ppt_full":"Industrial","authority":"NOIDA","category":"industrial","execution_stage":"unknown"}},{"type":"Feature","geometry":{"type":"Polygon","coordinates":[[[77.377476,28.61773],[77.377171,28.617753],[77.377156,28.617592],[77.37746,28.617572],[77.377476,28.61773]]]},"properties":{"objectid":10550,"plotmapid":"63B042IND","property_t":"Industrial","used":"PLOT","plotsizesq":0,"plot_size":"NA","plot_no":"042","sector":"63","block":"B","mplanduse":"B","ppt_type":"IND","ppt_full":"Industrial","authority":"NOIDA","category":"industrial","execution_stage":"unknown"}},{"type":"Feature","geometry":{"type":"Polygon","coordinates":[[[77.377619,28.616063],[77.377315,28.616086],[77.377303,28.615953],[77.377606,28.61593],[77.377619,28.616063]]]},"properties":{"objectid":10556,"plotmapid":"63B057IND","property_t":"Industrial","used":"PLOT","plotsizesq":450,"plot_size":"450 SQMT","plot_no":"057","sector":"63","block":"B","mplanduse":"B","ppt_type":"IND","ppt_full":"Industrial","authority":"NOIDA","category":"industrial","execution_stage":"unknown"}},{"type":"Feature","geometry":{"type":"Polygon","coordinates":[[[77.377237,28.621895],[77.377269,28.621946],[77.37694,28.622158],[77.37671,28.621806],[77.377045,28.621587],[77.377237,28.621895]]]},"properties":{"objectid":11630,"plotmapid":"63A061IND","property_t":"Industrial","used":"PLOT","plotsizesq":0,"plot_size":"NA","plot_no":"061","sector":"63","block":"A","mplanduse":"B","ppt_type":"IND","ppt_full":"Industrial","authority":"NOIDA","category":"industrial","execution_stage":"unknown"}},{"type":"Feature","geometry":{"type":"Polygon","coordinates":[[[77.375814,28.621523],[77.375879,28.622192],[77.375633,28.622211],[77.375569,28.621532],[77.375814,28.621523]]]},"properties":{"objectid":11631,"plotmapid":"63A061B/1IND","property_t":"Industrial","used":"PLOT","plotsizesq":1800,"plot_size":"1800 SQMT","plot_no":"061B/1","sector":"63","block":"A","mplanduse":"B","ppt_type":"IND","ppt_full":"Industrial","authority":"NOIDA","category":"industrial","execution_stage":"unknown"}},{"type":"Feature","geometry":{"type":"Polygon","coordinates":[[[77.375633,28.622211],[77.375394,28.62223],[77.37533,28.62155],[77.375569,28.621532],[77.375633,28.622211]]]},"properties":{"objectid":11632,"plotmapid":"63A61B/2IND","property_t":"Industrial","used":"PLOT","plotsizesq":1800,"plot_size":"1800 SQMT","plot_no":"61B/2","sector":"63","block":"A","mplanduse":"B","ppt_type":"IND","ppt_full":"Industrial","authority":"NOIDA","category":"industrial","execution_stage":"unknown"}},{"type":"Feature","geometry":{"type":"Polygon","coordinates":[[[77.37623,28.616378],[77.37429,28.616541],[77.374243,28.616092],[77.376187,28.615946],[77.37623,28.616378]]]},"properties":{"objectid":11689,"plotmapid":"63B003BIND","property_t":"Industrial","used":"PLOT","plotsizesq":19100,"plot_size":"19100 SQMT","plot_no":"003B","sector":"63","block":"B","mplanduse":"B","ppt_type":"IND","ppt_full":"Industrial","authority":"NOIDA","category":"industrial","execution_stage":"unknown"}}]}
