{"type":"FeatureCollection","features":[{"type":"Feature","geometry":{"type":"Polygon","coordinates":[[[77.388533,28.628122],[77.388407,28.628131],[77.388381,28.627858],[77.388507,28.627848],[77.388533,28.628122]]]},"properties":{"objectid":9973,"plotmapid":"63D329IND","property_t":"Industrial","used":"PLOT","plotsizesq":0,"plot_size":"NA","plot_no":"329","sector":"63","block":"D","mplanduse":"V","ppt_type":"IND","ppt_full":"Industrial","remark":"As per drone is vacant ,not Alloted & not buildup","authority":"NOIDA","category":"industrial","execution_stage":"unknown"}},{"type":"Feature","geometry":{"type":"Polygon","coordinates":[[[77.388433,28.628402],[77.388298,28.628412],[77.388274,28.62814],[77.388407,28.628131],[77.388433,28.628402]]]},"properties":{"objectid":9974,"plotmapid":"63D331IND","property_t":"Industrial","used":"PLOT","plotsizesq":450,"plot_size":"450 SQMT","plot_no":"331","sector":"63","block":"D","mplanduse":"V","ppt_type":"IND","ppt_full":"Industrial","remark":"As per drone is vacant ,not Alloted & not buildup","authority":"NOIDA","category":"industrial","execution_stage":"unknown"}},{"type":"Feature","geometry":{"type":"Polygon","coordinates":[[[77.388533,28.628122],[77.388558,28.628393],[77.388433,28.628402],[77.388407,28.628131],[77.388533,28.628122]]]},"properties":{"objectid":9975,"plotmapid":"63D330IND","property_t":"Industrial","used":"PLOT","plotsizesq":0,"plot_size":"NA","plot_no":"330","sector":"63","block":"D","mplanduse":"V","ppt_type":"IND","ppt_full":"Industrial","remark":"As per drone is vacant ,not Alloted & not buildup","authority":"NOIDA","category":"industrial","execution_stage":"unknown"}},{"type":"Feature","geometry":{"type":"Polygon","coordinates":[[[77.388407,28.628131],[77.388274,28.62814],[77.388249,28.627869],[77.388381,28.627858],[77.388407,28.628131]]]},"properties":{"objectid":9976,"plotmapid":"63D328IND","property_t":"Industrial","used":"PLOT","plotsizesq":450,"plot_size":"450 SQMT","plot_no":"328","sector":"63","block":"D","mplanduse":"V","ppt_type":"IND","ppt_full":"Industrial","remark":"As per drone is vacant ,not Alloted & not buildup","authority":"NOIDA","category":"industrial","execution_stage":"unknown"}},{"type":"Feature","geometry":{"type":"Polygon","coordinates":[[[77.391253,28.622832],[77.390892,28.622857],[77.390844,28.622318],[77.391204,28.622293],[77.391253,28.622832]]]},"properties":{"objectid":10001,"plotmapid":"63J060IND","property_t":"Industrial","used":"PLOT","plotsizesq":0,"plot_size":"NA","plot_no":"060","sector":"63","block":"J","mplanduse":"V","ppt_type":"IND","ppt_full":"Industrial","authority":"NOIDA","category":"industrial","execution_stage":"unknown"}},{"type":"Feature","geometry":{"type":"Polygon","coordinates":[[[77.390809,28.624573],[77.390195,28.624618],[77.390164,28.624289],[77.390777,28.624243],[77.390809,28.624573]]]},"properties":{"objectid":10005,"plotmapid":"63J048IND","property_t":"Industrial","used":"PLOT","plotsizesq":2100,"plot_size":"2100 SQMT","plot_no":"048","sector":"63","block":"J","mplanduse":"V","ppt_type":"IND","ppt_full":"Industrial","authority":"NOIDA","category":"industrial","execution_stage":"unknown"}},{"type":"Feature","geometry":{"type":"Polygon","coordinates":[[[77.391423,28.624536],[77.391455,28.624866],[77.390841,28.624908],[77.390809,28.624573],[77.391423,28.624536]]]},"properties":{"objectid":10006,"plotmapid":"63J042IND","property_t":"Industrial","used":"PLOT","plotsizesq":2100,"plot_size":"2100 SQMT","plot_no":"042","sector":"63","block":"J","mplanduse":"V","ppt_type":"IND","ppt_full":"Industrial","authority":"NOIDA","category":"industrial","execution_stage":"unknown"}},{"type":"Feature","geometry":{"type":"Polygon","coordinates":[[[77.390841,28.624908],[77.390227,28.62495],[77.390195,28.624618],[77.390809,28.624573],[77.390841,28.624908]]]},"properties":{"objectid":10007,"plotmapid":"63J049IND","property_t":"Industrial","used":"PLOT","plotsizesq":2100,"plot_size":"2100 SQMT","plot_no":"049","sector":"63","block":"J","mplanduse":"V","ppt_type":"IND","ppt_full":"Industrial","authority":"NOIDA","category":"industrial","execution_stage":"unknown"}},{"type":"Feature","geometry":{"type":"Polygon","coordinates":[[[77.391719,28.622703],[77.391407,28.622729],[77.391393,28.622592],[77.391705,28.622566],[77.391719,28.622703]]]},"properties":{"objectid":10064,"plotmapid":"63F403IND","property_t":"Industrial","used":"PLOT","plotsizesq":0,"plot_size":"NA","plot_no":"403","sector":"63","block":"F","mplanduse":"V","ppt_type":"IND","ppt_full":"Industrial","authority":"NOIDA","category":"industrial","execution_stage":"unknown"}},{"type":"Feature","geometry":{"type":"Polygon","coordinates":[[[77.391226,28.62677],[77.390909,28.626793],[77.390843,28.626073],[77.391159,28.62605],[77.391226,28.62677]]]},"properties":{"objectid":10074,"plotmapid":"63J034IND","property_t":"Industrial","used":"PLOT","plotsizesq":2400,"plot_size":"2400 SQMT","plot_no":"034","sector":"63","block":"J","mplanduse":"V","ppt_type":"IND","ppt_full":"Industrial","authority":"NOIDA","category":"industrial","execution_stage":"unknown"}},{"type":"Feature","geometry":{"type":"Polygon","coordinates":[[[77.391238,28.626769],[77.391226,28.62677],[77.391159,28.62605],[77.391564,28.626022],[77.391631,28.626742],[77.391238,28.626769]]]},"properties":{"objectid":10075,"plotmapid":"63J033IND","property_t":"Industrial","used":"PLOT","plotsizesq":0,"plot_size":"NA","plot_no":"033","sector":"63","block":"J","mplanduse":"V","ppt_type":"IND","ppt_full":"Industrial","authority":"NOIDA","category":"industrial","execution_stage":"unknown"}},{"type":"Feature","geometry":{"type":"Polygon","coordinates":[[[77.388212,28.625756],[77.387608,28.625803],[77.387576,28.625481],[77.388183,28.625441],[77.388212,28.625756]]]},"properties":{"objectid":10076,"plotmapid":"63J006IND","property_t":"Industrial","used":"PLOT","plotsizesq":2100,"plot_size":"2100 SQMT","plot_no":"006","sector":"63","block":"J","mplanduse":"B","ppt_type":"IND","ppt_full":"Industrial","authority":"NOIDA","category":"industrial","execution_stage":"unknown"}},{"type":"Feature","geometry":{"type":"Polygon","coordinates":[[[77.388155,28.625125],[77.387546,28.625172],[77.387515,28.624855],[77.388128,28.624811],[77.388155,28.625125]]]},"properties":{"objectid":10077,"plotmapid":"63J008IND","property_t":"Industrial","used":"PLOT","plotsizesq":2100,"plot_size":"2100 SQMT","plot_no":"008","sector":"63","block":"J","mplanduse":"B","ppt_type":"IND","ppt_full":"Industrial","authority":"NOIDA","category":"industrial","execution_stage":"unknown"}},{"type":"Feature","geometry":{"type":"Polygon","coordinates":[[[77.387204,28.623549],[77.386952,28.623567],[77.386943,28.623475],[77.387195,28.623457],[77.387204,28.623549]]]},"properties":{"objectid":10078,"plotmapid":"63E225IND","property_t":"Industrial","used":"PLOT","plotsizesq":250,"plot_size":"250 SQMT","plot_no":"225","sector":"63","block":"E","mplanduse":"V","ppt_type":"IND","ppt_full":"Industrial","authority":"NOIDA","category":"industrial","execution_stage":"unknown"}},{"type":"Feature","geometry":{"type":"Polygon","coordinates":[[[77.390892,28.622857],[77.390542,28.622881],[77.390493,28.622342],[77.390844,28.622318],[77.390892,28.622857]]]},"properties":{"objectid":10256,"plotmapid":"63J061IND","property_t":"Industrial","used":"PLOT","plotsizesq":2100,"plot_size":"2100 SQMT","plot_no":"061","sector":"63","block":"J","mplanduse":"B","ppt_type":"IND","ppt_full":"Industrial","authority":"NOIDA","category":"industrial","execution_stage":"unknown"}},{"type":"Feature","geometry":{"type":"Polygon","coordinates":[[[77.390542,28.622881],[77.390183,28.622906],[77.390134,28.622367],[77.390493,28.622342],[77.390542,28.622881]]]},"properties":{"objectid":10257,"plotmapid":"63J062IND","property_t":"Industrial","used":"PLOT","plotsizesq":2100,"plot_size":"2100 SQMT","plot_no":"062","sector":"63","block":"J","mplanduse":"B","ppt_type":"IND","ppt_full":"Industrial","authority":"NOIDA","category":"industrial","execution_stage":"unknown"}},{"type":"Feature","geometry":{"type":"Polygon","coordinates":[[[77.390183,28.622906],[77.389827,28.622931],[77.389775,28.622392],[77.390134,28.622367],[77.390183,28.622906]]]},"properties":{"objectid":10258,"plotmapid":"63J063IND","property_t":"Industrial","used":"PLOT","plotsizesq":2100,"plot_size":"2100 SQMT","plot_no":"063","sector":"63","block":"J","mplanduse":"B","ppt_type":"IND","ppt_full":"Industrial","authority":"NOIDA","category":"industrial","execution_stage":"unknown"}},{"type":"Feature","geometry":{"type":"Polygon","coordinates":[[[77.389827,28.622931],[77.38947,28.622956],[77.389421,28.622417],[77.389775,28.622392],[77.389827,28.622931]]]},"properties":{"objectid":10259,"plotmapid":"63J064IND","property_t":"Industrial","used":"PLOT","plotsizesq":2100,"plot_size":"2100 SQMT","plot_no":"064","sector":"63","block":"J","mplanduse":"B","ppt_type":"IND","ppt_full":"Industrial","authority":"NOIDA","category":"industrial","execution_stage":"unknown"}},{"type":"Feature","geometry":{"type":"Polygon","coordinates":[[[77.38947,28.622956],[77.389111,28.622981],[77.389062,28.622442],[77.389421,28.622417],[77.38947,28.622956]]]},"properties":{"objectid":10260,"plotmapid":"63J065IND","property_t":"Industrial","used":"PLOT","plotsizesq":2100,"plot_size":"2100 SQMT","plot_no":"065","sector":"63","block":"J","mplanduse":"B","ppt_type":"IND","ppt_full":"Industrial","authority":"NOIDA","category":"industrial","execution_stage":"unknown"}},{"type":"Feature","geometry":{"type":"Polygon","coordinates":[[[77.389111,28.622981],[77.388755,28.623006],[77.388706,28.622467],[77.389062,28.622442],[77.389111,28.622981]]]},"properties":{"objectid":10261,"plotmapid":"63J066IND","property_t":"Industrial","used":"PLOT","plotsizesq":0,"plot_size":"NA","plot_no":"066","sector":"63","block":"J","mplanduse":"B","ppt_type":"IND","ppt_full":"Industrial","authority":"NOIDA","category":"industrial","execution_stage":"unknown"}},{"type":"Feature","geometry":{"type":"Polygon","coordinates":[[[77.391301,28.623371],[77.390941,28.623396],[77.390892,28.622857],[77.391253,28.622832],[77.391301,28.623371]]]},"properties":{"objectid":10279,"plotmapid":"63J059IND","property_t":"Industrial","used":"PLOT","plotsizesq":0,"plot_size":"NA","plot_no":"059","sector":"63","block":"J","mplanduse":"B","ppt_type":"IND","ppt_full":"Industrial","authority":"NOIDA","category":"industrial","execution_stage":"unknown"}},{"type":"Feature","geometry":{"type":"Polygon","coordinates":[[[77.390941,28.623396],[77.39059,28.623421],[77.390542,28.622881],[77.390892,28.622857],[77.390941,28.623396]]]},"properties":{"objectid":10280,"plotmapid":"63J058IND","property_t":"Industrial","used":"PLOT","plotsizesq":2100,"plot_size":"2100 SQMT","plot_no":"058","sector":"63","block":"J","mplanduse":"B","ppt_type":"IND","ppt_full":"Industrial","authority":"NOIDA","category":"industrial","execution_stage":"unknown"}},{"type":"Feature","geometry":{"type":"Polygon","coordinates":[[[77.39059,28.623421],[77.390231,28.623446],[77.390183,28.622906],[77.390542,28.622881],[77.39059,28.623421]]]},"properties":{"objectid":10281,"plotmapid":"63J057IND","property_t":"Industrial","used":"PLOT","plotsizesq":2100,"plot_size":"2100 SQMT","plot_no":"057","sector":"63","block":"J","mplanduse":"B","ppt_type":"IND","ppt_full":"Industrial","authority":"NOIDA","category":"industrial","execution_stage":"unknown"}},{"type":"Feature","geometry":{"type":"Polygon","coordinates":[[[77.390231,28.623446],[77.389879,28.62347],[77.389827,28.622931],[77.390183,28.622906],[77.390231,28.623446]]]},"properties":{"objectid":10282,"plotmapid":"63J056IND","property_t":"Industrial","used":"PLOT","plotsizesq":2100,"plot_size":"2100 SQMT","plot_no":"056","sector":"63","block":"J","mplanduse":"B","ppt_type":"IND","ppt_full":"Industrial","authority":"NOIDA","category":"industrial","execution_stage":"unknown"}},{"type":"Feature","geometry":{"type":"Polygon","coordinates":[[[77.389879,28.62347],[77.389518,28.623495],[77.38947,28.622956],[77.389827,28.622931],[77.389879,28.62347]]]},"properties":{"objectid":10283,"plotmapid":"63J055IND","property_t":"Industrial","used":"PLOT","plotsizesq":2100,"plot_size":"2100 SQMT","plot_no":"055","sector":"63","block":"J","mplanduse":"B","ppt_type":"IND","ppt_full":"Industrial","authority":"NOIDA","category":"industrial","execution_stage":"unknown"}},{"type":"Feature","geometry":{"type":"Polygon","coordinates":[[[77.389518,28.623495],[77.389159,28.62352],[77.389111,28.622981],[77.38947,28.622956],[77.389518,28.623495]]]},"properties":{"objectid":10284,"plotmapid":"63J054IND","property_t":"Industrial","used":"PLOT","plotsizesq":2100,"plot_size":"2100 SQMT","plot_no":"054","sector":"63","block":"J","mplanduse":"B","ppt_type":"IND","ppt_full":"Industrial","authority":"NOIDA","category":"industrial","execution_stage":"unknown"}},{"type":"Feature","geometry":{"type":"Polygon","coordinates":[[[77.389159,28.62352],[77.388803,28.623545],[77.388755,28.623006],[77.389111,28.622981],[77.389159,28.62352]]]},"properties":{"objectid":10285,"plotmapid":"63J053IND","property_t":"Industrial","used":"PLOT","plotsizesq":0,"plot_size":"NA","plot_no":"053","sector":"63","block":"J","mplanduse":"B","ppt_type":"IND","ppt_full":"Industrial","authority":"NOIDA","category":"industrial","execution_stage":"unknown"}},{"type":"Feature","geometry":{"type":"Polygon","coordinates":[[[77.391358,28.623868],[77.390745,28.623912],[77.390713,28.623578],[77.391326,28.623533],[77.391358,28.623868]]]},"properties":{"objectid":10307,"plotmapid":"63J045IND","property_t":"Industrial","used":"PLOT","plotsizesq":0,"plot_size":"NA","plot_no":"045","sector":"63","block":"J","mplanduse":"B","ppt_type":"IND","ppt_full":"Industrial","authority":"NOIDA","category":"industrial","execution_stage":"unknown"}},{"type":"Feature","geometry":{"type":"Polygon","coordinates":[[[77.390745,28.623912],[77.390131,28.623955],[77.390099,28.623624],[77.390713,28.623578],[77.390745,28.623912]]]},"properties":{"objectid":10308,"plotmapid":"63J046IND","property_t":"Industrial","used":"PLOT","plotsizesq":0,"plot_size":"NA","plot_no":"046","sector":"63","block":"J","mplanduse":"B","ppt_type":"IND","ppt_full":"Industrial","authority":"NOIDA","category":"industrial","execution_stage":"unknown"}},{"type":"Feature","geometry":{"type":"Polygon","coordinates":[[[77.391359,28.623875],[77.39139,28.624196],[77.390777,28.624243],[77.390745,28.623912],[77.391359,28.623875]]]},"properties":{"objectid":10309,"plotmapid":"63J044IND","property_t":"Industrial","used":"PLOT","plotsizesq":2100,"plot_size":"2100 SQMT","plot_no":"044","sector":"63","block":"J","mplanduse":"B","ppt_type":"IND","ppt_full":"Industrial","authority":"NOIDA","category":"industrial","execution_stage":"unknown"}},{"type":"Feature","geometry":{"type":"Polygon","coordinates":[[[77.390777,28.624243],[77.390164,28.624289],[77.390131,28.623955],[77.390745,28.623912],[77.390777,28.624243]]]},"properties":{"objectid":10310,"plotmapid":"63J047IND","property_t":"Industrial","used":"PLOT","plotsizesq":2100,"plot_size":"2100 SQMT","plot_no":"047","sector":"63","block":"J","mplanduse":"B","ppt_type":"IND","ppt_full":"Industrial","authority":"NOIDA","category":"industrial","execution_stage":"unknown"}},{"type":"Feature","geometry":{"type":"Polygon","coordinates":[[[77.391391,28.624205],[77.391422,28.624528],[77.390809,28.624573],[77.390777,28.624243],[77.391391,28.624205]]]},"properties":{"objectid":10311,"plotmapid":"63J043IND","property_t":"Industrial","used":"PLOT","plotsizesq":2100,"plot_size":"2100 SQMT","plot_no":"043","sector":"63","block":"J","mplanduse":"B","ppt_type":"IND","ppt_full":"Industrial","authority":"NOIDA","category":"industrial","execution_stage":"unknown"}},{"type":"Feature","geometry":{"type":"Polygon","coordinates":[[[77.391486,28.625197],[77.390873,28.625239],[77.390841,28.624908],[77.391455,28.624866],[77.391486,28.625197]]]},"properties":{"objectid":10321,"plotmapid":"63J041IND","property_t":"Industrial","used":"PLOT","plotsizesq":2100,"plot_size":"2100 SQMT","plot_no":"041","sector":"63","block":"J","mplanduse":"B","ppt_type":"IND","ppt_full":"Industrial","authority":"NOIDA","category":"industrial","execution_stage":"unknown"}},{"type":"Feature","geometry":{"type":"Polygon","coordinates":[[[77.390873,28.625239],[77.390259,28.625281],[77.390227,28.62495],[77.390841,28.624908],[77.390873,28.625239]]]},"properties":{"objectid":10322,"plotmapid":"63J050IND","property_t":"Industrial","used":"PLOT","plotsizesq":2100,"plot_size":"2100 SQMT","plot_no":"050","sector":"63","block":"J","mplanduse":"B","ppt_type":"IND","ppt_full":"Industrial","authority":"NOIDA","category":"industrial","execution_stage":"unknown"}},{"type":"Feature","geometry":{"type":"Polygon","coordinates":[[[77.391518,28.625528],[77.390905,28.625569],[77.390873,28.625239],[77.391486,28.625197],[77.391518,28.625528]]]},"properties":{"objectid":10326,"plotmapid":"63J040IND","property_t":"Industrial","used":"PLOT","plotsizesq":2100,"plot_size":"2100 SQMT","plot_no":"040","sector":"63","block":"J","mplanduse":"B","ppt_type":"IND","ppt_full":"Industrial","authority":"NOIDA","category":"industrial","execution_stage":"unknown"}},{"type":"Feature","geometry":{"type":"Polygon","coordinates":[[[77.390905,28.625569],[77.390937,28.625904],[77.390342,28.625943],[77.390321,28.62592],[77.390259,28.625281],[77.390873,28.625239],[77.390905,28.625569]]]},"properties":{"objectid":10327,"plotmapid":"63J051-052IND","property_t":"Industrial","used":"PLOT","plotsizesq":2100,"plot_size":"2100 SQMT","plot_no":"051-052","sector":"63","block":"J","mplanduse":"B","ppt_type":"IND","ppt_full":"Industrial","authority":"NOIDA","category":"industrial","execution_stage":"unknown"}},{"type":"Feature","geometry":{"type":"Polygon","coordinates":[[[77.390905,28.625569],[77.391518,28.625528],[77.391547,28.62586],[77.390937,28.625903],[77.390905,28.625569]]]},"properties":{"objectid":10333,"plotmapid":"63J039IND","property_t":"Industrial","used":"PLOT","plotsizesq":0,"plot_size":"NA","plot_no":"039","sector":"63","block":"J","mplanduse":"B","ppt_type":"IND","ppt_full":"Industrial","authority":"NOIDA","category":"industrial","execution_stage":"unknown"}},{"type":"Feature","geometry":{"type":"Polygon","coordinates":[[[77.387053,28.630024],[77.386915,28.630059],[77.386896,28.629884],[77.387037,28.629874],[77.387053,28.630024]]]},"properties":{"objectid":10367,"plotmapid":"63D340IND","property_t":"Industrial","used":"NA","plotsizesq":0,"plot_size":"NA","plot_no":"340","sector":"63","block":"D","mplanduse":"B","ppt_type":"IND","ppt_full":"Industrial","authority":"NOIDA","category":"industrial","execution_stage":"unknown"}},{"type":"Feature","geometry":{"type":"Polygon","coordinates":[[[77.391677,28.622294],[77.391366,28.622319],[77.391352,28.622185],[77.391664,28.622161],[77.391677,28.622294]]]},"properties":{"objectid":10656,"plotmapid":"63F400IND","property_t":"Industrial","used":"PLOT","plotsizesq":450,"plot_size":"450 SQMT","plot_no":"400","sector":"63","block":"F","mplanduse":"B","ppt_type":"IND","ppt_full":"Industrial","authority":"NOIDA","category":"industrial","execution_stage":"unknown"}},{"type":"Feature","geometry":{"type":"Polygon","coordinates":[[[77.391691,28.62243],[77.391379,28.622454],[77.391366,28.622319],[77.391677,28.622294],[77.391691,28.62243]]]},"properties":{"objectid":10662,"plotmapid":"63F401IND","property_t":"Industrial","used":"PLOT","plotsizesq":450,"plot_size":"450 SQMT","plot_no":"401","sector":"63","block":"F","mplanduse":"B","ppt_type":"IND","ppt_full":"Industrial","authority":"NOIDA","category":"industrial","execution_stage":"unknown"}},{"type":"Feature","geometry":{"type":"Polygon","coordinates":[[[77.391664,28.622161],[77.391352,28.622185],[77.391338,28.622049],[77.39165,28.622024],[77.391664,28.622161]]]},"properties":{"objectid":10663,"plotmapid":"63F399IND","property_t":"Industrial","used":"PLOT","plotsizesq":450,"plot_size":"450 SQMT","plot_no":"399","sector":"63","block":"F","mplanduse":"B","ppt_type":"IND","ppt_full":"Industrial","authority":"NOIDA","category":"industrial","execution_stage":"unknown"}},{"type":"Feature","geometry":{"type":"Polygon","coordinates":[[[77.391705,28.622566],[77.391393,28.622592],[77.391379,28.622454],[77.391691,28.62243],[77.391705,28.622566]]]},"properties":{"objectid":10665,"plotmapid":"63F402IND","property_t":"Industrial","used":"PLOT","plotsizesq":450,"plot_size":"450 SQMT","plot_no":"402","sector":"63","block":"F","mplanduse":"B","ppt_type":"IND","ppt_full":"Industrial","authority":"NOIDA","category":"industrial","execution_stage":"unknown"}},{"type":"Feature","geometry":{"type":"Polygon","coordinates":[[[77.391982,28.62227],[77.391677,28.622294],[77.391664,28.622161],[77.391968,28.622137],[77.391982,28.62227]]]},"properties":{"objectid":10668,"plotmapid":"63F407IND","property_t":"Industrial","used":"PLOT","plotsizesq":450,"plot_size":"450 SQMT","plot_no":"407","sector":"63","block":"F","mplanduse":"B","ppt_type":"IND","ppt_full":"Industrial","authority":"NOIDA","category":"industrial","execution_stage":"unknown"}},{"type":"Feature","geometry":{"type":"Polygon","coordinates":[[[77.392009,28.62254],[77.391705,28.622566],[77.391691,28.62243],[77.391996,28.622407],[77.392009,28.62254]]]},"properties":{"objectid":10670,"plotmapid":"63F405IND","property_t":"Industrial","used":"PLOT","plotsizesq":450,"plot_size":"450 SQMT","plot_no":"405","sector":"63","block":"F","mplanduse":"B","ppt_type":"IND","ppt_full":"Industrial","authority":"NOIDA","category":"industrial","execution_stage":"unknown"}},{"type":"Feature","geometry":{"type":"Polygon","coordinates":[[[77.391996,28.622407],[77.391691,28.62243],[77.391677,28.622294],[77.391982,28.62227],[77.391996,28.622407]]]},"properties":{"objectid":10677,"plotmapid":"63F406IND","property_t":"Industrial","used":"PLOT","plotsizesq":450,"plot_size":"450 SQMT","plot_no":"406","sector":"63","block":"F","mplanduse":"B","ppt_type":"IND","ppt_full":"Industrial","authority":"NOIDA","category":"industrial","execution_stage":"unknown"}},{"type":"Feature","geometry":{"type":"Polygon","coordinates":[[[77.392009,28.62254],[77.392024,28.622678],[77.391719,28.622703],[77.391705,28.622566],[77.392009,28.62254]]]},"properties":{"objectid":10679,"plotmapid":"63F404IND","property_t":"Industrial","used":"PLOT","plotsizesq":0,"plot_size":"NA","plot_no":"404","sector":"63","block":"F","mplanduse":"B","ppt_type":"IND","ppt_full":"Industrial","authority":"NOIDA","category":"industrial","execution_stage":"unknown"}},{"type":"Feature","geometry":{"type":"Polygon","coordinates":[[[77.390901,28.622049],[77.390911,28.622146],[77.390654,28.622166],[77.390644,28.622069],[77.390901,28.622049]]]},"properties":{"objectid":10712,"plotmapid":"63F354IND","property_t":"Industrial","used":"PLOT","plotsizesq":0,"plot_size":"NA","plot_no":"354","sector":"63","block":"F","mplanduse":"B","ppt_type":"IND","ppt_full":"Industrial","authority":"NOIDA","category":"industrial","execution_stage":"unknown"}},{"type":"Feature","geometry":{"type":"Polygon","coordinates":[[[77.389844,28.622128],[77.389853,28.622224],[77.389603,28.622242],[77.389594,28.622147],[77.389844,28.622128]]]},"properties":{"objectid":10713,"plotmapid":"63F351IND","property_t":"Industrial","used":"PLOT","plotsizesq":0,"plot_size":"NA","plot_no":"351","sector":"63","block":"F","mplanduse":"B","ppt_type":"IND","ppt_full":"Industrial","authority":"NOIDA","category":"industrial","execution_stage":"unknown"}},{"type":"Feature","geometry":{"type":"Polygon","coordinates":[[[77.389603,28.622242],[77.389341,28.622261],[77.389332,28.622166],[77.389594,28.622147],[77.389603,28.622242]]]},"properties":{"objectid":10714,"plotmapid":"63F318IND","property_t":"Industrial","used":"PLOT","plotsizesq":0,"plot_size":"NA","plot_no":"318","sector":"63","block":"F","mplanduse":"B","ppt_type":"IND","ppt_full":"Industrial","authority":"NOIDA","category":"industrial","execution_stage":"unknown"}},{"type":"Feature","geometry":{"type":"Polygon","coordinates":[[[77.389594,28.622147],[77.389332,28.622166],[77.389324,28.622074],[77.389585,28.622055],[77.389594,28.622147]]]},"properties":{"objectid":10742,"plotmapid":"63F319IND","property_t":"Industrial","used":"PLOT","plotsizesq":250,"plot_size":"250 SQMT","plot_no":"319","sector":"63","block":"F","mplanduse":"B","ppt_type":"IND","ppt_full":"Industrial","authority":"NOIDA","category":"industrial","execution_stage":"unknown"}},{"type":"Feature","geometry":{"type":"Polygon","coordinates":[[[77.38916,28.622276],[77.388858,28.622296],[77.388844,28.62215],[77.389145,28.622127],[77.38916,28.622276]]]},"properties":{"objectid":10747,"plotmapid":"63F317IND","property_t":"Industrial","used":"PLOT","plotsizesq":0,"plot_size":"NA","plot_no":"317","sector":"63","block":"F","mplanduse":"B","ppt_type":"IND","ppt_full":"Industrial","authority":"NOIDA","category":"industrial","execution_stage":"unknown"}},{"type":"Feature","geometry":{"type":"Polygon","coordinates":[[[77.388858,28.622296],[77.388553,28.622317],[77.388537,28.622168],[77.388844,28.62215],[77.388858,28.622296]]]},"properties":{"objectid":10748,"plotmapid":"63F286IND","property_t":"Industrial","used":"PLOT","plotsizesq":0,"plot_size":"NA","plot_no":"286","sector":"63","block":"F","mplanduse":"B","ppt_type":"IND","ppt_full":"Industrial","authority":"NOIDA","category":"industrial","execution_stage":"unknown"}},{"type":"Feature","geometry":{"type":"Polygon","coordinates":[[[77.38708,28.62226],[77.386824,28.622279],[77.386816,28.622193],[77.387072,28.622174],[77.38708,28.62226]]]},"properties":{"objectid":10830,"plotmapid":"63E180IND","property_t":"Industrial","used":"PLOT","plotsizesq":250,"plot_size":"250 SQMT","plot_no":"180","sector":"63","block":"E","mplanduse":"B","ppt_type":"IND","ppt_full":"Industrial","authority":"NOIDA","category":"industrial","execution_stage":"unknown"}},{"type":"Feature","geometry":{"type":"Polygon","coordinates":[[[77.38715,28.622981],[77.386894,28.623],[77.386886,28.622912],[77.387142,28.622893],[77.38715,28.622981]]]},"properties":{"objectid":10832,"plotmapid":"63E172IND","property_t":"Industrial","used":"PLOT","plotsizesq":250,"plot_size":"250 SQMT","plot_no":"172","sector":"63","block":"E","mplanduse":"B","ppt_type":"IND","ppt_full":"Industrial","authority":"NOIDA","category":"industrial","execution_stage":"unknown"}},{"type":"Feature","geometry":{"type":"Polygon","coordinates":[[[77.387097,28.622439],[77.386841,28.622458],[77.386833,28.622369],[77.387089,28.62235],[77.387097,28.622439]]]},"properties":{"objectid":10833,"plotmapid":"63E178IND","property_t":"Industrial","used":"PLOT","plotsizesq":250,"plot_size":"250 SQMT","plot_no":"178","sector":"63","block":"E","mplanduse":"B","ppt_type":"IND","ppt_full":"Industrial","authority":"NOIDA","category":"industrial","execution_stage":"unknown"}},{"type":"Feature","geometry":{"type":"Polygon","coordinates":[[[77.387115,28.622621],[77.386859,28.62264],[77.386851,28.622551],[77.387106,28.622532],[77.387115,28.622621]]]},"properties":{"objectid":10835,"plotmapid":"63E176IND","property_t":"Industrial","used":"PLOT","plotsizesq":250,"plot_size":"250 SQMT","plot_no":"176","sector":"63","block":"E","mplanduse":"B","ppt_type":"IND","ppt_full":"Industrial","authority":"NOIDA","category":"industrial","execution_stage":"unknown"}},{"type":"Feature","geometry":{"type":"Polygon","coordinates":[[[77.387124,28.622711],[77.386868,28.62273],[77.386859,28.62264],[77.387115,28.622621],[77.387124,28.622711]]]},"properties":{"objectid":10837,"plotmapid":"63E175IND","property_t":"Industrial","used":"PLOT","plotsizesq":250,"plot_size":"250 SQMT","plot_no":"175","sector":"63","block":"E","mplanduse":"B","ppt_type":"IND","ppt_full":"Industrial","authority":"NOIDA","category":"industrial","execution_stage":"unknown"}},{"type":"Feature","geometry":{"type":"Polygon","coordinates":[[[77.387072,28.622174],[77.386816,28.622193],[77.386807,28.622103],[77.387063,28.622083],[77.387072,28.622174]]]},"properties":{"objectid":10838,"plotmapid":"63E181IND","property_t":"Industrial","used":"PLOT","plotsizesq":250,"plot_size":"250 SQMT","plot_no":"181","sector":"63","block":"E","mplanduse":"B","ppt_type":"IND","ppt_full":"Industrial","authority":"NOIDA","category":"industrial","execution_stage":"unknown"}},{"type":"Feature","geometry":{"type":"Polygon","coordinates":[[[77.387142,28.622893],[77.386886,28.622912],[77.386877,28.622822],[77.387133,28.622802],[77.387142,28.622893]]]},"properties":{"objectid":10839,"plotmapid":"63E173IND","property_t":"Industrial","used":"PLOT","plotsizesq":250,"plot_size":"250 SQMT","plot_no":"173","sector":"63","block":"E","mplanduse":"B","ppt_type":"IND","ppt_full":"Industrial","authority":"NOIDA","category":"industrial","execution_stage":"unknown"}},{"type":"Feature","geometry":{"type":"Polygon","coordinates":[[[77.387089,28.62235],[77.386833,28.622369],[77.386824,28.622279],[77.38708,28.62226],[77.387089,28.62235]]]},"properties":{"objectid":10840,"plotmapid":"63E179IND","property_t":"Industrial","used":"PLOT","plotsizesq":250,"plot_size":"250 SQMT","plot_no":"179","sector":"63","block":"E","mplanduse":"B","ppt_type":"IND","ppt_full":"Industrial","authority":"NOIDA","category":"industrial","execution_stage":"unknown"}},{"type":"Feature","geometry":{"type":"Polygon","coordinates":[[[77.387133,28.622802],[77.386877,28.622822],[77.386868,28.62273],[77.387124,28.622711],[77.387133,28.622802]]]},"properties":{"objectid":10842,"plotmapid":"63E174IND","property_t":"Industrial","used":"PLOT","plotsizesq":250,"plot_size":"250 SQMT","plot_no":"174","sector":"63","block":"E","mplanduse":"B","ppt_type":"IND","ppt_full":"Industrial","authority":"NOIDA","category":"industrial","execution_stage":"unknown"}},{"type":"Feature","geometry":{"type":"Polygon","coordinates":[[[77.387106,28.622532],[77.386851,28.622551],[77.386841,28.622458],[77.387097,28.622439],[77.387106,28.622532]]]},"properties":{"objectid":10844,"plotmapid":"63E177IND","property_t":"Industrial","used":"PLOT","plotsizesq":250,"plot_size":"250 SQMT","plot_no":"177","sector":"63","block":"E","mplanduse":"B","ppt_type":"IND","ppt_full":"Industrial","authority":"NOIDA","category":"industrial","execution_stage":"unknown"}},{"type":"Feature","geometry":{"type":"Polygon","coordinates":[[[77.38715,28.622981],[77.387159,28.623074],[77.386903,28.623093],[77.386894,28.623],[77.38715,28.622981]]]},"properties":{"objectid":10845,"plotmapid":"63E171IND","property_t":"Industrial","used":"PLOT","plotsizesq":0,"plot_size":"NA","plot_no":"171","sector":"63","block":"E","mplanduse":"B","ppt_type":"IND","ppt_full":"Industrial","authority":"NOIDA","category":"industrial","execution_stage":"unknown"}},{"type":"Feature","geometry":{"type":"Polygon","coordinates":[[[77.390416,28.626828],[77.390405,28.626829],[77.390339,28.626108],[77.390843,28.626073],[77.390909,28.626793],[77.390416,28.626828]]]},"properties":{"objectid":10911,"plotmapid":"63J035IND","property_t":"Industrial","used":"PLOT","plotsizesq":4000,"plot_size":"4000 SQMT","plot_no":"035","sector":"63","block":"J","mplanduse":"B","ppt_type":"IND","ppt_full":"Industrial","authority":"NOIDA","category":"industrial","execution_stage":"unknown"}},{"type":"Feature","geometry":{"type":"Polygon","coordinates":[[[77.389651,28.627608],[77.3892,28.62764],[77.389134,28.626919],[77.389585,28.626887],[77.389651,28.627608]]]},"properties":{"objectid":10912,"plotmapid":"63J027IND","property_t":"Industrial","used":"PLOT","plotsizesq":0,"plot_size":"NA","plot_no":"027","sector":"63","block":"J","mplanduse":"B","ppt_type":"IND","ppt_full":"Industrial","authority":"NOIDA","category":"industrial","execution_stage":"unknown"}},{"type":"Feature","geometry":{"type":"Polygon","coordinates":[[[77.389993,28.626858],[77.389585,28.626887],[77.389518,28.626167],[77.389926,28.626138],[77.389993,28.626858]]]},"properties":{"objectid":10913,"plotmapid":"63J037IND","property_t":"Industrial","used":"PLOT","plotsizesq":3200,"plot_size":"3200 SQMT","plot_no":"037","sector":"63","block":"J","mplanduse":"B","ppt_type":"IND","ppt_full":"Industrial","authority":"NOIDA","category":"industrial","execution_stage":"unknown"}},{"type":"Feature","geometry":{"type":"Polygon","coordinates":[[[77.390405,28.626829],[77.389993,28.626858],[77.389926,28.626138],[77.390339,28.626108],[77.390405,28.626829]]]},"properties":{"objectid":10914,"plotmapid":"63J036IND","property_t":"Industrial","used":"PLOT","plotsizesq":3200,"plot_size":"3200 SQMT","plot_no":"036","sector":"63","block":"J","mplanduse":"B","ppt_type":"IND","ppt_full":"Industrial","authority":"NOIDA","category":"industrial","execution_stage":"unknown"}},{"type":"Feature","geometry":{"type":"Polygon","coordinates":[[[77.389585,28.626887],[77.389134,28.626919],[77.389067,28.626199],[77.389518,28.626167],[77.389585,28.626887]]]},"properties":{"objectid":10915,"plotmapid":"63J038IND","property_t":"Industrial","used":"PLOT","plotsizesq":0,"plot_size":"NA","plot_no":"038","sector":"63","block":"J","mplanduse":"B","ppt_type":"IND","ppt_full":"Industrial","authority":"NOIDA","category":"industrial","execution_stage":"unknown"}},{"type":"Feature","geometry":{"type":"Polygon","coordinates":[[[77.391238,28.626769],[77.391631,28.626742],[77.391697,28.627463],[77.391304,28.627491],[77.391238,28.626769]]]},"properties":{"objectid":10916,"plotmapid":"63J032IND","property_t":"Industrial","used":"PLOT","plotsizesq":0,"plot_size":"NA","plot_no":"032","sector":"63","block":"J","mplanduse":"B","ppt_type":"IND","ppt_full":"Industrial","authority":"NOIDA","category":"industrial","execution_stage":"unknown"}},{"type":"Feature","geometry":{"type":"Polygon","coordinates":[[[77.391304,28.627491],[77.390896,28.62752],[77.39083,28.626798],[77.391238,28.626769],[77.391304,28.627491]]]},"properties":{"objectid":10917,"plotmapid":"63J031IND","property_t":"Industrial","used":"PLOT","plotsizesq":3200,"plot_size":"3200 SQMT","plot_no":"031","sector":"63","block":"J","mplanduse":"B","ppt_type":"IND","ppt_full":"Industrial","authority":"NOIDA","category":"industrial","execution_stage":"unknown"}},{"type":"Feature","geometry":{"type":"Polygon","coordinates":[[[77.390483,28.627549],[77.39007,28.627578],[77.390004,28.626857],[77.390416,28.626828],[77.390483,28.627549]]]},"properties":{"objectid":10918,"plotmapid":"63J029IND","property_t":"Industrial","used":"PLOT","plotsizesq":3200,"plot_size":"3200 SQMT","plot_no":"029","sector":"63","block":"J","mplanduse":"B","ppt_type":"IND","ppt_full":"Industrial","authority":"NOIDA","category":"industrial","execution_stage":"unknown"}},{"type":"Feature","geometry":{"type":"Polygon","coordinates":[[[77.390896,28.62752],[77.390483,28.627549],[77.390416,28.626828],[77.39083,28.626798],[77.390896,28.62752]]]},"properties":{"objectid":10919,"plotmapid":"63J030IND","property_t":"Industrial","used":"PLOT","plotsizesq":3200,"plot_size":"3200 SQMT","plot_no":"030","sector":"63","block":"J","mplanduse":"B","ppt_type":"IND","ppt_full":"Industrial","authority":"NOIDA","category":"industrial","execution_stage":"unknown"}},{"type":"Feature","geometry":{"type":"Polygon","coordinates":[[[77.39007,28.627578],[77.389651,28.627608],[77.389585,28.626887],[77.390004,28.626857],[77.39007,28.627578]]]},"properties":{"objectid":10920,"plotmapid":"63J028IND","property_t":"Industrial","used":"PLOT","plotsizesq":3200,"plot_size":"3200 SQMT","plot_no":"028","sector":"63","block":"J","mplanduse":"B","ppt_type":"IND","ppt_full":"Industrial","authority":"NOIDA","category":"industrial","execution_stage":"unknown"}},{"type":"Feature","geometry":{"type":"Polygon","coordinates":[[[77.388979,28.627336],[77.388366,28.627383],[77.388331,28.62701],[77.388944,28.626962],[77.388979,28.627336]]]},"properties":{"objectid":10921,"plotmapid":"63J025-AIND","property_t":"Industrial","used":"PLOT","plotsizesq":2100,"plot_size":"2100 SQMT","plot_no":"025-A","sector":"63","block":"J","mplanduse":"B","ppt_type":"IND","ppt_full":"Industrial","authority":"NOIDA","category":"industrial","execution_stage":"unknown"}},{"type":"Feature","geometry":{"type":"Polygon","coordinates":[[[77.387969,28.623182],[77.388583,28.623138],[77.388617,28.623499],[77.388003,28.623544],[77.387969,28.623182]]]},"properties":{"objectid":10922,"plotmapid":"63J014IND","property_t":"Industrial","used":"PLOT","plotsizesq":0,"plot_size":"NA","plot_no":"014","sector":"63","block":"J","mplanduse":"B","ppt_type":"IND","ppt_full":"Industrial","authority":"NOIDA","category":"industrial","execution_stage":"unknown"}},{"type":"Feature","geometry":{"type":"Polygon","coordinates":[[[77.388361,28.627325],[77.388396,28.6277],[77.387798,28.627743],[77.387762,28.627372],[77.388361,28.627325]]]},"properties":{"objectid":10923,"plotmapid":"63J001IND","property_t":"Industrial","used":"PLOT","plotsizesq":0,"plot_size":"NA","plot_no":"001","sector":"63","block":"J","mplanduse":"B","ppt_type":"IND","ppt_full":"Industrial","authority":"NOIDA","category":"industrial","execution_stage":"unknown"}},{"type":"Feature","geometry":{"type":"Polygon","coordinates":[[[77.388003,28.623544],[77.38739,28.623588],[77.387356,28.623227],[77.387969,28.623182],[77.388003,28.623544]]]},"properties":{"objectid":10924,"plotmapid":"63J013IND","property_t":"Industrial","used":"PLOT","plotsizesq":0,"plot_size":"NA","plot_no":"013","sector":"63","block":"J","mplanduse":"B","ppt_type":"IND","ppt_full":"Industrial","authority":"NOIDA","category":"industrial","execution_stage":"unknown"}},{"type":"Feature","geometry":{"type":"Polygon","coordinates":[[[77.388944,28.626962],[77.388331,28.62701],[77.388301,28.626694],[77.388915,28.626652],[77.388944,28.626962]]]},"properties":{"objectid":10925,"plotmapid":"63J025IND","property_t":"Industrial","used":"PLOT","plotsizesq":2100,"plot_size":"2100 SQMT","plot_no":"025","sector":"63","block":"J","mplanduse":"B","ppt_type":"IND","ppt_full":"Industrial","authority":"NOIDA","category":"industrial","execution_stage":"unknown"}},{"type":"Feature","geometry":{"type":"Polygon","coordinates":[[[77.388855,28.62602],[77.388242,28.626067],[77.388212,28.625756],[77.388826,28.625709],[77.388855,28.62602]]]},"properties":{"objectid":10926,"plotmapid":"63J022IND","property_t":"Industrial","used":"PLOT","plotsizesq":2100,"plot_size":"2100 SQMT","plot_no":"022","sector":"63","block":"J","mplanduse":"B","ppt_type":"IND","ppt_full":"Industrial","authority":"NOIDA","category":"industrial","execution_stage":"unknown"}},{"type":"Feature","geometry":{"type":"Polygon","coordinates":[[[77.388553,28.624456],[77.388093,28.624493],[77.388063,28.624179],[77.388677,28.624131],[77.388706,28.624444],[77.388553,28.624456]]]},"properties":{"objectid":10927,"plotmapid":"63J017IND","property_t":"Industrial","used":"PLOT","plotsizesq":2100,"plot_size":"2100 SQMT","plot_no":"017","sector":"63","block":"J","mplanduse":"B","ppt_type":"IND","ppt_full":"Industrial","authority":"NOIDA","category":"industrial","execution_stage":"unknown"}},{"type":"Feature","geometry":{"type":"Polygon","coordinates":[[[77.388885,28.626334],[77.388271,28.626382],[77.388242,28.626067],[77.388855,28.62602],[77.388885,28.626334]]]},"properties":{"objectid":10928,"plotmapid":"63J023IND","property_t":"Industrial","used":"PLOT","plotsizesq":2100,"plot_size":"2100 SQMT","plot_no":"023","sector":"63","block":"J","mplanduse":"B","ppt_type":"IND","ppt_full":"Industrial","authority":"NOIDA","category":"industrial","execution_stage":"unknown"}},{"type":"Feature","geometry":{"type":"Polygon","coordinates":[[[77.388826,28.625709],[77.388212,28.625756],[77.388183,28.625441],[77.388796,28.625394],[77.388826,28.625709]]]},"properties":{"objectid":10929,"plotmapid":"63J021IND","property_t":"Industrial","used":"PLOT","plotsizesq":2100,"plot_size":"2100 SQMT","plot_no":"021","sector":"63","block":"J","mplanduse":"B","ppt_type":"IND","ppt_full":"Industrial","authority":"NOIDA","category":"industrial","execution_stage":"unknown"}},{"type":"Feature","geometry":{"type":"Polygon","coordinates":[[[77.388128,28.624811],[77.388093,28.624493],[77.388706,28.624444],[77.388737,28.624765],[77.388128,28.624811]]]},"properties":{"objectid":10930,"plotmapid":"63J018IND","property_t":"Industrial","used":"PLOT","plotsizesq":2100,"plot_size":"2100 SQMT","plot_no":"018","sector":"63","block":"J","mplanduse":"B","ppt_type":"IND","ppt_full":"Industrial","authority":"NOIDA","category":"industrial","execution_stage":"unknown"}},{"type":"Feature","geometry":{"type":"Polygon","coordinates":[[[77.388155,28.625125],[77.388766,28.625078],[77.388796,28.625394],[77.388183,28.625441],[77.388155,28.625125]]]},"properties":{"objectid":10931,"plotmapid":"63J020IND","property_t":"Industrial","used":"PLOT","plotsizesq":2100,"plot_size":"2100 SQMT","plot_no":"020","sector":"63","block":"J","mplanduse":"B","ppt_type":"IND","ppt_full":"Industrial","authority":"NOIDA","category":"industrial","execution_stage":"unknown"}},{"type":"Feature","geometry":{"type":"Polygon","coordinates":[[[77.388647,28.623814],[77.388033,28.623862],[77.388003,28.623544],[77.388617,28.623499],[77.388647,28.623814]]]},"properties":{"objectid":10932,"plotmapid":"63J015IND","property_t":"Industrial","used":"PLOT","plotsizesq":2100,"plot_size":"2100 SQMT","plot_no":"015","sector":"63","block":"J","mplanduse":"B","ppt_type":"IND","ppt_full":"Industrial","authority":"NOIDA","category":"industrial","execution_stage":"unknown"}},{"type":"Feature","geometry":{"type":"Polygon","coordinates":[[[77.388677,28.624131],[77.388063,28.624179],[77.388033,28.623862],[77.388647,28.623814],[77.388677,28.624131]]]},"properties":{"objectid":10933,"plotmapid":"63J016IND","property_t":"Industrial","used":"PLOT","plotsizesq":2100,"plot_size":"2100 SQMT","plot_no":"016","sector":"63","block":"J","mplanduse":"B","ppt_type":"IND","ppt_full":"Industrial","authority":"NOIDA","category":"industrial","execution_stage":"unknown"}},{"type":"Feature","geometry":{"type":"Polygon","coordinates":[[[77.388128,28.624811],[77.388737,28.624765],[77.388766,28.625078],[77.388155,28.625125],[77.388128,28.624811]]]},"properties":{"objectid":10934,"plotmapid":"63J019IND","property_t":"Industrial","used":"PLOT","plotsizesq":2100,"plot_size":"2100 SQMT","plot_no":"019","sector":"63","block":"J","mplanduse":"B","ppt_type":"IND","ppt_full":"Industrial","authority":"NOIDA","category":"industrial","execution_stage":"unknown"}},{"type":"Feature","geometry":{"type":"Polygon","coordinates":[[[77.388915,28.626652],[77.388301,28.626699],[77.388271,28.626382],[77.388885,28.626334],[77.388915,28.626652]]]},"properties":{"objectid":10935,"plotmapid":"63J024IND","property_t":"Industrial","used":"PLOT","plotsizesq":2100,"plot_size":"2100 SQMT","plot_no":"024","sector":"63","block":"J","mplanduse":"B","ppt_type":"IND","ppt_full":"Industrial","authority":"NOIDA","category":"industrial","execution_stage":"unknown"}},{"type":"Feature","geometry":{"type":"Polygon","coordinates":[[[77.388979,28.627336],[77.38901,28.627655],[77.388396,28.6277],[77.388361,28.627325],[77.388366,28.627383],[77.388979,28.627336]]]},"properties":{"objectid":10936,"plotmapid":"63J026IND","property_t":"Industrial","used":"PLOT","plotsizesq":0,"plot_size":"NA","plot_no":"026","sector":"63","block":"J","mplanduse":"B","ppt_type":"IND","ppt_full":"Industrial","authority":"NOIDA","category":"industrial","execution_stage":"unknown"}},{"type":"Feature","geometry":{"type":"Polygon","coordinates":[[[77.388242,28.626067],[77.387638,28.626114],[77.387608,28.625803],[77.388212,28.625756],[77.388242,28.626067]]]},"properties":{"objectid":10937,"plotmapid":"63J005IND","property_t":"Industrial","used":"PLOT","plotsizesq":2100,"plot_size":"2100 SQMT","plot_no":"005","sector":"63","block":"J","mplanduse":"B","ppt_type":"IND","ppt_full":"Industrial","authority":"NOIDA","category":"industrial","execution_stage":"unknown"}},{"type":"Feature","geometry":{"type":"Polygon","coordinates":[[[77.388301,28.626694],[77.3877,28.626741],[77.387669,28.626428],[77.388271,28.626382],[77.388301,28.626694]]]},"properties":{"objectid":10938,"plotmapid":"63J003IND","property_t":"Industrial","used":"PLOT","plotsizesq":2100,"plot_size":"2100 SQMT","plot_no":"003","sector":"63","block":"J","mplanduse":"B","ppt_type":"IND","ppt_full":"Industrial","authority":"NOIDA","category":"industrial","execution_stage":"unknown"}},{"type":"Feature","geometry":{"type":"Polygon","coordinates":[[[77.388361,28.627325],[77.387762,28.627372],[77.387731,28.627056],[77.388331,28.62701],[77.388361,28.627325]]]},"properties":{"objectid":10939,"plotmapid":"63J001-AIND","property_t":"Industrial","used":"PLOT","plotsizesq":2100,"plot_size":"2100 SQMT","plot_no":"001-A","sector":"63","block":"J","mplanduse":"B","ppt_type":"IND","ppt_full":"Industrial","authority":"NOIDA","category":"industrial","execution_stage":"unknown"}},{"type":"Feature","geometry":{"type":"Polygon","coordinates":[[[77.388331,28.62701],[77.387731,28.627056],[77.3877,28.626741],[77.388301,28.626694],[77.388331,28.62701]]]},"properties":{"objectid":10940,"plotmapid":"63J002IND","property_t":"Industrial","used":"PLOT","plotsizesq":2100,"plot_size":"2100 SQMT","plot_no":"002","sector":"63","block":"J","mplanduse":"B","ppt_type":"IND","ppt_full":"Industrial","authority":"NOIDA","category":"industrial","execution_stage":"unknown"}},{"type":"Feature","geometry":{"type":"Polygon","coordinates":[[[77.388271,28.626382],[77.387669,28.626428],[77.387638,28.626114],[77.388242,28.626067],[77.388271,28.626382]]]},"properties":{"objectid":10941,"plotmapid":"63J004IND","property_t":"Industrial","used":"PLOT","plotsizesq":2100,"plot_size":"2100 SQMT","plot_no":"004","sector":"63","block":"J","mplanduse":"B","ppt_type":"IND","ppt_full":"Industrial","authority":"NOIDA","category":"industrial","execution_stage":"unknown"}},{"type":"Feature","geometry":{"type":"Polygon","coordinates":[[[77.388093,28.624492],[77.387484,28.624539],[77.387453,28.624226],[77.388063,28.624179],[77.388093,28.624492]]]},"properties":{"objectid":10942,"plotmapid":"63J010IND","property_t":"Industrial","used":"PLOT","plotsizesq":2100,"plot_size":"2100 SQMT","plot_no":"010","sector":"63","block":"J","mplanduse":"B","ppt_type":"IND","ppt_full":"Industrial","authority":"NOIDA","category":"industrial","execution_stage":"unknown"}},{"type":"Feature","geometry":{"type":"Polygon","coordinates":[[[77.388183,28.625441],[77.387576,28.625481],[77.387546,28.625172],[77.388155,28.625125],[77.388183,28.625441]]]},"properties":{"objectid":10943,"plotmapid":"63J007IND","property_t":"Industrial","used":"PLOT","plotsizesq":2100,"plot_size":"2100 SQMT","plot_no":"007","sector":"63","block":"J","mplanduse":"B","ppt_type":"IND","ppt_full":"Industrial","authority":"NOIDA","category":"industrial","execution_stage":"unknown"}},{"type":"Feature","geometry":{"type":"Polygon","coordinates":[[[77.388093,28.624493],[77.388123,28.624811],[77.387515,28.624855],[77.387484,28.624539],[77.388093,28.624493]]]},"properties":{"objectid":10944,"plotmapid":"63J009IND","property_t":"Industrial","used":"PLOT","plotsizesq":2100,"plot_size":"2100 SQMT","plot_no":"009","sector":"63","block":"J","mplanduse":"B","ppt_type":"IND","ppt_full":"Industrial","authority":"NOIDA","category":"industrial","execution_stage":"unknown"}},{"type":"Feature","geometry":{"type":"Polygon","coordinates":[[[77.388063,28.624179],[77.387453,28.624226],[77.387422,28.623909],[77.388033,28.623862],[77.388063,28.624179]]]},"properties":{"objectid":10945,"plotmapid":"63J011IND","property_t":"Industrial","used":"PLOT","plotsizesq":2100,"plot_size":"2100 SQMT","plot_no":"011","sector":"63","block":"J","mplanduse":"B","ppt_type":"IND","ppt_full":"Industrial","authority":"NOIDA","category":"industrial","execution_stage":"unknown"}},{"type":"Feature","geometry":{"type":"Polygon","coordinates":[[[77.388033,28.623862],[77.387422,28.623909],[77.38739,28.623588],[77.388003,28.623544],[77.388033,28.623862]]]},"properties":{"objectid":10946,"plotmapid":"63J012IND","property_t":"Industrial","used":"PLOT","plotsizesq":2100,"plot_size":"2100 SQMT","plot_no":"012","sector":"63","block":"J","mplanduse":"B","ppt_type":"IND","ppt_full":"Industrial","authority":"NOIDA","category":"industrial","execution_stage":"unknown"}},{"type":"Feature","geometry":{"type":"Polygon","coordinates":[[[77.387384,28.628475],[77.387227,28.628486],[77.387202,28.628215],[77.38736,28.628204],[77.387384,28.628475]]]},"properties":{"objectid":10947,"plotmapid":"63D338IND","property_t":"Industrial","used":"PLOT","plotsizesq":450,"plot_size":"450 SQMT","plot_no":"338","sector":"63","block":"D","mplanduse":"B","ppt_type":"IND","ppt_full":"Industrial","authority":"NOIDA","category":"industrial","execution_stage":"unknown"}},{"type":"Feature","geometry":{"type":"Polygon","coordinates":[[[77.38736,28.628204],[77.387202,28.628215],[77.387178,28.627944],[77.387335,28.627933],[77.38736,28.628204]]]},"properties":{"objectid":10948,"plotmapid":"63D321IND","property_t":"Industrial","used":"PLOT","plotsizesq":450,"plot_size":"450 SQMT","plot_no":"321","sector":"63","block":"D","mplanduse":"B","ppt_type":"IND","ppt_full":"Industrial","authority":"NOIDA","category":"industrial","execution_stage":"unknown"}},{"type":"Feature","geometry":{"type":"Polygon","coordinates":[[[77.387227,28.628486],[77.387081,28.628496],[77.387057,28.628225],[77.387202,28.628215],[77.387227,28.628486]]]},"properties":{"objectid":10950,"plotmapid":"63D339IND","property_t":"Industrial","used":"PLOT","plotsizesq":0,"plot_size":"NA","plot_no":"339","sector":"63","block":"D","mplanduse":"B","ppt_type":"IND","ppt_full":"Industrial","authority":"NOIDA","category":"industrial","execution_stage":"unknown"}},{"type":"Feature","geometry":{"type":"Polygon","coordinates":[[[77.388124,28.628151],[77.388274,28.62814],[77.388298,28.628412],[77.388148,28.628422],[77.388124,28.628151]]]},"properties":{"objectid":10951,"plotmapid":"63D332IND","property_t":"Industrial","used":"PLOT","plotsizesq":450,"plot_size":"450 SQMT","plot_no":"332","sector":"63","block":"D","mplanduse":"B","ppt_type":"IND","ppt_full":"Industrial","authority":"NOIDA","category":"industrial","execution_stage":"unknown"}},{"type":"Feature","geometry":{"type":"Polygon","coordinates":[[[77.387686,28.628454],[77.387536,28.628465],[77.387511,28.628193],[77.387662,28.628183],[77.387686,28.628454]]]},"properties":{"objectid":10952,"plotmapid":"63D336IND","property_t":"Industrial","used":"PLOT","plotsizesq":450,"plot_size":"450 SQMT","plot_no":"336","sector":"63","block":"D","mplanduse":"B","ppt_type":"IND","ppt_full":"Industrial","authority":"NOIDA","category":"industrial","execution_stage":"unknown"}},{"type":"Feature","geometry":{"type":"Polygon","coordinates":[[[77.387993,28.628433],[77.387842,28.628443],[77.387817,28.628172],[77.387968,28.628161],[77.387993,28.628433]]]},"properties":{"objectid":10953,"plotmapid":"63D334IND","property_t":"Industrial","used":"PLOT","plotsizesq":450,"plot_size":"450 SQMT","plot_no":"334","sector":"63","block":"D","mplanduse":"B","ppt_type":"IND","ppt_full":"Industrial","authority":"NOIDA","category":"industrial","execution_stage":"unknown"}},{"type":"Feature","geometry":{"type":"Polygon","coordinates":[[[77.387536,28.628465],[77.387384,28.628475],[77.38736,28.628204],[77.387511,28.628193],[77.387536,28.628465]]]},"properties":{"objectid":10954,"plotmapid":"63D337IND","property_t":"Industrial","used":"PLOT","plotsizesq":450,"plot_size":"450 SQMT","plot_no":"337","sector":"63","block":"D","mplanduse":"B","ppt_type":"IND","ppt_full":"Industrial","authority":"NOIDA","category":"industrial","execution_stage":"unknown"}},{"type":"Feature","geometry":{"type":"Polygon","coordinates":[[[77.387842,28.628443],[77.387686,28.628454],[77.387662,28.628183],[77.387817,28.628172],[77.387842,28.628443]]]},"properties":{"objectid":10955,"plotmapid":"63D335IND","property_t":"Industrial","used":"PLOT","plotsizesq":450,"plot_size":"450 SQMT","plot_no":"335","sector":"63","block":"D","mplanduse":"B","ppt_type":"IND","ppt_full":"Industrial","authority":"NOIDA","category":"industrial","execution_stage":"unknown"}},{"type":"Feature","geometry":{"type":"Polygon","coordinates":[[[77.388148,28.628422],[77.387993,28.628433],[77.387968,28.628161],[77.388124,28.628151],[77.388148,28.628422]]]},"properties":{"objectid":10956,"plotmapid":"63D333IND","property_t":"Industrial","used":"PLOT","plotsizesq":450,"plot_size":"450 SQMT","plot_no":"333","sector":"63","block":"D","mplanduse":"B","ppt_type":"IND","ppt_full":"Industrial","authority":"NOIDA","category":"industrial","execution_stage":"unknown"}},{"type":"Feature","geometry":{"type":"Polygon","coordinates":[[[77.387202,28.628215],[77.387057,28.628225],[77.387032,28.627954],[77.387178,28.627944],[77.387202,28.628215]]]},"properties":{"objectid":10957,"plotmapid":"63D320IND","property_t":"Industrial","used":"PLOT","plotsizesq":0,"plot_size":"NA","plot_no":"320","sector":"63","block":"D","mplanduse":"B","ppt_type":"IND","ppt_full":"Industrial","authority":"NOIDA","category":"industrial","execution_stage":"unknown"}},{"type":"Feature","geometry":{"type":"Polygon","coordinates":[[[77.388099,28.62788],[77.388249,28.627869],[77.388274,28.62814],[77.388124,28.628151],[77.388099,28.62788]]]},"properties":{"objectid":10958,"plotmapid":"63D327IND","property_t":"Industrial","used":"PLOT","plotsizesq":450,"plot_size":"450 SQMT","plot_no":"327","sector":"63","block":"D","mplanduse":"B","ppt_type":"IND","ppt_full":"Industrial","authority":"NOIDA","category":"industrial","execution_stage":"unknown"}},{"type":"Feature","geometry":{"type":"Polygon","coordinates":[[[77.387662,28.628183],[77.387511,28.628193],[77.387487,28.627922],[77.387637,28.627912],[77.387662,28.628183]]]},"properties":{"objectid":10959,"plotmapid":"63D323IND","property_t":"Industrial","used":"PLOT","plotsizesq":450,"plot_size":"450 SQMT","plot_no":"323","sector":"63","block":"D","mplanduse":"B","ppt_type":"IND","ppt_full":"Industrial","authority":"NOIDA","category":"industrial","execution_stage":"unknown"}},{"type":"Feature","geometry":{"type":"Polygon","coordinates":[[[77.387968,28.628161],[77.387817,28.628172],[77.387793,28.627901],[77.387944,28.62789],[77.387968,28.628161]]]},"properties":{"objectid":10960,"plotmapid":"63D325IND","property_t":"Industrial","used":"PLOT","plotsizesq":450,"plot_size":"450 SQMT","plot_no":"325","sector":"63","block":"D","mplanduse":"B","ppt_type":"IND","ppt_full":"Industrial","authority":"NOIDA","category":"industrial","execution_stage":"unknown"}},{"type":"Feature","geometry":{"type":"Polygon","coordinates":[[[77.387511,28.628193],[77.38736,28.628204],[77.387335,28.627933],[77.387487,28.627922],[77.387511,28.628193]]]},"properties":{"objectid":10961,"plotmapid":"63D322IND","property_t":"Industrial","used":"PLOT","plotsizesq":450,"plot_size":"450 SQMT","plot_no":"322","sector":"63","block":"D","mplanduse":"B","ppt_type":"IND","ppt_full":"Industrial","authority":"NOIDA","category":"industrial","execution_stage":"unknown"}},{"type":"Feature","geometry":{"type":"Polygon","coordinates":[[[77.387817,28.628172],[77.387662,28.628183],[77.387637,28.627912],[77.387793,28.627901],[77.387817,28.628172]]]},"properties":{"objectid":10962,"plotmapid":"63D324IND","property_t":"Industrial","used":"PLOT","plotsizesq":450,"plot_size":"450 SQMT","plot_no":"324","sector":"63","block":"D","mplanduse":"B","ppt_type":"IND","ppt_full":"Industrial","authority":"NOIDA","category":"industrial","execution_stage":"unknown"}},{"type":"Feature","geometry":{"type":"Polygon","coordinates":[[[77.388124,28.628151],[77.387968,28.628161],[77.387944,28.62789],[77.388099,28.62788],[77.388124,28.628151]]]},"properties":{"objectid":10963,"plotmapid":"63D326IND","property_t":"Industrial","used":"PLOT","plotsizesq":450,"plot_size":"450 SQMT","plot_no":"326","sector":"63","block":"D","mplanduse":"B","ppt_type":"IND","ppt_full":"Industrial","authority":"NOIDA","category":"industrial","execution_stage":"unknown"}},{"type":"Feature","geometry":{"type":"Polygon","coordinates":[[[77.387358,28.625166],[77.387367,28.625261],[77.387115,28.625279],[77.387106,28.625185],[77.387358,28.625166]]]},"properties":{"objectid":10996,"plotmapid":"63E209IND","property_t":"Industrial","used":"PLOT","plotsizesq":0,"plot_size":"NA","plot_no":"209","sector":"63","block":"E","mplanduse":"B","ppt_type":"IND","ppt_full":"Industrial","authority":"NOIDA","category":"industrial","execution_stage":"unknown"}},{"type":"Feature","geometry":{"type":"Polygon","coordinates":[[[77.387106,28.625185],[77.387115,28.625279],[77.386863,28.625298],[77.386854,28.625203],[77.387106,28.625185]]]},"properties":{"objectid":10997,"plotmapid":"63E208IND","property_t":"Industrial","used":"PLOT","plotsizesq":0,"plot_size":"NA","plot_no":"208","sector":"63","block":"E","mplanduse":"B","ppt_type":"IND","ppt_full":"Industrial","authority":"NOIDA","category":"industrial","execution_stage":"unknown"}},{"type":"Feature","geometry":{"type":"Polygon","coordinates":[[[77.387341,28.624984],[77.387088,28.625003],[77.38708,28.624915],[77.387332,28.624897],[77.387341,28.624984]]]},"properties":{"objectid":10998,"plotmapid":"63E212IND","property_t":"Industrial","used":"PLOT","plotsizesq":250,"plot_size":"250 SQMT","plot_no":"212","sector":"63","block":"E","mplanduse":"B","ppt_type":"IND","ppt_full":"Industrial","authority":"NOIDA","category":"industrial","execution_stage":"unknown"}},{"type":"Feature","geometry":{"type":"Polygon","coordinates":[[[77.387298,28.624535],[77.387046,28.624554],[77.387037,28.624466],[77.387289,28.624447],[77.387298,28.624535]]]},"properties":{"objectid":10999,"plotmapid":"63E218-BIND","property_t":"Industrial","used":"PLOT","plotsizesq":250,"plot_size":"250 SQMT","plot_no":"218-B","sector":"63","block":"E","mplanduse":"B","ppt_type":"IND","ppt_full":"Industrial","authority":"NOIDA","category":"industrial","execution_stage":"unknown"}},{"type":"Feature","geometry":{"type":"Polygon","coordinates":[[[77.387221,28.623728],[77.386969,28.623746],[77.38696,28.623658],[77.387212,28.62364],[77.387221,28.623728]]]},"properties":{"objectid":11000,"plotmapid":"63E223IND","property_t":"Industrial","used":"PLOT","plotsizesq":250,"plot_size":"250 SQMT","plot_no":"223","sector":"63","block":"E","mplanduse":"B","ppt_type":"IND","ppt_full":"Industrial","authority":"NOIDA","category":"industrial","execution_stage":"unknown"}},{"type":"Feature","geometry":{"type":"Polygon","coordinates":[[[77.387246,28.623997],[77.386994,28.624016],[77.386986,28.623927],[77.387238,28.623909],[77.387246,28.623997]]]},"properties":{"objectid":11001,"plotmapid":"63E220IND","property_t":"Industrial","used":"PLOT","plotsizesq":250,"plot_size":"250 SQMT","plot_no":"220","sector":"63","block":"E","mplanduse":"B","ppt_type":"IND","ppt_full":"Industrial","authority":"NOIDA","category":"industrial","execution_stage":"unknown"}},{"type":"Feature","geometry":{"type":"Polygon","coordinates":[[[77.387315,28.624717],[77.387063,28.624736],[77.387054,28.624647],[77.387307,28.624628],[77.387315,28.624717]]]},"properties":{"objectid":11002,"plotmapid":"63E215IND","property_t":"Industrial","used":"PLOT","plotsizesq":250,"plot_size":"250 SQMT","plot_no":"215","sector":"63","block":"E","mplanduse":"B","ppt_type":"IND","ppt_full":"Industrial","authority":"NOIDA","category":"industrial","execution_stage":"unknown"}},{"type":"Feature","geometry":{"type":"Polygon","coordinates":[[[77.387332,28.624897],[77.38708,28.624915],[77.387071,28.624826],[77.387324,28.624807],[77.387332,28.624897]]]},"properties":{"objectid":11003,"plotmapid":"63E213IND","property_t":"Industrial","used":"PLOT","plotsizesq":250,"plot_size":"250 SQMT","plot_no":"213","sector":"63","block":"E","mplanduse":"B","ppt_type":"IND","ppt_full":"Industrial","authority":"NOIDA","category":"industrial","execution_stage":"unknown"}},{"type":"Feature","geometry":{"type":"Polygon","coordinates":[[[77.387264,28.624177],[77.387011,28.624195],[77.387003,28.624106],[77.387255,28.624087],[77.387264,28.624177]]]},"properties":{"objectid":11004,"plotmapid":"63E218IND","property_t":"Industrial","used":"PLOT","plotsizesq":250,"plot_size":"250 SQMT","plot_no":"218","sector":"63","block":"E","mplanduse":"B","ppt_type":"IND","ppt_full":"Industrial","authority":"NOIDA","category":"industrial","execution_stage":"unknown"}},{"type":"Feature","geometry":{"type":"Polygon","coordinates":[[[77.387281,28.624357],[77.387029,28.624375],[77.38702,28.624286],[77.387272,28.624267],[77.387281,28.624357]]]},"properties":{"objectid":11005,"plotmapid":"63E216IND","property_t":"Industrial","used":"PLOT","plotsizesq":250,"plot_size":"250 SQMT","plot_no":"216","sector":"63","block":"E","mplanduse":"B","ppt_type":"IND","ppt_full":"Industrial","authority":"NOIDA","category":"industrial","execution_stage":"unknown"}},{"type":"Feature","geometry":{"type":"Polygon","coordinates":[[[77.387324,28.624807],[77.387071,28.624826],[77.387063,28.624736],[77.387315,28.624717],[77.387324,28.624807]]]},"properties":{"objectid":11006,"plotmapid":"63E214IND","property_t":"Industrial","used":"PLOT","plotsizesq":250,"plot_size":"250 SQMT","plot_no":"214","sector":"63","block":"E","mplanduse":"B","ppt_type":"IND","ppt_full":"Industrial","authority":"NOIDA","category":"industrial","execution_stage":"unknown"}},{"type":"Feature","geometry":{"type":"Polygon","coordinates":[[[77.387255,28.624087],[77.387003,28.624106],[77.386994,28.624016],[77.387246,28.623997],[77.387255,28.624087]]]},"properties":{"objectid":11007,"plotmapid":"63E219IND","property_t":"Industrial","used":"PLOT","plotsizesq":250,"plot_size":"250 SQMT","plot_no":"219","sector":"63","block":"E","mplanduse":"B","ppt_type":"IND","ppt_full":"Industrial","authority":"NOIDA","category":"industrial","execution_stage":"unknown"}},{"type":"Feature","geometry":{"type":"Polygon","coordinates":[[[77.387229,28.623818],[77.386977,28.623837],[77.386969,28.623746],[77.387221,28.623728],[77.387229,28.623818]]]},"properties":{"objectid":11008,"plotmapid":"63E222IND","property_t":"Industrial","used":"PLOT","plotsizesq":250,"plot_size":"250 SQMT","plot_no":"222","sector":"63","block":"E","mplanduse":"B","ppt_type":"IND","ppt_full":"Industrial","authority":"NOIDA","category":"industrial","execution_stage":"unknown"}},{"type":"Feature","geometry":{"type":"Polygon","coordinates":[[[77.387358,28.625166],[77.387106,28.625185],[77.387097,28.625094],[77.387349,28.625076],[77.387358,28.625166]]]},"properties":{"objectid":11009,"plotmapid":"63E210IND","property_t":"Industrial","used":"PLOT","plotsizesq":250,"plot_size":"250 SQMT","plot_no":"210","sector":"63","block":"E","mplanduse":"B","ppt_type":"IND","ppt_full":"Industrial","authority":"NOIDA","category":"industrial","execution_stage":"unknown"}},{"type":"Feature","geometry":{"type":"Polygon","coordinates":[[[77.387272,28.624267],[77.38702,28.624286],[77.387011,28.624195],[77.387264,28.624177],[77.387272,28.624267]]]},"properties":{"objectid":11010,"plotmapid":"63E217IND","property_t":"Industrial","used":"PLOT","plotsizesq":250,"plot_size":"250 SQMT","plot_no":"217","sector":"63","block":"E","mplanduse":"B","ppt_type":"IND","ppt_full":"Industrial","authority":"NOIDA","category":"industrial","execution_stage":"unknown"}},{"type":"Feature","geometry":{"type":"Polygon","coordinates":[[[77.387289,28.624447],[77.387037,28.624466],[77.387029,28.624375],[77.387281,28.624357],[77.387289,28.624447]]]},"properties":{"objectid":11011,"plotmapid":"63E218-CIND","property_t":"Industrial","used":"PLOT","plotsizesq":250,"plot_size":"250 SQMT","plot_no":"218-C","sector":"63","block":"E","mplanduse":"B","ppt_type":"IND","ppt_full":"Industrial","authority":"NOIDA","category":"industrial","execution_stage":"unknown"}},{"type":"Feature","geometry":{"type":"Polygon","coordinates":[[[77.387238,28.623909],[77.386986,28.623927],[77.386977,28.623837],[77.387229,28.623818],[77.387238,28.623909]]]},"properties":{"objectid":11012,"plotmapid":"63E221IND","property_t":"Industrial","used":"PLOT","plotsizesq":250,"plot_size":"250 SQMT","plot_no":"221","sector":"63","block":"E","mplanduse":"B","ppt_type":"IND","ppt_full":"Industrial","authority":"NOIDA","category":"industrial","execution_stage":"unknown"}},{"type":"Feature","geometry":{"type":"Polygon","coordinates":[[[77.387212,28.62364],[77.38696,28.623658],[77.386952,28.623567],[77.387204,28.623549],[77.387212,28.62364]]]},"properties":{"objectid":11013,"plotmapid":"63E224IND","property_t":"Industrial","used":"PLOT","plotsizesq":250,"plot_size":"250 SQMT","plot_no":"224","sector":"63","block":"E","mplanduse":"B","ppt_type":"IND","ppt_full":"Industrial","authority":"NOIDA","category":"industrial","execution_stage":"unknown"}},{"type":"Feature","geometry":{"type":"Polygon","coordinates":[[[77.387195,28.623457],[77.386943,28.623475],[77.386934,28.623384],[77.387186,28.623365],[77.387195,28.623457]]]},"properties":{"objectid":11015,"plotmapid":"63E226IND","property_t":"Industrial","used":"PLOT","plotsizesq":250,"plot_size":"250 SQMT","plot_no":"226","sector":"63","block":"E","mplanduse":"B","ppt_type":"IND","ppt_full":"Industrial","authority":"NOIDA","category":"industrial","execution_stage":"unknown"}},{"type":"Feature","geometry":{"type":"Polygon","coordinates":[[[77.387349,28.625076],[77.387097,28.625094],[77.387088,28.625003],[77.387341,28.624984],[77.387349,28.625076]]]},"properties":{"objectid":11016,"plotmapid":"63E211IND","property_t":"Industrial","used":"PLOT","plotsizesq":250,"plot_size":"250 SQMT","plot_no":"211","sector":"63","block":"E","mplanduse":"B","ppt_type":"IND","ppt_full":"Industrial","authority":"NOIDA","category":"industrial","execution_stage":"unknown"}},{"type":"Feature","geometry":{"type":"Polygon","coordinates":[[[77.387307,28.624628],[77.387054,28.624647],[77.387046,28.624554],[77.387298,28.624535],[77.387307,28.624628]]]},"properties":{"objectid":11017,"plotmapid":"63E218-AIND","property_t":"Industrial","used":"PLOT","plotsizesq":250,"plot_size":"250 SQMT","plot_no":"218-A","sector":"63","block":"E","mplanduse":"B","ppt_type":"IND","ppt_full":"Industrial","authority":"NOIDA","category":"industrial","execution_stage":"unknown"}},{"type":"Feature","geometry":{"type":"Polygon","coordinates":[[[77.387088,28.625003],[77.386836,28.625021],[77.386828,28.624934],[77.38708,28.624915],[77.387088,28.625003]]]},"properties":{"objectid":11018,"plotmapid":"63E205IND","property_t":"Industrial","used":"PLOT","plotsizesq":250,"plot_size":"250 SQMT","plot_no":"205","sector":"63","block":"E","mplanduse":"B","ppt_type":"IND","ppt_full":"Industrial","authority":"NOIDA","category":"industrial","execution_stage":"unknown"}},{"type":"Feature","geometry":{"type":"Polygon","coordinates":[[[77.387063,28.624736],[77.386811,28.624754],[77.386802,28.624665],[77.387054,28.624647],[77.387063,28.624736]]]},"properties":{"objectid":11022,"plotmapid":"63E202IND","property_t":"Industrial","used":"PLOT","plotsizesq":250,"plot_size":"250 SQMT","plot_no":"202","sector":"63","block":"E","mplanduse":"B","ppt_type":"IND","ppt_full":"Industrial","authority":"NOIDA","category":"industrial","execution_stage":"unknown"}},{"type":"Feature","geometry":{"type":"Polygon","coordinates":[[[77.38708,28.624915],[77.386828,28.624934],[77.386819,28.624844],[77.387071,28.624826],[77.38708,28.624915]]]},"properties":{"objectid":11023,"plotmapid":"63E204IND","property_t":"Industrial","used":"PLOT","plotsizesq":250,"plot_size":"250 SQMT","plot_no":"204","sector":"63","block":"E","mplanduse":"B","ppt_type":"IND","ppt_full":"Industrial","authority":"NOIDA","category":"industrial","execution_stage":"unknown"}},{"type":"Feature","geometry":{"type":"Polygon","coordinates":[[[77.387071,28.624826],[77.386819,28.624844],[77.386811,28.624754],[77.387063,28.624736],[77.387071,28.624826]]]},"properties":{"objectid":11026,"plotmapid":"63E203IND","property_t":"Industrial","used":"PLOT","plotsizesq":250,"plot_size":"250 SQMT","plot_no":"203","sector":"63","block":"E","mplanduse":"B","ppt_type":"IND","ppt_full":"Industrial","authority":"NOIDA","category":"industrial","execution_stage":"unknown"}},{"type":"Feature","geometry":{"type":"Polygon","coordinates":[[[77.387106,28.625185],[77.386854,28.625203],[77.386845,28.625113],[77.387097,28.625094],[77.387106,28.625185]]]},"properties":{"objectid":11029,"plotmapid":"63E207IND","property_t":"Industrial","used":"PLOT","plotsizesq":250,"plot_size":"250 SQMT","plot_no":"207","sector":"63","block":"E","mplanduse":"B","ppt_type":"IND","ppt_full":"Industrial","authority":"NOIDA","category":"industrial","execution_stage":"unknown"}},{"type":"Feature","geometry":{"type":"Polygon","coordinates":[[[77.387097,28.625094],[77.386845,28.625113],[77.386836,28.625021],[77.387088,28.625003],[77.387097,28.625094]]]},"properties":{"objectid":11035,"plotmapid":"63E206IND","property_t":"Industrial","used":"PLOT","plotsizesq":250,"plot_size":"250 SQMT","plot_no":"206","sector":"63","block":"E","mplanduse":"B","ppt_type":"IND","ppt_full":"Industrial","authority":"NOIDA","category":"industrial","execution_stage":"unknown"}},{"type":"Feature","geometry":{"type":"Polygon","coordinates":[[[77.386926,28.623295],[77.387178,28.623276],[77.387186,28.623365],[77.386934,28.623384],[77.386926,28.623295]]]},"properties":{"objectid":11039,"plotmapid":"63E227IND","property_t":"Industrial","used":"PLOT","plotsizesq":250,"plot_size":"250 SQMT","plot_no":"227","sector":"63","block":"E","mplanduse":"B","ppt_type":"IND","ppt_full":"Industrial","authority":"NOIDA","category":"industrial","execution_stage":"unknown"}},{"type":"Feature","geometry":{"type":"Polygon","coordinates":[[[77.387178,28.623276],[77.386926,28.623295],[77.386917,28.623202],[77.387171,28.623183],[77.387178,28.623276]]]},"properties":{"objectid":11041,"plotmapid":"63E228IND","property_t":"Industrial","used":"PLOT","plotsizesq":0,"plot_size":"NA","plot_no":"228","sector":"63","block":"E","mplanduse":"B","ppt_type":"IND","ppt_full":"Industrial","authority":"NOIDA","category":"industrial","execution_stage":"unknown"}},{"type":"Feature","geometry":{"type":"Polygon","coordinates":[[[77.387283,28.627408],[77.387027,28.627427],[77.386993,28.627069],[77.387249,28.62705],[77.387283,28.627408]]]},"properties":{"objectid":11060,"plotmapid":"63D252IND","property_t":"Industrial","used":"PLOT","plotsizesq":1000,"plot_size":"1000 SQMT","plot_no":"252","sector":"63","block":"D","mplanduse":"B","ppt_type":"IND","ppt_full":"Industrial","authority":"NOIDA","category":"industrial","execution_stage":"unknown"}},{"type":"Feature","geometry":{"type":"Polygon","coordinates":[[[77.387569,28.627387],[77.387283,28.627408],[77.387249,28.62705],[77.387535,28.627029],[77.387569,28.627387]]]},"properties":{"objectid":11063,"plotmapid":"63D253IND","property_t":"Industrial","used":"PLOT","plotsizesq":0,"plot_size":"NA","plot_no":"253","sector":"63","block":"D","mplanduse":"B","ppt_type":"IND","ppt_full":"Industrial","authority":"NOIDA","category":"industrial","execution_stage":"unknown"}},{"type":"Feature","geometry":{"type":"Polygon","coordinates":[[[77.387317,28.627768],[77.387062,28.627787],[77.387027,28.627427],[77.387283,28.627408],[77.387317,28.627768]]]},"properties":{"objectid":11065,"plotmapid":"63D255IND","property_t":"Industrial","used":"PLOT","plotsizesq":1000,"plot_size":"1000 SQMT","plot_no":"255","sector":"63","block":"D","mplanduse":"B","ppt_type":"IND","ppt_full":"Industrial","authority":"NOIDA","category":"industrial","execution_stage":"unknown"}},{"type":"Feature","geometry":{"type":"Polygon","coordinates":[[[77.387603,28.627748],[77.387317,28.627768],[77.387283,28.627408],[77.387569,28.627387],[77.387603,28.627748]]]},"properties":{"objectid":11067,"plotmapid":"63D254IND","property_t":"Industrial","used":"PLOT","plotsizesq":0,"plot_size":"NA","plot_no":"254","sector":"63","block":"D","mplanduse":"B","ppt_type":"IND","ppt_full":"Industrial","authority":"NOIDA","category":"industrial","execution_stage":"unknown"}},{"type":"Feature","geometry":{"type":"Polygon","coordinates":[[[77.3896,28.632932],[77.389776,28.632987],[77.389581,28.633486],[77.389241,28.633381],[77.389438,28.632881],[77.3896,28.632932]]]},"properties":{"objectid":12495,"plotmapid":"63D348IND","property_t":"Industrial","used":"PLOT","plotsizesq":2100,"plot_size":"2100 SQMT","plot_no":"348","sector":"63","block":"D","mplanduse":"ISSUE","ppt_type":"IND","ppt_full":"Industrial","authority":"NOIDA","category":"industrial","execution_stage":"unknown"}},{"type":"Feature","geometry":{"type":"Polygon","coordinates":[[[77.389895,28.633024],[77.390114,28.633093],[77.389917,28.633589],[77.389581,28.633486],[77.389776,28.632987],[77.389895,28.633024]]]},"properties":{"objectid":12496,"plotmapid":"63D349IND","property_t":"Industrial","used":"PLOT","plotsizesq":2100,"plot_size":"2100 SQMT","plot_no":"349","sector":"63","block":"D","mplanduse":"ISSUE","ppt_type":"IND","ppt_full":"Industrial","authority":"NOIDA","category":"industrial","execution_stage":"unknown"}},{"type":"Feature","geometry":{"type":"Polygon","coordinates":[[[77.390401,28.63318],[77.390203,28.633677],[77.389917,28.633589],[77.390114,28.633093],[77.390401,28.63318]]]},"properties":{"objectid":12497,"plotmapid":"63D350IND","property_t":"Industrial","used":"PLOT","plotsizesq":2100,"plot_size":"2100 SQMT","plot_no":"350","sector":"63","block":"D","mplanduse":"ISSUE","ppt_type":"IND","ppt_full":"Industrial","authority":"NOIDA","category":"industrial","execution_stage":"unknown"}},{"type":"Feature","geometry":{"type":"Polygon","coordinates":[[[77.390458,28.633198],[77.390823,28.63331],[77.390628,28.633808],[77.390203,28.633677],[77.390401,28.63318],[77.390458,28.633198]]]},"properties":{"objectid":12498,"plotmapid":"63D351&D-352IND","property_t":"Industrial","used":"PLOT","plotsizesq":2100,"plot_size":"2100 SQMT","sector":"63","block":"D","mplanduse":"ISSUE","ppt_type":"IND","ppt_full":"Industrial","authority":"NOIDA","category":"industrial","execution_stage":"unknown"}},{"type":"Feature","geometry":{"type":"Polygon","coordinates":[[[77.388766,28.632668],[77.388561,28.633172],[77.388228,28.63307],[77.388424,28.632564],[77.388766,28.632668]]]},"properties":{"objectid":12499,"plotmapid":"63D345IND","property_t":"Industrial","used":"PLOT","plotsizesq":2100,"plot_size":"2100 SQMT","plot_no":"345","sector":"63","block":"D","mplanduse":"ISSUE","ppt_type":"IND","ppt_full":"Industrial","authority":"NOIDA","category":"industrial","execution_stage":"unknown"}},{"type":"Feature","geometry":{"type":"Polygon","coordinates":[[[77.388911,28.632715],[77.389102,28.632775],[77.388901,28.633277],[77.388561,28.633172],[77.388766,28.632668],[77.388911,28.632715]]]},"properties":{"objectid":12500,"plotmapid":"63D346IND","property_t":"Industrial","used":"PLOT","plotsizesq":2100,"plot_size":"2100 SQMT","plot_no":"346","sector":"63","block":"D","mplanduse":"ISSUE","ppt_type":"IND","ppt_full":"Industrial","authority":"NOIDA","category":"industrial","execution_stage":"unknown"}},{"type":"Feature","geometry":{"type":"Polygon","coordinates":[[[77.389305,28.632839],[77.389438,28.632881],[77.389241,28.633381],[77.388901,28.633277],[77.389102,28.632775],[77.389305,28.632839]]]},"properties":{"objectid":12501,"plotmapid":"63D347IND","property_t":"Industrial","used":"PLOT","plotsizesq":2100,"plot_size":"2100 SQMT","plot_no":"347","sector":"63","block":"D","mplanduse":"ISSUE","ppt_type":"IND","ppt_full":"Industrial","authority":"NOIDA","category":"industrial","execution_stage":"unknown"}}]}
