{"type":"FeatureCollection","features":[{"type":"Feature","geometry":{"type":"Polygon","coordinates":[[[77.314572,28.570038],[77.314967,28.570269],[77.314921,28.570331],[77.315157,28.570459],[77.314882,28.570836],[77.314251,28.570476],[77.314572,28.570038]]]},"properties":{"objectid":21808,"plotmapid":"16AFC017B,017CIND","property_t":"Industrial","plotsizesq":2092,"plot_size":"2092.0 SQMT","plot_no":"017B,017C","sector":"16A","block":"FC","mplanduse":"V","ppt_type":"IND","ppt_full":"Industrial","remark":"As per drone is vacant ,not Alloted & not buildup","authority":"NOIDA","category":"industrial","execution_stage":"unknown"}},{"type":"Feature","geometry":{"type":"Polygon","coordinates":[[[77.317783,28.56571],[77.317626,28.566501],[77.317183,28.566438],[77.317357,28.56564],[77.317783,28.56571]]]},"properties":{"objectid":21928,"plotmapid":"16AFCIND","property_t":"Industrial","plotsizesq":4085,"plot_size":"4085 SQMT","sector":"16A","block":"FC","mplanduse":"B","ppt_type":"IND","ppt_full":"Industrial","authority":"NOIDA","category":"industrial","execution_stage":"unknown"}},{"type":"Feature","geometry":{"type":"Polygon","coordinates":[[[77.31545,28.569616],[77.314967,28.570269],[77.314561,28.570031],[77.315049,28.569382],[77.31545,28.569616]]]},"properties":{"objectid":21929,"plotmapid":"16AFC016IND","property_t":"Industrial","allotted_p":"Yes","plotsizesq":4047,"plot_size":"4047 SQMT","plot_no":"016","sector":"16A","block":"FC","mplanduse":"B","ppt_type":"IND","ppt_full":"Industrial","authority":"NOIDA","category":"industrial","execution_stage":"allotted"}},{"type":"Feature","geometry":{"type":"Polygon","coordinates":[[[77.315713,28.569264],[77.31545,28.569616],[77.315044,28.569379],[77.315307,28.569027],[77.315713,28.569264]]]},"properties":{"objectid":21930,"plotmapid":"16AFC015IND","property_t":"Industrial","allotted_p":"Yes","plotsizesq":4084,"plot_size":"4084 SQMT","plot_no":"015","sector":"16A","block":"FC","mplanduse":"B","ppt_type":"IND","ppt_full":"Industrial","authority":"NOIDA","category":"industrial","execution_stage":"allotted"}},{"type":"Feature","geometry":{"type":"Polygon","coordinates":[[[77.315942,28.568954],[77.315713,28.569264],[77.315307,28.569027],[77.315537,28.56872],[77.315942,28.568954]]]},"properties":{"objectid":21931,"plotmapid":"16AFC014IND","property_t":"Industrial","plotsizesq":2041.9,"plot_size":"2041.9 SQMT","plot_no":"014","sector":"16A","block":"FC","mplanduse":"B","ppt_type":"IND","ppt_full":"Industrial","authority":"NOIDA","category":"industrial","execution_stage":"unknown"}},{"type":"Feature","geometry":{"type":"Polygon","coordinates":[[[77.31611,28.568733],[77.315942,28.568954],[77.315537,28.56872],[77.315702,28.568495],[77.31611,28.568733]]]},"properties":{"objectid":21932,"plotmapid":"16AFC013IND","property_t":"Industrial","allotted_p":"Yes","plotsizesq":1410,"plot_size":"1410 SQMT","plot_no":"013","sector":"16A","block":"FC","mplanduse":"B","ppt_type":"IND","ppt_full":"Industrial","authority":"NOIDA","category":"industrial","execution_stage":"allotted"}},{"type":"Feature","geometry":{"type":"Polygon","coordinates":[[[77.318191,28.566135],[77.318093,28.566574],[77.317626,28.566501],[77.317783,28.56571],[77.318259,28.565784],[77.318191,28.566135]]]},"properties":{"objectid":21933,"plotmapid":"16AFC005IND","property_t":"Industrial","allotted_p":"Yes","plotsizesq":8000,"plot_size":"8000 SQMT","plot_no":"005","sector":"16A","block":"FC","mplanduse":"B","ppt_type":"IND","ppt_full":"Industrial","authority":"NOIDA","category":"industrial","execution_stage":"allotted"}},{"type":"Feature","geometry":{"type":"Polygon","coordinates":[[[77.316691,28.568249],[77.317033,28.568452],[77.316613,28.569019],[77.315702,28.568495],[77.316124,28.567925],[77.316691,28.568249]]]},"properties":{"objectid":21934,"plotmapid":"16AFC012IND","property_t":"Industrial","allotted_p":"Yes","plotsizesq":7950,"plot_size":"7950 SQMT","plot_no":"012","sector":"16A","block":"FC","mplanduse":"B","ppt_type":"IND","ppt_full":"Industrial","authority":"NOIDA","category":"industrial","execution_stage":"allotted"}},{"type":"Feature","geometry":{"type":"Polygon","coordinates":[[[77.316889,28.568652],[77.317243,28.568855],[77.316969,28.569224],[77.316613,28.569019],[77.316889,28.568652]]]},"properties":{"objectid":21937,"plotmapid":"16AFC10&11IND","property_t":"Industrial","plotsizesq":2000,"plot_size":"2000 SQMT","plot_no":"10&11","sector":"16A","block":"FC","mplanduse":"B","ppt_type":"IND","ppt_full":"Industrial","authority":"NOIDA","category":"industrial","execution_stage":"unknown"}},{"type":"Feature","geometry":{"type":"Polygon","coordinates":[[[77.317036,28.568454],[77.317389,28.568657],[77.317243,28.568855],[77.316886,28.56865],[77.317036,28.568454]]]},"properties":{"objectid":21938,"plotmapid":"16AFC011IND","property_t":"Industrial","plotsizesq":1075,"plot_size":"1075 SQMT","plot_no":"011","sector":"16A","block":"FC","mplanduse":"B","ppt_type":"IND","ppt_full":"Industrial","authority":"NOIDA","category":"industrial","execution_stage":"unknown"}},{"type":"Feature","geometry":{"type":"Polygon","coordinates":[[[77.316507,28.567947],[77.316232,28.567791],[77.316702,28.567136],[77.317368,28.567523],[77.317714,28.567571],[77.317548,28.568426],[77.317492,28.568516],[77.316507,28.567947]]]},"properties":{"objectid":21939,"plotmapid":"16AFC001IND","property_t":"Industrial","allotted_p":"Yes","plotsizesq":11646,"plot_size":"11646 SQMT","plot_no":"001","sector":"16A","block":"FC","mplanduse":"B","ppt_type":"IND","ppt_full":"Industrial","authority":"NOIDA","category":"industrial","execution_stage":"allotted"}},{"type":"Feature","geometry":{"type":"Polygon","coordinates":[[[77.31852,28.565825],[77.318999,28.565906],[77.318777,28.566994],[77.318037,28.56688],[77.318259,28.565784],[77.31852,28.565825]]]},"properties":{"objectid":21940,"plotmapid":"16AFC006IND","property_t":"Industrial","allotted_p":"Yes","plotsizesq":16571,"plot_size":"16571 SQMT","plot_no":"006","sector":"16A","block":"FC","mplanduse":"B","ppt_type":"IND","ppt_full":"Industrial","authority":"NOIDA","category":"industrial","execution_stage":"allotted"}},{"type":"Feature","geometry":{"type":"Polygon","coordinates":[[[77.317906,28.567815],[77.318615,28.567923],[77.318398,28.569051],[77.317656,28.568614],[77.31769,28.568576],[77.317856,28.567808],[77.317906,28.567815]]]},"properties":{"objectid":21945,"plotmapid":"16AFC007IND","property_t":"Industrial","plotsizesq":8047.85,"plot_size":"8047.85 SQMT","plot_no":"007","sector":"16A","block":"FC","mplanduse":"B","ppt_type":"IND","ppt_full":"Industrial","authority":"NOIDA","category":"industrial","execution_stage":"unknown"}},{"type":"Feature","geometry":{"type":"Polygon","coordinates":[[[77.317769,28.56868],[77.318398,28.569051],[77.318175,28.570097],[77.317045,28.569445],[77.317656,28.568614],[77.317769,28.56868]]]},"properties":{"objectid":21946,"plotmapid":"16AFC008IND","property_t":"Industrial","plotsizesq":12000,"plot_size":"12000 SQMT","plot_no":"008","sector":"16A","block":"FC","mplanduse":"B","ppt_type":"IND","ppt_full":"Industrial","authority":"NOIDA","category":"industrial","execution_stage":"unknown"}},{"type":"Feature","geometry":{"type":"Polygon","coordinates":[[[77.314902,28.570848],[77.314882,28.570836],[77.315157,28.570459],[77.315535,28.570669],[77.315243,28.571053],[77.314902,28.570848]]]},"properties":{"objectid":21950,"plotmapid":"16AFC017AIND","property_t":"Industrial","plotsizesq":2092.3,"plot_size":"2092.3 SQMT","plot_no":"017A","sector":"16A","block":"FC","mplanduse":"B","ppt_type":"IND","ppt_full":"Industrial","authority":"NOIDA","category":"industrial","execution_stage":"unknown"}},{"type":"Feature","geometry":{"type":"Polygon","coordinates":[[[77.318777,28.566994],[77.318595,28.567919],[77.317856,28.567808],[77.318037,28.56688],[77.318777,28.566994]]]},"properties":{"objectid":22308,"plotmapid":"16AFCIND","property_t":"Industrial","plotsizesq":8322,"plot_size":"8322.0 SQMT","sector":"16A","block":"FC","mplanduse":"B","ppt_type":"IND","ppt_full":"Industrial","authority":"NOIDA","category":"industrial","execution_stage":"unknown"}},{"type":"Feature","geometry":{"type":"Polygon","coordinates":[[[77.316968,28.566785],[77.317125,28.566583],[77.317568,28.566656],[77.317493,28.567009],[77.316968,28.566785]]]},"properties":{"objectid":28864,"plotmapid":"16AFC003,003AIND","property_t":"Industrial","plotsizesq":1705.85,"plot_size":"1705.85 SQMT","plot_no":"003,003A","sector":"16A","block":"FC","mplanduse":"B","ppt_type":"IND","ppt_full":"Industrial","allot_date":"14-03-1995","authority":"NOIDA","category":"industrial","execution_stage":"unknown"}},{"type":"Feature","geometry":{"type":"Polygon","coordinates":[[[77.315795,28.570324],[77.315583,28.570605],[77.315135,28.570348],[77.315337,28.570073],[77.315795,28.570324]]]},"properties":{"objectid":28868,"plotmapid":"16AFC018IND","property_t":"Industrial","allotted_p":"Yes","plotsizesq":2000,"plot_size":"2000 SQMT","plot_no":"018","sector":"16A","block":"FC","mplanduse":"B","ppt_type":"IND","ppt_full":"Industrial","authority":"NOIDA","category":"industrial","execution_stage":"allotted"}},{"type":"Feature","geometry":{"type":"Polygon","coordinates":[[[77.316181,28.569799],[77.315795,28.570324],[77.315337,28.570073],[77.315727,28.569546],[77.316181,28.569799]]]},"properties":{"objectid":28870,"plotmapid":"16AFC019-020-009IND","property_t":"Industrial","plotsizesq":3560.44,"plot_size":"3560.44 SQMT","plot_no":"019-020-009","sector":"16A","block":"FC","mplanduse":"B","ppt_type":"IND","ppt_full":"Industrial","allot_date":"05-06-1988","authority":"NOIDA","category":"industrial","execution_stage":"unknown"}}]}
