{"type":"FeatureCollection","features":[{"type":"Feature","geometry":{"type":"Polygon","coordinates":[[[77.406717,28.517169],[77.407193,28.517927],[77.406808,28.518113],[77.40633,28.517361],[77.406717,28.517169]]]},"properties":{"objectid":1586,"plotmapid":"85B013IND","property_t":"Industrial","used":"NA","allotted_p":"Yes","plotsizesq":3990,"plot_size":"3990 SQMT","plot_no":"013","sector":"85","block":"B","mplanduse":"V","ppt_type":"IND","ppt_full":"Industrial","authority":"NOIDA","category":"industrial","execution_stage":"allotted"}},{"type":"Feature","geometry":{"type":"Polygon","coordinates":[[[77.409713,28.517669],[77.409307,28.517871],[77.408858,28.51716],[77.409269,28.516959],[77.409713,28.517669]]]},"properties":{"objectid":1588,"plotmapid":"85C009IND","property_t":"Industrial","used":"NA","plotsizesq":4050,"plot_size":"4050 SQMT","plot_no":"009","sector":"85","block":"C","mplanduse":"V","ppt_type":"IND","ppt_full":"Industrial","authority":"NOIDA","category":"industrial","execution_stage":"unknown"}},{"type":"Feature","geometry":{"type":"Polygon","coordinates":[[[77.408326,28.517987],[77.408501,28.518264],[77.407874,28.518569],[77.407698,28.51829],[77.408326,28.517987]]]},"properties":{"objectid":1590,"plotmapid":"85C001IND","property_t":"Industrial","used":"NA","plotsizesq":2100,"plot_size":"2100 SQMT","plot_no":"001","sector":"85","block":"C","mplanduse":"V","ppt_type":"IND","ppt_full":"Industrial","authority":"NOIDA","category":"industrial","execution_stage":"unknown"}},{"type":"Feature","geometry":{"type":"Polygon","coordinates":[[[77.407556,28.516764],[77.407728,28.517038],[77.407101,28.517343],[77.406927,28.517066],[77.407556,28.516764]]]},"properties":{"objectid":1591,"plotmapid":"85C006IND","property_t":"Industrial","used":"NA","plotsizesq":2100,"plot_size":"2100 SQMT","plot_no":"006","sector":"85","block":"C","mplanduse":"V","ppt_type":"IND","ppt_full":"Industrial","authority":"NOIDA","category":"industrial","execution_stage":"unknown"}},{"type":"Feature","geometry":{"type":"Polygon","coordinates":[[[77.406077,28.518469],[77.406456,28.518285],[77.406924,28.519037],[77.406543,28.519217],[77.406077,28.518469]]]},"properties":{"objectid":1599,"plotmapid":"85B010IND","property_t":"Industrial","used":"NA","allotted_p":"Yes","plotsizesq":3990,"plot_size":"3990 SQMT","plot_no":"010","sector":"85","block":"B","mplanduse":"V","ppt_type":"IND","ppt_full":"Industrial","authority":"NOIDA","category":"industrial","execution_stage":"allotted"}},{"type":"Feature","geometry":{"type":"Polygon","coordinates":[[[77.40846,28.517353],[77.40833,28.517417],[77.407833,28.516628],[77.408111,28.516493],[77.408607,28.517282],[77.40846,28.517353]]]},"properties":{"objectid":1605,"plotmapid":"85C12/5IND","property_t":"Industrial","used":"NA","plotsizesq":3100,"plot_size":"3100 SQMT","plot_no":"12/5","sector":"85","block":"C","mplanduse":"B","ppt_type":"IND","ppt_full":"Industrial","authority":"NOIDA","category":"industrial","execution_stage":"unknown"}},{"type":"Feature","geometry":{"type":"Polygon","coordinates":[[[77.408391,28.516357],[77.408885,28.517146],[77.408607,28.517282],[77.408111,28.516493],[77.408391,28.516357]]]},"properties":{"objectid":1606,"plotmapid":"85C12/4IND","property_t":"Industrial","used":"NA","plotsizesq":3100,"plot_size":"31 SQMT","plot_no":"12/4","sector":"85","block":"C","mplanduse":"B","ppt_type":"IND","ppt_full":"Industrial","authority":"NOIDA","category":"industrial","execution_stage":"unknown"}},{"type":"Feature","geometry":{"type":"Polygon","coordinates":[[[77.407833,28.516628],[77.40833,28.517417],[77.408052,28.517552],[77.407556,28.516764],[77.407833,28.516628]]]},"properties":{"objectid":1607,"plotmapid":"85C12/6IND","property_t":"Industrial","used":"NA","plotsizesq":3100,"plot_size":"31 SQMT","plot_no":"12/6","sector":"85","block":"C","mplanduse":"B","ppt_type":"IND","ppt_full":"Industrial","authority":"NOIDA","category":"industrial","execution_stage":"unknown"}},{"type":"Feature","geometry":{"type":"Polygon","coordinates":[[[77.409269,28.516959],[77.409666,28.516763],[77.410111,28.517471],[77.409713,28.517669],[77.409269,28.516959]]]},"properties":{"objectid":1609,"plotmapid":"85C010IND","property_t":"Industrial","used":"NA","allotted_p":"Yes","plotsizesq":4050,"plot_size":"4050 SQMT","plot_no":"010","sector":"85","block":"C","mplanduse":"B","ppt_type":"IND","ppt_full":"Industrial","authority":"NOIDA","category":"industrial","execution_stage":"allotted"}},{"type":"Feature","geometry":{"type":"Polygon","coordinates":[[[77.407878,28.517275],[77.408027,28.517512],[77.4074,28.517818],[77.407251,28.51758],[77.407878,28.517275]]]},"properties":{"objectid":1619,"plotmapid":"85C004IND","property_t":"Industrial","used":"NA","plotsizesq":2100,"plot_size":"2100 SQMT","plot_no":"004","sector":"85","block":"C","mplanduse":"B","ppt_type":"IND","ppt_full":"Industrial","authority":"NOIDA","category":"industrial","execution_stage":"unknown"}},{"type":"Feature","geometry":{"type":"Polygon","coordinates":[[[77.408052,28.517552],[77.408177,28.51775],[77.40755,28.518055],[77.4074,28.517818],[77.408027,28.517512],[77.408052,28.517552]]]},"properties":{"objectid":1620,"plotmapid":"85C003IND","property_t":"Industrial","used":"NA","plotsizesq":2100,"plot_size":"2100 SQMT","plot_no":"003","sector":"85","block":"C","mplanduse":"B","ppt_type":"IND","ppt_full":"Industrial","authority":"NOIDA","category":"industrial","execution_stage":"unknown"}},{"type":"Feature","geometry":{"type":"Polygon","coordinates":[[[77.407728,28.517038],[77.407878,28.517275],[77.407251,28.51758],[77.407101,28.517343],[77.407728,28.517038]]]},"properties":{"objectid":1621,"plotmapid":"85C005IND","property_t":"Industrial","used":"NA","plotsizesq":2100,"plot_size":"2100 SQMT","plot_no":"005","sector":"85","block":"C","mplanduse":"B","ppt_type":"IND","ppt_full":"Industrial","authority":"NOIDA","category":"industrial","execution_stage":"unknown"}},{"type":"Feature","geometry":{"type":"Polygon","coordinates":[[[77.406456,28.518285],[77.406431,28.518297],[77.405957,28.517552],[77.40633,28.517361],[77.406808,28.518113],[77.406456,28.518285]]]},"properties":{"objectid":1622,"plotmapid":"85B014IND","property_t":"Industrial","used":"NA","allotted_p":"Yes","plotsizesq":3990,"plot_size":"3990 SQMT","plot_no":"014","sector":"85","block":"B","mplanduse":"B","ppt_type":"IND","ppt_full":"Industrial","authority":"NOIDA","category":"industrial","execution_stage":"allotted"}},{"type":"Feature","geometry":{"type":"Polygon","coordinates":[[[77.40846,28.517353],[77.408858,28.51716],[77.409307,28.517871],[77.408904,28.518067],[77.40846,28.517353]]]},"properties":{"objectid":1627,"plotmapid":"85C008IND","property_t":"Industrial","used":"NA","plotsizesq":4050,"plot_size":"4050 SQMT","plot_no":"008","sector":"85","block":"C","mplanduse":"B","ppt_type":"IND","ppt_full":"Industrial","authority":"NOIDA","category":"industrial","execution_stage":"unknown"}},{"type":"Feature","geometry":{"type":"Polygon","coordinates":[[[77.408325,28.517984],[77.407698,28.51829],[77.40755,28.518055],[77.408177,28.51775],[77.408325,28.517984]]]},"properties":{"objectid":1639,"plotmapid":"85C002IND","property_t":"Industrial","used":"NA","plotsizesq":2100,"plot_size":"2100 SQMT","plot_no":"002","sector":"85","block":"C","mplanduse":"B","ppt_type":"IND","ppt_full":"Industrial","authority":"NOIDA","category":"industrial","execution_stage":"unknown"}},{"type":"Feature","geometry":{"type":"Polygon","coordinates":[[[77.408904,28.518067],[77.408501,28.518264],[77.408052,28.517552],[77.40846,28.517353],[77.408904,28.518067]]]},"properties":{"objectid":1640,"plotmapid":"85C007IND","property_t":"Industrial","used":"NA","plotsizesq":4050,"plot_size":"4050 SQMT","plot_no":"007","sector":"85","block":"C","mplanduse":"B","ppt_type":"IND","ppt_full":"Industrial","authority":"NOIDA","category":"industrial","execution_stage":"unknown"}},{"type":"Feature","geometry":{"type":"Polygon","coordinates":[[[77.411142,28.516971],[77.410515,28.517275],[77.41007,28.516565],[77.410085,28.516558],[77.411142,28.516971]]]},"properties":{"objectid":1641,"plotmapid":"85C012IND","property_t":"Industrial","used":"NA","allotted_p":"Yes","plotsizesq":3105,"plot_no":"012","sector":"85","block":"C","mplanduse":"B","ppt_type":"IND","ppt_full":"Industrial","authority":"NOIDA","category":"industrial","execution_stage":"allotted"}},{"type":"Feature","geometry":{"type":"Polygon","coordinates":[[[77.410515,28.517275],[77.410111,28.517471],[77.409666,28.516763],[77.41007,28.516565],[77.410515,28.517275]]]},"properties":{"objectid":1642,"plotmapid":"85C011IND","property_t":"Industrial","used":"NA","allotted_p":"Yes","plotsizesq":4050,"plot_size":"4050 SQMT","plot_no":"011","sector":"85","block":"C","mplanduse":"B","ppt_type":"IND","ppt_full":"Industrial","authority":"NOIDA","category":"industrial","execution_stage":"allotted"}},{"type":"Feature","geometry":{"type":"Polygon","coordinates":[[[77.406456,28.518285],[77.407193,28.517927],[77.407668,28.518681],[77.406924,28.519037],[77.406456,28.518285]]]},"properties":{"objectid":1649,"plotmapid":"85B11&12IND","property_t":"Industrial","used":"NA","plotsizesq":7980,"plot_size":"7980 SQMT","plot_no":"11&12","sector":"85","block":"B","mplanduse":"B","ppt_type":"IND","ppt_full":"Industrial","authority":"NOIDA","category":"industrial","execution_stage":"unknown"}},{"type":"Feature","geometry":{"type":"Polygon","coordinates":[[[77.406077,28.518469],[77.406053,28.518481],[77.405581,28.517733],[77.405957,28.517552],[77.406431,28.518297],[77.406077,28.518469]]]},"properties":{"objectid":1650,"plotmapid":"85B015IND","property_t":"Industrial","used":"NA","allotted_p":"Yes","plotsizesq":3990,"plot_size":"3990 SQMT","plot_no":"015","sector":"85","block":"B","mplanduse":"B","ppt_type":"IND","ppt_full":"Industrial","authority":"NOIDA","category":"industrial","execution_stage":"allotted"}},{"type":"Feature","geometry":{"type":"Polygon","coordinates":[[[77.406543,28.519217],[77.406162,28.519402],[77.405699,28.518655],[77.406077,28.518469],[77.406543,28.519217]]]},"properties":{"objectid":1651,"plotmapid":"85B009IND","property_t":"Industrial","used":"NA","plotsizesq":3990,"plot_size":"3990 SQMT","plot_no":"009","sector":"85","block":"B","mplanduse":"B","ppt_type":"IND","ppt_full":"Industrial","authority":"NOIDA","category":"industrial","execution_stage":"unknown"}},{"type":"Feature","geometry":{"type":"Polygon","coordinates":[[[77.415415,28.516774],[77.413798,28.517522],[77.41297,28.516865],[77.414924,28.515961],[77.415415,28.516774]]]},"properties":{"objectid":17389,"plotmapid":"138NAIND","property_t":"Industrial","used":"NA","plotsizesq":0,"plot_size":"19500","sector":"138","block":"NA","mplanduse":"V","ppt_type":"IND","ppt_full":"Industrial","authority":"NOIDA","category":"industrial","execution_stage":"unknown"}},{"type":"Feature","geometry":{"type":"Polygon","coordinates":[[[77.415907,28.517586],[77.41463,28.518177],[77.413798,28.517522],[77.415415,28.516774],[77.415907,28.517586]]]},"properties":{"objectid":17405,"plotmapid":"138NAIND","property_t":"Industrial","used":"NA","plotsizesq":0,"plot_size":"15800","sector":"138","block":"NA","mplanduse":"V","ppt_type":"IND","ppt_full":"Industrial","authority":"NOIDA","category":"industrial","execution_stage":"unknown"}},{"type":"Feature","geometry":{"type":"Polygon","coordinates":[[[77.412036,28.524495],[77.412229,28.524821],[77.411515,28.52521],[77.411321,28.524884],[77.412036,28.524495]]]},"properties":{"objectid":60477,"plotmapid":"87B001IND","property_t":"Industrial","used":"NA","plotsizesq":3200,"plot_size":"3200 SQMT","plot_no":"001","sector":"87","block":"B","mplanduse":"ISSUE","ppt_type":"IND","ppt_full":"Industrial","authority":"NOIDA","category":"industrial","execution_stage":"unknown"}},{"type":"Feature","geometry":{"type":"Polygon","coordinates":[[[77.41275,28.524105],[77.412944,28.524431],[77.412229,28.524821],[77.412036,28.524495],[77.41275,28.524105]]]},"properties":{"objectid":60478,"plotmapid":"87B013IND","property_t":"Industrial","used":"NA","plotsizesq":3200,"plot_size":"3200 SQMT","plot_no":"013","sector":"87","block":"B","mplanduse":"ISSUE","ppt_type":"IND","ppt_full":"Industrial","authority":"NOIDA","category":"industrial","execution_stage":"unknown"}},{"type":"Feature","geometry":{"type":"Polygon","coordinates":[[[77.414573,28.523424],[77.414743,28.523709],[77.414207,28.524001],[77.414037,28.523716],[77.414573,28.523424]]]},"properties":{"objectid":60479,"plotmapid":"87B016IND","property_t":"Industrial","used":"NA","plotsizesq":2100,"plot_size":"2100 SQMT","plot_no":"016","sector":"87","block":"B","mplanduse":"ISSUE","ppt_type":"IND","ppt_full":"Industrial","authority":"NOIDA","category":"industrial","execution_stage":"unknown"}},{"type":"Feature","geometry":{"type":"Polygon","coordinates":[[[77.415109,28.523131],[77.415279,28.523417],[77.414743,28.523709],[77.414573,28.523424],[77.415109,28.523131]]]},"properties":{"objectid":60480,"plotmapid":"87B027IND","property_t":"Industrial","used":"NA","plotsizesq":2100,"plot_size":"2100 SQMT","plot_no":"027","sector":"87","block":"B","mplanduse":"ISSUE","ppt_type":"IND","ppt_full":"Industrial","authority":"NOIDA","category":"industrial","execution_stage":"unknown"}},{"type":"Feature","geometry":{"type":"Polygon","coordinates":[[[77.412229,28.524821],[77.412423,28.525147],[77.411708,28.525537],[77.411515,28.52521],[77.412229,28.524821]]]},"properties":{"objectid":60481,"plotmapid":"87B002IND","property_t":"Industrial","used":"NA","plotsizesq":3200,"plot_size":"3200 SQMT","plot_no":"002","sector":"87","block":"B","mplanduse":"ISSUE","ppt_type":"IND","ppt_full":"Industrial","authority":"NOIDA","category":"industrial","execution_stage":"unknown"}},{"type":"Feature","geometry":{"type":"Polygon","coordinates":[[[77.412944,28.524431],[77.413138,28.524758],[77.412423,28.525147],[77.412229,28.524821],[77.412944,28.524431]]]},"properties":{"objectid":60482,"plotmapid":"87B012IND","property_t":"Industrial","used":"NA","plotsizesq":3200,"plot_size":"3200 SQMT","plot_no":"012","sector":"87","block":"B","mplanduse":"ISSUE","ppt_type":"IND","ppt_full":"Industrial","authority":"NOIDA","category":"industrial","execution_stage":"unknown"}},{"type":"Feature","geometry":{"type":"Polygon","coordinates":[[[77.414743,28.523709],[77.414912,28.523994],[77.414376,28.524287],[77.414207,28.524001],[77.414743,28.523709]]]},"properties":{"objectid":60483,"plotmapid":"87B017IND","property_t":"Industrial","used":"NA","plotsizesq":2100,"plot_size":"2100 SQMT","plot_no":"017","sector":"87","block":"B","mplanduse":"ISSUE","ppt_type":"IND","ppt_full":"Industrial","authority":"NOIDA","category":"industrial","execution_stage":"unknown"}},{"type":"Feature","geometry":{"type":"Polygon","coordinates":[[[77.415279,28.523417],[77.415448,28.523702],[77.414912,28.523994],[77.414743,28.523709],[77.415279,28.523417]]]},"properties":{"objectid":60484,"plotmapid":"87B026IND","property_t":"Industrial","used":"NA","plotsizesq":2100,"plot_size":"2100 SQMT","plot_no":"026","sector":"87","block":"B","mplanduse":"ISSUE","ppt_type":"IND","ppt_full":"Industrial","authority":"NOIDA","category":"industrial","execution_stage":"unknown"}},{"type":"Feature","geometry":{"type":"Polygon","coordinates":[[[77.413517,28.523999],[77.413905,28.524651],[77.413492,28.524876],[77.413105,28.524224],[77.413517,28.523999]]]},"properties":{"objectid":60485,"plotmapid":"87BIND","property_t":"Industrial","used":"NA","plotsizesq":0,"sector":"87","block":"B","mplanduse":"ISSUE","ppt_type":"IND","ppt_full":"Industrial","authority":"NOIDA","category":"industrial","execution_stage":"unknown"}},{"type":"Feature","geometry":{"type":"Polygon","coordinates":[[[77.41393,28.523774],[77.414318,28.524427],[77.413905,28.524651],[77.413517,28.523999],[77.41393,28.523774]]]},"properties":{"objectid":60486,"plotmapid":"87BIND","property_t":"Industrial","used":"NA","plotsizesq":0,"sector":"87","block":"B","mplanduse":"ISSUE","ppt_type":"IND","ppt_full":"Industrial","authority":"NOIDA","category":"industrial","execution_stage":"unknown"}},{"type":"Feature","geometry":{"type":"Polygon","coordinates":[[[77.412423,28.525147],[77.412617,28.525473],[77.411902,28.525863],[77.411708,28.525537],[77.412423,28.525147]]]},"properties":{"objectid":60487,"plotmapid":"87B003IND","property_t":"Industrial","used":"NA","plotsizesq":3200,"plot_size":"3200 SQMT","plot_no":"003","sector":"87","block":"B","mplanduse":"ISSUE","ppt_type":"IND","ppt_full":"Industrial","authority":"NOIDA","category":"industrial","execution_stage":"unknown"}},{"type":"Feature","geometry":{"type":"Polygon","coordinates":[[[77.413138,28.524758],[77.413332,28.525084],[77.412617,28.525473],[77.412423,28.525147],[77.413138,28.524758]]]},"properties":{"objectid":60488,"plotmapid":"87B011IND","property_t":"Industrial","used":"NA","plotsizesq":3200,"plot_size":"3200 SQMT","plot_no":"011","sector":"87","block":"B","mplanduse":"ISSUE","ppt_type":"IND","ppt_full":"Industrial","authority":"NOIDA","category":"industrial","execution_stage":"unknown"}},{"type":"Feature","geometry":{"type":"Polygon","coordinates":[[[77.414912,28.523994],[77.415082,28.52428],[77.414546,28.524572],[77.414376,28.524287],[77.414912,28.523994]]]},"properties":{"objectid":60489,"plotmapid":"87B018IND","property_t":"Industrial","used":"NA","plotsizesq":2100,"plot_size":"2100 SQMT","plot_no":"018","sector":"87","block":"B","mplanduse":"ISSUE","ppt_type":"IND","ppt_full":"Industrial","authority":"NOIDA","category":"industrial","execution_stage":"unknown"}},{"type":"Feature","geometry":{"type":"Polygon","coordinates":[[[77.415448,28.523702],[77.415618,28.523988],[77.415082,28.52428],[77.414912,28.523994],[77.415448,28.523702]]]},"properties":{"objectid":60490,"plotmapid":"87B025IND","property_t":"Industrial","used":"NA","plotsizesq":2100,"plot_size":"2100 SQMT","plot_no":"025","sector":"87","block":"B","mplanduse":"ISSUE","ppt_type":"IND","ppt_full":"Industrial","authority":"NOIDA","category":"industrial","execution_stage":"unknown"}},{"type":"Feature","geometry":{"type":"Polygon","coordinates":[[[77.412617,28.525473],[77.412811,28.525799],[77.412096,28.526189],[77.411902,28.525863],[77.412617,28.525473]]]},"properties":{"objectid":60491,"plotmapid":"87B004IND","property_t":"Industrial","used":"NA","plotsizesq":3200,"plot_size":"3200 SQMT","plot_no":"004","sector":"87","block":"B","mplanduse":"ISSUE","ppt_type":"IND","ppt_full":"Industrial","authority":"NOIDA","category":"industrial","execution_stage":"unknown"}},{"type":"Feature","geometry":{"type":"Polygon","coordinates":[[[77.413332,28.525084],[77.413525,28.52541],[77.412811,28.525799],[77.412617,28.525473],[77.413332,28.525084]]]},"properties":{"objectid":60492,"plotmapid":"87B010IND","property_t":"Industrial","used":"NA","plotsizesq":3200,"plot_size":"3200 SQMT","plot_no":"010","sector":"87","block":"B","mplanduse":"ISSUE","ppt_type":"IND","ppt_full":"Industrial","authority":"NOIDA","category":"industrial","execution_stage":"unknown"}},{"type":"Feature","geometry":{"type":"Polygon","coordinates":[[[77.415082,28.52428],[77.415251,28.524565],[77.414715,28.524857],[77.414546,28.524572],[77.415082,28.52428]]]},"properties":{"objectid":60493,"plotmapid":"87B019IND","property_t":"Industrial","used":"NA","plotsizesq":2100,"plot_size":"2100 SQMT","plot_no":"019","sector":"87","block":"B","mplanduse":"ISSUE","ppt_type":"IND","ppt_full":"Industrial","authority":"NOIDA","category":"industrial","execution_stage":"unknown"}},{"type":"Feature","geometry":{"type":"Polygon","coordinates":[[[77.412811,28.525799],[77.413004,28.526126],[77.41229,28.526515],[77.412096,28.526189],[77.412811,28.525799]]]},"properties":{"objectid":60495,"plotmapid":"87B005IND","property_t":"Industrial","used":"NA","plotsizesq":3200,"plot_size":"3200 SQMT","plot_no":"005","sector":"87","block":"B","mplanduse":"ISSUE","ppt_type":"IND","ppt_full":"Industrial","authority":"NOIDA","category":"industrial","execution_stage":"unknown"}},{"type":"Feature","geometry":{"type":"Polygon","coordinates":[[[77.413525,28.52541],[77.413719,28.525736],[77.413004,28.526126],[77.412811,28.525799],[77.413525,28.52541]]]},"properties":{"objectid":60496,"plotmapid":"87B009IND","property_t":"Industrial","used":"NA","plotsizesq":3200,"plot_size":"3200 SQMT","plot_no":"009","sector":"87","block":"B","mplanduse":"ISSUE","ppt_type":"IND","ppt_full":"Industrial","authority":"NOIDA","category":"industrial","execution_stage":"unknown"}},{"type":"Feature","geometry":{"type":"Polygon","coordinates":[[[77.415251,28.524565],[77.415421,28.524851],[77.414885,28.525143],[77.414715,28.524857],[77.415251,28.524565]]]},"properties":{"objectid":60497,"plotmapid":"87B020IND","property_t":"Industrial","used":"NA","plotsizesq":2100,"plot_size":"2100 SQMT","plot_no":"020","sector":"87","block":"B","mplanduse":"ISSUE","ppt_type":"IND","ppt_full":"Industrial","authority":"NOIDA","category":"industrial","execution_stage":"unknown"}},{"type":"Feature","geometry":{"type":"Polygon","coordinates":[[[77.415421,28.524851],[77.41559,28.525136],[77.415054,28.525428],[77.414885,28.525143],[77.415421,28.524851]]]},"properties":{"objectid":60501,"plotmapid":"87B021IND","property_t":"Industrial","used":"NA","plotsizesq":2100,"plot_size":"2100 SQMT","plot_no":"021","sector":"87","block":"B","mplanduse":"ISSUE","ppt_type":"IND","ppt_full":"Industrial","authority":"NOIDA","category":"industrial","execution_stage":"unknown"}},{"type":"Feature","geometry":{"type":"Polygon","coordinates":[[[77.413719,28.525736],[77.413913,28.526062],[77.413198,28.526452],[77.413004,28.526126],[77.413719,28.525736]]]},"properties":{"objectid":60503,"plotmapid":"87B008IND","property_t":"Industrial","used":"NA","plotsizesq":3200,"plot_size":"3200 SQMT","plot_no":"008","sector":"87","block":"B","mplanduse":"ISSUE","ppt_type":"IND","ppt_full":"Industrial","authority":"NOIDA","category":"industrial","execution_stage":"unknown"}},{"type":"Feature","geometry":{"type":"Polygon","coordinates":[[[77.413198,28.526452],[77.413308,28.526637],[77.412374,28.526656],[77.41229,28.526515],[77.413004,28.526126],[77.413198,28.526452]]]},"properties":{"objectid":60504,"plotmapid":"87B006IND","property_t":"Industrial","used":"NA","plotsizesq":0,"plot_no":"006","sector":"87","block":"B","mplanduse":"ISSUE","ppt_type":"IND","ppt_full":"Industrial","authority":"NOIDA","category":"industrial","execution_stage":"unknown"}},{"type":"Feature","geometry":{"type":"Polygon","coordinates":[[[77.413913,28.526062],[77.414243,28.526619],[77.413308,28.526637],[77.413198,28.526452],[77.413913,28.526062]]]},"properties":{"objectid":60505,"plotmapid":"87B007IND","property_t":"Industrial","used":"NA","plotsizesq":0,"plot_no":"007","sector":"87","block":"B","mplanduse":"ISSUE","ppt_type":"IND","ppt_full":"Industrial","authority":"NOIDA","category":"industrial","execution_stage":"unknown"}},{"type":"Feature","geometry":{"type":"Polygon","coordinates":[[[77.410526,28.526903],[77.409679,28.526925],[77.409194,28.526197],[77.409832,28.525862],[77.410526,28.526903]]]},"properties":{"objectid":61252,"plotmapid":"84A018IND","property_t":"Industrial","used":"NA","plotsizesq":8000,"plot_size":"8000 SQMT","plot_no":"018","sector":"84","block":"A","mplanduse":"V","ppt_type":"IND","ppt_full":"Industrial","remark":"As per drone is vacant ,not Alloted & not buildup","authority":"NOIDA","category":"industrial","execution_stage":"unknown"}},{"type":"Feature","geometry":{"type":"Polygon","coordinates":[[[77.409679,28.526925],[77.408484,28.526956],[77.408293,28.52667],[77.409194,28.526197],[77.409679,28.526925]]]},"properties":{"objectid":61253,"plotmapid":"84A017IND","property_t":"Industrial","used":"NA","plotsizesq":8000,"plot_size":"8000 SQMT","plot_no":"017","sector":"84","block":"A","mplanduse":"V","ppt_type":"IND","ppt_full":"Industrial","remark":"As per drone is vacant ,not Alloted & not buildup","authority":"NOIDA","category":"industrial","execution_stage":"unknown"}},{"type":"Feature","geometry":{"type":"Polygon","coordinates":[[[77.411498,28.526877],[77.410526,28.526903],[77.410247,28.526484],[77.411148,28.526011],[77.411667,28.526789],[77.411498,28.526877]]]},"properties":{"objectid":61767,"plotmapid":"84A019IND","property_t":"Industrial","used":"NA","plotsizesq":8000,"plot_size":"8000 SQMT","plot_no":"019","sector":"84","block":"A","mplanduse":"B","ppt_type":"IND","ppt_full":"Industrial","authority":"NOIDA","category":"industrial","execution_stage":"unknown"}},{"type":"Feature","geometry":{"type":"Polygon","coordinates":[[[77.411148,28.526011],[77.410247,28.526484],[77.409832,28.525862],[77.410733,28.525388],[77.411148,28.526011]]]},"properties":{"objectid":61768,"plotmapid":"84A020IND","property_t":"Industrial","used":"NA","plotsizesq":8000,"plot_size":"8000 SQMT","plot_no":"020","sector":"84","block":"A","mplanduse":"B","ppt_type":"IND","ppt_full":"Industrial","authority":"NOIDA","category":"industrial","execution_stage":"unknown"}}]}
