{"type":"FeatureCollection","features":[{"type":"Feature","geometry":{"type":"Polygon","coordinates":[[[77.328144,28.598927],[77.327735,28.599372],[77.327247,28.598812],[77.327037,28.598749],[77.327383,28.598373],[77.328144,28.598927]]]},"properties":{"objectid":25627,"plotmapid":"8D015IND","property_t":"Industrial","used":"NA","allotted_p":"Yes","plotsizesq":5141.1,"plot_size":"5141.1 SQMT","plot_no":"015","sector":"8","block":"D","mplanduse":"B","ppt_type":"IND","ppt_full":"Industrial","authority":"NOIDA","category":"industrial","execution_stage":"allotted"}},{"type":"Feature","geometry":{"type":"Polygon","coordinates":[[[77.330076,28.598597],[77.330101,28.598616],[77.329889,28.598838],[77.329786,28.598759],[77.329997,28.598537],[77.330076,28.598597]]]},"properties":{"objectid":28164,"plotmapid":"11F007IND","property_t":"Industrial","used":"TYPE-C","allotted_p":"YES","plotsizesq":416,"plot_size":"416 SQMT","plot_no":"007","sector":"11","block":"F","mplanduse":"B","ppt_type":"IND","ppt_full":"Industrial","authority":"NOIDA","category":"industrial","execution_stage":"allotted"}},{"type":"Feature","geometry":{"type":"Polygon","coordinates":[[[77.330178,28.598674],[77.330202,28.598692],[77.32999,28.598915],[77.329889,28.598838],[77.330101,28.598616],[77.330178,28.598674]]]},"properties":{"objectid":28165,"plotmapid":"11F008IND","property_t":"Industrial","used":"TYPE-C","allotted_p":"YES","plotsizesq":416,"plot_size":"416 SQMT","plot_no":"008","sector":"11","block":"F","mplanduse":"B","ppt_type":"IND","ppt_full":"Industrial","authority":"NOIDA","category":"industrial","execution_stage":"allotted"}},{"type":"Feature","geometry":{"type":"Polygon","coordinates":[[[77.329559,28.598588],[77.329586,28.598608],[77.329375,28.598829],[77.329274,28.598753],[77.329484,28.598532],[77.329559,28.598588]]]},"properties":{"objectid":28196,"plotmapid":"11F070IND","property_t":"Industrial","used":"TYPE-C","allotted_p":"Yes","plotsizesq":416,"plot_size":"416 SQMT","plot_no":"070","sector":"11","block":"F","mplanduse":"B","ppt_type":"IND","ppt_full":"Industrial","authority":"NOIDA","category":"industrial","execution_stage":"allotted"}},{"type":"Feature","geometry":{"type":"Polygon","coordinates":[[[77.329662,28.598665],[77.329688,28.598685],[77.329479,28.598908],[77.329375,28.598829],[77.329586,28.598608],[77.329662,28.598665]]]},"properties":{"objectid":28197,"plotmapid":"11F069IND","property_t":"Industrial","used":"TYPE-C","allotted_p":"Yes","plotsizesq":416,"plot_size":"416 SQMT","plot_no":"069","sector":"11","block":"F","mplanduse":"B","ppt_type":"IND","ppt_full":"Industrial","authority":"NOIDA","category":"industrial","execution_stage":"allotted"}},{"type":"Feature","geometry":{"type":"Polygon","coordinates":[[[77.329764,28.598742],[77.329786,28.598759],[77.329576,28.598981],[77.329479,28.598908],[77.329688,28.598685],[77.329764,28.598742]]]},"properties":{"objectid":28198,"plotmapid":"11F068IND","property_t":"Industrial","used":"TYPE-C","allotted_p":"Yes","plotsizesq":416,"plot_size":"416 SQMT","plot_no":"068","sector":"11","block":"F","mplanduse":"B","ppt_type":"IND","ppt_full":"Industrial","authority":"NOIDA","category":"industrial","execution_stage":"allotted"}},{"type":"Feature","geometry":{"type":"Polygon","coordinates":[[[77.329865,28.59882],[77.329889,28.598838],[77.329678,28.599057],[77.329576,28.598981],[77.329786,28.598759],[77.329865,28.59882]]]},"properties":{"objectid":28199,"plotmapid":"11F067IND","property_t":"Industrial","used":"TYPE-C","allotted_p":"Yes","plotsizesq":416,"plot_size":"416 SQMT","plot_no":"067","sector":"11","block":"F","mplanduse":"B","ppt_type":"IND","ppt_full":"Industrial","authority":"NOIDA","category":"industrial","execution_stage":"allotted"}},{"type":"Feature","geometry":{"type":"Polygon","coordinates":[[[77.329967,28.598897],[77.32999,28.598915],[77.329782,28.599135],[77.329678,28.599057],[77.329889,28.598838],[77.329967,28.598897]]]},"properties":{"objectid":28200,"plotmapid":"11F066IND","property_t":"Industrial","used":"TYPE-C","allotted_p":"Yes","plotsizesq":416,"plot_size":"416 SQMT","plot_no":"066","sector":"11","block":"F","mplanduse":"B","ppt_type":"IND","ppt_full":"Industrial","authority":"NOIDA","category":"industrial","execution_stage":"allotted"}},{"type":"Feature","geometry":{"type":"Polygon","coordinates":[[[77.330068,28.598975],[77.330087,28.598989],[77.32988,28.599209],[77.329782,28.599135],[77.32999,28.598915],[77.330068,28.598975]]]},"properties":{"objectid":28201,"plotmapid":"11F065IND","property_t":"Industrial","used":"TYPE-C","allotted_p":"Yes","plotsizesq":416,"plot_size":"416 SQMT","plot_no":"065","sector":"11","block":"F","mplanduse":"B","ppt_type":"IND","ppt_full":"Industrial","authority":"NOIDA","category":"industrial","execution_stage":"allotted"}},{"type":"Feature","geometry":{"type":"Polygon","coordinates":[[[77.330169,28.599053],[77.330188,28.599067],[77.329981,28.599285],[77.32988,28.599209],[77.330087,28.598989],[77.330169,28.599053]]]},"properties":{"objectid":28202,"plotmapid":"11F064IND","property_t":"Industrial","used":"TYPE-C","allotted_p":"Yes","plotsizesq":416,"plot_size":"416 SQMT","plot_no":"064","sector":"11","block":"F","mplanduse":"B","ppt_type":"IND","ppt_full":"Industrial","authority":"NOIDA","category":"industrial","execution_stage":"allotted"}},{"type":"Feature","geometry":{"type":"Polygon","coordinates":[[[77.330271,28.59913],[77.330288,28.599144],[77.330081,28.59936],[77.329981,28.599285],[77.330188,28.599067],[77.330271,28.59913]]]},"properties":{"objectid":28203,"plotmapid":"11F063IND","property_t":"Industrial","used":"TYPE-C","allotted_p":"Yes","plotsizesq":416,"plot_size":"416 SQMT","plot_no":"063","sector":"11","block":"F","mplanduse":"B","ppt_type":"IND","ppt_full":"Industrial","authority":"NOIDA","category":"industrial","execution_stage":"allotted"}},{"type":"Feature","geometry":{"type":"Polygon","coordinates":[[[77.329062,28.598808],[77.32879,28.599092],[77.328566,28.598923],[77.328826,28.598628],[77.329062,28.598808]]]},"properties":{"objectid":28224,"plotmapid":"11G001IND","property_t":"Industrial","used":"TYPE-D","allotted_p":"Yes","plotsizesq":1221,"plot_size":"1221 SQMT","plot_no":"001","sector":"11","block":"G","mplanduse":"B","ppt_type":"IND","ppt_full":"Industrial","authority":"NOIDA","category":"industrial","execution_stage":"allotted"}},{"type":"Feature","geometry":{"type":"Polygon","coordinates":[[[77.329217,28.598927],[77.328947,28.599211],[77.32879,28.599092],[77.329062,28.598808],[77.329217,28.598927]]]},"properties":{"objectid":28225,"plotmapid":"11G002IND","property_t":"Industrial","used":"TYPE-D","allotted_p":"YES","plotsizesq":800,"plot_size":"800 SQMT","plot_no":"002","sector":"11","block":"G","mplanduse":"B","ppt_type":"IND","ppt_full":"Industrial","authority":"NOIDA","category":"industrial","execution_stage":"allotted"}},{"type":"Feature","geometry":{"type":"Polygon","coordinates":[[[77.329325,28.599009],[77.3295,28.599143],[77.329231,28.599425],[77.328947,28.599211],[77.329217,28.598927],[77.329325,28.599009]]]},"properties":{"objectid":28226,"plotmapid":"11G003,4IND","property_t":"Industrial","used":"TYPE-D","allotted_p":"YES","plotsizesq":800,"plot_size":"800 SQMT","plot_no":"003,4","sector":"11","block":"G","mplanduse":"B","ppt_type":"IND","ppt_full":"Industrial","authority":"NOIDA","category":"industrial","execution_stage":"allotted"}},{"type":"Feature","geometry":{"type":"Polygon","coordinates":[[[77.329663,28.599267],[77.329833,28.599397],[77.329566,28.599679],[77.329231,28.599425],[77.3295,28.599143],[77.329663,28.599267]]]},"properties":{"objectid":28227,"plotmapid":"11G005,6IND","property_t":"Industrial","used":"TYPE-D","allotted_p":"YES","plotsizesq":800,"plot_size":"800 SQMT","plot_no":"005,6","sector":"11","block":"G","mplanduse":"B","ppt_type":"IND","ppt_full":"Industrial","authority":"NOIDA","category":"industrial","execution_stage":"allotted"}},{"type":"Feature","geometry":{"type":"Polygon","coordinates":[[[77.329989,28.599517],[77.329724,28.599796],[77.329566,28.599679],[77.329833,28.599397],[77.329989,28.599517]]]},"properties":{"objectid":28228,"plotmapid":"11G007IND","property_t":"Industrial","used":"TYPE-D","allotted_p":"YES","plotsizesq":800,"plot_size":"800 SQMT","plot_no":"007","sector":"11","block":"G","mplanduse":"B","ppt_type":"IND","ppt_full":"Industrial","authority":"NOIDA","category":"industrial","execution_stage":"allotted"}},{"type":"Feature","geometry":{"type":"Polygon","coordinates":[[[77.330144,28.599635],[77.329879,28.599912],[77.329724,28.599796],[77.329989,28.599517],[77.330144,28.599635]]]},"properties":{"objectid":28229,"plotmapid":"11G008IND","property_t":"Industrial","used":"TYPE-D","allotted_p":"YES","plotsizesq":800,"plot_size":"800 SQMT","plot_no":"008","sector":"11","block":"G","mplanduse":"B","ppt_type":"IND","ppt_full":"Industrial","authority":"NOIDA","category":"industrial","execution_stage":"allotted"}},{"type":"Feature","geometry":{"type":"Polygon","coordinates":[[[77.3303,28.599754],[77.330036,28.600029],[77.329879,28.599912],[77.330144,28.599635],[77.3303,28.599754]]]},"properties":{"objectid":28230,"plotmapid":"11G009IND","property_t":"Industrial","used":"TYPE-D","allotted_p":"YES","plotsizesq":800,"plot_size":"800 SQMT","plot_no":"009","sector":"11","block":"G","mplanduse":"B","ppt_type":"IND","ppt_full":"Industrial","authority":"NOIDA","category":"industrial","execution_stage":"allotted"}},{"type":"Feature","geometry":{"type":"Polygon","coordinates":[[[77.328723,28.599041],[77.32879,28.599092],[77.328521,28.599374],[77.32831,28.599215],[77.328566,28.598923],[77.328723,28.599041]]]},"properties":{"objectid":28235,"plotmapid":"11G024IND","property_t":"Industrial","used":"TYPE-D","allotted_p":"Yes","plotsizesq":1146,"plot_size":"1146 SQMT","plot_no":"024","sector":"11","block":"G","mplanduse":"B","ppt_type":"IND","ppt_full":"Industrial","authority":"NOIDA","category":"industrial","execution_stage":"allotted"}},{"type":"Feature","geometry":{"type":"Polygon","coordinates":[[[77.328947,28.599211],[77.328678,28.599494],[77.328521,28.599374],[77.32879,28.599092],[77.328947,28.599211]]]},"properties":{"objectid":28236,"plotmapid":"11G023IND","property_t":"Industrial","used":"TYPE-D","allotted_p":"YES","plotsizesq":800,"plot_size":"800 SQMT","plot_no":"023","sector":"11","block":"G","mplanduse":"B","ppt_type":"IND","ppt_full":"Industrial","authority":"NOIDA","category":"industrial","execution_stage":"allotted"}},{"type":"Feature","geometry":{"type":"Polygon","coordinates":[[[77.329098,28.599325],[77.328833,28.599611],[77.328678,28.599494],[77.328947,28.599211],[77.329098,28.599325]]]},"properties":{"objectid":28237,"plotmapid":"11G022IND","property_t":"Industrial","used":"TYPE-D","allotted_p":"YES","plotsizesq":800,"plot_size":"800 SQMT","plot_no":"022","sector":"11","block":"G","mplanduse":"B","ppt_type":"IND","ppt_full":"Industrial","authority":"NOIDA","category":"industrial","execution_stage":"allotted"}},{"type":"Feature","geometry":{"type":"Polygon","coordinates":[[[77.329255,28.599443],[77.328986,28.599726],[77.328833,28.599611],[77.329098,28.599325],[77.329255,28.599443]]]},"properties":{"objectid":28238,"plotmapid":"11G021IND","property_t":"Industrial","used":"TYPE-D","allotted_p":"YES","plotsizesq":800,"plot_size":"800 SQMT","plot_no":"021","sector":"11","block":"G","mplanduse":"B","ppt_type":"IND","ppt_full":"Industrial","authority":"NOIDA","category":"industrial","execution_stage":"allotted"}},{"type":"Feature","geometry":{"type":"Polygon","coordinates":[[[77.329409,28.59956],[77.32914,28.599843],[77.328986,28.599726],[77.329255,28.599443],[77.329409,28.59956]]]},"properties":{"objectid":28239,"plotmapid":"11G020IND","property_t":"Industrial","used":"TYPE-D","allotted_p":"YES","plotsizesq":800,"plot_size":"800 SQMT","plot_no":"020","sector":"11","block":"G","mplanduse":"B","ppt_type":"IND","ppt_full":"Industrial","authority":"NOIDA","category":"industrial","execution_stage":"allotted"}},{"type":"Feature","geometry":{"type":"Polygon","coordinates":[[[77.329566,28.599679],[77.329296,28.599962],[77.32914,28.599843],[77.329409,28.59956],[77.329566,28.599679]]]},"properties":{"objectid":28240,"plotmapid":"11G019IND","property_t":"Industrial","used":"TYPE-D","allotted_p":"YES","plotsizesq":800,"plot_size":"800 SQMT","plot_no":"019","sector":"11","block":"G","mplanduse":"B","ppt_type":"IND","ppt_full":"Industrial","authority":"NOIDA","category":"industrial","execution_stage":"allotted"}},{"type":"Feature","geometry":{"type":"Polygon","coordinates":[[[77.329724,28.599796],[77.329454,28.600081],[77.329296,28.599962],[77.329566,28.599679],[77.329724,28.599796]]]},"properties":{"objectid":28241,"plotmapid":"11G018IND","property_t":"Industrial","used":"TYPE-D","allotted_p":"YES","plotsizesq":800,"plot_size":"800 SQMT","plot_no":"018","sector":"11","block":"G","mplanduse":"B","ppt_type":"IND","ppt_full":"Industrial","authority":"NOIDA","category":"industrial","execution_stage":"allotted"}},{"type":"Feature","geometry":{"type":"Polygon","coordinates":[[[77.329879,28.599912],[77.329607,28.600196],[77.329454,28.600081],[77.329724,28.599796],[77.329879,28.599912]]]},"properties":{"objectid":28242,"plotmapid":"11G017IND","property_t":"Industrial","used":"TYPE-D","allotted_p":"YES","plotsizesq":800,"plot_size":"800 SQMT","plot_no":"017","sector":"11","block":"G","mplanduse":"B","ppt_type":"IND","ppt_full":"Industrial","authority":"NOIDA","category":"industrial","execution_stage":"allotted"}},{"type":"Feature","geometry":{"type":"Polygon","coordinates":[[[77.330036,28.600029],[77.32978,28.600296],[77.329717,28.60028],[77.329607,28.600196],[77.329879,28.599912],[77.330036,28.600029]]]},"properties":{"objectid":28243,"plotmapid":"11G016IND","property_t":"Industrial","used":"TYPE-D","allotted_p":"YES","plotsizesq":800,"plot_size":"800 SQMT","plot_no":"016","sector":"11","block":"G","mplanduse":"B","ppt_type":"IND","ppt_full":"Industrial","authority":"NOIDA","category":"industrial","execution_stage":"allotted"}},{"type":"Feature","geometry":{"type":"Polygon","coordinates":[[[77.330198,28.60015],[77.33001,28.600353],[77.32978,28.600296],[77.330036,28.600029],[77.330198,28.60015]]]},"properties":{"objectid":28244,"plotmapid":"11G015IND","property_t":"Industrial","used":"TYPE-D","allotted_p":"Yes","plotsizesq":806,"plot_size":"806 SQMT","plot_no":"015","sector":"11","block":"G","mplanduse":"B","ppt_type":"IND","ppt_full":"Industrial","authority":"NOIDA","category":"industrial","execution_stage":"allotted"}},{"type":"Feature","geometry":{"type":"Polygon","coordinates":[[[77.328898,28.599863],[77.328621,28.600154],[77.328091,28.600025],[77.327788,28.599801],[77.328197,28.599344],[77.328898,28.599863]]]},"properties":{"objectid":28245,"plotmapid":"11G025IND","property_t":"Industrial","used":"TYPE-F","allotted_p":"Yes","plotsizesq":5276,"plot_size":"5276 SQMT","plot_no":"025","sector":"11","block":"G","mplanduse":"B","ppt_type":"IND","ppt_full":"Industrial","authority":"NOIDA","category":"industrial","execution_stage":"allotted"}}]}
