{"type":"FeatureCollection","features":[{"type":"Feature","geometry":{"type":"Polygon","coordinates":[[[77.375566,28.627942],[77.375441,28.627951],[77.375419,28.627725],[77.375544,28.627715],[77.375566,28.627942]]]},"properties":{"objectid":9968,"plotmapid":"63H001A/22IND","property_t":"Industrial","used":"PLOT","plotsizesq":300,"plot_size":"300 SQMT","plot_no":"001A/22","sector":"63","block":"H","mplanduse":"V","ppt_type":"IND","ppt_full":"Industrial","remark":"As per drone is vacant ,not Alloted & not buildup","authority":"NOIDA","category":"industrial","execution_stage":"unknown"}},{"type":"Feature","geometry":{"type":"Polygon","coordinates":[[[77.375906,28.629056],[77.375907,28.629066],[77.375704,28.629081],[77.375695,28.62899],[77.375898,28.628975],[77.375906,28.629056]]]},"properties":{"objectid":9969,"plotmapid":"63H001A/08IND","property_t":"Industrial","used":"PLOT","plotsizesq":1000,"plot_size":"1000 SQMT","plot_no":"001A/08","sector":"63","block":"H","mplanduse":"V","ppt_type":"IND","ppt_full":"Industrial","remark":"As per drone is vacant ,not Alloted & not buildup","authority":"NOIDA","category":"industrial","execution_stage":"unknown"}},{"type":"Feature","geometry":{"type":"Polygon","coordinates":[[[77.375576,28.629245],[77.375599,28.629473],[77.375457,28.629482],[77.375436,28.629254],[77.375576,28.629245]]]},"properties":{"objectid":9970,"plotmapid":"63H001A/03IND","property_t":"Industrial","used":"PLOT","plotsizesq":0,"plot_size":"NA","plot_no":"001A/03","sector":"63","block":"H","mplanduse":"V","ppt_type":"IND","ppt_full":"Industrial","remark":"As per drone is vacant ,not Alloted & not buildup","authority":"NOIDA","category":"industrial","execution_stage":"unknown"}},{"type":"Feature","geometry":{"type":"Polygon","coordinates":[[[77.376891,28.626518],[77.37686,28.626248],[77.377019,28.62624],[77.377043,28.626507],[77.376891,28.626518]]]},"properties":{"objectid":10103,"plotmapid":"63H103IND","property_t":"Industrial","used":"PLOT","plotsizesq":0,"plot_size":"NA","plot_no":"103","sector":"63","block":"H","mplanduse":"V","ppt_type":"IND","ppt_full":"Industrial","authority":"NOIDA","category":"industrial","execution_stage":"unknown"}},{"type":"Feature","geometry":{"type":"Polygon","coordinates":[[[77.377124,28.625707],[77.377158,28.626065],[77.376901,28.626084],[77.376868,28.625725],[77.377124,28.625707]]]},"properties":{"objectid":10104,"plotmapid":"63H148IND","property_t":"Industrial","used":"PLOT","plotsizesq":1000,"plot_size":"1000 SQMT","plot_no":"148","sector":"63","block":"H","mplanduse":"V","ppt_type":"IND","ppt_full":"Industrial","authority":"NOIDA","category":"industrial","execution_stage":"unknown"}},{"type":"Feature","geometry":{"type":"Polygon","coordinates":[[[77.37674,28.625734],[77.376689,28.625194],[77.376997,28.625171],[77.377048,28.625712],[77.37674,28.625734]]]},"properties":{"objectid":10106,"plotmapid":"63H156IND","property_t":"Industrial","used":"PLOT","plotsizesq":1800,"plot_size":"1800 SQMT","plot_no":"156","sector":"63","block":"H","mplanduse":"B","ppt_type":"IND","ppt_full":"Industrial","authority":"NOIDA","category":"industrial","execution_stage":"unknown"}},{"type":"Feature","geometry":{"type":"Polygon","coordinates":[[[77.376909,28.628643],[77.376931,28.628869],[77.376521,28.628898],[77.3765,28.628672],[77.376909,28.628643]]]},"properties":{"objectid":10109,"plotmapid":"63H074IND","property_t":"Industrial","used":"PLOT","plotsizesq":0,"plot_size":"NA","plot_no":"074","sector":"63","block":"H","mplanduse":"V","ppt_type":"IND","ppt_full":"Industrial","authority":"NOIDA","category":"industrial","execution_stage":"unknown"}},{"type":"Feature","geometry":{"type":"Polygon","coordinates":[[[77.375731,28.627202],[77.375732,28.627212],[77.375528,28.627227],[77.375519,28.627137],[77.375723,28.627122],[77.375731,28.627202]]]},"properties":{"objectid":10249,"plotmapid":"63H001A/29IND","property_t":"Industrial","used":"PLOT","plotsizesq":200,"plot_size":"200 SQMT","plot_no":"001A/29","sector":"63","block":"H","mplanduse":"B","ppt_type":"IND","ppt_full":"Industrial","authority":"NOIDA","category":"industrial","execution_stage":"unknown"}},{"type":"Feature","geometry":{"type":"Polygon","coordinates":[[[77.375571,28.625277],[77.375591,28.625501],[77.375087,28.625537],[77.375067,28.625312],[77.375571,28.625277]]]},"properties":{"objectid":10312,"plotmapid":"63H001A/46IND","property_t":"Industrial","used":"PLOT","plotsizesq":1250,"plot_size":"1250 SQMT","plot_no":"001A/46","sector":"63","block":"H","mplanduse":"B","ppt_type":"IND","ppt_full":"Industrial","authority":"NOIDA","category":"industrial","execution_stage":"unknown"}},{"type":"Feature","geometry":{"type":"Polygon","coordinates":[[[77.375611,28.625726],[77.375107,28.625762],[77.375087,28.625537],[77.375591,28.625501],[77.375611,28.625726]]]},"properties":{"objectid":10314,"plotmapid":"63H001A/45IND","property_t":"Industrial","used":"PLOT","plotsizesq":1250,"plot_size":"1250 SQMT","plot_no":"001A/45","sector":"63","block":"H","mplanduse":"B","ppt_type":"IND","ppt_full":"Industrial","authority":"NOIDA","category":"industrial","execution_stage":"unknown"}},{"type":"Feature","geometry":{"type":"Polygon","coordinates":[[[77.375732,28.627212],[77.37574,28.627302],[77.375537,28.627317],[77.375528,28.627227],[77.375732,28.627212]]]},"properties":{"objectid":10315,"plotmapid":"63H001A/28IND","property_t":"Industrial","used":"PLOT","plotsizesq":0,"plot_size":"NA","plot_no":"001A/28","sector":"63","block":"H","mplanduse":"B","ppt_type":"IND","ppt_full":"Industrial","authority":"NOIDA","category":"industrial","execution_stage":"unknown"}},{"type":"Feature","geometry":{"type":"Polygon","coordinates":[[[77.375637,28.626037],[77.375639,28.626064],[77.37552,28.626073],[77.3755,28.625849],[77.375618,28.62584],[77.375637,28.626037]]]},"properties":{"objectid":10317,"plotmapid":"63H001A/41IND","property_t":"Industrial","used":"PLOT","plotsizesq":300,"plot_size":"300 SQMT","plot_no":"001A/41","sector":"63","block":"H","mplanduse":"B","ppt_type":"IND","ppt_full":"Industrial","authority":"NOIDA","category":"industrial","execution_stage":"unknown"}},{"type":"Feature","geometry":{"type":"Polygon","coordinates":[[[77.37552,28.626073],[77.375402,28.626082],[77.37538,28.625858],[77.3755,28.625849],[77.37552,28.626073]]]},"properties":{"objectid":10318,"plotmapid":"63H001A/42IND","property_t":"Industrial","used":"PLOT","plotsizesq":300,"plot_size":"300 SQMT","plot_no":"001A/42","sector":"63","block":"H","mplanduse":"B","ppt_type":"IND","ppt_full":"Industrial","authority":"NOIDA","category":"industrial","execution_stage":"unknown"}},{"type":"Feature","geometry":{"type":"Polygon","coordinates":[[[77.375402,28.626082],[77.375279,28.626091],[77.375257,28.625868],[77.37538,28.625858],[77.375402,28.626082]]]},"properties":{"objectid":10319,"plotmapid":"63H001A/43IND","property_t":"Industrial","used":"PLOT","plotsizesq":300,"plot_size":"300 SQMT","plot_no":"001A/43","sector":"63","block":"H","mplanduse":"B","ppt_type":"IND","ppt_full":"Industrial","authority":"NOIDA","category":"industrial","execution_stage":"unknown"}},{"type":"Feature","geometry":{"type":"Polygon","coordinates":[[[77.375279,28.626091],[77.375147,28.626101],[77.375126,28.625878],[77.375257,28.625868],[77.375279,28.626091]]]},"properties":{"objectid":10320,"plotmapid":"63H001A/44IND","property_t":"Industrial","used":"PLOT","plotsizesq":0,"plot_size":"NA","plot_no":"001A/44","sector":"63","block":"H","mplanduse":"B","ppt_type":"IND","ppt_full":"Industrial","authority":"NOIDA","category":"industrial","execution_stage":"unknown"}},{"type":"Feature","geometry":{"type":"Polygon","coordinates":[[[77.375629,28.626131],[77.375638,28.626224],[77.375433,28.626238],[77.375424,28.626146],[77.375629,28.626131]]]},"properties":{"objectid":10323,"plotmapid":"63H001A/40IND","property_t":"Industrial","used":"PLOT","plotsizesq":0,"plot_size":"NA","plot_no":"001A/40","sector":"63","block":"H","mplanduse":"B","ppt_type":"IND","ppt_full":"Industrial","authority":"NOIDA","category":"industrial","execution_stage":"unknown"}},{"type":"Feature","geometry":{"type":"Polygon","coordinates":[[[77.375646,28.626311],[77.375441,28.626326],[77.375433,28.626238],[77.375638,28.626224],[77.375646,28.626311]]]},"properties":{"objectid":10324,"plotmapid":"63H001A/39IND","property_t":"Industrial","used":"PLOT","plotsizesq":200,"plot_size":"200 SQMT","plot_no":"001A/39","sector":"63","block":"H","mplanduse":"B","ppt_type":"IND","ppt_full":"Industrial","authority":"NOIDA","category":"industrial","execution_stage":"unknown"}},{"type":"Feature","geometry":{"type":"Polygon","coordinates":[[[77.375646,28.626312],[77.375655,28.626401],[77.37545,28.626416],[77.375441,28.626326],[77.375646,28.626312]]]},"properties":{"objectid":10325,"plotmapid":"63H001A/38IND","property_t":"Industrial","used":"PLOT","plotsizesq":200,"plot_size":"200 SQMT","plot_no":"001A/38","sector":"63","block":"H","mplanduse":"B","ppt_type":"IND","ppt_full":"Industrial","authority":"NOIDA","category":"industrial","execution_stage":"unknown"}},{"type":"Feature","geometry":{"type":"Polygon","coordinates":[[[77.375663,28.62649],[77.375459,28.626508],[77.37545,28.626416],[77.375655,28.626401],[77.375663,28.62649]]]},"properties":{"objectid":10328,"plotmapid":"63H001A/37IND","property_t":"Industrial","used":"PLOT","plotsizesq":200,"plot_size":"200 SQMT","plot_no":"001A/37","sector":"63","block":"H","mplanduse":"B","ppt_type":"IND","ppt_full":"Industrial","authority":"NOIDA","category":"industrial","execution_stage":"unknown"}},{"type":"Feature","geometry":{"type":"Polygon","coordinates":[[[77.375672,28.626579],[77.375467,28.626595],[77.375459,28.626508],[77.375663,28.626492],[77.375672,28.626579]]]},"properties":{"objectid":10329,"plotmapid":"63H001A/36IND","property_t":"Industrial","used":"PLOT","plotsizesq":200,"plot_size":"200 SQMT","plot_no":"001A/36","sector":"63","block":"H","mplanduse":"B","ppt_type":"IND","ppt_full":"Industrial","authority":"NOIDA","category":"industrial","execution_stage":"unknown"}},{"type":"Feature","geometry":{"type":"Polygon","coordinates":[[[77.37568,28.626668],[77.375476,28.626686],[77.375467,28.626595],[77.375672,28.62658],[77.37568,28.626668]]]},"properties":{"objectid":10330,"plotmapid":"63H001A/35IND","property_t":"Industrial","used":"PLOT","plotsizesq":200,"plot_size":"200 SQMT","plot_no":"001A/35","sector":"63","block":"H","mplanduse":"B","ppt_type":"IND","ppt_full":"Industrial","authority":"NOIDA","category":"industrial","execution_stage":"unknown"}},{"type":"Feature","geometry":{"type":"Polygon","coordinates":[[[77.375689,28.626757],[77.375485,28.626777],[77.375476,28.626686],[77.37568,28.626671],[77.375689,28.626757]]]},"properties":{"objectid":10332,"plotmapid":"63H001A/34IND","property_t":"Industrial","used":"PLOT","plotsizesq":200,"plot_size":"200 SQMT","plot_no":"001A/34","sector":"63","block":"H","mplanduse":"B","ppt_type":"IND","ppt_full":"Industrial","authority":"NOIDA","category":"industrial","execution_stage":"unknown"}},{"type":"Feature","geometry":{"type":"Polygon","coordinates":[[[77.375697,28.626846],[77.375493,28.626865],[77.375485,28.626777],[77.375689,28.626761],[77.375697,28.626846]]]},"properties":{"objectid":10334,"plotmapid":"63H001A/33IND","property_t":"Industrial","used":"PLOT","plotsizesq":200,"plot_size":"200 SQMT","plot_no":"001A/33","sector":"63","block":"H","mplanduse":"B","ppt_type":"IND","ppt_full":"Industrial","authority":"NOIDA","category":"industrial","execution_stage":"unknown"}},{"type":"Feature","geometry":{"type":"Polygon","coordinates":[[[77.375705,28.626935],[77.375502,28.626957],[77.375493,28.626865],[77.375697,28.62685],[77.375705,28.626935]]]},"properties":{"objectid":10335,"plotmapid":"63H001A/32IND","property_t":"Industrial","used":"PLOT","plotsizesq":200,"plot_size":"200 SQMT","plot_no":"001A/32","sector":"63","block":"H","mplanduse":"B","ppt_type":"IND","ppt_full":"Industrial","authority":"NOIDA","category":"industrial","execution_stage":"unknown"}},{"type":"Feature","geometry":{"type":"Polygon","coordinates":[[[77.375714,28.627024],[77.375511,28.627048],[77.375502,28.626957],[77.375706,28.626942],[77.375714,28.627024]]]},"properties":{"objectid":10336,"plotmapid":"63H001A/31IND","property_t":"Industrial","used":"PLOT","plotsizesq":200,"plot_size":"200 SQMT","plot_no":"001A/31","sector":"63","block":"H","mplanduse":"B","ppt_type":"IND","ppt_full":"Industrial","authority":"NOIDA","category":"industrial","execution_stage":"unknown"}},{"type":"Feature","geometry":{"type":"Polygon","coordinates":[[[77.375722,28.627113],[77.375519,28.627137],[77.375511,28.627048],[77.375715,28.627033],[77.375722,28.627113]]]},"properties":{"objectid":10337,"plotmapid":"63H001A/30IND","property_t":"Industrial","used":"PLOT","plotsizesq":200,"plot_size":"200 SQMT","plot_no":"001A/30","sector":"63","block":"H","mplanduse":"B","ppt_type":"IND","ppt_full":"Industrial","authority":"NOIDA","category":"industrial","execution_stage":"unknown"}},{"type":"Feature","geometry":{"type":"Polygon","coordinates":[[[77.375657,28.627596],[77.375535,28.627605],[77.375515,28.627381],[77.375638,28.627372],[77.375657,28.627596]]]},"properties":{"objectid":10338,"plotmapid":"63H001A/26IND","property_t":"Industrial","used":"PLOT","plotsizesq":300,"plot_size":"300 SQMT","plot_no":"001A/26","sector":"63","block":"H","mplanduse":"B","ppt_type":"IND","ppt_full":"Industrial","authority":"NOIDA","category":"industrial","execution_stage":"unknown"}},{"type":"Feature","geometry":{"type":"Polygon","coordinates":[[[77.375535,28.627605],[77.375412,28.627615],[77.375392,28.62739],[77.375515,28.627381],[77.375535,28.627605]]]},"properties":{"objectid":10339,"plotmapid":"63H001A/25IND","property_t":"Industrial","used":"PLOT","plotsizesq":300,"plot_size":"300 SQMT","plot_no":"001A/25","sector":"63","block":"H","mplanduse":"B","ppt_type":"IND","ppt_full":"Industrial","authority":"NOIDA","category":"industrial","execution_stage":"unknown"}},{"type":"Feature","geometry":{"type":"Polygon","coordinates":[[[77.375412,28.627615],[77.375287,28.627624],[77.375269,28.627399],[77.375392,28.62739],[77.375412,28.627615]]]},"properties":{"objectid":10340,"plotmapid":"63H001A/24IND","property_t":"Industrial","used":"PLOT","plotsizesq":0,"plot_size":"NA","plot_no":"001A/24","sector":"63","block":"H","mplanduse":"B","ppt_type":"IND","ppt_full":"Industrial","authority":"NOIDA","category":"industrial","execution_stage":"unknown"}},{"type":"Feature","geometry":{"type":"Polygon","coordinates":[[[77.375807,28.627896],[77.375809,28.627923],[77.375689,28.627932],[77.375668,28.627706],[77.375789,28.627697],[77.375807,28.627896]]]},"properties":{"objectid":10341,"plotmapid":"63H001A/20IND","property_t":"Industrial","used":"PLOT","plotsizesq":300,"plot_size":"300 SQMT","plot_no":"001A/20","sector":"63","block":"H","mplanduse":"B","ppt_type":"IND","ppt_full":"Industrial","authority":"NOIDA","category":"industrial","execution_stage":"unknown"}},{"type":"Feature","geometry":{"type":"Polygon","coordinates":[[[77.375687,28.627905],[77.375689,28.627932],[77.375566,28.627942],[77.375544,28.627715],[77.375668,28.627706],[77.375687,28.627905]]]},"properties":{"objectid":10342,"plotmapid":"63H001A/21IND","property_t":"Industrial","used":"PLOT","plotsizesq":300,"plot_size":"300 SQMT","plot_no":"001A/21","sector":"63","block":"H","mplanduse":"B","ppt_type":"IND","ppt_full":"Industrial","authority":"NOIDA","category":"industrial","execution_stage":"unknown"}},{"type":"Feature","geometry":{"type":"Polygon","coordinates":[[[77.375441,28.627951],[77.37532,28.62796],[77.375298,28.627734],[77.375419,28.627725],[77.375441,28.627951]]]},"properties":{"objectid":10343,"plotmapid":"63H001A/23IND","property_t":"Industrial","used":"PLOT","plotsizesq":0,"plot_size":"NA","plot_no":"001A/23","sector":"63","block":"H","mplanduse":"B","ppt_type":"IND","ppt_full":"Industrial","authority":"NOIDA","category":"industrial","execution_stage":"unknown"}},{"type":"Feature","geometry":{"type":"Polygon","coordinates":[[[77.375803,28.627984],[77.375813,28.62808],[77.375611,28.628095],[77.375602,28.627999],[77.375803,28.627984]]]},"properties":{"objectid":10344,"plotmapid":"63H001A/19IND","property_t":"Industrial","used":"PLOT","plotsizesq":0,"plot_size":"NA","plot_no":"001A/19","sector":"63","block":"H","mplanduse":"B","ppt_type":"IND","ppt_full":"Industrial","authority":"NOIDA","category":"industrial","execution_stage":"unknown"}},{"type":"Feature","geometry":{"type":"Polygon","coordinates":[[[77.375821,28.628167],[77.375619,28.628182],[77.375611,28.628095],[77.375813,28.62808],[77.375821,28.628167]]]},"properties":{"objectid":10346,"plotmapid":"63H001A/18IND","property_t":"Industrial","used":"PLOT","plotsizesq":1000,"plot_size":"1000 SQMT","plot_no":"001A/18","sector":"63","block":"H","mplanduse":"B","ppt_type":"IND","ppt_full":"Industrial","authority":"NOIDA","category":"industrial","execution_stage":"unknown"}},{"type":"Feature","geometry":{"type":"Polygon","coordinates":[[[77.375821,28.628168],[77.375829,28.628257],[77.375628,28.628273],[77.375619,28.628182],[77.375821,28.628168]]]},"properties":{"objectid":10347,"plotmapid":"63H001A/17IND","property_t":"Industrial","used":"PLOT","plotsizesq":1000,"plot_size":"1000 SQMT","plot_no":"001A/17","sector":"63","block":"H","mplanduse":"B","ppt_type":"IND","ppt_full":"Industrial","authority":"NOIDA","category":"industrial","execution_stage":"unknown"}},{"type":"Feature","geometry":{"type":"Polygon","coordinates":[[[77.375838,28.628346],[77.375636,28.628363],[77.375628,28.628273],[77.375829,28.628257],[77.375838,28.628346]]]},"properties":{"objectid":10348,"plotmapid":"63H001A/16IND","property_t":"Industrial","used":"PLOT","plotsizesq":1000,"plot_size":"1000 SQMT","plot_no":"001A/16","sector":"63","block":"H","mplanduse":"B","ppt_type":"IND","ppt_full":"Industrial","authority":"NOIDA","category":"industrial","execution_stage":"unknown"}},{"type":"Feature","geometry":{"type":"Polygon","coordinates":[[[77.375846,28.628435],[77.375645,28.628452],[77.375636,28.628363],[77.375838,28.628348],[77.375846,28.628435]]]},"properties":{"objectid":10349,"plotmapid":"63H001A/15IND","property_t":"Industrial","used":"PLOT","plotsizesq":1000,"plot_size":"1000 SQMT","plot_no":"001A/15","sector":"63","block":"H","mplanduse":"B","ppt_type":"IND","ppt_full":"Industrial","authority":"NOIDA","category":"industrial","execution_stage":"unknown"}},{"type":"Feature","geometry":{"type":"Polygon","coordinates":[[[77.375855,28.628523],[77.375653,28.628542],[77.375645,28.628452],[77.375847,28.628438],[77.375855,28.628523]]]},"properties":{"objectid":10350,"plotmapid":"63H001A/14IND","property_t":"Industrial","used":"PLOT","plotsizesq":1000,"plot_size":"1000 SQMT","plot_no":"001A/14","sector":"63","block":"H","mplanduse":"B","ppt_type":"IND","ppt_full":"Industrial","authority":"NOIDA","category":"industrial","execution_stage":"unknown"}},{"type":"Feature","geometry":{"type":"Polygon","coordinates":[[[77.375863,28.628612],[77.375661,28.628631],[77.375653,28.628542],[77.375855,28.628527],[77.375863,28.628612]]]},"properties":{"objectid":10351,"plotmapid":"63H001A/13IND","property_t":"Industrial","used":"PLOT","plotsizesq":1000,"plot_size":"1000 SQMT","plot_no":"001A/13","sector":"63","block":"H","mplanduse":"B","ppt_type":"IND","ppt_full":"Industrial","authority":"NOIDA","category":"industrial","execution_stage":"unknown"}},{"type":"Feature","geometry":{"type":"Polygon","coordinates":[[[77.375872,28.628701],[77.37567,28.628722],[77.375661,28.628631],[77.375864,28.628616],[77.375872,28.628701]]]},"properties":{"objectid":10352,"plotmapid":"63H001A/12IND","property_t":"Industrial","used":"PLOT","plotsizesq":1000,"plot_size":"1000 SQMT","plot_no":"001A/12","sector":"63","block":"H","mplanduse":"B","ppt_type":"IND","ppt_full":"Industrial","authority":"NOIDA","category":"industrial","execution_stage":"unknown"}},{"type":"Feature","geometry":{"type":"Polygon","coordinates":[[[77.37588,28.62879],[77.375678,28.628811],[77.37567,28.628722],[77.375872,28.628707],[77.37588,28.62879]]]},"properties":{"objectid":10353,"plotmapid":"63H001A/11IND","property_t":"Industrial","used":"PLOT","plotsizesq":1000,"plot_size":"1000 SQMT","plot_no":"001A/11","sector":"63","block":"H","mplanduse":"B","ppt_type":"IND","ppt_full":"Industrial","authority":"NOIDA","category":"industrial","execution_stage":"unknown"}},{"type":"Feature","geometry":{"type":"Polygon","coordinates":[[[77.375889,28.628878],[77.375687,28.628902],[77.375678,28.628811],[77.375881,28.628796],[77.375889,28.628878]]]},"properties":{"objectid":10354,"plotmapid":"63H001A/10IND","property_t":"Industrial","used":"PLOT","plotsizesq":1000,"plot_size":"1000 SQMT","plot_no":"001A/10","sector":"63","block":"H","mplanduse":"B","ppt_type":"IND","ppt_full":"Industrial","authority":"NOIDA","category":"industrial","execution_stage":"unknown"}},{"type":"Feature","geometry":{"type":"Polygon","coordinates":[[[77.375897,28.628967],[77.375695,28.62899],[77.375687,28.628902],[77.37589,28.628887],[77.375897,28.628967]]]},"properties":{"objectid":10355,"plotmapid":"63H001A/09IND","property_t":"Industrial","used":"PLOT","plotsizesq":1000,"plot_size":"1000 SQMT","plot_no":"001A/09","sector":"63","block":"H","mplanduse":"B","ppt_type":"IND","ppt_full":"Industrial","authority":"NOIDA","category":"industrial","execution_stage":"unknown"}},{"type":"Feature","geometry":{"type":"Polygon","coordinates":[[[77.375907,28.629066],[77.375915,28.629156],[77.375712,28.629171],[77.375704,28.629081],[77.375907,28.629066]]]},"properties":{"objectid":10356,"plotmapid":"63H001A/07IND","property_t":"Industrial","used":"PLOT","plotsizesq":0,"plot_size":"NA","plot_no":"001A/07","sector":"63","block":"H","mplanduse":"B","ppt_type":"IND","ppt_full":"Industrial","authority":"NOIDA","category":"industrial","execution_stage":"unknown"}},{"type":"Feature","geometry":{"type":"Polygon","coordinates":[[[77.375944,28.629249],[77.375963,28.62945],[77.375842,28.629458],[77.375819,28.62923],[77.375941,28.629222],[77.375944,28.629249]]]},"properties":{"objectid":10358,"plotmapid":"63H001A/06IND","property_t":"Industrial","used":"PLOT","plotsizesq":300,"plot_size":"300 SQMT","plot_no":"001A/06","sector":"63","block":"H","mplanduse":"B","ppt_type":"IND","ppt_full":"Industrial","authority":"NOIDA","category":"industrial","execution_stage":"unknown"}},{"type":"Feature","geometry":{"type":"Polygon","coordinates":[[[77.375819,28.62923],[77.375842,28.629458],[77.37572,28.629466],[77.375698,28.629237],[77.375819,28.62923]]]},"properties":{"objectid":10359,"plotmapid":"63H001A/05IND","property_t":"Industrial","used":"PLOT","plotsizesq":300,"plot_size":"300 SQMT","plot_no":"001A/05","sector":"63","block":"H","mplanduse":"B","ppt_type":"IND","ppt_full":"Industrial","authority":"NOIDA","category":"industrial","execution_stage":"unknown"}},{"type":"Feature","geometry":{"type":"Polygon","coordinates":[[[77.375698,28.629238],[77.37572,28.629466],[77.375599,28.629473],[77.375576,28.629245],[77.375698,28.629238]]]},"properties":{"objectid":10360,"plotmapid":"63H001A/04IND","property_t":"Industrial","used":"PLOT","plotsizesq":300,"plot_size":"300 SQMT","plot_no":"001A/04","sector":"63","block":"H","mplanduse":"B","ppt_type":"IND","ppt_full":"Industrial","authority":"NOIDA","category":"industrial","execution_stage":"unknown"}},{"type":"Feature","geometry":{"type":"Polygon","coordinates":[[[77.375481,28.629588],[77.375991,28.62955],[77.376011,28.629777],[77.375504,28.629818],[77.375481,28.629588]]]},"properties":{"objectid":10361,"plotmapid":"63H001A/2IND","property_t":"Industrial","used":"PLOT","plotsizesq":1250,"plot_size":"1250 SQMT","plot_no":"001A/2","sector":"63","block":"H","mplanduse":"B","ppt_type":"IND","ppt_full":"Industrial","authority":"NOIDA","category":"industrial","execution_stage":"unknown"}},{"type":"Feature","geometry":{"type":"Polygon","coordinates":[[[77.37578,28.627586],[77.375657,28.627596],[77.375638,28.627372],[77.37576,28.627363],[77.37578,28.627586]]]},"properties":{"objectid":10380,"plotmapid":"63H001A/27IND","property_t":"Industrial","used":"PLOT","plotsizesq":300,"plot_size":"300 SQMT","plot_no":"001A/27","sector":"63","block":"H","mplanduse":"B","ppt_type":"IND","ppt_full":"Industrial","authority":"NOIDA","category":"industrial","execution_stage":"unknown"}},{"type":"Feature","geometry":{"type":"Polygon","coordinates":[[[77.377295,28.630607],[77.377349,28.63121],[77.376685,28.631203],[77.376637,28.630656],[77.377295,28.630607]]]},"properties":{"objectid":11438,"plotmapid":"63H002IND","property_t":"Industrial","used":"PLOT","plotsizesq":0,"plot_size":"NA","plot_no":"002","sector":"63","block":"H","mplanduse":"B","ppt_type":"IND","ppt_full":"Industrial","authority":"NOIDA","category":"industrial","execution_stage":"unknown"}},{"type":"Feature","geometry":{"type":"Polygon","coordinates":[[[77.37703,28.630627],[77.376637,28.630656],[77.376599,28.630231],[77.376988,28.630203],[77.37703,28.630627]]]},"properties":{"objectid":11439,"plotmapid":"63H022IND","property_t":"Industrial","used":"PLOT","plotsizesq":0,"plot_size":"NA","plot_no":"022","sector":"63","block":"H","mplanduse":"B","ppt_type":"IND","ppt_full":"Industrial","authority":"NOIDA","category":"industrial","execution_stage":"unknown"}},{"type":"Feature","geometry":{"type":"Polygon","coordinates":[[[77.377328,28.630605],[77.37703,28.630627],[77.376988,28.630203],[77.377289,28.630181],[77.377328,28.630605]]]},"properties":{"objectid":11448,"plotmapid":"63H021IND","property_t":"Industrial","used":"PLOT","plotsizesq":1382,"plot_size":"1382 SQMT","plot_no":"021","sector":"63","block":"H","mplanduse":"B","ppt_type":"IND","ppt_full":"Industrial","authority":"NOIDA","category":"industrial","execution_stage":"unknown"}},{"type":"Feature","geometry":{"type":"Polygon","coordinates":[[[77.377628,28.630583],[77.377328,28.630605],[77.377289,28.630181],[77.377591,28.630158],[77.377628,28.630583]]]},"properties":{"objectid":11450,"plotmapid":"63H020IND","property_t":"Industrial","used":"PLOT","plotsizesq":1382,"plot_size":"1382 SQMT","plot_no":"020","sector":"63","block":"H","mplanduse":"B","ppt_type":"IND","ppt_full":"Industrial","authority":"NOIDA","category":"industrial","execution_stage":"unknown"}},{"type":"Feature","geometry":{"type":"Polygon","coordinates":[[[77.377135,28.629919],[77.376832,28.629941],[77.376779,28.629403],[77.37708,28.62938],[77.377135,28.629919]]]},"properties":{"objectid":11491,"plotmapid":"63H025IND","property_t":"Industrial","used":"PLOT","plotsizesq":1800,"plot_size":"1800 SQMT","plot_no":"025","sector":"63","block":"H","mplanduse":"B","ppt_type":"IND","ppt_full":"Industrial","authority":"NOIDA","category":"industrial","execution_stage":"unknown"}},{"type":"Feature","geometry":{"type":"Polygon","coordinates":[[[77.376832,28.629941],[77.376526,28.629964],[77.376474,28.629426],[77.376779,28.629403],[77.376832,28.629941]]]},"properties":{"objectid":11494,"plotmapid":"63H024IND","property_t":"Industrial","used":"PLOT","plotsizesq":1800,"plot_size":"1800 SQMT","plot_no":"024","sector":"63","block":"H","mplanduse":"B","ppt_type":"IND","ppt_full":"Industrial","authority":"NOIDA","category":"industrial","execution_stage":"unknown"}},{"type":"Feature","geometry":{"type":"Polygon","coordinates":[[[77.377438,28.629896],[77.377135,28.629919],[77.37708,28.62938],[77.377391,28.629356],[77.377438,28.629896]]]},"properties":{"objectid":11495,"plotmapid":"63H026IND","property_t":"Industrial","used":"PLOT","plotsizesq":1800,"plot_size":"1800 SQMT","plot_no":"026","sector":"63","block":"H","mplanduse":"B","ppt_type":"IND","ppt_full":"Industrial","authority":"NOIDA","category":"industrial","execution_stage":"unknown"}},{"type":"Feature","geometry":{"type":"Polygon","coordinates":[[[77.376526,28.629964],[77.376212,28.629986],[77.376162,28.629449],[77.376474,28.629426],[77.376526,28.629964]]]},"properties":{"objectid":11499,"plotmapid":"63H023IND","property_t":"Industrial","used":"PLOT","plotsizesq":0,"plot_size":"NA","plot_no":"023","sector":"63","block":"H","mplanduse":"B","ppt_type":"IND","ppt_full":"Industrial","authority":"NOIDA","category":"industrial","execution_stage":"unknown"}},{"type":"Feature","geometry":{"type":"Polygon","coordinates":[[[77.377213,28.629363],[77.376962,28.629389],[77.376922,28.629029],[77.377178,28.62901],[77.377213,28.629363]]]},"properties":{"objectid":11503,"plotmapid":"63H043IND","property_t":"Industrial","used":"PLOT","plotsizesq":1000,"plot_size":"1000 SQMT","plot_no":"043","sector":"63","block":"H","mplanduse":"B","ppt_type":"IND","ppt_full":"Industrial","authority":"NOIDA","category":"industrial","execution_stage":"unknown"}},{"type":"Feature","geometry":{"type":"Polygon","coordinates":[[[77.377468,28.629351],[77.377214,28.62937],[77.377178,28.62901],[77.377435,28.628992],[77.377468,28.629351]]]},"properties":{"objectid":11505,"plotmapid":"63H042IND","property_t":"Industrial","used":"PLOT","plotsizesq":1000,"plot_size":"1000 SQMT","plot_no":"042","sector":"63","block":"H","mplanduse":"B","ppt_type":"IND","ppt_full":"Industrial","authority":"NOIDA","category":"industrial","execution_stage":"unknown"}},{"type":"Feature","geometry":{"type":"Polygon","coordinates":[[[77.376474,28.629426],[77.376449,28.629427],[77.376413,28.629065],[77.376668,28.629047],[77.376702,28.629408],[77.376474,28.629426]]]},"properties":{"objectid":11506,"plotmapid":"63H045IND","property_t":"Industrial","used":"PLOT","plotsizesq":1000,"plot_size":"1000 SQMT","plot_no":"045","sector":"63","block":"H","mplanduse":"B","ppt_type":"IND","ppt_full":"Industrial","authority":"NOIDA","category":"industrial","execution_stage":"unknown"}},{"type":"Feature","geometry":{"type":"Polygon","coordinates":[[[77.376962,28.629389],[77.376702,28.629408],[77.376668,28.629047],[77.376922,28.629029],[77.376962,28.629389]]]},"properties":{"objectid":11508,"plotmapid":"63H044IND","property_t":"Industrial","used":"PLOT","plotsizesq":1000,"plot_size":"1000 SQMT","plot_no":"044","sector":"63","block":"H","mplanduse":"B","ppt_type":"IND","ppt_full":"Industrial","authority":"NOIDA","category":"industrial","execution_stage":"unknown"}},{"type":"Feature","geometry":{"type":"Polygon","coordinates":[[[77.376449,28.629427],[77.376162,28.629449],[77.376128,28.629086],[77.376413,28.629065],[77.376449,28.629427]]]},"properties":{"objectid":11510,"plotmapid":"63H046IND","property_t":"Industrial","used":"PLOT","plotsizesq":0,"plot_size":"NA","plot_no":"046","sector":"63","block":"H","mplanduse":"B","ppt_type":"IND","ppt_full":"Industrial","authority":"NOIDA","category":"industrial","execution_stage":"unknown"}},{"type":"Feature","geometry":{"type":"Polygon","coordinates":[[[77.377418,28.628828],[77.377262,28.628839],[77.377238,28.62857],[77.377393,28.628559],[77.377418,28.628828]]]},"properties":{"objectid":11541,"plotmapid":"63H076IND","property_t":"Industrial","used":"PLOT","plotsizesq":450,"plot_size":"450 SQMT","plot_no":"076","sector":"63","block":"H","mplanduse":"B","ppt_type":"IND","ppt_full":"Industrial","authority":"NOIDA","category":"industrial","execution_stage":"unknown"}},{"type":"Feature","geometry":{"type":"Polygon","coordinates":[[[77.377545,28.628548],[77.377393,28.628559],[77.377369,28.628291],[77.377521,28.628279],[77.377545,28.628548]]]},"properties":{"objectid":11542,"plotmapid":"63H090IND","property_t":"Industrial","used":"PLOT","plotsizesq":450,"plot_size":"450 SQMT","plot_no":"090","sector":"63","block":"H","mplanduse":"B","ppt_type":"IND","ppt_full":"Industrial","authority":"NOIDA","category":"industrial","execution_stage":"unknown"}},{"type":"Feature","geometry":{"type":"Polygon","coordinates":[[[77.377238,28.62857],[77.377086,28.628581],[77.377062,28.628315],[77.377215,28.628303],[77.377238,28.62857]]]},"properties":{"objectid":11543,"plotmapid":"63H092IND","property_t":"Industrial","used":"PLOT","plotsizesq":0,"plot_size":"NA","plot_no":"092","sector":"63","block":"H","mplanduse":"B","ppt_type":"IND","ppt_full":"Industrial","authority":"NOIDA","category":"industrial","execution_stage":"unknown"}},{"type":"Feature","geometry":{"type":"Polygon","coordinates":[[[77.377393,28.628559],[77.377238,28.62857],[77.377215,28.628303],[77.377369,28.628291],[77.377393,28.628559]]]},"properties":{"objectid":11548,"plotmapid":"63H091IND","property_t":"Industrial","used":"PLOT","plotsizesq":450,"plot_size":"450 SQMT","plot_no":"091","sector":"63","block":"H","mplanduse":"B","ppt_type":"IND","ppt_full":"Industrial","authority":"NOIDA","category":"industrial","execution_stage":"unknown"}},{"type":"Feature","geometry":{"type":"Polygon","coordinates":[[[77.377262,28.628839],[77.37711,28.62885],[77.377086,28.628581],[77.377238,28.62857],[77.377262,28.628839]]]},"properties":{"objectid":11554,"plotmapid":"63H075IND","property_t":"Industrial","used":"PLOT","plotsizesq":0,"plot_size":"NA","plot_no":"075","sector":"63","block":"H","mplanduse":"B","ppt_type":"IND","ppt_full":"Industrial","authority":"NOIDA","category":"industrial","execution_stage":"unknown"}},{"type":"Feature","geometry":{"type":"Polygon","coordinates":[[[77.377222,28.626765],[77.377066,28.626776],[77.377043,28.626507],[77.377195,28.626496],[77.377222,28.626765]]]},"properties":{"objectid":11559,"plotmapid":"63H101IND","property_t":"Industrial","used":"PLOT","plotsizesq":450,"plot_size":"450 SQMT","plot_no":"101","sector":"63","block":"H","mplanduse":"B","ppt_type":"IND","ppt_full":"Industrial","authority":"NOIDA","category":"industrial","execution_stage":"unknown"}},{"type":"Feature","geometry":{"type":"Polygon","coordinates":[[[77.377195,28.626496],[77.377043,28.626507],[77.377019,28.62624],[77.377169,28.626229],[77.377195,28.626496]]]},"properties":{"objectid":11560,"plotmapid":"63H104IND","property_t":"Industrial","used":"PLOT","plotsizesq":450,"plot_size":"450 SQMT","plot_no":"104","sector":"63","block":"H","mplanduse":"B","ppt_type":"IND","ppt_full":"Industrial","authority":"NOIDA","category":"industrial","execution_stage":"unknown"}},{"type":"Feature","geometry":{"type":"Polygon","coordinates":[[[77.377349,28.626486],[77.377195,28.626496],[77.377169,28.626229],[77.377322,28.626218],[77.377349,28.626486]]]},"properties":{"objectid":11563,"plotmapid":"63H105IND","property_t":"Industrial","used":"PLOT","plotsizesq":450,"plot_size":"450 SQMT","plot_no":"105","sector":"63","block":"H","mplanduse":"B","ppt_type":"IND","ppt_full":"Industrial","authority":"NOIDA","category":"industrial","execution_stage":"unknown"}},{"type":"Feature","geometry":{"type":"Polygon","coordinates":[[[77.377501,28.626475],[77.377349,28.626486],[77.377322,28.626218],[77.377477,28.626206],[77.377501,28.626475]]]},"properties":{"objectid":11565,"plotmapid":"63H106IND","property_t":"Industrial","used":"PLOT","plotsizesq":450,"plot_size":"450 SQMT","plot_no":"106","sector":"63","block":"H","mplanduse":"B","ppt_type":"IND","ppt_full":"Industrial","authority":"NOIDA","category":"industrial","execution_stage":"unknown"}},{"type":"Feature","geometry":{"type":"Polygon","coordinates":[[[77.377066,28.626776],[77.376914,28.626787],[77.376887,28.626518],[77.377043,28.626507],[77.377066,28.626776]]]},"properties":{"objectid":11568,"plotmapid":"63H102IND","property_t":"Industrial","used":"PLOT","plotsizesq":0,"plot_size":"NA","plot_no":"102","sector":"63","block":"H","mplanduse":"B","ppt_type":"IND","ppt_full":"Industrial","authority":"NOIDA","category":"industrial","execution_stage":"unknown"}},{"type":"Feature","geometry":{"type":"Polygon","coordinates":[[[77.377526,28.626743],[77.377375,28.626754],[77.377349,28.626486],[77.377501,28.626475],[77.377526,28.626743]]]},"properties":{"objectid":11569,"plotmapid":"63H099`IND","property_t":"Industrial","used":"PLOT","plotsizesq":450,"plot_size":"450 SQMT","plot_no":"099`","sector":"63","block":"H","mplanduse":"B","ppt_type":"IND","ppt_full":"Industrial","authority":"NOIDA","category":"industrial","execution_stage":"unknown"}},{"type":"Feature","geometry":{"type":"Polygon","coordinates":[[[77.377375,28.626754],[77.377222,28.626765],[77.377195,28.626496],[77.377349,28.626486],[77.377375,28.626754]]]},"properties":{"objectid":11573,"plotmapid":"63H100IND","property_t":"Industrial","used":"PLOT","plotsizesq":450,"plot_size":"450 SQMT","plot_no":"100","sector":"63","block":"H","mplanduse":"B","ppt_type":"IND","ppt_full":"Industrial","authority":"NOIDA","category":"industrial","execution_stage":"unknown"}},{"type":"Feature","geometry":{"type":"Polygon","coordinates":[[[77.376613,28.625744],[77.376435,28.625756],[77.376384,28.625216],[77.376689,28.625194],[77.37674,28.625734],[77.376613,28.625744]]]},"properties":{"objectid":11576,"plotmapid":"63H155IND","property_t":"Industrial","used":"PLOT","plotsizesq":1800,"plot_size":"1800 SQMT","plot_no":"155","sector":"63","block":"H","mplanduse":"B","ppt_type":"IND","ppt_full":"Industrial","authority":"NOIDA","category":"industrial","execution_stage":"unknown"}},{"type":"Feature","geometry":{"type":"Polygon","coordinates":[[[77.376384,28.625219],[77.376435,28.625756],[77.376104,28.62578],[77.376129,28.625778],[77.376078,28.62524],[77.376384,28.625219]]]},"properties":{"objectid":11577,"plotmapid":"63H154IND","property_t":"Industrial","used":"PLOT","plotsizesq":1800,"plot_size":"1800 SQMT","plot_no":"154","sector":"63","block":"H","mplanduse":"B","ppt_type":"IND","ppt_full":"Industrial","authority":"NOIDA","category":"industrial","execution_stage":"unknown"}},{"type":"Feature","geometry":{"type":"Polygon","coordinates":[[[77.376078,28.625241],[77.376129,28.625778],[77.375816,28.625801],[77.375766,28.625264],[77.376078,28.625241]]]},"properties":{"objectid":11580,"plotmapid":"63H153IND","property_t":"Industrial","used":"PLOT","plotsizesq":0,"plot_size":"NA","plot_no":"153","sector":"63","block":"H","mplanduse":"B","ppt_type":"IND","ppt_full":"Industrial","authority":"NOIDA","category":"industrial","execution_stage":"unknown"}},{"type":"Feature","geometry":{"type":"Polygon","coordinates":[[[77.376391,28.626121],[77.376138,28.626139],[77.376104,28.62578],[77.376435,28.625756],[77.376357,28.625762],[77.376391,28.626121]]]},"properties":{"objectid":11583,"plotmapid":"63H151IND","property_t":"Industrial","used":"PLOT","plotsizesq":1000,"plot_size":"1000 SQMT","plot_no":"151","sector":"63","block":"H","mplanduse":"B","ppt_type":"IND","ppt_full":"Industrial","authority":"NOIDA","category":"industrial","execution_stage":"unknown"}},{"type":"Feature","geometry":{"type":"Polygon","coordinates":[[[77.376647,28.626102],[77.376391,28.626121],[77.376357,28.625762],[77.376613,28.625744],[77.376647,28.626102]]]},"properties":{"objectid":11584,"plotmapid":"63H150IND","property_t":"Industrial","used":"PLOT","plotsizesq":1000,"plot_size":"1000 SQMT","plot_no":"150","sector":"63","block":"H","mplanduse":"B","ppt_type":"IND","ppt_full":"Industrial","authority":"NOIDA","category":"industrial","execution_stage":"unknown"}},{"type":"Feature","geometry":{"type":"Polygon","coordinates":[[[77.376138,28.626139],[77.375846,28.626161],[77.375814,28.625801],[77.376104,28.62578],[77.376138,28.626139]]]},"properties":{"objectid":11586,"plotmapid":"63H152IND","property_t":"Industrial","used":"PLOT","plotsizesq":0,"plot_size":"NA","plot_no":"152","sector":"63","block":"H","mplanduse":"B","ppt_type":"IND","ppt_full":"Industrial","authority":"NOIDA","category":"industrial","execution_stage":"unknown"}},{"type":"Feature","geometry":{"type":"Polygon","coordinates":[[[77.377436,28.626045],[77.377158,28.626065],[77.377124,28.625707],[77.377403,28.625687],[77.377436,28.626045]]]},"properties":{"objectid":11587,"plotmapid":"63H147IND","property_t":"Industrial","used":"PLOT","plotsizesq":1000,"plot_size":"1000 SQMT","plot_no":"147","sector":"63","block":"H","mplanduse":"B","ppt_type":"IND","ppt_full":"Industrial","authority":"NOIDA","category":"industrial","execution_stage":"unknown"}},{"type":"Feature","geometry":{"type":"Polygon","coordinates":[[[77.376901,28.626084],[77.376647,28.626102],[77.376613,28.625744],[77.376868,28.625725],[77.376901,28.626084]]]},"properties":{"objectid":11588,"plotmapid":"63H149IND","property_t":"Industrial","used":"PLOT","plotsizesq":1000,"plot_size":"1000 SQMT","plot_no":"149","sector":"63","block":"H","mplanduse":"B","ppt_type":"IND","ppt_full":"Industrial","authority":"NOIDA","category":"industrial","execution_stage":"unknown"}},{"type":"Feature","geometry":{"type":"Polygon","coordinates":[[[77.377124,28.625707],[77.377048,28.625712],[77.376997,28.625171],[77.377303,28.625149],[77.377353,28.62569],[77.377124,28.625707]]]},"properties":{"objectid":11589,"plotmapid":"63H157IND","property_t":"Industrial","used":"PLOT","plotsizesq":1800,"plot_size":"1800 SQMT","plot_no":"157","sector":"63","block":"H","mplanduse":"B","ppt_type":"IND","ppt_full":"Industrial","authority":"NOIDA","category":"industrial","execution_stage":"unknown"}},{"type":"Feature","geometry":{"type":"Polygon","coordinates":[[[77.3765,28.628673],[77.376521,28.628898],[77.376118,28.628921],[77.376096,28.628703],[77.3765,28.628673]]]},"properties":{"objectid":11594,"plotmapid":"63H047IND","property_t":"Industrial","used":"PLOT","plotsizesq":0,"plot_size":"NA","plot_no":"047","sector":"63","block":"H","mplanduse":"B","ppt_type":"IND","ppt_full":"Industrial","authority":"NOIDA","category":"industrial","execution_stage":"unknown"}},{"type":"Feature","geometry":{"type":"Polygon","coordinates":[[[77.376752,28.627026],[77.376345,28.627056],[77.376327,28.626878],[77.376734,28.626848],[77.376752,28.627026]]]},"properties":{"objectid":11595,"plotmapid":"63H064IND","property_t":"Industrial","used":"PLOT","plotsizesq":800,"plot_size":"800 SQMT","plot_no":"064","sector":"63","block":"H","mplanduse":"B","ppt_type":"IND","ppt_full":"Industrial","authority":"NOIDA","category":"industrial","execution_stage":"unknown"}},{"type":"Feature","geometry":{"type":"Polygon","coordinates":[[[77.376822,28.627746],[77.376415,28.627773],[77.376397,28.627594],[77.376805,28.627567],[77.376822,28.627746]]]},"properties":{"objectid":11596,"plotmapid":"63H068IND","property_t":"Industrial","used":"PLOT","plotsizesq":800,"plot_size":"800 SQMT","plot_no":"068","sector":"63","block":"H","mplanduse":"B","ppt_type":"IND","ppt_full":"Industrial","authority":"NOIDA","category":"industrial","execution_stage":"unknown"}},{"type":"Feature","geometry":{"type":"Polygon","coordinates":[[[77.376839,28.627924],[77.376433,28.627954],[77.376415,28.627773],[77.376822,28.627746],[77.376839,28.627924]]]},"properties":{"objectid":11597,"plotmapid":"63H069IND","property_t":"Industrial","used":"PLOT","plotsizesq":800,"plot_size":"800 SQMT","plot_no":"069","sector":"63","block":"H","mplanduse":"B","ppt_type":"IND","ppt_full":"Industrial","authority":"NOIDA","category":"industrial","execution_stage":"unknown"}},{"type":"Feature","geometry":{"type":"Polygon","coordinates":[[[77.376769,28.627205],[77.376363,28.627235],[77.376345,28.627056],[77.376752,28.627026],[77.376769,28.627205]]]},"properties":{"objectid":11598,"plotmapid":"63H065IND","property_t":"Industrial","used":"PLOT","plotsizesq":800,"plot_size":"800 SQMT","plot_no":"065","sector":"63","block":"H","mplanduse":"B","ppt_type":"IND","ppt_full":"Industrial","authority":"NOIDA","category":"industrial","execution_stage":"unknown"}},{"type":"Feature","geometry":{"type":"Polygon","coordinates":[[[77.376874,28.628284],[77.376464,28.628312],[77.376449,28.628133],[77.376857,28.628105],[77.376874,28.628284]]]},"properties":{"objectid":11599,"plotmapid":"63H071IND","property_t":"Industrial","used":"PLOT","plotsizesq":800,"plot_size":"800 SQMT","plot_no":"071","sector":"63","block":"H","mplanduse":"B","ppt_type":"IND","ppt_full":"Industrial","authority":"NOIDA","category":"industrial","execution_stage":"unknown"}},{"type":"Feature","geometry":{"type":"Polygon","coordinates":[[[77.376857,28.628105],[77.376449,28.628133],[77.376433,28.627954],[77.376839,28.627924],[77.376857,28.628105]]]},"properties":{"objectid":11600,"plotmapid":"63H070IND","property_t":"Industrial","used":"PLOT","plotsizesq":800,"plot_size":"800 SQMT","plot_no":"070","sector":"63","block":"H","mplanduse":"B","ppt_type":"IND","ppt_full":"Industrial","authority":"NOIDA","category":"industrial","execution_stage":"unknown"}},{"type":"Feature","geometry":{"type":"Polygon","coordinates":[[[77.376909,28.628643],[77.3765,28.628672],[77.376483,28.628493],[77.376892,28.628464],[77.376909,28.628643]]]},"properties":{"objectid":11601,"plotmapid":"63H073IND","property_t":"Industrial","used":"PLOT","plotsizesq":800,"plot_size":"800 SQMT","plot_no":"073","sector":"63","block":"H","mplanduse":"B","ppt_type":"IND","ppt_full":"Industrial","authority":"NOIDA","category":"industrial","execution_stage":"unknown"}},{"type":"Feature","geometry":{"type":"Polygon","coordinates":[[[77.376787,28.627387],[77.376381,28.627414],[77.376363,28.627235],[77.376769,28.627205],[77.376787,28.627387]]]},"properties":{"objectid":11602,"plotmapid":"63H066IND","property_t":"Industrial","used":"PLOT","plotsizesq":800,"plot_size":"800 SQMT","plot_no":"066","sector":"63","block":"H","mplanduse":"B","ppt_type":"IND","ppt_full":"Industrial","authority":"NOIDA","category":"industrial","execution_stage":"unknown"}},{"type":"Feature","geometry":{"type":"Polygon","coordinates":[[[77.376805,28.627567],[77.376397,28.627594],[77.376381,28.627414],[77.376787,28.627387],[77.376805,28.627567]]]},"properties":{"objectid":11603,"plotmapid":"63H067IND","property_t":"Industrial","used":"PLOT","plotsizesq":800,"plot_size":"800 SQMT","plot_no":"067","sector":"63","block":"H","mplanduse":"B","ppt_type":"IND","ppt_full":"Industrial","authority":"NOIDA","category":"industrial","execution_stage":"unknown"}},{"type":"Feature","geometry":{"type":"Polygon","coordinates":[[[77.376734,28.626848],[77.376327,28.626878],[77.376309,28.626695],[77.376717,28.626669],[77.376734,28.626848]]]},"properties":{"objectid":11604,"plotmapid":"63H063IND","property_t":"Industrial","used":"PLOT","plotsizesq":800,"plot_size":"800 SQMT","plot_no":"063","sector":"63","block":"H","mplanduse":"B","ppt_type":"IND","ppt_full":"Industrial","authority":"NOIDA","category":"industrial","execution_stage":"unknown"}},{"type":"Feature","geometry":{"type":"Polygon","coordinates":[[[77.376892,28.628464],[77.376483,28.628493],[77.376464,28.628312],[77.376874,28.628284],[77.376892,28.628464]]]},"properties":{"objectid":11605,"plotmapid":"63H072IND","property_t":"Industrial","used":"PLOT","plotsizesq":800,"plot_size":"800 SQMT","plot_no":"072","sector":"63","block":"H","mplanduse":"B","ppt_type":"IND","ppt_full":"Industrial","authority":"NOIDA","category":"industrial","execution_stage":"unknown"}},{"type":"Feature","geometry":{"type":"Polygon","coordinates":[[[77.376717,28.626669],[77.376309,28.626695],[77.376291,28.626513],[77.376699,28.626486],[77.376717,28.626669]]]},"properties":{"objectid":11606,"plotmapid":"63H062IND","property_t":"Industrial","used":"PLOT","plotsizesq":800,"plot_size":"800 SQMT","plot_no":"062","sector":"63","block":"H","mplanduse":"B","ppt_type":"IND","ppt_full":"Industrial","authority":"NOIDA","category":"industrial","execution_stage":"unknown"}},{"type":"Feature","geometry":{"type":"Polygon","coordinates":[[[77.376699,28.626486],[77.376291,28.626513],[77.376269,28.626297],[77.376677,28.626268],[77.376699,28.626486]]]},"properties":{"objectid":11607,"plotmapid":"63H061IND","property_t":"Industrial","used":"PLOT","plotsizesq":0,"plot_size":"NA","plot_no":"061","sector":"63","block":"H","mplanduse":"B","ppt_type":"IND","ppt_full":"Industrial","authority":"NOIDA","category":"industrial","execution_stage":"unknown"}},{"type":"Feature","geometry":{"type":"Polygon","coordinates":[[[77.376363,28.627235],[77.375956,28.627265],[77.375938,28.627087],[77.376345,28.627056],[77.376363,28.627235]]]},"properties":{"objectid":11608,"plotmapid":"63H056IND","property_t":"Industrial","used":"PLOT","plotsizesq":800,"plot_size":"800 SQMT","plot_no":"056","sector":"63","block":"H","mplanduse":"B","ppt_type":"IND","ppt_full":"Industrial","authority":"NOIDA","category":"industrial","execution_stage":"unknown"}},{"type":"Feature","geometry":{"type":"Polygon","coordinates":[[[77.376464,28.628312],[77.376061,28.628343],[77.376043,28.628164],[77.376449,28.628133],[77.376464,28.628312]]]},"properties":{"objectid":11609,"plotmapid":"63H050IND","property_t":"Industrial","used":"PLOT","plotsizesq":800,"plot_size":"800 SQMT","plot_no":"050","sector":"63","block":"H","mplanduse":"B","ppt_type":"IND","ppt_full":"Industrial","authority":"NOIDA","category":"industrial","execution_stage":"unknown"}},{"type":"Feature","geometry":{"type":"Polygon","coordinates":[[[77.376397,28.627594],[77.375991,28.627623],[77.375973,28.627446],[77.376381,28.627414],[77.376397,28.627594]]]},"properties":{"objectid":11610,"plotmapid":"63H054IND","property_t":"Industrial","used":"PLOT","plotsizesq":800,"plot_size":"800 SQMT","plot_no":"054","sector":"63","block":"H","mplanduse":"B","ppt_type":"IND","ppt_full":"Industrial","authority":"NOIDA","category":"industrial","execution_stage":"unknown"}},{"type":"Feature","geometry":{"type":"Polygon","coordinates":[[[77.376483,28.628493],[77.376078,28.628522],[77.376061,28.628343],[77.376464,28.628312],[77.376483,28.628493]]]},"properties":{"objectid":11611,"plotmapid":"63H049IND","property_t":"Industrial","used":"PLOT","plotsizesq":800,"plot_size":"800 SQMT","plot_no":"049","sector":"63","block":"H","mplanduse":"B","ppt_type":"IND","ppt_full":"Industrial","authority":"NOIDA","category":"industrial","execution_stage":"unknown"}},{"type":"Feature","geometry":{"type":"Polygon","coordinates":[[[77.376345,28.627056],[77.375938,28.627087],[77.375921,28.626907],[77.376327,28.626878],[77.376345,28.627056]]]},"properties":{"objectid":11612,"plotmapid":"63H057IND","property_t":"Industrial","used":"PLOT","plotsizesq":800,"plot_size":"800 SQMT","plot_no":"057","sector":"63","block":"H","mplanduse":"B","ppt_type":"IND","ppt_full":"Industrial","authority":"NOIDA","category":"industrial","execution_stage":"unknown"}},{"type":"Feature","geometry":{"type":"Polygon","coordinates":[[[77.376449,28.628133],[77.376043,28.628164],[77.376026,28.627984],[77.376433,28.627954],[77.376449,28.628133]]]},"properties":{"objectid":11613,"plotmapid":"63H051IND","property_t":"Industrial","used":"PLOT","plotsizesq":800,"plot_size":"800 SQMT","plot_no":"051","sector":"63","block":"H","mplanduse":"B","ppt_type":"IND","ppt_full":"Industrial","authority":"NOIDA","category":"industrial","execution_stage":"unknown"}},{"type":"Feature","geometry":{"type":"Polygon","coordinates":[[[77.3765,28.628673],[77.376096,28.628703],[77.376078,28.628522],[77.376483,28.628493],[77.3765,28.628673]]]},"properties":{"objectid":11614,"plotmapid":"63H048IND","property_t":"Industrial","used":"PLOT","plotsizesq":800,"plot_size":"800 SQMT","plot_no":"048","sector":"63","block":"H","mplanduse":"B","ppt_type":"IND","ppt_full":"Industrial","authority":"NOIDA","category":"industrial","execution_stage":"unknown"}},{"type":"Feature","geometry":{"type":"Polygon","coordinates":[[[77.376433,28.627954],[77.376026,28.627984],[77.376008,28.627805],[77.376415,28.627773],[77.376433,28.627954]]]},"properties":{"objectid":11615,"plotmapid":"63H052IND","property_t":"Industrial","used":"PLOT","plotsizesq":800,"plot_size":"800 SQMT","plot_no":"052","sector":"63","block":"H","mplanduse":"B","ppt_type":"IND","ppt_full":"Industrial","authority":"NOIDA","category":"industrial","execution_stage":"unknown"}},{"type":"Feature","geometry":{"type":"Polygon","coordinates":[[[77.376415,28.627773],[77.376008,28.627805],[77.375991,28.627623],[77.376397,28.627594],[77.376415,28.627773]]]},"properties":{"objectid":11616,"plotmapid":"63H053IND","property_t":"Industrial","used":"PLOT","plotsizesq":800,"plot_size":"800 SQMT","plot_no":"053","sector":"63","block":"H","mplanduse":"B","ppt_type":"IND","ppt_full":"Industrial","authority":"NOIDA","category":"industrial","execution_stage":"unknown"}},{"type":"Feature","geometry":{"type":"Polygon","coordinates":[[[77.376381,28.627414],[77.375973,28.627446],[77.375956,28.627265],[77.376363,28.627235],[77.376381,28.627414]]]},"properties":{"objectid":11617,"plotmapid":"63H055IND","property_t":"Industrial","used":"PLOT","plotsizesq":800,"plot_size":"800 SQMT","plot_no":"055","sector":"63","block":"H","mplanduse":"B","ppt_type":"IND","ppt_full":"Industrial","authority":"NOIDA","category":"industrial","execution_stage":"unknown"}},{"type":"Feature","geometry":{"type":"Polygon","coordinates":[[[77.376309,28.626695],[77.375903,28.626726],[77.375885,28.626545],[77.376291,28.626513],[77.376309,28.626695]]]},"properties":{"objectid":11618,"plotmapid":"63H059IND","property_t":"Industrial","used":"PLOT","plotsizesq":800,"plot_size":"800 SQMT","plot_no":"059","sector":"63","block":"H","mplanduse":"B","ppt_type":"IND","ppt_full":"Industrial","authority":"NOIDA","category":"industrial","execution_stage":"unknown"}},{"type":"Feature","geometry":{"type":"Polygon","coordinates":[[[77.376327,28.626878],[77.375921,28.626907],[77.375903,28.626726],[77.376309,28.626695],[77.376327,28.626878]]]},"properties":{"objectid":11619,"plotmapid":"63H058IND","property_t":"Industrial","used":"PLOT","plotsizesq":800,"plot_size":"800 SQMT","plot_no":"058","sector":"63","block":"H","mplanduse":"B","ppt_type":"IND","ppt_full":"Industrial","authority":"NOIDA","category":"industrial","execution_stage":"unknown"}},{"type":"Feature","geometry":{"type":"Polygon","coordinates":[[[77.376291,28.626513],[77.375885,28.626545],[77.375864,28.626326],[77.376269,28.626297],[77.376291,28.626513]]]},"properties":{"objectid":11620,"plotmapid":"63H060IND","property_t":"Industrial","used":"PLOT","plotsizesq":0,"plot_size":"NA","plot_no":"060","sector":"63","block":"H","mplanduse":"B","ppt_type":"IND","ppt_full":"Industrial","authority":"NOIDA","category":"industrial","execution_stage":"unknown"}},{"type":"Feature","geometry":{"type":"Polygon","coordinates":[[[77.37764,28.624838],[77.377647,28.624851],[77.376855,28.62491],[77.376829,28.624579],[77.377181,28.624545],[77.377368,28.624422],[77.377567,28.624686],[77.377546,28.6247],[77.37764,28.624838]]]},"properties":{"objectid":11635,"plotmapid":"63H222IND","property_t":"Industrial","used":"AREA FOR FUTURE USE","plotsizesq":0,"plot_size":"NA","plot_no":"222","sector":"63","block":"H","mplanduse":"B","ppt_type":"IND","ppt_full":"Industrial","authority":"NOIDA","category":"industrial","execution_stage":"unknown"}},{"type":"Feature","geometry":{"type":"Polygon","coordinates":[[[77.375394,28.62223],[77.375206,28.622244],[77.375216,28.622325],[77.374942,28.622345],[77.37491,28.622027],[77.375372,28.621992],[77.375394,28.62223]]]},"properties":{"objectid":12505,"plotmapid":"63A061B/4-AIND","property_t":"Industrial","used":"NA","plotsizesq":0,"plot_size":"NA","plot_no":"061B/4-A","sector":"63","block":"A","mplanduse":"B","ppt_type":"IND","ppt_full":"Industrial","authority":"NOIDA","category":"industrial","execution_stage":"unknown"}}]}
