{"type":"FeatureCollection","features":[{"type":"Feature","geometry":{"type":"Polygon","coordinates":[[[77.41945,28.518183],[77.419655,28.518521],[77.419055,28.518798],[77.418852,28.518462],[77.41945,28.518183]]]},"properties":{"objectid":17396,"plotmapid":"138NA016IND","property_t":"Industrial","used":"NA","plotsizesq":0,"plot_no":"016","sector":"138","block":"NA","mplanduse":"V","ppt_type":"IND","ppt_full":"Industrial","authority":"NOIDA","category":"industrial","execution_stage":"unknown"}},{"type":"Feature","geometry":{"type":"Polygon","coordinates":[[[77.416152,28.517036],[77.415975,28.51712],[77.415778,28.516802],[77.415957,28.516717],[77.416152,28.517036]]]},"properties":{"objectid":17397,"plotmapid":"138NA033IND","property_t":"Industrial","used":"NA","plotsizesq":0,"plot_no":"033","sector":"138","block":"NA","mplanduse":"B","ppt_type":"IND","ppt_full":"Industrial","authority":"NOIDA","category":"industrial","execution_stage":"unknown"}},{"type":"Feature","geometry":{"type":"Polygon","coordinates":[[[77.416208,28.516747],[77.416331,28.516951],[77.416152,28.517036],[77.415957,28.516717],[77.416137,28.516632],[77.416208,28.516747]]]},"properties":{"objectid":17398,"plotmapid":"138NA032IND","property_t":"Industrial","used":"NA","plotsizesq":0,"plot_no":"032","sector":"138","block":"NA","mplanduse":"B","ppt_type":"IND","ppt_full":"Industrial","authority":"NOIDA","category":"industrial","execution_stage":"unknown"}},{"type":"Feature","geometry":{"type":"Polygon","coordinates":[[[77.41651,28.516866],[77.416331,28.516951],[77.416137,28.516632],[77.416316,28.516546],[77.41651,28.516866]]]},"properties":{"objectid":17399,"plotmapid":"138NA031IND","property_t":"Industrial","used":"NA","plotsizesq":0,"plot_no":"031","sector":"138","block":"NA","mplanduse":"B","ppt_type":"IND","ppt_full":"Industrial","authority":"NOIDA","category":"industrial","execution_stage":"unknown"}},{"type":"Feature","geometry":{"type":"Polygon","coordinates":[[[77.416347,28.517356],[77.416173,28.517439],[77.415975,28.51712],[77.416152,28.517036],[77.416347,28.517356]]]},"properties":{"objectid":17406,"plotmapid":"138NA034IND","property_t":"Industrial","used":"NA","plotsizesq":0,"plot_no":"034","sector":"138","block":"NA","mplanduse":"B","ppt_type":"IND","ppt_full":"Industrial","authority":"NOIDA","category":"industrial","execution_stage":"unknown"}},{"type":"Feature","geometry":{"type":"Polygon","coordinates":[[[77.416526,28.517271],[77.416347,28.517356],[77.416152,28.517036],[77.416331,28.516951],[77.416526,28.517271]]]},"properties":{"objectid":17407,"plotmapid":"138NA035IND","property_t":"Industrial","used":"NA","plotsizesq":0,"plot_no":"035","sector":"138","block":"NA","mplanduse":"B","ppt_type":"IND","ppt_full":"Industrial","authority":"NOIDA","category":"industrial","execution_stage":"unknown"}},{"type":"Feature","geometry":{"type":"Polygon","coordinates":[[[77.416706,28.517185],[77.416526,28.517271],[77.416331,28.516951],[77.41651,28.516866],[77.416706,28.517185]]]},"properties":{"objectid":17408,"plotmapid":"138NA036IND","property_t":"Industrial","used":"NA","plotsizesq":0,"plot_no":"036","sector":"138","block":"NA","mplanduse":"V","ppt_type":"IND","ppt_full":"Industrial","authority":"NOIDA","category":"industrial","execution_stage":"unknown"}},{"type":"Feature","geometry":{"type":"Polygon","coordinates":[[[77.416886,28.5171],[77.416706,28.517185],[77.41651,28.516866],[77.416691,28.516781],[77.416886,28.5171]]]},"properties":{"objectid":17409,"plotmapid":"138NA037IND","property_t":"Industrial","used":"NA","plotsizesq":0,"plot_no":"037","sector":"138","block":"NA","mplanduse":"V","ppt_type":"IND","ppt_full":"Industrial","authority":"NOIDA","category":"industrial","execution_stage":"unknown"}},{"type":"Feature","geometry":{"type":"Polygon","coordinates":[[[77.417069,28.517013],[77.416886,28.5171],[77.416691,28.516781],[77.416872,28.516695],[77.417069,28.517013]]]},"properties":{"objectid":17410,"plotmapid":"138NA038IND","property_t":"Industrial","used":"NA","plotsizesq":0,"plot_no":"038","sector":"138","block":"NA","mplanduse":"V","ppt_type":"IND","ppt_full":"Industrial","authority":"NOIDA","category":"industrial","execution_stage":"unknown"}},{"type":"Feature","geometry":{"type":"Polygon","coordinates":[[[77.417051,28.516609],[77.417248,28.516928],[77.417069,28.517013],[77.416872,28.516695],[77.417051,28.516609]]]},"properties":{"objectid":17411,"plotmapid":"138NA039IND","property_t":"Industrial","used":"NA","plotsizesq":0,"plot_no":"039","sector":"138","block":"NA","mplanduse":"V","ppt_type":"IND","ppt_full":"Industrial","authority":"NOIDA","category":"industrial","execution_stage":"unknown"}},{"type":"Feature","geometry":{"type":"Polygon","coordinates":[[[77.417428,28.516843],[77.417248,28.516928],[77.417051,28.516609],[77.417235,28.516522],[77.417428,28.516843]]]},"properties":{"objectid":17412,"plotmapid":"138NA040IND","property_t":"Industrial","used":"NA","plotsizesq":0,"plot_no":"040","sector":"138","block":"NA","mplanduse":"B","ppt_type":"IND","ppt_full":"Industrial","authority":"NOIDA","category":"industrial","execution_stage":"unknown"}},{"type":"Feature","geometry":{"type":"Polygon","coordinates":[[[77.417497,28.517142],[77.417228,28.51727],[77.417158,28.517156],[77.417427,28.517028],[77.417497,28.517142]]]},"properties":{"objectid":17414,"plotmapid":"138NA059IND","property_t":"Industrial","used":"NA","plotsizesq":0,"plot_no":"059","sector":"138","block":"NA","mplanduse":"B","ppt_type":"IND","ppt_full":"Industrial","authority":"NOIDA","category":"industrial","execution_stage":"unknown"}},{"type":"Feature","geometry":{"type":"Polygon","coordinates":[[[77.417766,28.517014],[77.417497,28.517142],[77.417427,28.517028],[77.417696,28.516901],[77.417766,28.517014]]]},"properties":{"objectid":17415,"plotmapid":"138NA042IND","property_t":"Industrial","used":"NA","plotsizesq":0,"plot_no":"042","sector":"138","block":"NA","mplanduse":"V","ppt_type":"IND","ppt_full":"Industrial","authority":"NOIDA","category":"industrial","execution_stage":"unknown"}},{"type":"Feature","geometry":{"type":"Polygon","coordinates":[[[77.417518,28.517176],[77.417571,28.51726],[77.417302,28.517389],[77.417228,28.51727],[77.417497,28.517142],[77.417518,28.517176]]]},"properties":{"objectid":17417,"plotmapid":"138NA058IND","property_t":"Industrial","used":"NA","plotsizesq":0,"plot_no":"058","sector":"138","block":"NA","mplanduse":"B","ppt_type":"IND","ppt_full":"Industrial","authority":"NOIDA","category":"industrial","execution_stage":"unknown"}},{"type":"Feature","geometry":{"type":"Polygon","coordinates":[[[77.417787,28.517048],[77.417839,28.517131],[77.417571,28.51726],[77.417497,28.517142],[77.417766,28.517014],[77.417787,28.517048]]]},"properties":{"objectid":17418,"plotmapid":"138NA43IND","property_t":"Industrial","used":"NA","plotsizesq":0,"plot_no":"43","sector":"138","block":"NA","mplanduse":"B","ppt_type":"IND","ppt_full":"Industrial","authority":"NOIDA","category":"industrial","execution_stage":"unknown"}},{"type":"Feature","geometry":{"type":"Polygon","coordinates":[[[77.417592,28.517295],[77.417645,28.51738],[77.417375,28.517507],[77.417302,28.517389],[77.417571,28.51726],[77.417592,28.517295]]]},"properties":{"objectid":17419,"plotmapid":"138NA057IND","property_t":"Industrial","used":"NA","plotsizesq":0,"plot_no":"057","sector":"138","block":"NA","mplanduse":"B","ppt_type":"IND","ppt_full":"Industrial","authority":"NOIDA","category":"industrial","execution_stage":"unknown"}},{"type":"Feature","geometry":{"type":"Polygon","coordinates":[[[77.417861,28.517167],[77.417914,28.517252],[77.417645,28.51738],[77.417571,28.51726],[77.417839,28.517131],[77.417861,28.517167]]]},"properties":{"objectid":17420,"plotmapid":"138NA044IND","property_t":"Industrial","used":"NA","plotsizesq":0,"plot_no":"044","sector":"138","block":"NA","mplanduse":"B","ppt_type":"IND","ppt_full":"Industrial","authority":"NOIDA","category":"industrial","execution_stage":"unknown"}},{"type":"Feature","geometry":{"type":"Polygon","coordinates":[[[77.417666,28.517415],[77.417717,28.517497],[77.417448,28.517623],[77.417375,28.517507],[77.417645,28.51738],[77.417666,28.517415]]]},"properties":{"objectid":17421,"plotmapid":"138NA056IND","property_t":"Industrial","used":"NA","plotsizesq":0,"plot_no":"056","sector":"138","block":"NA","mplanduse":"V","ppt_type":"IND","ppt_full":"Industrial","authority":"NOIDA","category":"industrial","execution_stage":"unknown"}},{"type":"Feature","geometry":{"type":"Polygon","coordinates":[[[77.417935,28.517287],[77.417986,28.517369],[77.417717,28.517497],[77.417645,28.51738],[77.417914,28.517252],[77.417935,28.517287]]]},"properties":{"objectid":17422,"plotmapid":"138NA045IND","property_t":"Industrial","used":"NA","plotsizesq":0,"plot_no":"045","sector":"138","block":"NA","mplanduse":"B","ppt_type":"IND","ppt_full":"Industrial","authority":"NOIDA","category":"industrial","execution_stage":"unknown"}},{"type":"Feature","geometry":{"type":"Polygon","coordinates":[[[77.416398,28.518399],[77.415474,28.518827],[77.41463,28.518177],[77.415907,28.517586],[77.416398,28.518399]]]},"properties":{"objectid":17423,"plotmapid":"138NAIND","property_t":"Industrial","used":"NA","plotsizesq":0,"plot_size":"12000","sector":"138","block":"NA","mplanduse":"V","ppt_type":"IND","ppt_full":"Industrial","authority":"NOIDA","category":"industrial","execution_stage":"unknown"}},{"type":"Feature","geometry":{"type":"Polygon","coordinates":[[[77.417791,28.517615],[77.417522,28.517743],[77.417448,28.517623],[77.417717,28.517497],[77.417791,28.517615]]]},"properties":{"objectid":17424,"plotmapid":"138NA055IND","property_t":"Industrial","used":"NA","plotsizesq":0,"plot_no":"055","sector":"138","block":"NA","mplanduse":"V","ppt_type":"IND","ppt_full":"Industrial","authority":"NOIDA","category":"industrial","execution_stage":"unknown"}},{"type":"Feature","geometry":{"type":"Polygon","coordinates":[[[77.41806,28.517488],[77.417791,28.517615],[77.417717,28.517497],[77.417986,28.517369],[77.41806,28.517488]]]},"properties":{"objectid":17425,"plotmapid":"138NA046IND","property_t":"Industrial","used":"NA","plotsizesq":0,"plot_no":"046","sector":"138","block":"NA","mplanduse":"B","ppt_type":"IND","ppt_full":"Industrial","authority":"NOIDA","category":"industrial","execution_stage":"unknown"}},{"type":"Feature","geometry":{"type":"Polygon","coordinates":[[[77.417814,28.517653],[77.417866,28.517737],[77.417597,28.517865],[77.417522,28.517743],[77.417791,28.517615],[77.417814,28.517653]]]},"properties":{"objectid":17426,"plotmapid":"138NA054IND","property_t":"Industrial","used":"NA","plotsizesq":0,"plot_no":"054","sector":"138","block":"NA","mplanduse":"V","ppt_type":"IND","ppt_full":"Industrial","authority":"NOIDA","category":"industrial","execution_stage":"unknown"}},{"type":"Feature","geometry":{"type":"Polygon","coordinates":[[[77.418083,28.517526],[77.418135,28.517609],[77.417866,28.517737],[77.417791,28.517615],[77.41806,28.517488],[77.418083,28.517526]]]},"properties":{"objectid":17427,"plotmapid":"138NA047IND","property_t":"Industrial","used":"NA","plotsizesq":0,"plot_no":"047","sector":"138","block":"NA","mplanduse":"B","ppt_type":"IND","ppt_full":"Industrial","authority":"NOIDA","category":"industrial","execution_stage":"unknown"}},{"type":"Feature","geometry":{"type":"Polygon","coordinates":[[[77.417888,28.517773],[77.417939,28.517854],[77.41767,28.517982],[77.417597,28.517865],[77.417866,28.517737],[77.417888,28.517773]]]},"properties":{"objectid":17428,"plotmapid":"138NA053IND","property_t":"Industrial","used":"NA","plotsizesq":0,"plot_no":"053","sector":"138","block":"NA","mplanduse":"V","ppt_type":"IND","ppt_full":"Industrial","authority":"NOIDA","category":"industrial","execution_stage":"unknown"}},{"type":"Feature","geometry":{"type":"Polygon","coordinates":[[[77.418208,28.517726],[77.417939,28.517854],[77.417866,28.517737],[77.418135,28.517609],[77.418208,28.517726]]]},"properties":{"objectid":17429,"plotmapid":"138NA048IND","property_t":"Industrial","used":"NA","plotsizesq":0,"plot_no":"048","sector":"138","block":"NA","mplanduse":"B","ppt_type":"IND","ppt_full":"Industrial","authority":"NOIDA","category":"industrial","execution_stage":"unknown"}},{"type":"Feature","geometry":{"type":"Polygon","coordinates":[[[77.417962,28.517892],[77.418036,28.518011],[77.417767,28.518139],[77.41767,28.517982],[77.417939,28.517854],[77.417962,28.517892]]]},"properties":{"objectid":17431,"plotmapid":"138NA052IND","property_t":"Industrial","used":"NA","plotsizesq":0,"plot_no":"052","sector":"138","block":"NA","mplanduse":"V","ppt_type":"IND","ppt_full":"Industrial","authority":"NOIDA","category":"industrial","execution_stage":"unknown"}},{"type":"Feature","geometry":{"type":"Polygon","coordinates":[[[77.418305,28.517884],[77.418036,28.518011],[77.417939,28.517854],[77.418208,28.517726],[77.418305,28.517884]]]},"properties":{"objectid":17432,"plotmapid":"138NA049IND","property_t":"Industrial","used":"NA","plotsizesq":0,"plot_no":"049","sector":"138","block":"NA","mplanduse":"V","ppt_type":"IND","ppt_full":"Industrial","authority":"NOIDA","category":"industrial","execution_stage":"unknown"}},{"type":"Feature","geometry":{"type":"Polygon","coordinates":[[[77.418036,28.518011],[77.418127,28.518159],[77.417858,28.518286],[77.417767,28.518139],[77.418036,28.518011]]]},"properties":{"objectid":17434,"plotmapid":"138NA051IND","property_t":"Industrial","used":"NA","plotsizesq":0,"plot_no":"051","sector":"138","block":"NA","mplanduse":"V","ppt_type":"IND","ppt_full":"Industrial","authority":"NOIDA","category":"industrial","execution_stage":"unknown"}},{"type":"Feature","geometry":{"type":"Polygon","coordinates":[[[77.418305,28.517884],[77.418396,28.518031],[77.418127,28.518159],[77.418036,28.518011],[77.418305,28.517884]]]},"properties":{"objectid":17435,"plotmapid":"138NA50IND","property_t":"Industrial","used":"NA","plotsizesq":0,"plot_no":"50","sector":"138","block":"NA","mplanduse":"V","ppt_type":"IND","ppt_full":"Industrial","authority":"NOIDA","category":"industrial","execution_stage":"unknown"}},{"type":"Feature","geometry":{"type":"Polygon","coordinates":[[[77.417215,28.518818],[77.417412,28.519143],[77.417229,28.519228],[77.417032,28.518903],[77.417215,28.518818]]]},"properties":{"objectid":17436,"plotmapid":"138NA060IND","property_t":"Industrial","used":"NA","plotsizesq":0,"plot_no":"060","sector":"138","block":"NA","mplanduse":"V","ppt_type":"IND","ppt_full":"Industrial","authority":"NOIDA","category":"industrial","execution_stage":"unknown"}},{"type":"Feature","geometry":{"type":"Polygon","coordinates":[[[77.417398,28.518733],[77.417595,28.519058],[77.417412,28.519143],[77.417215,28.518818],[77.417398,28.518733]]]},"properties":{"objectid":17437,"plotmapid":"138NA061IND","property_t":"Industrial","used":"NA","plotsizesq":0,"plot_no":"061","sector":"138","block":"NA","mplanduse":"B","ppt_type":"IND","ppt_full":"Industrial","authority":"NOIDA","category":"industrial","execution_stage":"unknown"}},{"type":"Feature","geometry":{"type":"Polygon","coordinates":[[[77.417582,28.518648],[77.417778,28.518973],[77.417595,28.519058],[77.417398,28.518733],[77.417582,28.518648]]]},"properties":{"objectid":17438,"plotmapid":"138NA062IND","property_t":"Industrial","used":"NA","plotsizesq":0,"plot_no":"062","sector":"138","block":"NA","mplanduse":"V","ppt_type":"IND","ppt_full":"Industrial","authority":"NOIDA","category":"industrial","execution_stage":"unknown"}},{"type":"Feature","geometry":{"type":"Polygon","coordinates":[[[77.417765,28.518563],[77.417961,28.518889],[77.417778,28.518973],[77.417582,28.518648],[77.417765,28.518563]]]},"properties":{"objectid":17439,"plotmapid":"138NA063IND","property_t":"Industrial","used":"NA","plotsizesq":0,"plot_no":"063","sector":"138","block":"NA","mplanduse":"V","ppt_type":"IND","ppt_full":"Industrial","authority":"NOIDA","category":"industrial","execution_stage":"unknown"}},{"type":"Feature","geometry":{"type":"Polygon","coordinates":[[[77.417948,28.518479],[77.418144,28.518804],[77.417961,28.518889],[77.417765,28.518563],[77.417948,28.518479]]]},"properties":{"objectid":17440,"plotmapid":"138NA064IND","property_t":"Industrial","used":"NA","plotsizesq":0,"plot_no":"064","sector":"138","block":"NA","mplanduse":"V","ppt_type":"IND","ppt_full":"Industrial","authority":"NOIDA","category":"industrial","execution_stage":"unknown"}},{"type":"Feature","geometry":{"type":"Polygon","coordinates":[[[77.418131,28.518394],[77.418328,28.518719],[77.418144,28.518804],[77.417948,28.518479],[77.418131,28.518394]]]},"properties":{"objectid":17441,"plotmapid":"138NA065IND","property_t":"Industrial","used":"NA","plotsizesq":0,"plot_no":"065","sector":"138","block":"NA","mplanduse":"V","ppt_type":"IND","ppt_full":"Industrial","authority":"NOIDA","category":"industrial","execution_stage":"unknown"}},{"type":"Feature","geometry":{"type":"Polygon","coordinates":[[[77.418314,28.518309],[77.418511,28.518634],[77.418328,28.518719],[77.418131,28.518394],[77.418314,28.518309]]]},"properties":{"objectid":17442,"plotmapid":"138NA066IND","property_t":"Industrial","used":"NA","plotsizesq":0,"plot_no":"066","sector":"138","block":"NA","mplanduse":"V","ppt_type":"IND","ppt_full":"Industrial","authority":"NOIDA","category":"industrial","execution_stage":"unknown"}},{"type":"Feature","geometry":{"type":"Polygon","coordinates":[[[77.418497,28.518224],[77.418694,28.518549],[77.418511,28.518634],[77.418314,28.518309],[77.418497,28.518224]]]},"properties":{"objectid":17443,"plotmapid":"138NA067IND","property_t":"Industrial","used":"NA","plotsizesq":0,"plot_no":"067","sector":"138","block":"NA","mplanduse":"V","ppt_type":"IND","ppt_full":"Industrial","authority":"NOIDA","category":"industrial","execution_stage":"unknown"}},{"type":"Feature","geometry":{"type":"Polygon","coordinates":[[[77.417412,28.519143],[77.417608,28.519468],[77.417425,28.519553],[77.417229,28.519228],[77.417412,28.519143]]]},"properties":{"objectid":17444,"plotmapid":"138NA075IND","property_t":"Industrial","used":"NA","plotsizesq":0,"plot_no":"075","sector":"138","block":"NA","mplanduse":"V","ppt_type":"IND","ppt_full":"Industrial","authority":"NOIDA","category":"industrial","execution_stage":"unknown"}},{"type":"Feature","geometry":{"type":"Polygon","coordinates":[[[77.417595,28.519058],[77.417791,28.519383],[77.417608,28.519468],[77.417412,28.519143],[77.417595,28.519058]]]},"properties":{"objectid":17445,"plotmapid":"138NA074IND","property_t":"Industrial","used":"NA","plotsizesq":0,"plot_no":"074","sector":"138","block":"NA","mplanduse":"V","ppt_type":"IND","ppt_full":"Industrial","authority":"NOIDA","category":"industrial","execution_stage":"unknown"}},{"type":"Feature","geometry":{"type":"Polygon","coordinates":[[[77.417778,28.518973],[77.417975,28.519299],[77.417791,28.519383],[77.417595,28.519058],[77.417778,28.518973]]]},"properties":{"objectid":17446,"plotmapid":"138NA073IND","property_t":"Industrial","used":"NA","plotsizesq":0,"plot_no":"073","sector":"138","block":"NA","mplanduse":"V","ppt_type":"IND","ppt_full":"Industrial","authority":"NOIDA","category":"industrial","execution_stage":"unknown"}},{"type":"Feature","geometry":{"type":"Polygon","coordinates":[[[77.417961,28.518889],[77.418158,28.519214],[77.417975,28.519299],[77.417778,28.518973],[77.417961,28.518889]]]},"properties":{"objectid":17447,"plotmapid":"138NA072IND","property_t":"Industrial","used":"NA","plotsizesq":0,"plot_no":"072","sector":"138","block":"NA","mplanduse":"V","ppt_type":"IND","ppt_full":"Industrial","authority":"NOIDA","category":"industrial","execution_stage":"unknown"}},{"type":"Feature","geometry":{"type":"Polygon","coordinates":[[[77.418144,28.518804],[77.418341,28.519129],[77.418158,28.519214],[77.417961,28.518889],[77.418144,28.518804]]]},"properties":{"objectid":17448,"plotmapid":"138NA071IND","property_t":"Industrial","used":"NA","plotsizesq":0,"plot_no":"071","sector":"138","block":"NA","mplanduse":"V","ppt_type":"IND","ppt_full":"Industrial","authority":"NOIDA","category":"industrial","execution_stage":"unknown"}},{"type":"Feature","geometry":{"type":"Polygon","coordinates":[[[77.418328,28.518719],[77.418524,28.519044],[77.418341,28.519129],[77.418144,28.518804],[77.418328,28.518719]]]},"properties":{"objectid":17449,"plotmapid":"138NA070IND","property_t":"Industrial","used":"NA","plotsizesq":0,"plot_no":"070","sector":"138","block":"NA","mplanduse":"V","ppt_type":"IND","ppt_full":"Industrial","authority":"NOIDA","category":"industrial","execution_stage":"unknown"}},{"type":"Feature","geometry":{"type":"Polygon","coordinates":[[[77.418511,28.518634],[77.418707,28.518959],[77.418524,28.519044],[77.418328,28.518719],[77.418511,28.518634]]]},"properties":{"objectid":17450,"plotmapid":"138NA069IND","property_t":"Industrial","used":"NA","plotsizesq":0,"plot_no":"069","sector":"138","block":"NA","mplanduse":"V","ppt_type":"IND","ppt_full":"Industrial","authority":"NOIDA","category":"industrial","execution_stage":"unknown"}},{"type":"Feature","geometry":{"type":"Polygon","coordinates":[[[77.418694,28.518549],[77.41889,28.518875],[77.418707,28.518959],[77.418511,28.518634],[77.418694,28.518549]]]},"properties":{"objectid":17451,"plotmapid":"138NA068IND","property_t":"Industrial","used":"NA","plotsizesq":0,"plot_no":"068","sector":"138","block":"NA","mplanduse":"V","ppt_type":"IND","ppt_full":"Industrial","authority":"NOIDA","category":"industrial","execution_stage":"unknown"}},{"type":"Feature","geometry":{"type":"Polygon","coordinates":[[[77.417285,28.519867],[77.417001,28.519999],[77.415474,28.518827],[77.416398,28.518399],[77.417285,28.519867]]]},"properties":{"objectid":17452,"plotmapid":"138NAIND","property_t":"Industrial","used":"NA","plotsizesq":0,"plot_size":"12000","sector":"138","block":"NA","mplanduse":"V","ppt_type":"IND","ppt_full":"Industrial","authority":"NOIDA","category":"industrial","execution_stage":"unknown"}},{"type":"Feature","geometry":{"type":"Polygon","coordinates":[[[77.419023,28.520103],[77.418657,28.520273],[77.418166,28.51946],[77.418532,28.51929],[77.419023,28.520103]]]},"properties":{"objectid":17454,"plotmapid":"138NAIND","property_t":"Industrial","used":"NA","plotsizesq":0,"sector":"138","block":"NA","mplanduse":"V","ppt_type":"IND","ppt_full":"Industrial","authority":"NOIDA","category":"industrial","execution_stage":"unknown"}},{"type":"Feature","geometry":{"type":"Polygon","coordinates":[[[77.41939,28.519933],[77.419023,28.520103],[77.418532,28.51929],[77.418898,28.519121],[77.41939,28.519933]]]},"properties":{"objectid":17455,"plotmapid":"138NAIND","property_t":"Industrial","used":"NA","plotsizesq":0,"sector":"138","block":"NA","mplanduse":"V","ppt_type":"IND","ppt_full":"Industrial","authority":"NOIDA","category":"industrial","execution_stage":"unknown"}},{"type":"Feature","geometry":{"type":"Polygon","coordinates":[[[77.419756,28.519764],[77.41939,28.519933],[77.418898,28.519121],[77.419265,28.518951],[77.419756,28.519764]]]},"properties":{"objectid":17456,"plotmapid":"138NAIND","property_t":"Industrial","used":"NA","plotsizesq":0,"sector":"138","block":"NA","mplanduse":"V","ppt_type":"IND","ppt_full":"Industrial","authority":"NOIDA","category":"industrial","execution_stage":"unknown"}},{"type":"Feature","geometry":{"type":"Polygon","coordinates":[[[77.420122,28.519594],[77.419756,28.519764],[77.419265,28.518951],[77.419631,28.518781],[77.420122,28.519594]]]},"properties":{"objectid":17457,"plotmapid":"138NAIND","property_t":"Industrial","used":"NA","plotsizesq":0,"sector":"138","block":"NA","mplanduse":"V","ppt_type":"IND","ppt_full":"Industrial","authority":"NOIDA","category":"industrial","execution_stage":"unknown"}},{"type":"Feature","geometry":{"type":"Polygon","coordinates":[[[77.420489,28.519425],[77.420122,28.519594],[77.419631,28.518781],[77.419997,28.518612],[77.420489,28.519425]]]},"properties":{"objectid":17458,"plotmapid":"138NAIND","property_t":"Industrial","used":"NA","plotsizesq":0,"sector":"138","block":"NA","mplanduse":"V","ppt_type":"IND","ppt_full":"Industrial","authority":"NOIDA","category":"industrial","execution_stage":"unknown"}},{"type":"Feature","geometry":{"type":"Polygon","coordinates":[[[77.420855,28.519255],[77.420489,28.519425],[77.419997,28.518612],[77.420364,28.518442],[77.420855,28.519255]]]},"properties":{"objectid":17459,"plotmapid":"138NAIND","property_t":"Industrial","used":"NA","plotsizesq":0,"sector":"138","block":"NA","mplanduse":"V","ppt_type":"IND","ppt_full":"Industrial","authority":"NOIDA","category":"industrial","execution_stage":"unknown"}},{"type":"Feature","geometry":{"type":"Polygon","coordinates":[[[77.419349,28.516764],[77.418758,28.517047],[77.418601,28.516788],[77.419192,28.516504],[77.419349,28.516764]]]},"properties":{"objectid":17463,"plotmapid":"138NA010IND","property_t":"Industrial","used":"NA","plotsizesq":0,"plot_no":"010","sector":"138","block":"NA","mplanduse":"V","ppt_type":"IND","ppt_full":"Industrial","authority":"NOIDA","category":"industrial","execution_stage":"unknown"}},{"type":"Feature","geometry":{"type":"Polygon","coordinates":[[[77.418916,28.517306],[77.418324,28.517589],[77.418167,28.517329],[77.418758,28.517047],[77.418916,28.517306]]]},"properties":{"objectid":17464,"plotmapid":"138NA20IND","property_t":"Industrial","used":"NA","plotsizesq":0,"plot_no":"20","sector":"138","block":"NA","mplanduse":"V","ppt_type":"IND","ppt_full":"Industrial","authority":"NOIDA","category":"industrial","execution_stage":"unknown"}},{"type":"Feature","geometry":{"type":"Polygon","coordinates":[[[77.419073,28.517563],[77.418481,28.517849],[77.418324,28.517589],[77.418916,28.517306],[77.419073,28.517563]]]},"properties":{"objectid":17466,"plotmapid":"138NA019IND","property_t":"Industrial","used":"NA","plotsizesq":0,"plot_no":"019","sector":"138","block":"NA","mplanduse":"V","ppt_type":"IND","ppt_full":"Industrial","authority":"NOIDA","category":"industrial","execution_stage":"unknown"}},{"type":"Feature","geometry":{"type":"Polygon","coordinates":[[[77.42004,28.517907],[77.420246,28.518247],[77.419655,28.518521],[77.41945,28.518183],[77.42004,28.517907]]]},"properties":{"objectid":17467,"plotmapid":"138NA015IND","property_t":"Industrial","used":"NA","plotsizesq":0,"plot_no":"015","sector":"138","block":"NA","mplanduse":"V","ppt_type":"IND","ppt_full":"Industrial","authority":"NOIDA","category":"industrial","execution_stage":"unknown"}},{"type":"Feature","geometry":{"type":"Polygon","coordinates":[[[77.418601,28.516788],[77.418011,28.517071],[77.417856,28.516815],[77.418445,28.516532],[77.418601,28.516788]]]},"properties":{"objectid":17469,"plotmapid":"138NA022IND","property_t":"Industrial","used":"NA","plotsizesq":0,"plot_no":"022","sector":"138","block":"NA","mplanduse":"B","ppt_type":"IND","ppt_full":"Industrial","authority":"NOIDA","category":"industrial","execution_stage":"unknown"}},{"type":"Feature","geometry":{"type":"Polygon","coordinates":[[[77.418758,28.517047],[77.418167,28.517329],[77.418011,28.517071],[77.418601,28.516788],[77.418758,28.517047]]]},"properties":{"objectid":17471,"plotmapid":"138NA021IND","property_t":"Industrial","used":"NA","plotsizesq":0,"plot_no":"021","sector":"138","block":"NA","mplanduse":"V","ppt_type":"IND","ppt_full":"Industrial","authority":"NOIDA","category":"industrial","execution_stage":"unknown"}},{"type":"Feature","geometry":{"type":"Polygon","coordinates":[[[77.418758,28.517047],[77.419349,28.516764],[77.419506,28.517024],[77.418916,28.517306],[77.418758,28.517047]]]},"properties":{"objectid":17472,"plotmapid":"138NA011IND","property_t":"Industrial","used":"NA","plotsizesq":0,"plot_no":"011","sector":"138","block":"NA","mplanduse":"V","ppt_type":"IND","ppt_full":"Industrial","authority":"NOIDA","category":"industrial","execution_stage":"unknown"}},{"type":"Feature","geometry":{"type":"Polygon","coordinates":[[[77.418916,28.517306],[77.419506,28.517024],[77.419661,28.51728],[77.419073,28.517563],[77.418916,28.517306]]]},"properties":{"objectid":17474,"plotmapid":"138NA012IND","property_t":"Industrial","used":"NA","plotsizesq":0,"plot_no":"012","sector":"138","block":"NA","mplanduse":"B","ppt_type":"IND","ppt_full":"Industrial","authority":"NOIDA","category":"industrial","execution_stage":"unknown"}},{"type":"Feature","geometry":{"type":"Polygon","coordinates":[[[77.419259,28.517869],[77.418662,28.518148],[77.418481,28.517849],[77.419073,28.517563],[77.419259,28.517869]]]},"properties":{"objectid":17475,"plotmapid":"138NA018IND","property_t":"Industrial","used":"NA","plotsizesq":0,"plot_no":"018","sector":"138","block":"NA","mplanduse":"V","ppt_type":"IND","ppt_full":"Industrial","authority":"NOIDA","category":"industrial","execution_stage":"unknown"}},{"type":"Feature","geometry":{"type":"Polygon","coordinates":[[[77.41945,28.518183],[77.418852,28.518462],[77.418662,28.518148],[77.419259,28.517869],[77.41945,28.518183]]]},"properties":{"objectid":17476,"plotmapid":"138NA017IND","property_t":"Industrial","used":"NA","plotsizesq":0,"plot_no":"017","sector":"138","block":"NA","mplanduse":"V","ppt_type":"IND","ppt_full":"Industrial","authority":"NOIDA","category":"industrial","execution_stage":"unknown"}},{"type":"Feature","geometry":{"type":"Polygon","coordinates":[[[77.41985,28.517593],[77.419259,28.517869],[77.419073,28.517563],[77.419661,28.51728],[77.41985,28.517593]]]},"properties":{"objectid":17477,"plotmapid":"138NA013IND","property_t":"Industrial","used":"NA","plotsizesq":0,"plot_no":"013","sector":"138","block":"NA","mplanduse":"V","ppt_type":"IND","ppt_full":"Industrial","authority":"NOIDA","category":"industrial","execution_stage":"unknown"}},{"type":"Feature","geometry":{"type":"Polygon","coordinates":[[[77.42004,28.517907],[77.41945,28.518183],[77.419259,28.517869],[77.41985,28.517593],[77.42004,28.517907]]]},"properties":{"objectid":17478,"plotmapid":"138NA014IND","property_t":"Industrial","used":"NA","plotsizesq":0,"plot_no":"014","sector":"138","block":"NA","mplanduse":"V","ppt_type":"IND","ppt_full":"Industrial","authority":"NOIDA","category":"industrial","execution_stage":"unknown"}},{"type":"Feature","geometry":{"type":"Polygon","coordinates":[[[77.421859,28.516982],[77.422057,28.517301],[77.421339,28.517645],[77.421144,28.517328],[77.421859,28.516982]]]},"properties":{"objectid":17489,"plotmapid":"140NA024IND","property_t":"Industrial","used":"NA","allotted_p":"Yes","plotsizesq":3200,"plot_size":"3200 SQMT","plot_no":"024","sector":"140","block":"NA","mplanduse":"V","ppt_type":"IND","ppt_full":"Industrial","authority":"NOIDA","category":"industrial","execution_stage":"allotted"}},{"type":"Feature","geometry":{"type":"Polygon","coordinates":[[[77.421538,28.517961],[77.420806,28.518311],[77.420603,28.517981],[77.421339,28.517645],[77.421538,28.517961]]]},"properties":{"objectid":17490,"plotmapid":"140NA020IND","property_t":"Industrial","used":"NA","plotsizesq":3200,"plot_size":"3200 SQMT","plot_no":"020","sector":"140","block":"NA","mplanduse":"V","ppt_type":"IND","ppt_full":"Industrial","authority":"NOIDA","category":"industrial","execution_stage":"unknown"}},{"type":"Feature","geometry":{"type":"Polygon","coordinates":[[[77.421726,28.518281],[77.421001,28.518628],[77.420806,28.518311],[77.421538,28.517961],[77.421726,28.518281]]]},"properties":{"objectid":17492,"plotmapid":"140NA021IND","property_t":"Industrial","used":"NA","plotsizesq":3200,"plot_size":"3200 SQMT","plot_no":"021","sector":"140","block":"NA","mplanduse":"V","ppt_type":"IND","ppt_full":"Industrial","authority":"NOIDA","category":"industrial","execution_stage":"unknown"}},{"type":"Feature","geometry":{"type":"Polygon","coordinates":[[[77.420744,28.516694],[77.420949,28.517013],[77.420215,28.517353],[77.420023,28.517031],[77.420744,28.516694]]]},"properties":{"objectid":17493,"plotmapid":"140 140/017IND","property_t":"Industrial","used":"NA","plotsizesq":3200,"plot_size":"3200 SQMT","plot_no":"140/017","sector":"140","block":"NA","mplanduse":"B","ppt_type":"IND","ppt_full":"Industrial","authority":"NOIDA","category":"industrial","execution_stage":"unknown"}},{"type":"Feature","geometry":{"type":"Polygon","coordinates":[[[77.420551,28.516375],[77.420744,28.516694],[77.420023,28.517031],[77.419832,28.516716],[77.420551,28.516375]]]},"properties":{"objectid":17506,"plotmapid":"140NA016IND","property_t":"Industrial","used":"NA","allotted_p":"Yes","plotsizesq":3200,"plot_size":"3200 SQMT","plot_no":"016","sector":"140","block":"NA","mplanduse":"B","ppt_type":"IND","ppt_full":"Industrial","authority":"NOIDA","category":"industrial","execution_stage":"allotted"}},{"type":"Feature","geometry":{"type":"Polygon","coordinates":[[[77.420949,28.517013],[77.421144,28.517328],[77.420408,28.517671],[77.420215,28.517353],[77.420949,28.517013]]]},"properties":{"objectid":17511,"plotmapid":"140 018IND","property_t":"Industrial","used":"NA","plotsizesq":3200,"plot_size":"3200 SQMT","plot_no":"018","sector":"140","mplanduse":"B","ppt_type":"IND","ppt_full":"Industrial","authority":"NOIDA","category":"industrial","execution_stage":"unknown"}},{"type":"Feature","geometry":{"type":"Polygon","coordinates":[[[77.421666,28.51667],[77.421859,28.516982],[77.421144,28.517328],[77.420949,28.517013],[77.421666,28.51667]]]},"properties":{"objectid":17512,"plotmapid":"140 140/025IND","property_t":"Industrial","used":"NA","plotsizesq":3200,"plot_size":"3200 SQMT","plot_no":"140/025","sector":"140","mplanduse":"B","ppt_type":"IND","ppt_full":"Industrial","authority":"NOIDA","category":"industrial","execution_stage":"unknown"}},{"type":"Feature","geometry":{"type":"Polygon","coordinates":[[[77.421144,28.517328],[77.421339,28.517645],[77.420603,28.517981],[77.420408,28.517671],[77.421144,28.517328]]]},"properties":{"objectid":17513,"plotmapid":"140NA019IND","property_t":"Industrial","used":"NA","allotted_p":"Yes","plotsizesq":3060,"plot_size":"3200 SQMT","plot_no":"019","sector":"140","block":"NA","mplanduse":"B","ppt_type":"IND","ppt_full":"Industrial","authority":"NOIDA","category":"industrial","execution_stage":"allotted"}},{"type":"Feature","geometry":{"type":"Polygon","coordinates":[[[77.422251,28.517619],[77.421538,28.517961],[77.421339,28.517645],[77.422057,28.517301],[77.422251,28.517619]]]},"properties":{"objectid":17514,"plotmapid":"140NA023IND","property_t":"Industrial","used":"NA","allotted_p":"Yes","plotsizesq":3200,"plot_size":"3200 SQMT","plot_no":"023","sector":"140","block":"NA","mplanduse":"B","ppt_type":"IND","ppt_full":"Industrial","authority":"NOIDA","category":"industrial","execution_stage":"allotted"}},{"type":"Feature","geometry":{"type":"Polygon","coordinates":[[[77.422447,28.517936],[77.421726,28.518281],[77.421538,28.517961],[77.422251,28.517619],[77.422447,28.517936]]]},"properties":{"objectid":17515,"plotmapid":"140NA022IND","property_t":"Industrial","used":"NA","allotted_p":"Yes","plotsizesq":3200,"plot_size":"3200 SQMT","plot_no":"022","sector":"140","block":"NA","mplanduse":"B","ppt_type":"IND","ppt_full":"Industrial","authority":"NOIDA","category":"industrial","execution_stage":"allotted"}},{"type":"Feature","geometry":{"type":"Polygon","coordinates":[[[77.418913,28.528004],[77.419177,28.527347],[77.42061,28.528226],[77.420481,28.52838],[77.420453,28.528438],[77.420386,28.528879],[77.418025,28.528627],[77.418388,28.527996],[77.418913,28.528004]]]},"properties":{"objectid":60474,"plotmapid":"87A008IND","property_t":"Industrial","used":"NA","plotsizesq":27900,"plot_size":"27900 SQMT","plot_no":"008","sector":"87","block":"A","mplanduse":"V","ppt_type":"IND","ppt_full":"Industrial","authority":"NOIDA","category":"industrial","execution_stage":"unknown"}},{"type":"Feature","geometry":{"type":"Polygon","coordinates":[[[77.415618,28.523988],[77.415787,28.524273],[77.415251,28.524565],[77.415082,28.52428],[77.415618,28.523988]]]},"properties":{"objectid":60494,"plotmapid":"87B024IND","property_t":"Industrial","used":"NA","plotsizesq":2100,"plot_size":"2100 SQMT","plot_no":"024","sector":"87","block":"B","mplanduse":"ISSUE","ppt_type":"IND","ppt_full":"Industrial","authority":"NOIDA","category":"industrial","execution_stage":"unknown"}},{"type":"Feature","geometry":{"type":"Polygon","coordinates":[[[77.415787,28.524273],[77.415957,28.524558],[77.415421,28.524851],[77.415251,28.524565],[77.415787,28.524273]]]},"properties":{"objectid":60498,"plotmapid":"87B023IND","property_t":"Industrial","used":"NA","plotsizesq":2100,"plot_size":"2100 SQMT","plot_no":"023","sector":"87","block":"B","mplanduse":"ISSUE","ppt_type":"IND","ppt_full":"Industrial","authority":"NOIDA","category":"industrial","execution_stage":"unknown"}},{"type":"Feature","geometry":{"type":"Polygon","coordinates":[[[77.415957,28.524558],[77.416127,28.524844],[77.41559,28.525136],[77.415421,28.524851],[77.415957,28.524558]]]},"properties":{"objectid":60502,"plotmapid":"87B022IND","property_t":"Industrial","used":"NA","plotsizesq":2100,"plot_size":"2100 SQMT","plot_no":"022","sector":"87","block":"B","mplanduse":"ISSUE","ppt_type":"IND","ppt_full":"Industrial","authority":"NOIDA","category":"industrial","execution_stage":"unknown"}},{"type":"Feature","geometry":{"type":"Polygon","coordinates":[[[77.417751,28.525681],[77.417091,28.526335],[77.416242,28.525822],[77.417026,28.525045],[77.417751,28.525681]]]},"properties":{"objectid":60509,"plotmapid":"87A010IND","property_t":"Industrial","used":"NA","plotsizesq":8000,"plot_size":"8000 SQMT","plot_no":"010","sector":"87","block":"A","mplanduse":"ISSUE","ppt_type":"IND","ppt_full":"Industrial","authority":"NOIDA","category":"industrial","execution_stage":"unknown"}},{"type":"Feature","geometry":{"type":"Polygon","coordinates":[[[77.418477,28.526317],[77.417941,28.526849],[77.417091,28.526335],[77.417751,28.525681],[77.418477,28.526317]]]},"properties":{"objectid":60511,"plotmapid":"87A009IND","property_t":"Industrial","used":"NA","plotsizesq":8000,"plot_size":"8000 SQMT","plot_no":"009","sector":"87","block":"A","mplanduse":"ISSUE","ppt_type":"IND","ppt_full":"Industrial","authority":"NOIDA","category":"industrial","execution_stage":"unknown"}},{"type":"Feature","geometry":{"type":"Polygon","coordinates":[[[77.421921,28.528144],[77.422182,28.52842],[77.422031,28.528543],[77.421765,28.528256],[77.421921,28.528144]]]},"properties":{"objectid":61774,"plotmapid":"88B016IND","property_t":"Industrial","used":"NA","allotted_p":"Yes","plotsizesq":800,"plot_size":"800 SQMT","plot_no":"016","sector":"88","block":"B","mplanduse":"B","ppt_type":"IND","ppt_full":"Industrial","authority":"NOIDA","category":"industrial","execution_stage":"allotted"}},{"type":"Feature","geometry":{"type":"Polygon","coordinates":[[[77.422078,28.52803],[77.422341,28.528303],[77.422182,28.52842],[77.421921,28.528144],[77.422078,28.52803]]]},"properties":{"objectid":61775,"plotmapid":"88B017IND","property_t":"Industrial","used":"NA","allotted_p":"Yes","plotsizesq":800,"plot_size":"800 SQMT","plot_no":"017","sector":"88","block":"B","mplanduse":"B","ppt_type":"IND","ppt_full":"Industrial","authority":"NOIDA","category":"industrial","execution_stage":"allotted"}},{"type":"Feature","geometry":{"type":"Polygon","coordinates":[[[77.422078,28.52803],[77.422229,28.52791],[77.422501,28.528193],[77.422341,28.528303],[77.422078,28.52803]]]},"properties":{"objectid":61776,"plotmapid":"88B018IND","property_t":"Industrial","used":"NA","allotted_p":"Yes","plotsizesq":760,"plot_size":"800 SQMT","plot_no":"018","sector":"88","block":"B","mplanduse":"B","ppt_type":"IND","ppt_full":"Industrial","authority":"NOIDA","category":"industrial","execution_stage":"allotted"}},{"type":"Feature","geometry":{"type":"Polygon","coordinates":[[[77.422341,28.528303],[77.422501,28.528193],[77.422753,28.528465],[77.422605,28.528575],[77.422341,28.528303]]]},"properties":{"objectid":61782,"plotmapid":"88B020IND","property_t":"Industrial","used":"NA","allotted_p":"Yes","plotsizesq":760,"plot_size":"800 SQMT","plot_no":"020","sector":"88","block":"B","mplanduse":"B","ppt_type":"IND","ppt_full":"Industrial","authority":"NOIDA","category":"industrial","execution_stage":"allotted"}},{"type":"Feature","geometry":{"type":"Polygon","coordinates":[[[77.422106,28.527628],[77.423504,28.527908],[77.42285,28.528404],[77.422106,28.527628]]]},"properties":{"objectid":61783,"plotmapid":"88B019IND","property_t":"Industrial","used":"NA","allotted_p":"Yes","plotsizesq":2995.2,"plot_size":"3000 SQMT","plot_no":"019","sector":"88","block":"B","mplanduse":"B","ppt_type":"IND","ppt_full":"Industrial","authority":"NOIDA","category":"industrial","execution_stage":"allotted"}},{"type":"Feature","geometry":{"type":"Polygon","coordinates":[[[77.42436,28.528086],[77.424463,28.528108],[77.424429,28.528416],[77.424123,28.528396],[77.424159,28.528046],[77.42436,28.528086]]]},"properties":{"objectid":61810,"plotmapid":"88B109IND","property_t":"Industrial","used":"NA","allotted_p":"Yes","plotsizesq":618,"plot_no":"109","sector":"88","block":"B","mplanduse":"B","ppt_type":"IND","ppt_full":"Industrial","authority":"NOIDA","category":"industrial","execution_stage":"allotted"}},{"type":"Feature","geometry":{"type":"Polygon","coordinates":[[[77.424463,28.528108],[77.424763,28.528174],[77.424738,28.528437],[77.424429,28.528416],[77.424463,28.528108]]]},"properties":{"objectid":61825,"plotmapid":"88B110IND","property_t":"Industrial","used":"NA","allotted_p":"Yes","plotsizesq":484.5,"plot_no":"110","sector":"88","block":"B","mplanduse":"B","ppt_type":"IND","ppt_full":"Industrial","authority":"NOIDA","category":"industrial","execution_stage":"allotted"}},{"type":"Feature","geometry":{"type":"Polygon","coordinates":[[[77.420679,28.523319],[77.421261,28.523753],[77.420487,28.524455],[77.419905,28.524019],[77.420679,28.523319]]]},"properties":{"objectid":62334,"plotmapid":"89NA005IND","property_t":"Industrial","used":"NA","plotsizesq":8000,"plot_size":"8000 SQMT","plot_no":"005","sector":"89","block":"NA","mplanduse":"V","ppt_type":"IND","ppt_full":"Industrial","remark":"As per drone is vacant ,not Alloted & not buildup","authority":"NOIDA","category":"industrial","execution_stage":"unknown"}},{"type":"Feature","geometry":{"type":"Polygon","coordinates":[[[77.422471,28.526798],[77.420997,28.527822],[77.42006,28.527049],[77.421321,28.525907],[77.422471,28.526798]]]},"properties":{"objectid":62335,"plotmapid":"89NA009IND","property_t":"Industrial","used":"NA","plotsizesq":20000,"plot_size":"20000 SQMT","plot_no":"009","sector":"89","block":"NA","mplanduse":"ISSUE","ppt_type":"IND","ppt_full":"Industrial","authority":"NOIDA","category":"industrial","execution_stage":"unknown"}},{"type":"Feature","geometry":{"type":"Polygon","coordinates":[[[77.422582,28.524767],[77.423306,28.525336],[77.423409,28.525445],[77.423485,28.525637],[77.423489,28.525843],[77.423418,28.526045],[77.423282,28.526235],[77.422471,28.526798],[77.421321,28.525907],[77.422582,28.524767]]]},"properties":{"objectid":62336,"plotmapid":"89NA008IND","property_t":"Industrial","used":"NA","plotsizesq":20000,"plot_size":"20000 SQMT","plot_no":"008","sector":"89","block":"NA","mplanduse":"ISSUE","ppt_type":"IND","ppt_full":"Industrial","authority":"NOIDA","category":"industrial","execution_stage":"unknown"}},{"type":"Feature","geometry":{"type":"Polygon","coordinates":[[[77.417976,28.523847],[77.417095,28.524641],[77.416763,28.524374],[77.415957,28.522993],[77.417229,28.52234],[77.417632,28.523037],[77.418302,28.523554],[77.417976,28.523847]]]},"properties":{"objectid":62338,"plotmapid":"89NA001IND","property_t":"Industrial","used":"NA","plotsizesq":20000,"plot_size":"20000 SQMT","plot_no":"001","sector":"89","block":"NA","mplanduse":"ISSUE","ppt_type":"IND","ppt_full":"Industrial","authority":"NOIDA","category":"industrial","execution_stage":"unknown"}},{"type":"Feature","geometry":{"type":"Polygon","coordinates":[[[77.421807,28.525468],[77.421041,28.52616],[77.42075,28.525935],[77.421527,28.525237],[77.421807,28.525468]]]},"properties":{"objectid":62339,"plotmapid":"89NA010IND","property_t":"Industrial","used":"NA","plotsizesq":4000,"plot_size":"4000 SQMT","plot_no":"010","sector":"89","block":"NA","mplanduse":"ISSUE","ppt_type":"IND","ppt_full":"Industrial","authority":"NOIDA","category":"industrial","execution_stage":"unknown"}},{"type":"Feature","geometry":{"type":"Polygon","coordinates":[[[77.422015,28.52432],[77.421243,28.525018],[77.42066,28.524579],[77.421433,28.523883],[77.422015,28.52432]]]},"properties":{"objectid":62340,"plotmapid":"89NA006IND","property_t":"Industrial","used":"NA","plotsizesq":8000,"plot_size":"8000 SQMT","plot_no":"006","sector":"89","block":"NA","mplanduse":"V","ppt_type":"IND","ppt_full":"Industrial","remark":"As per drone is vacant ,not Alloted & not buildup","authority":"NOIDA","category":"industrial","execution_stage":"unknown"}},{"type":"Feature","geometry":{"type":"Polygon","coordinates":[[[77.420955,28.524796],[77.420183,28.525496],[77.419892,28.525278],[77.42066,28.524579],[77.420955,28.524796]]]},"properties":{"objectid":62341,"plotmapid":"89NA013IND","property_t":"Industrial","used":"NA","plotsizesq":4000,"plot_size":"4000 SQMT","plot_no":"013","sector":"89","block":"NA","mplanduse":"ISSUE","ppt_type":"IND","ppt_full":"Industrial","authority":"NOIDA","category":"industrial","execution_stage":"unknown"}},{"type":"Feature","geometry":{"type":"Polygon","coordinates":[[[77.422015,28.52432],[77.422582,28.524767],[77.421807,28.525468],[77.421243,28.525018],[77.422015,28.52432]]]},"properties":{"objectid":62342,"plotmapid":"89NA007IND","property_t":"Industrial","used":"NA","plotsizesq":8000,"plot_size":"8000 SQMT","plot_no":"007","sector":"89","block":"NA","mplanduse":"V","ppt_type":"IND","ppt_full":"Industrial","remark":"As per drone is vacant ,not Alloted & not buildup","authority":"NOIDA","category":"industrial","execution_stage":"unknown"}},{"type":"Feature","geometry":{"type":"Polygon","coordinates":[[[77.421243,28.525018],[77.421527,28.525237],[77.42075,28.525935],[77.420468,28.525717],[77.421243,28.525018]]]},"properties":{"objectid":62343,"plotmapid":"89NA011IND","property_t":"Industrial","used":"NA","plotsizesq":4000,"plot_size":"4000 SQMT","plot_no":"011","sector":"89","block":"NA","mplanduse":"ISSUE","ppt_type":"IND","ppt_full":"Industrial","authority":"NOIDA","category":"industrial","execution_stage":"unknown"}},{"type":"Feature","geometry":{"type":"Polygon","coordinates":[[[77.421243,28.525018],[77.420468,28.525717],[77.420183,28.525496],[77.420955,28.524796],[77.421243,28.525018]]]},"properties":{"objectid":62345,"plotmapid":"89NA012IND","property_t":"Industrial","used":"NA","plotsizesq":4000,"plot_size":"4000 SQMT","plot_no":"012","sector":"89","block":"NA","mplanduse":"ISSUE","ppt_type":"IND","ppt_full":"Industrial","authority":"NOIDA","category":"industrial","execution_stage":"unknown"}},{"type":"Feature","geometry":{"type":"Polygon","coordinates":[[[77.419618,28.523804],[77.41885,28.524499],[77.418557,28.52428],[77.419328,28.523586],[77.419618,28.523804]]]},"properties":{"objectid":62346,"plotmapid":"89NA017IND","property_t":"Industrial","used":"NA","plotsizesq":4000,"plot_size":"4000 SQMT","plot_no":"017","sector":"89","block":"NA","mplanduse":"ISSUE","ppt_type":"IND","ppt_full":"Industrial","authority":"NOIDA","category":"industrial","execution_stage":"unknown"}},{"type":"Feature","geometry":{"type":"Polygon","coordinates":[[[77.420679,28.523319],[77.419905,28.524019],[77.419328,28.523586],[77.420102,28.522888],[77.420679,28.523319]]]},"properties":{"objectid":62347,"plotmapid":"89NA004IND","property_t":"Industrial","used":"NA","plotsizesq":8000,"plot_size":"8000 SQMT","plot_no":"004","sector":"89","block":"NA","mplanduse":"V","ppt_type":"IND","ppt_full":"Industrial","remark":"As per drone is vacant ,not Alloted & not buildup","authority":"NOIDA","category":"industrial","execution_stage":"unknown"}},{"type":"Feature","geometry":{"type":"Polygon","coordinates":[[[77.420195,28.524236],[77.420487,28.524455],[77.419722,28.52515],[77.419428,28.52493],[77.420195,28.524236]]]},"properties":{"objectid":62348,"plotmapid":"89NA014IND","property_t":"Industrial","used":"NA","plotsizesq":4000,"plot_size":"4000 SQMT","plot_no":"014","sector":"89","block":"NA","mplanduse":"ISSUE","ppt_type":"IND","ppt_full":"Industrial","authority":"NOIDA","category":"industrial","execution_stage":"unknown"}},{"type":"Feature","geometry":{"type":"Polygon","coordinates":[[[77.419039,28.523369],[77.41827,28.524066],[77.417976,28.523847],[77.418748,28.523151],[77.419039,28.523369]]]},"properties":{"objectid":62349,"plotmapid":"89NA019IND","property_t":"Industrial","used":"NA","plotsizesq":4000,"plot_size":"4000 SQMT","plot_no":"019","sector":"89","block":"NA","mplanduse":"ISSUE","ppt_type":"IND","ppt_full":"Industrial","authority":"NOIDA","category":"industrial","execution_stage":"unknown"}},{"type":"Feature","geometry":{"type":"Polygon","coordinates":[[[77.420102,28.522888],[77.419328,28.523586],[77.418748,28.523151],[77.41952,28.522454],[77.420102,28.522888]]]},"properties":{"objectid":62350,"plotmapid":"89NA003IND","property_t":"Industrial","used":"NA","plotsizesq":8000,"plot_size":"8000 SQMT","plot_no":"003","sector":"89","block":"NA","mplanduse":"V","ppt_type":"IND","ppt_full":"Industrial","remark":"As per drone is vacant ,not Alloted & not buildup","authority":"NOIDA","category":"industrial","execution_stage":"unknown"}},{"type":"Feature","geometry":{"type":"Polygon","coordinates":[[[77.420195,28.524236],[77.419428,28.52493],[77.419137,28.524713],[77.419905,28.524019],[77.420195,28.524236]]]},"properties":{"objectid":62351,"plotmapid":"89NA015IND","property_t":"Industrial","used":"NA","plotsizesq":4000,"plot_size":"4000 SQMT","plot_no":"015","sector":"89","block":"NA","mplanduse":"ISSUE","ppt_type":"IND","ppt_full":"Industrial","authority":"NOIDA","category":"industrial","execution_stage":"unknown"}},{"type":"Feature","geometry":{"type":"Polygon","coordinates":[[[77.419618,28.523804],[77.419905,28.524019],[77.419137,28.524713],[77.41885,28.524499],[77.419618,28.523804]]]},"properties":{"objectid":62352,"plotmapid":"89NA016IND","property_t":"Industrial","used":"NA","plotsizesq":4000,"plot_size":"4000 SQMT","plot_no":"016","sector":"89","block":"NA","mplanduse":"ISSUE","ppt_type":"IND","ppt_full":"Industrial","authority":"NOIDA","category":"industrial","execution_stage":"unknown"}},{"type":"Feature","geometry":{"type":"Polygon","coordinates":[[[77.419039,28.523369],[77.419328,28.523586],[77.418557,28.52428],[77.41827,28.524066],[77.419039,28.523369]]]},"properties":{"objectid":62353,"plotmapid":"89NA018IND","property_t":"Industrial","used":"NA","plotsizesq":4000,"plot_size":"4000 SQMT","plot_no":"018","sector":"89","block":"NA","mplanduse":"ISSUE","ppt_type":"IND","ppt_full":"Industrial","authority":"NOIDA","category":"industrial","execution_stage":"unknown"}},{"type":"Feature","geometry":{"type":"Polygon","coordinates":[[[77.418748,28.523151],[77.418302,28.523554],[77.417632,28.523037],[77.417229,28.52234],[77.418496,28.521689],[77.41952,28.522454],[77.418748,28.523151]]]},"properties":{"objectid":62356,"plotmapid":"89NA002IND","property_t":"Industrial","used":"NA","plotsizesq":20000,"plot_size":"20000 SQMT","plot_no":"002","sector":"89","block":"NA","mplanduse":"V","ppt_type":"IND","ppt_full":"Industrial","remark":"As per drone is vacant ,not Alloted & not buildup","authority":"NOIDA","category":"industrial","execution_stage":"unknown"}}]}
