{"type":"FeatureCollection","features":[{"type":"Feature","geometry":{"type":"Polygon","coordinates":[[[77.33563,28.60149],[77.335511,28.601613],[77.335462,28.601577],[77.335579,28.601452],[77.33563,28.60149]]]},"properties":{"objectid":27436,"plotmapid":"11W054GIND","property_t":"Industrial","allotted_p":"Yes","plotsizesq":0,"plot_no":"054G","sector":"11","block":"W","mplanduse":"B","ppt_type":"IND","ppt_full":"Industrial","authority":"NOIDA","category":"industrial","execution_stage":"allotted"}},{"type":"Feature","geometry":{"type":"Polygon","coordinates":[[[77.333562,28.599362],[77.333714,28.599477],[77.333448,28.599751],[77.333292,28.599635],[77.333562,28.599362]]]},"properties":{"objectid":27458,"plotmapid":"11D039IND","property_t":"Industrial","used":"TYPE-D","allotted_p":"Yes","plotsizesq":800,"plot_size":"800 SQMT","plot_no":"039","sector":"11","block":"D","mplanduse":"B","ppt_type":"IND","ppt_full":"Industrial","authority":"NOIDA","category":"industrial","execution_stage":"allotted"}},{"type":"Feature","geometry":{"type":"Polygon","coordinates":[[[77.333066,28.60016],[77.33333,28.599884],[77.333544,28.600043],[77.333279,28.60032],[77.333066,28.60016]]]},"properties":{"objectid":27462,"plotmapid":"11E019IND","property_t":"Industrial","used":"TYPE-D","allotted_p":"Yes","plotsizesq":1106,"plot_size":"1106 SQMT","plot_no":"019","sector":"11","block":"E","mplanduse":"B","ppt_type":"IND","ppt_full":"Industrial","authority":"NOIDA","category":"industrial","execution_stage":"allotted"}},{"type":"Feature","geometry":{"type":"Polygon","coordinates":[[[77.33171,28.599617],[77.331973,28.599337],[77.332132,28.599456],[77.331865,28.599733],[77.33171,28.599617]]]},"properties":{"objectid":27471,"plotmapid":"11E028IND","property_t":"Industrial","used":"TYPE-D","allotted_p":"Yes","plotsizesq":800,"plot_size":"800 SQMT","plot_no":"028","sector":"11","block":"E","mplanduse":"B","ppt_type":"IND","ppt_full":"Industrial","authority":"NOIDA","category":"industrial","execution_stage":"allotted"}},{"type":"Feature","geometry":{"type":"Polygon","coordinates":[[[77.331865,28.599733],[77.332132,28.599456],[77.332287,28.599574],[77.332025,28.599853],[77.331865,28.599733]]]},"properties":{"objectid":27472,"plotmapid":"11E027IND","property_t":"Industrial","used":"TYPE-D","allotted_p":"Yes","plotsizesq":800,"plot_size":"800 SQMT","plot_no":"027","sector":"11","block":"E","mplanduse":"B","ppt_type":"IND","ppt_full":"Industrial","authority":"NOIDA","category":"industrial","execution_stage":"allotted"}},{"type":"Feature","geometry":{"type":"Polygon","coordinates":[[[77.332025,28.599853],[77.332287,28.599574],[77.332442,28.59969],[77.332175,28.599966],[77.332025,28.599853]]]},"properties":{"objectid":27473,"plotmapid":"11E026IND","property_t":"Industrial","used":"TYPE-D","allotted_p":"Yes","plotsizesq":800,"plot_size":"800 SQMT","plot_no":"026","sector":"11","block":"E","mplanduse":"B","ppt_type":"IND","ppt_full":"Industrial","authority":"NOIDA","category":"industrial","execution_stage":"allotted"}},{"type":"Feature","geometry":{"type":"Polygon","coordinates":[[[77.332175,28.599966],[77.332442,28.59969],[77.332599,28.599808],[77.332333,28.600084],[77.332175,28.599966]]]},"properties":{"objectid":27474,"plotmapid":"11E025IND","property_t":"Industrial","used":"TYPE-D","allotted_p":"Yes","plotsizesq":800,"plot_size":"800 SQMT","plot_no":"025","sector":"11","block":"E","mplanduse":"B","ppt_type":"IND","ppt_full":"Industrial","authority":"NOIDA","category":"industrial","execution_stage":"allotted"}},{"type":"Feature","geometry":{"type":"Polygon","coordinates":[[[77.332333,28.600084],[77.332599,28.599808],[77.332753,28.599924],[77.332488,28.6002],[77.332333,28.600084]]]},"properties":{"objectid":27475,"plotmapid":"11E024IND","property_t":"Industrial","used":"TYPE-D","allotted_p":"Yes","plotsizesq":800,"plot_size":"800 SQMT","plot_no":"024","sector":"11","block":"E","mplanduse":"B","ppt_type":"IND","ppt_full":"Industrial","authority":"NOIDA","category":"industrial","execution_stage":"allotted"}},{"type":"Feature","geometry":{"type":"Polygon","coordinates":[[[77.332488,28.6002],[77.332753,28.599924],[77.332909,28.600042],[77.332645,28.600318],[77.332488,28.6002]]]},"properties":{"objectid":27476,"plotmapid":"11E023IND","property_t":"Industrial","used":"TYPE-D","allotted_p":"Yes","plotsizesq":800,"plot_size":"800 SQMT","plot_no":"023","sector":"11","block":"E","mplanduse":"B","ppt_type":"IND","ppt_full":"Industrial","authority":"NOIDA","category":"industrial","execution_stage":"allotted"}},{"type":"Feature","geometry":{"type":"Polygon","coordinates":[[[77.332645,28.600318],[77.332909,28.600042],[77.333066,28.60016],[77.332803,28.600436],[77.332645,28.600318]]]},"properties":{"objectid":27477,"plotmapid":"11E022IND","property_t":"Industrial","used":"TYPE-D","allotted_p":"Yes","plotsizesq":800,"plot_size":"800 SQMT","plot_no":"022","sector":"11","block":"E","mplanduse":"B","ppt_type":"IND","ppt_full":"Industrial","authority":"NOIDA","category":"industrial","execution_stage":"allotted"}},{"type":"Feature","geometry":{"type":"Polygon","coordinates":[[[77.335446,28.59973],[77.335309,28.59987],[77.334991,28.599637],[77.335128,28.599495],[77.335446,28.59973]]]},"properties":{"objectid":28050,"plotmapid":"11W021IND","property_t":"Industrial","allotted_p":"Yes","plotsizesq":800,"plot_size":"800 SQMT","plot_no":"021","sector":"11","block":"W","mplanduse":"B","ppt_type":"IND","ppt_full":"Industrial","authority":"NOIDA","category":"industrial","execution_stage":"allotted"}},{"type":"Feature","geometry":{"type":"Polygon","coordinates":[[[77.334422,28.598603],[77.334018,28.599011],[77.333778,28.598833],[77.334185,28.598425],[77.334422,28.598603]]]},"properties":{"objectid":28055,"plotmapid":"11D024IND","property_t":"Industrial","used":"TYPE-","allotted_p":"Yes","plotsizesq":1800,"plot_size":"1800 SQMT","plot_no":"024","sector":"11","block":"D","mplanduse":"B","ppt_type":"IND","ppt_full":"Industrial","authority":"NOIDA","category":"industrial","execution_stage":"allotted"}},{"type":"Feature","geometry":{"type":"Polygon","coordinates":[[[77.334422,28.598603],[77.334719,28.598828],[77.334325,28.599238],[77.334018,28.599011],[77.334422,28.598603]]]},"properties":{"objectid":28057,"plotmapid":"11D023IND","property_t":"Industrial","used":"TYPE-","allotted_p":"Yes","plotsizesq":2238,"plot_size":"2238 SQMT","plot_no":"023","sector":"11","block":"D","mplanduse":"B","ppt_type":"IND","ppt_full":"Industrial","authority":"NOIDA","category":"industrial","execution_stage":"allotted"}},{"type":"Feature","geometry":{"type":"Polygon","coordinates":[[[77.335128,28.599495],[77.334922,28.599708],[77.334456,28.599356],[77.334658,28.599148],[77.335128,28.599495]]]},"properties":{"objectid":28058,"plotmapid":"11W001IND","property_t":"Industrial","allotted_p":"Yes","plotsizesq":1800,"plot_size":"1800 SQMT","plot_no":"001","sector":"11","block":"W","mplanduse":"B","ppt_type":"IND","ppt_full":"Industrial","authority":"NOIDA","category":"industrial","execution_stage":"allotted"}},{"type":"Feature","geometry":{"type":"Polygon","coordinates":[[[77.335309,28.59987],[77.335177,28.600006],[77.334858,28.599773],[77.334991,28.599637],[77.335309,28.59987]]]},"properties":{"objectid":28059,"plotmapid":"11W020IND","property_t":"Industrial","allotted_p":"Yes","plotsizesq":800,"plot_size":"800 SQMT","plot_no":"020","sector":"11","block":"W","mplanduse":"B","ppt_type":"IND","ppt_full":"Industrial","authority":"NOIDA","category":"industrial","execution_stage":"allotted"}},{"type":"Feature","geometry":{"type":"Polygon","coordinates":[[[77.33581,28.600004],[77.335542,28.600274],[77.335318,28.600109],[77.33558,28.599834],[77.33581,28.600004]]]},"properties":{"objectid":28060,"plotmapid":"11W022IND","property_t":"Industrial","allotted_p":"Yes","plotsizesq":1158,"plot_size":"1158 SQMT","plot_no":"022","sector":"11","block":"W","mplanduse":"B","ppt_type":"IND","ppt_full":"Industrial","authority":"NOIDA","category":"industrial","execution_stage":"allotted"}},{"type":"Feature","geometry":{"type":"Polygon","coordinates":[[[77.335965,28.600118],[77.3357,28.60039],[77.335542,28.600274],[77.33581,28.600004],[77.335965,28.600118]]]},"properties":{"objectid":28061,"plotmapid":"11W023IND","property_t":"Industrial","allotted_p":"Yes","plotsizesq":800,"plot_size":"800 SQMT","plot_no":"023","sector":"11","block":"W","mplanduse":"B","ppt_type":"IND","ppt_full":"Industrial","authority":"NOIDA","category":"industrial","execution_stage":"allotted"}},{"type":"Feature","geometry":{"type":"Polygon","coordinates":[[[77.33612,28.600232],[77.335859,28.600507],[77.3357,28.60039],[77.335965,28.600118],[77.33612,28.600232]]]},"properties":{"objectid":28062,"plotmapid":"11W024IND","property_t":"Industrial","allotted_p":"Yes","plotsizesq":800,"plot_size":"800 SQMT","plot_no":"024","sector":"11","block":"W","mplanduse":"B","ppt_type":"IND","ppt_full":"Industrial","authority":"NOIDA","category":"industrial","execution_stage":"allotted"}},{"type":"Feature","geometry":{"type":"Polygon","coordinates":[[[77.336277,28.600348],[77.336015,28.600622],[77.335859,28.600507],[77.33612,28.600232],[77.336277,28.600348]]]},"properties":{"objectid":28063,"plotmapid":"11W025IND","property_t":"Industrial","allotted_p":"Yes","plotsizesq":800,"plot_size":"800 SQMT","plot_no":"025","sector":"11","block":"W","mplanduse":"B","ppt_type":"IND","ppt_full":"Industrial","authority":"NOIDA","category":"industrial","execution_stage":"allotted"}},{"type":"Feature","geometry":{"type":"Polygon","coordinates":[[[77.336292,28.600359],[77.336434,28.600463],[77.336173,28.600738],[77.336015,28.600622],[77.336277,28.600348],[77.336292,28.600359]]]},"properties":{"objectid":28064,"plotmapid":"11W026IND","property_t":"Industrial","allotted_p":"Yes","plotsizesq":800,"plot_size":"800 SQMT","plot_no":"026","sector":"11","block":"W","mplanduse":"B","ppt_type":"IND","ppt_full":"Industrial","authority":"NOIDA","category":"industrial","execution_stage":"allotted"}},{"type":"Feature","geometry":{"type":"Polygon","coordinates":[[[77.336591,28.600579],[77.336332,28.600855],[77.336173,28.600738],[77.336434,28.600463],[77.336591,28.600579]]]},"properties":{"objectid":28065,"plotmapid":"11W027IND","property_t":"Industrial","allotted_p":"Yes","plotsizesq":800,"plot_size":"800 SQMT","plot_no":"027","sector":"11","block":"W","mplanduse":"B","ppt_type":"IND","ppt_full":"Industrial","authority":"NOIDA","category":"industrial","execution_stage":"allotted"}},{"type":"Feature","geometry":{"type":"Polygon","coordinates":[[[77.336908,28.600812],[77.336644,28.601085],[77.336485,28.600968],[77.336756,28.6007],[77.336908,28.600812]]]},"properties":{"objectid":28066,"plotmapid":"11W029IND","property_t":"Industrial","allotted_p":"Yes","plotsizesq":800,"plot_size":"800 SQMT","plot_no":"029","sector":"11","block":"W","mplanduse":"B","ppt_type":"IND","ppt_full":"Industrial","authority":"NOIDA","category":"industrial","execution_stage":"allotted"}},{"type":"Feature","geometry":{"type":"Polygon","coordinates":[[[77.337093,28.600948],[77.336832,28.601223],[77.336644,28.601085],[77.336908,28.600812],[77.337093,28.600948]]]},"properties":{"objectid":28067,"plotmapid":"11W030IND","property_t":"Industrial","allotted_p":"Yes","plotsizesq":800,"plot_size":"800 SQMT","plot_no":"030","sector":"11","block":"W","mplanduse":"B","ppt_type":"IND","ppt_full":"Industrial","authority":"NOIDA","category":"industrial","execution_stage":"allotted"}},{"type":"Feature","geometry":{"type":"Polygon","coordinates":[[[77.337219,28.601041],[77.336958,28.601316],[77.336832,28.601223],[77.337093,28.600948],[77.337219,28.601041]]]},"properties":{"objectid":28068,"plotmapid":"11W031IND","property_t":"Industrial","allotted_p":"Yes","plotsizesq":800,"plot_size":"800 SQMT","plot_no":"031","sector":"11","block":"W","mplanduse":"B","ppt_type":"IND","ppt_full":"Industrial","authority":"NOIDA","category":"industrial","execution_stage":"allotted"}},{"type":"Feature","geometry":{"type":"Polygon","coordinates":[[[77.334745,28.59989],[77.334721,28.599915],[77.334255,28.599562],[77.334456,28.599356],[77.334922,28.599708],[77.334745,28.59989]]]},"properties":{"objectid":28069,"plotmapid":"11W002IND","property_t":"Industrial","allotted_p":"Yes","plotsizesq":1800,"plot_size":"1800 SQMT","plot_no":"002","sector":"11","block":"W","mplanduse":"B","ppt_type":"IND","ppt_full":"Industrial","authority":"NOIDA","category":"industrial","execution_stage":"allotted"}},{"type":"Feature","geometry":{"type":"Polygon","coordinates":[[[77.335177,28.600006],[77.335063,28.600124],[77.334745,28.59989],[77.334858,28.599773],[77.335177,28.600006]]]},"properties":{"objectid":28070,"plotmapid":"11W019IND","property_t":"Industrial","allotted_p":"Yes","plotsizesq":800,"plot_size":"800 SQMT","plot_no":"019","sector":"11","block":"W","mplanduse":"B","ppt_type":"IND","ppt_full":"Industrial","authority":"NOIDA","category":"industrial","execution_stage":"allotted"}},{"type":"Feature","geometry":{"type":"Polygon","coordinates":[[[77.335063,28.600124],[77.334912,28.600279],[77.334594,28.600046],[77.334745,28.59989],[77.335063,28.600124]]]},"properties":{"objectid":28071,"plotmapid":"11W018IND","property_t":"Industrial","allotted_p":"Yes","plotsizesq":800,"plot_size":"800 SQMT","plot_no":"018","sector":"11","block":"W","mplanduse":"B","ppt_type":"IND","ppt_full":"Industrial","authority":"NOIDA","category":"industrial","execution_stage":"allotted"}},{"type":"Feature","geometry":{"type":"Polygon","coordinates":[[[77.335519,28.600257],[77.335255,28.600539],[77.335052,28.600389],[77.335318,28.600109],[77.335519,28.600257]]]},"properties":{"objectid":28072,"plotmapid":"11W041IND","property_t":"Industrial","allotted_p":"Yes","plotsizesq":1000,"plot_size":"1000 SQMT","plot_no":"041","sector":"11","block":"W","mplanduse":"B","ppt_type":"IND","ppt_full":"Industrial","authority":"NOIDA","category":"industrial","execution_stage":"allotted"}},{"type":"Feature","geometry":{"type":"Polygon","coordinates":[[[77.335542,28.600274],[77.335558,28.600285],[77.335291,28.600565],[77.335255,28.600539],[77.335522,28.600259],[77.335542,28.600274]]]},"properties":{"objectid":28073,"plotmapid":"11W041AIND","property_t":"Industrial","allotted_p":"Yes","plotsizesq":0,"plot_no":"041A","sector":"11","block":"W","mplanduse":"B","ppt_type":"IND","ppt_full":"Industrial","authority":"NOIDA","category":"industrial","execution_stage":"allotted"}},{"type":"Feature","geometry":{"type":"Polygon","coordinates":[[[77.335558,28.600285],[77.335717,28.600402],[77.335445,28.600679],[77.335291,28.600565],[77.335558,28.600285]]]},"properties":{"objectid":28074,"plotmapid":"11W040IND","property_t":"Industrial","allotted_p":"Yes","plotsizesq":800,"plot_size":"800 SQMT","plot_no":"040","sector":"11","block":"W","mplanduse":"B","ppt_type":"IND","ppt_full":"Industrial","authority":"NOIDA","category":"industrial","execution_stage":"allotted"}},{"type":"Feature","geometry":{"type":"Polygon","coordinates":[[[77.335871,28.600516],[77.335606,28.600798],[77.335445,28.600679],[77.335717,28.600402],[77.335871,28.600516]]]},"properties":{"objectid":28075,"plotmapid":"11W039IND","property_t":"Industrial","allotted_p":"Yes","plotsizesq":800,"plot_size":"800 SQMT","plot_no":"039","sector":"11","block":"W","mplanduse":"B","ppt_type":"IND","ppt_full":"Industrial","authority":"NOIDA","category":"industrial","execution_stage":"allotted"}},{"type":"Feature","geometry":{"type":"Polygon","coordinates":[[[77.336031,28.600634],[77.33576,28.600911],[77.335606,28.600798],[77.335871,28.600516],[77.336031,28.600634]]]},"properties":{"objectid":28076,"plotmapid":"11W038IND","property_t":"Industrial","allotted_p":"Yes","plotsizesq":800,"plot_size":"800 SQMT","plot_no":"038","sector":"11","block":"W","mplanduse":"B","ppt_type":"IND","ppt_full":"Industrial","authority":"NOIDA","category":"industrial","execution_stage":"allotted"}},{"type":"Feature","geometry":{"type":"Polygon","coordinates":[[[77.336187,28.600748],[77.335918,28.601027],[77.33576,28.600911],[77.336031,28.600634],[77.336187,28.600748]]]},"properties":{"objectid":28077,"plotmapid":"11W037IND","property_t":"Industrial","allotted_p":"Yes","plotsizesq":800,"plot_size":"800 SQMT","plot_no":"037","sector":"11","block":"W","mplanduse":"B","ppt_type":"IND","ppt_full":"Industrial","authority":"NOIDA","category":"industrial","execution_stage":"allotted"}},{"type":"Feature","geometry":{"type":"Polygon","coordinates":[[[77.336374,28.600886],[77.336111,28.601169],[77.335918,28.601027],[77.336187,28.600748],[77.336374,28.600886]]]},"properties":{"objectid":28078,"plotmapid":"11W036IND","property_t":"Industrial","allotted_p":"Yes","plotsizesq":800,"plot_size":"800 SQMT","plot_no":"036","sector":"11","block":"W","mplanduse":"B","ppt_type":"IND","ppt_full":"Industrial","authority":"NOIDA","category":"industrial","execution_stage":"allotted"}},{"type":"Feature","geometry":{"type":"Polygon","coordinates":[[[77.33652,28.600994],[77.336253,28.601274],[77.336111,28.601169],[77.336374,28.600886],[77.33652,28.600994]]]},"properties":{"objectid":28079,"plotmapid":"11W035IND","property_t":"Industrial","allotted_p":"Yes","plotsizesq":800,"plot_size":"800 SQMT","plot_no":"035","sector":"11","block":"W","mplanduse":"B","ppt_type":"IND","ppt_full":"Industrial","authority":"NOIDA","category":"industrial","execution_stage":"allotted"}},{"type":"Feature","geometry":{"type":"Polygon","coordinates":[[[77.336528,28.600999],[77.336657,28.601095],[77.336389,28.601374],[77.336253,28.601274],[77.336528,28.600999]]]},"properties":{"objectid":28080,"plotmapid":"11W034IND","property_t":"Industrial","allotted_p":"Yes","plotsizesq":800,"plot_size":"800 SQMT","plot_no":"034","sector":"11","block":"W","mplanduse":"B","ppt_type":"IND","ppt_full":"Industrial","authority":"NOIDA","category":"industrial","execution_stage":"allotted"}},{"type":"Feature","geometry":{"type":"Polygon","coordinates":[[[77.336672,28.601105],[77.336816,28.601211],[77.336545,28.601489],[77.336389,28.601374],[77.336657,28.601095],[77.336672,28.601105]]]},"properties":{"objectid":28081,"plotmapid":"11W033IND","property_t":"Industrial","allotted_p":"Yes","plotsizesq":800,"plot_size":"800 SQMT","plot_no":"033","sector":"11","block":"W","mplanduse":"B","ppt_type":"IND","ppt_full":"Industrial","authority":"NOIDA","category":"industrial","execution_stage":"allotted"}},{"type":"Feature","geometry":{"type":"Polygon","coordinates":[[[77.33694,28.601303],[77.337152,28.601458],[77.33688,28.601735],[77.336673,28.601583],[77.33694,28.601303]]]},"properties":{"objectid":28082,"plotmapid":"11W032AIND","property_t":"Industrial","allotted_p":"Yes","plotsizesq":0,"plot_no":"032A","sector":"11","block":"W","mplanduse":"B","ppt_type":"IND","ppt_full":"Industrial","authority":"NOIDA","category":"industrial","execution_stage":"allotted"}},{"type":"Feature","geometry":{"type":"Polygon","coordinates":[[[77.334259,28.599564],[77.334721,28.599915],[77.334522,28.60012],[77.334057,28.599766],[77.334259,28.599564]]]},"properties":{"objectid":28083,"plotmapid":"11W003IND","property_t":"Industrial","allotted_p":"Yes","plotsizesq":1800,"plot_size":"1800 SQMT","plot_no":"003","sector":"11","block":"W","mplanduse":"B","ppt_type":"IND","ppt_full":"Industrial","authority":"NOIDA","category":"industrial","execution_stage":"allotted"}},{"type":"Feature","geometry":{"type":"Polygon","coordinates":[[[77.332779,28.598772],[77.333041,28.598497],[77.333199,28.598615],[77.332936,28.59889],[77.332779,28.598772]]]},"properties":{"objectid":28086,"plotmapid":"11D031IND","property_t":"Industrial","used":"TYPE-D","allotted_p":"Yes","plotsizesq":800,"plot_size":"800 SQMT","plot_no":"031","sector":"11","block":"D","mplanduse":"B","ppt_type":"IND","ppt_full":"Industrial","authority":"NOIDA","category":"industrial","execution_stage":"allotted"}},{"type":"Feature","geometry":{"type":"Polygon","coordinates":[[[77.332936,28.59889],[77.333199,28.598615],[77.333357,28.598732],[77.333091,28.599007],[77.332936,28.59889]]]},"properties":{"objectid":28087,"plotmapid":"11D032IND","property_t":"Industrial","used":"TYPE-D","allotted_p":"Yes","plotsizesq":800,"plot_size":"800 SQMT","plot_no":"032","sector":"11","block":"D","mplanduse":"B","ppt_type":"IND","ppt_full":"Industrial","authority":"NOIDA","category":"industrial","execution_stage":"allotted"}},{"type":"Feature","geometry":{"type":"Polygon","coordinates":[[[77.333091,28.599007],[77.333357,28.598732],[77.333515,28.59885],[77.333248,28.599126],[77.333091,28.599007]]]},"properties":{"objectid":28088,"plotmapid":"11D033IND","property_t":"Industrial","used":"TYPE-D","allotted_p":"Yes","plotsizesq":800,"plot_size":"800 SQMT","plot_no":"033","sector":"11","block":"D","mplanduse":"B","ppt_type":"IND","ppt_full":"Industrial","authority":"NOIDA","category":"industrial","execution_stage":"allotted"}},{"type":"Feature","geometry":{"type":"Polygon","coordinates":[[[77.33367,28.598965],[77.333401,28.599241],[77.333248,28.599126],[77.333515,28.59885],[77.33367,28.598965]]]},"properties":{"objectid":28089,"plotmapid":"11D034IND","property_t":"Industrial","used":"TYPE-D","allotted_p":"Yes","plotsizesq":800,"plot_size":"800 SQMT","plot_no":"034","sector":"11","block":"D","mplanduse":"B","ppt_type":"IND","ppt_full":"Industrial","authority":"NOIDA","category":"industrial","execution_stage":"allotted"}},{"type":"Feature","geometry":{"type":"Polygon","coordinates":[[[77.333674,28.598968],[77.333825,28.599081],[77.333558,28.599359],[77.333401,28.599241],[77.333674,28.598968]]]},"properties":{"objectid":28090,"plotmapid":"11D035IND","property_t":"Industrial","used":"TYPE-D","allotted_p":"Yes","plotsizesq":800,"plot_size":"800 SQMT","plot_no":"035","sector":"11","block":"D","mplanduse":"B","ppt_type":"IND","ppt_full":"Industrial","authority":"NOIDA","category":"industrial","execution_stage":"allotted"}},{"type":"Feature","geometry":{"type":"Polygon","coordinates":[[[77.333832,28.599086],[77.333983,28.599199],[77.333714,28.599477],[77.333558,28.599359],[77.333832,28.599086]]]},"properties":{"objectid":28091,"plotmapid":"11D036IND","property_t":"Industrial","used":"TYPE-D","allotted_p":"Yes","plotsizesq":800,"plot_size":"800 SQMT","plot_no":"036","sector":"11","block":"D","mplanduse":"B","ppt_type":"IND","ppt_full":"Industrial","authority":"NOIDA","category":"industrial","execution_stage":"allotted"}},{"type":"Feature","geometry":{"type":"Polygon","coordinates":[[[77.33399,28.599204],[77.334203,28.599363],[77.333932,28.599641],[77.333714,28.599477],[77.33399,28.599204]]]},"properties":{"objectid":28092,"plotmapid":"11D037IND","property_t":"Industrial","used":"TYPE-D","allotted_p":"Yes","plotsizesq":1132,"plot_size":"1132 SQMT","plot_no":"037","sector":"11","block":"D","mplanduse":"B","ppt_type":"IND","ppt_full":"Industrial","authority":"NOIDA","category":"industrial","execution_stage":"allotted"}},{"type":"Feature","geometry":{"type":"Polygon","coordinates":[[[77.334912,28.600279],[77.334801,28.600393],[77.334483,28.60016],[77.334594,28.600046],[77.334912,28.600279]]]},"properties":{"objectid":28093,"plotmapid":"11W017IND","property_t":"Industrial","allotted_p":"Yes","plotsizesq":800,"plot_size":"800 SQMT","plot_no":"017","sector":"11","block":"W","mplanduse":"B","ppt_type":"IND","ppt_full":"Industrial","authority":"NOIDA","category":"industrial","execution_stage":"allotted"}},{"type":"Feature","geometry":{"type":"Polygon","coordinates":[[[77.336367,28.601552],[77.336324,28.601601],[77.336184,28.601503],[77.336227,28.601455],[77.336367,28.601552]]]},"properties":{"objectid":28095,"plotmapid":"11W053GIND","property_t":"Industrial","allotted_p":"Yes","plotsizesq":0,"plot_no":"053G","sector":"11","block":"W","mplanduse":"B","ppt_type":"IND","ppt_full":"Industrial","authority":"NOIDA","category":"industrial","execution_stage":"allotted"}},{"type":"Feature","geometry":{"type":"Polygon","coordinates":[[[77.335984,28.601453],[77.336084,28.601348],[77.336138,28.601388],[77.33604,28.601494],[77.335984,28.601453]]]},"properties":{"objectid":28096,"plotmapid":"11W053AIND","property_t":"Industrial","allotted_p":"Yes","plotsizesq":0,"plot_no":"053A","sector":"11","block":"W","mplanduse":"B","ppt_type":"IND","ppt_full":"Industrial","authority":"NOIDA","category":"industrial","execution_stage":"allotted"}},{"type":"Feature","geometry":{"type":"Polygon","coordinates":[[[77.335949,28.601362],[77.336021,28.601415],[77.335984,28.601453],[77.336034,28.601501],[77.335903,28.601405],[77.335949,28.601362]]]},"properties":{"objectid":28097,"plotmapid":"11W053BIND","property_t":"Industrial","allotted_p":"Yes","plotsizesq":0,"plot_no":"053B","sector":"11","block":"W","mplanduse":"B","ppt_type":"IND","ppt_full":"Industrial","authority":"NOIDA","category":"industrial","execution_stage":"allotted"}},{"type":"Feature","geometry":{"type":"Polygon","coordinates":[[[77.336324,28.601601],[77.336286,28.601646],[77.336144,28.601547],[77.336184,28.601503],[77.336324,28.601601]]]},"properties":{"objectid":28098,"plotmapid":"11W053FIND","property_t":"Industrial","allotted_p":"Yes","plotsizesq":0,"plot_no":"053F","sector":"11","block":"W","mplanduse":"B","ppt_type":"IND","ppt_full":"Industrial","authority":"NOIDA","category":"industrial","execution_stage":"allotted"}},{"type":"Feature","geometry":{"type":"Polygon","coordinates":[[[77.335903,28.601405],[77.335875,28.601434],[77.335565,28.601204],[77.335701,28.601061],[77.33601,28.601292],[77.335903,28.601405]]]},"properties":{"objectid":28099,"plotmapid":"11W053IND","property_t":"Industrial","allotted_p":"Yes","plotsizesq":800,"plot_size":"800 SQMT","plot_no":"053","sector":"11","block":"W","mplanduse":"B","ppt_type":"IND","ppt_full":"Industrial","authority":"NOIDA","category":"industrial","execution_stage":"allotted"}},{"type":"Feature","geometry":{"type":"Polygon","coordinates":[[[77.335241,28.600729],[77.335108,28.600873],[77.334794,28.600639],[77.334924,28.600504],[77.335241,28.600729]]]},"properties":{"objectid":28100,"plotmapid":"11W042IND","property_t":"Industrial","allotted_p":"Yes","plotsizesq":800,"plot_size":"800 SQMT","plot_no":"042","sector":"11","block":"W","mplanduse":"B","ppt_type":"IND","ppt_full":"Industrial","authority":"NOIDA","category":"industrial","execution_stage":"allotted"}},{"type":"Feature","geometry":{"type":"Polygon","coordinates":[[[77.335561,28.600957],[77.33542,28.601105],[77.335108,28.600873],[77.335245,28.600732],[77.335561,28.600957]]]},"properties":{"objectid":28101,"plotmapid":"11W052IND","property_t":"Industrial","allotted_p":"Yes","plotsizesq":800,"plot_size":"800 SQMT","plot_no":"052","sector":"11","block":"W","mplanduse":"B","ppt_type":"IND","ppt_full":"Industrial","authority":"NOIDA","category":"industrial","execution_stage":"allotted"}},{"type":"Feature","geometry":{"type":"Polygon","coordinates":[[[77.334062,28.599769],[77.334522,28.60012],[77.334325,28.600323],[77.333857,28.599971],[77.334062,28.599769]]]},"properties":{"objectid":28102,"plotmapid":"11W004IND","property_t":"Industrial","allotted_p":"Yes","plotsizesq":1800,"plot_size":"1800 SQMT","plot_no":"004","sector":"11","block":"W","mplanduse":"B","ppt_type":"IND","ppt_full":"Industrial","authority":"NOIDA","category":"industrial","execution_stage":"allotted"}},{"type":"Feature","geometry":{"type":"Polygon","coordinates":[[[77.334793,28.600387],[77.334801,28.600393],[77.334511,28.600691],[77.334194,28.600458],[77.334483,28.60016],[77.334793,28.600387]]]},"properties":{"objectid":28103,"plotmapid":"11W015,16IND","property_t":"Industrial","plotsizesq":800,"plot_size":"800 SQMT","plot_no":"015,16","sector":"11","block":"W","mplanduse":"B","ppt_type":"IND","ppt_full":"Industrial","authority":"NOIDA","category":"industrial","execution_stage":"unknown"}},{"type":"Feature","geometry":{"type":"Polygon","coordinates":[[[77.336034,28.601501],[77.335994,28.601543],[77.335845,28.601437],[77.335875,28.601434],[77.335903,28.601405],[77.336034,28.601501]]]},"properties":{"objectid":28104,"plotmapid":"11W053CIND","property_t":"Industrial","allotted_p":"Yes","plotsizesq":0,"plot_no":"053C","sector":"11","block":"W","mplanduse":"B","ppt_type":"IND","ppt_full":"Industrial","authority":"NOIDA","category":"industrial","execution_stage":"allotted"}},{"type":"Feature","geometry":{"type":"Polygon","coordinates":[[[77.336245,28.601693],[77.336367,28.601552],[77.336635,28.601743],[77.336245,28.601693]]]},"properties":{"objectid":28105,"plotmapid":"11W053HIND","property_t":"Industrial","allotted_p":"Yes","plotsizesq":0,"plot_no":"053H","sector":"11","block":"W","mplanduse":"B","ppt_type":"IND","ppt_full":"Industrial","authority":"NOIDA","category":"industrial","execution_stage":"allotted"}},{"type":"Feature","geometry":{"type":"Polygon","coordinates":[[[77.332413,28.598496],[77.332625,28.598656],[77.332353,28.598934],[77.33214,28.598775],[77.332413,28.598496]]]},"properties":{"objectid":28106,"plotmapid":"11D046IND","property_t":"Industrial","used":"TYPE-D","allotted_p":"Yes","plotsizesq":1092,"plot_size":"1092 SQMT","plot_no":"046","sector":"11","block":"D","mplanduse":"B","ppt_type":"IND","ppt_full":"Industrial","authority":"NOIDA","category":"industrial","execution_stage":"allotted"}},{"type":"Feature","geometry":{"type":"Polygon","coordinates":[[[77.332779,28.598772],[77.332511,28.599052],[77.332353,28.598934],[77.332625,28.598656],[77.332779,28.598772]]]},"properties":{"objectid":28107,"plotmapid":"11D045IND","property_t":"Industrial","used":"TYPE-D","allotted_p":"Yes","plotsizesq":800,"plot_size":"800 SQMT","plot_no":"045","sector":"11","block":"D","mplanduse":"B","ppt_type":"IND","ppt_full":"Industrial","authority":"NOIDA","category":"industrial","execution_stage":"allotted"}},{"type":"Feature","geometry":{"type":"Polygon","coordinates":[[[77.332936,28.59889],[77.332669,28.59917],[77.332511,28.599052],[77.332779,28.598772],[77.332936,28.59889]]]},"properties":{"objectid":28108,"plotmapid":"11D044IND","property_t":"Industrial","used":"TYPE-D","allotted_p":"Yes","plotsizesq":800,"plot_size":"800 SQMT","plot_no":"044","sector":"11","block":"D","mplanduse":"B","ppt_type":"IND","ppt_full":"Industrial","authority":"NOIDA","category":"industrial","execution_stage":"allotted"}},{"type":"Feature","geometry":{"type":"Polygon","coordinates":[[[77.333091,28.599007],[77.332823,28.599285],[77.332669,28.59917],[77.332936,28.59889],[77.333091,28.599007]]]},"properties":{"objectid":28109,"plotmapid":"11D043IND","property_t":"Industrial","used":"TYPE-D","allotted_p":"Yes","plotsizesq":800,"plot_size":"800 SQMT","plot_no":"043","sector":"11","block":"D","mplanduse":"B","ppt_type":"IND","ppt_full":"Industrial","authority":"NOIDA","category":"industrial","execution_stage":"allotted"}},{"type":"Feature","geometry":{"type":"Polygon","coordinates":[[[77.333248,28.599126],[77.33298,28.599402],[77.332823,28.599285],[77.333091,28.599007],[77.333248,28.599126]]]},"properties":{"objectid":28110,"plotmapid":"11D042IND","property_t":"Industrial","used":"TYPE-D","allotted_p":"Yes","plotsizesq":800,"plot_size":"800 SQMT","plot_no":"042","sector":"11","block":"D","mplanduse":"B","ppt_type":"IND","ppt_full":"Industrial","authority":"NOIDA","category":"industrial","execution_stage":"allotted"}},{"type":"Feature","geometry":{"type":"Polygon","coordinates":[[[77.333401,28.599241],[77.333133,28.599516],[77.33298,28.599402],[77.333248,28.599126],[77.333401,28.599241]]]},"properties":{"objectid":28111,"plotmapid":"11D041IND","property_t":"Industrial","used":"TYPE-D","allotted_p":"Yes","plotsizesq":800,"plot_size":"800 SQMT","plot_no":"041","sector":"11","block":"D","mplanduse":"B","ppt_type":"IND","ppt_full":"Industrial","authority":"NOIDA","category":"industrial","execution_stage":"allotted"}},{"type":"Feature","geometry":{"type":"Polygon","coordinates":[[[77.333405,28.599243],[77.333558,28.599359],[77.333292,28.599635],[77.333133,28.599516],[77.333405,28.599243]]]},"properties":{"objectid":28112,"plotmapid":"11D040IND","property_t":"Industrial","used":"TYPE-D","allotted_p":"Yes","plotsizesq":800,"plot_size":"800 SQMT","plot_no":"040","sector":"11","block":"D","mplanduse":"B","ppt_type":"IND","ppt_full":"Industrial","authority":"NOIDA","category":"industrial","execution_stage":"allotted"}},{"type":"Feature","geometry":{"type":"Polygon","coordinates":[[[77.333719,28.599481],[77.333932,28.599641],[77.333666,28.599913],[77.333448,28.599751],[77.333719,28.599481]]]},"properties":{"objectid":28113,"plotmapid":"11D038IND","property_t":"Industrial","used":"TYPE-D","allotted_p":"Yes","plotsizesq":1115,"plot_size":"1115 SQMT","plot_no":"038","sector":"11","block":"D","mplanduse":"B","ppt_type":"IND","ppt_full":"Industrial","authority":"NOIDA","category":"industrial","execution_stage":"allotted"}},{"type":"Feature","geometry":{"type":"Polygon","coordinates":[[[77.335845,28.601437],[77.335589,28.601459],[77.335433,28.601344],[77.335565,28.601204],[77.335875,28.601434],[77.335845,28.601437]]]},"properties":{"objectid":28114,"plotmapid":"11W054IND","property_t":"Industrial","allotted_p":"Yes","plotsizesq":620,"plot_size":"620 SQMT","plot_no":"054","sector":"11","block":"W","mplanduse":"B","ppt_type":"IND","ppt_full":"Industrial","authority":"NOIDA","category":"industrial","execution_stage":"allotted"}},{"type":"Feature","geometry":{"type":"Polygon","coordinates":[[[77.335994,28.601543],[77.335875,28.601671],[77.335589,28.601459],[77.335845,28.601437],[77.335994,28.601543]]]},"properties":{"objectid":28115,"plotmapid":"11W053DIND","property_t":"Industrial","allotted_p":"Yes","plotsizesq":0,"plot_no":"053D","sector":"11","block":"W","mplanduse":"B","ppt_type":"IND","ppt_full":"Industrial","authority":"NOIDA","category":"industrial","execution_stage":"allotted"}},{"type":"Feature","geometry":{"type":"Polygon","coordinates":[[[77.334936,28.600745],[77.335108,28.600873],[77.334975,28.601012],[77.33466,28.600779],[77.334794,28.600639],[77.334936,28.600745]]]},"properties":{"objectid":28116,"plotmapid":"11W043IND","property_t":"Industrial","allotted_p":"Yes","plotsizesq":800,"plot_size":"800 SQMT","plot_no":"043","sector":"11","block":"W","mplanduse":"B","ppt_type":"IND","ppt_full":"Industrial","authority":"NOIDA","category":"industrial","execution_stage":"allotted"}},{"type":"Feature","geometry":{"type":"Polygon","coordinates":[[[77.33542,28.601105],[77.335289,28.601244],[77.334975,28.601012],[77.335108,28.600873],[77.33542,28.601105]]]},"properties":{"objectid":28117,"plotmapid":"11W051IND","property_t":"Industrial","allotted_p":"Yes","plotsizesq":800,"plot_size":"800 SQMT","plot_no":"051","sector":"11","block":"W","mplanduse":"B","ppt_type":"IND","ppt_full":"Industrial","authority":"NOIDA","category":"industrial","execution_stage":"allotted"}},{"type":"Feature","geometry":{"type":"Polygon","coordinates":[[[77.336144,28.601547],[77.336286,28.601646],[77.336245,28.601693],[77.336033,28.601669],[77.336144,28.601547]]]},"properties":{"objectid":28118,"plotmapid":"11W053EIND","property_t":"Industrial","allotted_p":"Yes","plotsizesq":0,"plot_no":"053E","sector":"11","block":"W","mplanduse":"B","ppt_type":"IND","ppt_full":"Industrial","authority":"NOIDA","category":"industrial","execution_stage":"allotted"}},{"type":"Feature","geometry":{"type":"Polygon","coordinates":[[[77.333864,28.599976],[77.334325,28.600323],[77.334125,28.600529],[77.333657,28.600177],[77.333864,28.599976]]]},"properties":{"objectid":28119,"plotmapid":"11W005IND","property_t":"Industrial","allotted_p":"Yes","plotsizesq":1800,"plot_size":"1800 SQMT","plot_no":"005","sector":"11","block":"W","mplanduse":"B","ppt_type":"IND","ppt_full":"Industrial","authority":"NOIDA","category":"industrial","execution_stage":"allotted"}},{"type":"Feature","geometry":{"type":"Polygon","coordinates":[[[77.335478,28.601377],[77.335529,28.601415],[77.335413,28.60154],[77.335316,28.601467],[77.335433,28.601344],[77.335478,28.601377]]]},"properties":{"objectid":28120,"plotmapid":"11W054D,54EIND","property_t":"Industrial","allotted_p":"Yes","plotsizesq":0,"plot_no":"054D,54E","sector":"11","block":"W","mplanduse":"B","ppt_type":"IND","ppt_full":"Industrial","authority":"NOIDA","category":"industrial","execution_stage":"allotted"}},{"type":"Feature","geometry":{"type":"Polygon","coordinates":[[[77.335571,28.601446],[77.335462,28.601577],[77.335413,28.60154],[77.335529,28.601415],[77.335571,28.601446]]]},"properties":{"objectid":28121,"plotmapid":"11W054FIND","property_t":"Industrial","allotted_p":"Yes","plotsizesq":0,"plot_no":"054F","sector":"11","block":"W","mplanduse":"B","ppt_type":"IND","ppt_full":"Industrial","authority":"NOIDA","category":"industrial","execution_stage":"allotted"}},{"type":"Feature","geometry":{"type":"Polygon","coordinates":[[[77.335875,28.601671],[77.335699,28.601643],[77.335572,28.60166],[77.335511,28.601613],[77.33563,28.60149],[77.335875,28.601671]]]},"properties":{"objectid":28122,"plotmapid":"11W054HIND","property_t":"Industrial","allotted_p":"Yes","plotsizesq":0,"plot_no":"054H","sector":"11","block":"W","mplanduse":"B","ppt_type":"IND","ppt_full":"Industrial","authority":"NOIDA","category":"industrial","execution_stage":"allotted"}},{"type":"Feature","geometry":{"type":"Polygon","coordinates":[[[77.334825,28.6009],[77.334975,28.601012],[77.334842,28.601146],[77.334529,28.600915],[77.33466,28.600779],[77.334825,28.6009]]]},"properties":{"objectid":28123,"plotmapid":"11W044IND","property_t":"Industrial","allotted_p":"Yes","plotsizesq":800,"plot_size":"800 SQMT","plot_no":"044","sector":"11","block":"W","mplanduse":"B","ppt_type":"IND","ppt_full":"Industrial","authority":"NOIDA","category":"industrial","execution_stage":"allotted"}},{"type":"Feature","geometry":{"type":"Polygon","coordinates":[[[77.335289,28.601244],[77.33516,28.60138],[77.334842,28.601146],[77.334975,28.601012],[77.335289,28.601244]]]},"properties":{"objectid":28124,"plotmapid":"11W050IND","property_t":"Industrial","allotted_p":"Yes","plotsizesq":800,"plot_size":"800 SQMT","plot_no":"050","sector":"11","block":"W","mplanduse":"B","ppt_type":"IND","ppt_full":"Industrial","authority":"NOIDA","category":"industrial","execution_stage":"allotted"}},{"type":"Feature","geometry":{"type":"Polygon","coordinates":[[[77.334511,28.600691],[77.334378,28.600827],[77.334064,28.600591],[77.334194,28.600458],[77.334511,28.600691]]]},"properties":{"objectid":28125,"plotmapid":"11W014IND","property_t":"Industrial","allotted_p":"Yes","plotsizesq":800,"plot_size":"800 SQMT","plot_no":"014","sector":"11","block":"W","mplanduse":"B","ppt_type":"IND","ppt_full":"Industrial","authority":"NOIDA","category":"industrial","execution_stage":"allotted"}},{"type":"Feature","geometry":{"type":"Polygon","coordinates":[[[77.334829,28.601136],[77.334842,28.601146],[77.33471,28.601284],[77.334399,28.601052],[77.334529,28.600915],[77.334829,28.601136]]]},"properties":{"objectid":28126,"plotmapid":"11W045IND","property_t":"Industrial","allotted_p":"Yes","plotsizesq":800,"plot_size":"800 SQMT","plot_no":"045","sector":"11","block":"W","mplanduse":"B","ppt_type":"IND","ppt_full":"Industrial","authority":"NOIDA","category":"industrial","execution_stage":"allotted"}},{"type":"Feature","geometry":{"type":"Polygon","coordinates":[[[77.33516,28.60138],[77.335026,28.60152],[77.33471,28.601284],[77.334842,28.601146],[77.33516,28.60138]]]},"properties":{"objectid":28127,"plotmapid":"11W049IND","property_t":"Industrial","allotted_p":"Yes","plotsizesq":800,"plot_size":"800 SQMT","plot_no":"049","sector":"11","block":"W","mplanduse":"B","ppt_type":"IND","ppt_full":"Industrial","authority":"NOIDA","category":"industrial","execution_stage":"allotted"}},{"type":"Feature","geometry":{"type":"Polygon","coordinates":[[[77.333665,28.600183],[77.334125,28.600529],[77.333927,28.600732],[77.33346,28.60038],[77.333657,28.600177],[77.333665,28.600183]]]},"properties":{"objectid":28128,"plotmapid":"11W006IND","property_t":"Industrial","allotted_p":"Yes","plotsizesq":1800,"plot_size":"1800 SQMT","plot_no":"006","sector":"11","block":"W","mplanduse":"B","ppt_type":"IND","ppt_full":"Industrial","authority":"NOIDA","category":"industrial","execution_stage":"allotted"}},{"type":"Feature","geometry":{"type":"Polygon","coordinates":[[[77.334378,28.600827],[77.334247,28.600962],[77.333927,28.600732],[77.334064,28.600591],[77.334378,28.600827]]]},"properties":{"objectid":28129,"plotmapid":"11W013IND","property_t":"Industrial","allotted_p":"Yes","plotsizesq":800,"plot_size":"800 SQMT","plot_no":"013","sector":"11","block":"W","mplanduse":"B","ppt_type":"IND","ppt_full":"Industrial","authority":"NOIDA","category":"industrial","execution_stage":"allotted"}},{"type":"Feature","geometry":{"type":"Polygon","coordinates":[[[77.332224,28.59906],[77.331973,28.599337],[77.33176,28.599177],[77.332018,28.598907],[77.332224,28.59906]]]},"properties":{"objectid":28136,"plotmapid":"11E011IND","property_t":"Industrial","used":"TYPE-D","allotted_p":"Yes","plotsizesq":1115,"plot_size":"1115 SQMT","plot_no":"011","sector":"11","block":"E","mplanduse":"B","ppt_type":"IND","ppt_full":"Industrial","authority":"NOIDA","category":"industrial","execution_stage":"allotted"}},{"type":"Feature","geometry":{"type":"Polygon","coordinates":[[[77.332382,28.599178],[77.332392,28.599185],[77.332132,28.599456],[77.331973,28.599337],[77.332229,28.599064],[77.332382,28.599178]]]},"properties":{"objectid":28137,"plotmapid":"11E012IND","property_t":"Industrial","used":"TYPE-D","allotted_p":"Yes","plotsizesq":800,"plot_size":"800 SQMT","plot_no":"012","sector":"11","block":"E","mplanduse":"B","ppt_type":"IND","ppt_full":"Industrial","authority":"NOIDA","category":"industrial","execution_stage":"allotted"}},{"type":"Feature","geometry":{"type":"Polygon","coordinates":[[[77.33254,28.599296],[77.332287,28.599574],[77.332132,28.599456],[77.332392,28.599185],[77.33254,28.599296]]]},"properties":{"objectid":28138,"plotmapid":"11E013IND","property_t":"Industrial","used":"TYPE-D","allotted_p":"Yes","plotsizesq":800,"plot_size":"800 SQMT","plot_no":"013","sector":"11","block":"E","mplanduse":"B","ppt_type":"IND","ppt_full":"Industrial","authority":"NOIDA","category":"industrial","execution_stage":"allotted"}},{"type":"Feature","geometry":{"type":"Polygon","coordinates":[[[77.332547,28.599301],[77.332705,28.599419],[77.332442,28.59969],[77.332287,28.599574],[77.332547,28.599301]]]},"properties":{"objectid":28139,"plotmapid":"11E014IND","property_t":"Industrial","used":"TYPE-D","allotted_p":"Yes","plotsizesq":800,"plot_size":"800 SQMT","plot_no":"014","sector":"11","block":"E","mplanduse":"B","ppt_type":"IND","ppt_full":"Industrial","authority":"NOIDA","category":"industrial","execution_stage":"allotted"}},{"type":"Feature","geometry":{"type":"Polygon","coordinates":[[[77.332856,28.599531],[77.332599,28.599808],[77.332442,28.59969],[77.332705,28.599419],[77.332856,28.599531]]]},"properties":{"objectid":28140,"plotmapid":"11E015IND","property_t":"Industrial","used":"TYPE-D","allotted_p":"Yes","plotsizesq":800,"plot_size":"800 SQMT","plot_no":"015","sector":"11","block":"E","mplanduse":"B","ppt_type":"IND","ppt_full":"Industrial","authority":"NOIDA","category":"industrial","execution_stage":"allotted"}},{"type":"Feature","geometry":{"type":"Polygon","coordinates":[[[77.333014,28.599649],[77.332753,28.599924],[77.332599,28.599808],[77.332861,28.599535],[77.333014,28.599649]]]},"properties":{"objectid":28141,"plotmapid":"11E016IND","property_t":"Industrial","used":"TYPE-D","allotted_p":"Yes","plotsizesq":800,"plot_size":"800 SQMT","plot_no":"016","sector":"11","block":"E","mplanduse":"B","ppt_type":"IND","ppt_full":"Industrial","authority":"NOIDA","category":"industrial","execution_stage":"allotted"}},{"type":"Feature","geometry":{"type":"Polygon","coordinates":[[[77.333172,28.599766],[77.332909,28.600042],[77.332753,28.599924],[77.333017,28.599651],[77.333172,28.599766]]]},"properties":{"objectid":28142,"plotmapid":"11E017IND","property_t":"Industrial","used":"TYPE-D","allotted_p":"Yes","plotsizesq":800,"plot_size":"800 SQMT","plot_no":"017","sector":"11","block":"E","mplanduse":"B","ppt_type":"IND","ppt_full":"Industrial","authority":"NOIDA","category":"industrial","execution_stage":"allotted"}},{"type":"Feature","geometry":{"type":"Polygon","coordinates":[[[77.333175,28.599768],[77.33333,28.599884],[77.333066,28.60016],[77.332909,28.600042],[77.333175,28.599768]]]},"properties":{"objectid":28143,"plotmapid":"11E018IND","property_t":"Industrial","used":"TYPE-D","allotted_p":"Yes","plotsizesq":800,"plot_size":"800 SQMT","plot_no":"018","sector":"11","block":"E","mplanduse":"B","ppt_type":"IND","ppt_full":"Industrial","authority":"NOIDA","category":"industrial","execution_stage":"allotted"}},{"type":"Feature","geometry":{"type":"Polygon","coordinates":[[[77.33471,28.601284],[77.334578,28.601422],[77.334265,28.601191],[77.334399,28.601052],[77.33471,28.601284]]]},"properties":{"objectid":28144,"plotmapid":"11W046IND","property_t":"Industrial","allotted_p":"Yes","plotsizesq":800,"plot_size":"800 SQMT","plot_no":"046","sector":"11","block":"W","mplanduse":"B","ppt_type":"IND","ppt_full":"Industrial","authority":"NOIDA","category":"industrial","execution_stage":"allotted"}},{"type":"Feature","geometry":{"type":"Polygon","coordinates":[[[77.334247,28.600962],[77.334114,28.601099],[77.333794,28.60087],[77.333927,28.600732],[77.334247,28.600962]]]},"properties":{"objectid":28145,"plotmapid":"11W012IND","property_t":"Industrial","allotted_p":"Yes","plotsizesq":800,"plot_size":"800 SQMT","plot_no":"012","sector":"11","block":"W","mplanduse":"B","ppt_type":"IND","ppt_full":"Industrial","authority":"NOIDA","category":"industrial","execution_stage":"allotted"}},{"type":"Feature","geometry":{"type":"Polygon","coordinates":[[[77.335251,28.601534],[77.335318,28.601583],[77.335199,28.601712],[77.335132,28.601659],[77.335251,28.601534]]]},"properties":{"objectid":28146,"plotmapid":"11W054BIND","property_t":"Industrial","allotted_p":"Yes","plotsizesq":144.5,"plot_size":"144.5 SQMT","plot_no":"054B","sector":"11","block":"W","mplanduse":"B","ppt_type":"IND","ppt_full":"Industrial","authority":"NOIDA","category":"industrial","execution_stage":"allotted"}},{"type":"Feature","geometry":{"type":"Polygon","coordinates":[[[77.335454,28.601682],[77.335225,28.601731],[77.335199,28.601712],[77.335318,28.601583],[77.335454,28.601682]]]},"properties":{"objectid":28147,"plotmapid":"11W054CIND","property_t":"Industrial","allotted_p":"Yes","plotsizesq":0,"plot_no":"054C","sector":"11","block":"W","mplanduse":"B","ppt_type":"IND","ppt_full":"Industrial","authority":"NOIDA","category":"industrial","execution_stage":"allotted"}},{"type":"Feature","geometry":{"type":"Polygon","coordinates":[[[77.33347,28.600387],[77.333927,28.600732],[77.333727,28.600938],[77.333259,28.600586],[77.33346,28.60038],[77.33347,28.600387]]]},"properties":{"objectid":28148,"plotmapid":"11W007IND","property_t":"Industrial","allotted_p":"Yes","plotsizesq":1800,"plot_size":"1800 SQMT","plot_no":"007","sector":"11","block":"W","mplanduse":"B","ppt_type":"IND","ppt_full":"Industrial","authority":"NOIDA","category":"industrial","execution_stage":"allotted"}},{"type":"Feature","geometry":{"type":"Polygon","coordinates":[[[77.33475,28.601314],[77.335026,28.60152],[77.334868,28.601688],[77.334457,28.601548],[77.33471,28.601284],[77.33475,28.601314]]]},"properties":{"objectid":28149,"plotmapid":"11W048IND","property_t":"Industrial","allotted_p":"Yes","plotsizesq":1245,"plot_size":"1245 SQMT","plot_no":"048","sector":"11","block":"W","mplanduse":"B","ppt_type":"IND","ppt_full":"Industrial","authority":"NOIDA","category":"industrial","execution_stage":"allotted"}},{"type":"Feature","geometry":{"type":"Polygon","coordinates":[[[77.333686,28.60098],[77.333794,28.60087],[77.334114,28.601099],[77.334004,28.601212],[77.333686,28.60098]]]},"properties":{"objectid":28150,"plotmapid":"11W011IND","property_t":"Industrial","allotted_p":"Yes","plotsizesq":800,"plot_size":"800 SQMT","plot_no":"011","sector":"11","block":"W","mplanduse":"B","ppt_type":"IND","ppt_full":"Industrial","authority":"NOIDA","category":"industrial","execution_stage":"allotted"}},{"type":"Feature","geometry":{"type":"Polygon","coordinates":[[[77.331108,28.598689],[77.330859,28.598972],[77.330696,28.59885],[77.330947,28.598569],[77.331108,28.598689]]]},"properties":{"objectid":28151,"plotmapid":"11E030IND","property_t":"Industrial","used":"TYPE-D","allotted_p":"Yes","plotsizesq":800,"plot_size":"800 SQMT","plot_no":"030","sector":"11","block":"E","mplanduse":"B","ppt_type":"IND","ppt_full":"Industrial","authority":"NOIDA","category":"industrial","execution_stage":"allotted"}},{"type":"Feature","geometry":{"type":"Polygon","coordinates":[[[77.331368,28.598401],[77.331885,28.598785],[77.331425,28.599295],[77.331319,28.599217],[77.331266,28.599276],[77.330859,28.598972],[77.331368,28.598401]]]},"properties":{"objectid":28152,"plotmapid":"11E010IND","property_t":"Industrial","allotted_p":"Yes","plotsizesq":5022,"plot_size":"5022 SQMT","plot_no":"010","sector":"11","block":"E","mplanduse":"B","ppt_type":"IND","ppt_full":"Industrial","authority":"NOIDA","category":"industrial","execution_stage":"allotted"}},{"type":"Feature","geometry":{"type":"Polygon","coordinates":[[[77.331494,28.599455],[77.33176,28.599177],[77.331973,28.599337],[77.33171,28.599617],[77.331494,28.599455]]]},"properties":{"objectid":28153,"plotmapid":"11E029IND","property_t":"Industrial","used":"TYPE-D","allotted_p":"Yes","plotsizesq":1100,"plot_size":"1100 SQMT","plot_no":"029","sector":"11","block":"E","mplanduse":"B","ppt_type":"IND","ppt_full":"Industrial","authority":"NOIDA","category":"industrial","execution_stage":"allotted"}},{"type":"Feature","geometry":{"type":"Polygon","coordinates":[[[77.332803,28.600436],[77.333066,28.60016],[77.333279,28.60032],[77.333016,28.600595],[77.332803,28.600436]]]},"properties":{"objectid":28154,"plotmapid":"11E021IND","property_t":"Industrial","used":"TYPE-D","allotted_p":"Yes","plotsizesq":1800,"plot_size":"1800 SQMT","plot_no":"021","sector":"11","block":"E","mplanduse":"B","ppt_type":"IND","ppt_full":"Industrial","authority":"NOIDA","category":"industrial","execution_stage":"allotted"}},{"type":"Feature","geometry":{"type":"Polygon","coordinates":[[[77.335225,28.601731],[77.334998,28.601801],[77.335132,28.601659],[77.335225,28.601731]]]},"properties":{"objectid":28155,"plotmapid":"11W054AIND","property_t":"Industrial","allotted_p":"Yes","plotsizesq":77.77,"plot_size":"77.77 SQMT","plot_no":"054A","sector":"11","block":"W","mplanduse":"B","ppt_type":"IND","ppt_full":"Industrial","authority":"NOIDA","category":"industrial","execution_stage":"allotted"}},{"type":"Feature","geometry":{"type":"Polygon","coordinates":[[[77.334578,28.601422],[77.334457,28.601548],[77.334056,28.601411],[77.334265,28.601191],[77.334578,28.601422]]]},"properties":{"objectid":28156,"plotmapid":"11W047IND","property_t":"Industrial","allotted_p":"Yes","plotsizesq":1015,"plot_size":"1015 SQMT","plot_no":"047","sector":"11","block":"W","mplanduse":"B","ppt_type":"IND","ppt_full":"Industrial","authority":"NOIDA","category":"industrial","execution_stage":"allotted"}},{"type":"Feature","geometry":{"type":"Polygon","coordinates":[[[77.333635,28.601033],[77.333527,28.601144],[77.333059,28.600791],[77.333259,28.600586],[77.333727,28.600938],[77.333635,28.601033]]]},"properties":{"objectid":28157,"plotmapid":"11W008IND","property_t":"Industrial","allotted_p":"Yes","plotsizesq":1800,"plot_size":"1800 SQMT","plot_no":"008","sector":"11","block":"W","mplanduse":"B","ppt_type":"IND","ppt_full":"Industrial","authority":"NOIDA","category":"industrial","execution_stage":"allotted"}},{"type":"Feature","geometry":{"type":"Polygon","coordinates":[[[77.330281,28.598751],[77.330298,28.598764],[77.330087,28.598989],[77.32999,28.598915],[77.330202,28.598692],[77.330281,28.598751]]]},"properties":{"objectid":28166,"plotmapid":"11F09,10IND","property_t":"Industrial","used":"TYPE-C","allotted_p":"YES","plotsizesq":416,"plot_size":"416 SQMT","plot_no":"09,10","sector":"11","block":"F","mplanduse":"B","ppt_type":"IND","ppt_full":"Industrial","authority":"NOIDA","category":"industrial","execution_stage":"allotted"}},{"type":"Feature","geometry":{"type":"Polygon","coordinates":[[[77.330383,28.598827],[77.330402,28.598841],[77.330188,28.599067],[77.330087,28.598989],[77.330298,28.598764],[77.330383,28.598827]]]},"properties":{"objectid":28167,"plotmapid":"11F010IND","property_t":"Industrial","used":"TYPE-C","allotted_p":"YES","plotsizesq":416,"plot_size":"416 SQMT","plot_no":"010","sector":"11","block":"F","mplanduse":"B","ppt_type":"IND","ppt_full":"Industrial","authority":"NOIDA","category":"industrial","execution_stage":"allotted"}},{"type":"Feature","geometry":{"type":"Polygon","coordinates":[[[77.330485,28.598904],[77.330504,28.598919],[77.330288,28.599144],[77.330188,28.599067],[77.330402,28.598841],[77.330485,28.598904]]]},"properties":{"objectid":28168,"plotmapid":"11F011IND","property_t":"Industrial","used":"TYPE-C","allotted_p":"YES","plotsizesq":416,"plot_size":"416 SQMT","plot_no":"011","sector":"11","block":"F","mplanduse":"B","ppt_type":"IND","ppt_full":"Industrial","authority":"NOIDA","category":"industrial","execution_stage":"allotted"}},{"type":"Feature","geometry":{"type":"Polygon","coordinates":[[[77.330587,28.598981],[77.330604,28.598993],[77.330388,28.59922],[77.330288,28.599144],[77.330504,28.598919],[77.330587,28.598981]]]},"properties":{"objectid":28169,"plotmapid":"11F012IND","property_t":"Industrial","used":"TYPE-C","allotted_p":"YES","plotsizesq":416,"plot_size":"416 SQMT","plot_no":"012","sector":"11","block":"F","mplanduse":"B","ppt_type":"IND","ppt_full":"Industrial","authority":"NOIDA","category":"industrial","execution_stage":"allotted"}},{"type":"Feature","geometry":{"type":"Polygon","coordinates":[[[77.33069,28.599058],[77.330705,28.599069],[77.33049,28.599296],[77.330388,28.59922],[77.330604,28.598993],[77.33069,28.599058]]]},"properties":{"objectid":28170,"plotmapid":"11F013IND","property_t":"Industrial","used":"TYPE-C","allotted_p":"YES","plotsizesq":416,"plot_size":"416 SQMT","plot_no":"013","sector":"11","block":"F","mplanduse":"B","ppt_type":"IND","ppt_full":"Industrial","authority":"NOIDA","category":"industrial","execution_stage":"allotted"}},{"type":"Feature","geometry":{"type":"Polygon","coordinates":[[[77.330792,28.599134],[77.330808,28.599147],[77.330592,28.599373],[77.33049,28.599296],[77.330705,28.599069],[77.330792,28.599134]]]},"properties":{"objectid":28172,"plotmapid":"11F014IND","property_t":"Industrial","used":"TYPE-C","allotted_p":"YES","plotsizesq":416,"plot_size":"416 SQMT","plot_no":"014","sector":"11","block":"F","mplanduse":"B","ppt_type":"IND","ppt_full":"Industrial","authority":"NOIDA","category":"industrial","execution_stage":"allotted"}},{"type":"Feature","geometry":{"type":"Polygon","coordinates":[[[77.330894,28.599211],[77.33091,28.599223],[77.330695,28.599449],[77.330592,28.599373],[77.330808,28.599147],[77.330894,28.599211]]]},"properties":{"objectid":28173,"plotmapid":"11F015IND","property_t":"Industrial","used":"TYPE-C","allotted_p":"YES","plotsizesq":416,"plot_size":"416 SQMT","plot_no":"015","sector":"11","block":"F","mplanduse":"B","ppt_type":"IND","ppt_full":"Industrial","authority":"NOIDA","category":"industrial","execution_stage":"allotted"}},{"type":"Feature","geometry":{"type":"Polygon","coordinates":[[[77.330996,28.599288],[77.331013,28.5993],[77.330796,28.599525],[77.330695,28.599449],[77.33091,28.599223],[77.330996,28.599288]]]},"properties":{"objectid":28174,"plotmapid":"11F016IND","property_t":"Industrial","used":"TYPE-C","allotted_p":"YES","plotsizesq":416,"plot_size":"416 SQMT","plot_no":"016","sector":"11","block":"F","mplanduse":"B","ppt_type":"IND","ppt_full":"Industrial","authority":"NOIDA","category":"industrial","execution_stage":"allotted"}},{"type":"Feature","geometry":{"type":"Polygon","coordinates":[[[77.331099,28.599365],[77.331111,28.599374],[77.330896,28.5996],[77.330796,28.599525],[77.331013,28.5993],[77.331099,28.599365]]]},"properties":{"objectid":28175,"plotmapid":"11F017IND","property_t":"Industrial","used":"TYPE-C","allotted_p":"YES","plotsizesq":416,"plot_size":"416 SQMT","plot_no":"017","sector":"11","block":"F","mplanduse":"B","ppt_type":"IND","ppt_full":"Industrial","authority":"NOIDA","category":"industrial","execution_stage":"allotted"}},{"type":"Feature","geometry":{"type":"Polygon","coordinates":[[[77.331111,28.599374],[77.33124,28.599471],[77.331026,28.599697],[77.330896,28.5996],[77.331111,28.599374]]]},"properties":{"objectid":28176,"plotmapid":"11F018IND","property_t":"Industrial","used":"TYPE-C","allotted_p":"Yes","plotsizesq":416,"plot_size":"416 SQMT","plot_no":"018","sector":"11","block":"F","mplanduse":"B","ppt_type":"IND","ppt_full":"Industrial","authority":"NOIDA","category":"industrial","execution_stage":"allotted"}},{"type":"Feature","geometry":{"type":"Polygon","coordinates":[[[77.331454,28.599633],[77.331525,28.599686],[77.331313,28.599911],[77.331167,28.599803],[77.331382,28.599579],[77.331454,28.599633]]]},"properties":{"objectid":28177,"plotmapid":"11F019IND","property_t":"Industrial","used":"TYPE-C","allotted_p":"Yes","plotsizesq":588,"plot_size":"588 SQMT","plot_no":"019","sector":"11","block":"F","mplanduse":"B","ppt_type":"IND","ppt_full":"Industrial","authority":"NOIDA","category":"industrial","execution_stage":"allotted"}},{"type":"Feature","geometry":{"type":"Polygon","coordinates":[[[77.331525,28.599686],[77.331627,28.599763],[77.331414,28.599986],[77.331313,28.599911],[77.331525,28.599686]]]},"properties":{"objectid":28178,"plotmapid":"11F020IND","property_t":"Industrial","used":"TYPE-C","allotted_p":"YES","plotsizesq":416,"plot_size":"416 SQMT","plot_no":"020","sector":"11","block":"F","mplanduse":"B","ppt_type":"IND","ppt_full":"Industrial","authority":"NOIDA","category":"industrial","execution_stage":"allotted"}},{"type":"Feature","geometry":{"type":"Polygon","coordinates":[[[77.331684,28.599806],[77.331729,28.59984],[77.331516,28.600062],[77.331414,28.599986],[77.331627,28.599763],[77.331684,28.599806]]]},"properties":{"objectid":28179,"plotmapid":"11F021IND","property_t":"Industrial","used":"TYPE-C","allotted_p":"YES","plotsizesq":416,"plot_size":"416 SQMT","plot_no":"021","sector":"11","block":"F","mplanduse":"B","ppt_type":"IND","ppt_full":"Industrial","authority":"NOIDA","category":"industrial","execution_stage":"allotted"}},{"type":"Feature","geometry":{"type":"Polygon","coordinates":[[[77.331785,28.599882],[77.331828,28.599915],[77.331617,28.600137],[77.331516,28.600062],[77.331729,28.59984],[77.331785,28.599882]]]},"properties":{"objectid":28180,"plotmapid":"11F022IND","property_t":"Industrial","used":"TYPE-C","allotted_p":"YES","plotsizesq":416,"plot_size":"416 SQMT","plot_no":"022","sector":"11","block":"F","mplanduse":"B","ppt_type":"IND","ppt_full":"Industrial","authority":"NOIDA","category":"industrial","execution_stage":"allotted"}},{"type":"Feature","geometry":{"type":"Polygon","coordinates":[[[77.331885,28.599958],[77.33193,28.599992],[77.33172,28.600214],[77.331617,28.600137],[77.331828,28.599915],[77.331885,28.599958]]]},"properties":{"objectid":28181,"plotmapid":"11F023IND","property_t":"Industrial","used":"TYPE-C","allotted_p":"YES","plotsizesq":416,"plot_size":"416 SQMT","plot_no":"023","sector":"11","block":"F","mplanduse":"B","ppt_type":"IND","ppt_full":"Industrial","authority":"NOIDA","category":"industrial","execution_stage":"allotted"}},{"type":"Feature","geometry":{"type":"Polygon","coordinates":[[[77.331986,28.600034],[77.332029,28.600066],[77.331821,28.60029],[77.33172,28.600214],[77.33193,28.599992],[77.331986,28.600034]]]},"properties":{"objectid":28182,"plotmapid":"11F024IND","property_t":"Industrial","used":"TYPE-C","allotted_p":"YES","plotsizesq":416,"plot_size":"416 SQMT","plot_no":"024","sector":"11","block":"F","mplanduse":"B","ppt_type":"IND","ppt_full":"Industrial","authority":"NOIDA","category":"industrial","execution_stage":"allotted"}},{"type":"Feature","geometry":{"type":"Polygon","coordinates":[[[77.332087,28.60011],[77.332134,28.600145],[77.331922,28.600366],[77.331821,28.60029],[77.332029,28.600066],[77.332087,28.60011]]]},"properties":{"objectid":28183,"plotmapid":"11F025IND","property_t":"Industrial","used":"TYPE-C","allotted_p":"Yes","plotsizesq":416,"plot_size":"416 SQMT","plot_no":"025","sector":"11","block":"F","mplanduse":"B","ppt_type":"IND","ppt_full":"Industrial","authority":"NOIDA","category":"industrial","execution_stage":"allotted"}},{"type":"Feature","geometry":{"type":"Polygon","coordinates":[[[77.332188,28.600186],[77.332232,28.600219],[77.332021,28.60044],[77.331922,28.600366],[77.332134,28.600145],[77.332188,28.600186]]]},"properties":{"objectid":28184,"plotmapid":"11F026IND","property_t":"Industrial","used":"TYPE-C","allotted_p":"Yes","plotsizesq":416,"plot_size":"416 SQMT","plot_no":"026","sector":"11","block":"F","mplanduse":"B","ppt_type":"IND","ppt_full":"Industrial","authority":"NOIDA","category":"industrial","execution_stage":"allotted"}},{"type":"Feature","geometry":{"type":"Polygon","coordinates":[[[77.332288,28.600262],[77.332335,28.600297],[77.332124,28.600518],[77.332021,28.60044],[77.332232,28.600219],[77.332288,28.600262]]]},"properties":{"objectid":28185,"plotmapid":"11F027IND","property_t":"Industrial","used":"TYPE-C","allotted_p":"Yes","plotsizesq":416,"plot_size":"416 SQMT","plot_no":"027","sector":"11","block":"F","mplanduse":"B","ppt_type":"IND","ppt_full":"Industrial","authority":"NOIDA","category":"industrial","execution_stage":"allotted"}},{"type":"Feature","geometry":{"type":"Polygon","coordinates":[[[77.332389,28.600338],[77.332409,28.600353],[77.332201,28.600576],[77.332124,28.600518],[77.332335,28.600297],[77.332389,28.600338]]]},"properties":{"objectid":28186,"plotmapid":"11F028IND","property_t":"Industrial","used":"TYPE-C","allotted_p":"YES","plotsizesq":416,"plot_size":"416 SQMT","plot_no":"028","sector":"11","block":"F","mplanduse":"B","ppt_type":"IND","ppt_full":"Industrial","authority":"NOIDA","category":"industrial","execution_stage":"allotted"}},{"type":"Feature","geometry":{"type":"Polygon","coordinates":[[[77.33249,28.600413],[77.332538,28.60045],[77.332326,28.60067],[77.332201,28.600576],[77.332409,28.600353],[77.33249,28.600413]]]},"properties":{"objectid":28187,"plotmapid":"11F029IND","property_t":"Industrial","used":"TYPE-C","allotted_p":"Yes","plotsizesq":416,"plot_size":"416 SQMT","plot_no":"029","sector":"11","block":"F","mplanduse":"B","ppt_type":"IND","ppt_full":"Industrial","authority":"NOIDA","category":"industrial","execution_stage":"allotted"}},{"type":"Feature","geometry":{"type":"Polygon","coordinates":[[[77.33259,28.600489],[77.332638,28.600525],[77.332429,28.600748],[77.332326,28.60067],[77.332538,28.60045],[77.33259,28.600489]]]},"properties":{"objectid":28188,"plotmapid":"11F030IND","property_t":"Industrial","used":"TYPE-C","allotted_p":"Yes","plotsizesq":416,"plot_size":"416 SQMT","plot_no":"030","sector":"11","block":"F","mplanduse":"B","ppt_type":"IND","ppt_full":"Industrial","authority":"NOIDA","category":"industrial","execution_stage":"allotted"}},{"type":"Feature","geometry":{"type":"Polygon","coordinates":[[[77.33274,28.600602],[77.332528,28.600822],[77.332429,28.600748],[77.332638,28.600525],[77.33274,28.600602]]]},"properties":{"objectid":28189,"plotmapid":"11F031IND","property_t":"Industrial","used":"TYPE-C","allotted_p":"YES","plotsizesq":416,"plot_size":"416 SQMT","plot_no":"031","sector":"11","block":"F","mplanduse":"B","ppt_type":"IND","ppt_full":"Industrial","authority":"NOIDA","category":"industrial","execution_stage":"allotted"}},{"type":"Feature","geometry":{"type":"Polygon","coordinates":[[[77.332744,28.600605],[77.332877,28.600705],[77.332666,28.600926],[77.332528,28.600822],[77.332744,28.600605]]]},"properties":{"objectid":28190,"plotmapid":"11F032IND","property_t":"Industrial","used":"TYPE-C","allotted_p":"Yes","plotsizesq":586,"plot_size":"586 SQMT","plot_no":"032","sector":"11","block":"F","mplanduse":"B","ppt_type":"IND","ppt_full":"Industrial","authority":"NOIDA","category":"industrial","execution_stage":"allotted"}},{"type":"Feature","geometry":{"type":"Polygon","coordinates":[[[77.332758,28.6011],[77.333059,28.600791],[77.333527,28.601144],[77.33335,28.601327],[77.332758,28.6011]]]},"properties":{"objectid":28191,"plotmapid":"11W009IND","property_t":"Industrial","allotted_p":"Yes","plotsizesq":2142,"plot_size":"2142 SQMT","plot_no":"009","sector":"11","block":"W","mplanduse":"B","ppt_type":"IND","ppt_full":"Industrial","authority":"NOIDA","category":"industrial","execution_stage":"allotted"}},{"type":"Feature","geometry":{"type":"Polygon","coordinates":[[[77.333947,28.601269],[77.333749,28.601476],[77.333279,28.6014],[77.333635,28.601033],[77.333947,28.601269]]]},"properties":{"objectid":28192,"plotmapid":"11W010IND","property_t":"Industrial","allotted_p":"Yes","plotsizesq":1608,"plot_size":"1608 SQMT","plot_no":"010","sector":"11","block":"W","mplanduse":"B","ppt_type":"IND","ppt_full":"Industrial","authority":"NOIDA","category":"industrial","execution_stage":"allotted"}},{"type":"Feature","geometry":{"type":"Polygon","coordinates":[[[77.330372,28.599208],[77.330388,28.59922],[77.330182,28.599436],[77.330081,28.59936],[77.330288,28.599144],[77.330372,28.599208]]]},"properties":{"objectid":28204,"plotmapid":"11F062IND","property_t":"Industrial","used":"TYPE-C","allotted_p":"Yes","plotsizesq":416,"plot_size":"416 SQMT","plot_no":"062","sector":"11","block":"F","mplanduse":"B","ppt_type":"IND","ppt_full":"Industrial","authority":"NOIDA","category":"industrial","execution_stage":"allotted"}},{"type":"Feature","geometry":{"type":"Polygon","coordinates":[[[77.330474,28.599285],[77.33049,28.599296],[77.330283,28.599513],[77.330182,28.599436],[77.330388,28.59922],[77.330474,28.599285]]]},"properties":{"objectid":28205,"plotmapid":"11F061IND","property_t":"Industrial","used":"TYPE-C","allotted_p":"Yes","plotsizesq":416,"plot_size":"416 SQMT","plot_no":"061","sector":"11","block":"F","mplanduse":"B","ppt_type":"IND","ppt_full":"Industrial","authority":"NOIDA","category":"industrial","execution_stage":"allotted"}},{"type":"Feature","geometry":{"type":"Polygon","coordinates":[[[77.330577,28.599361],[77.330592,28.599373],[77.330383,28.599591],[77.330283,28.599513],[77.33049,28.599296],[77.330577,28.599361]]]},"properties":{"objectid":28206,"plotmapid":"11F060IND","property_t":"Industrial","used":"TYPE-C","allotted_p":"Yes","plotsizesq":416,"plot_size":"416 SQMT","plot_no":"060","sector":"11","block":"F","mplanduse":"B","ppt_type":"IND","ppt_full":"Industrial","authority":"NOIDA","category":"industrial","execution_stage":"allotted"}},{"type":"Feature","geometry":{"type":"Polygon","coordinates":[[[77.330679,28.599438],[77.330695,28.599449],[77.330485,28.599669],[77.330383,28.599591],[77.330592,28.599373],[77.330679,28.599438]]]},"properties":{"objectid":28207,"plotmapid":"11F059IND","property_t":"Industrial","used":"TYPE-C","allotted_p":"Yes","plotsizesq":416,"plot_size":"416 SQMT","plot_no":"059","sector":"11","block":"F","mplanduse":"B","ppt_type":"IND","ppt_full":"Industrial","authority":"NOIDA","category":"industrial","execution_stage":"allotted"}},{"type":"Feature","geometry":{"type":"Polygon","coordinates":[[[77.330782,28.599514],[77.330796,28.599525],[77.330584,28.599746],[77.330485,28.599669],[77.330695,28.599449],[77.330782,28.599514]]]},"properties":{"objectid":28208,"plotmapid":"11F058IND","property_t":"Industrial","used":"TYPE-C","allotted_p":"Yes","plotsizesq":416,"plot_size":"416 SQMT","plot_no":"058","sector":"11","block":"F","mplanduse":"B","ppt_type":"IND","ppt_full":"Industrial","authority":"NOIDA","category":"industrial","execution_stage":"allotted"}},{"type":"Feature","geometry":{"type":"Polygon","coordinates":[[[77.330884,28.599591],[77.330896,28.5996],[77.330684,28.599823],[77.330584,28.599746],[77.330796,28.599525],[77.330884,28.599591]]]},"properties":{"objectid":28209,"plotmapid":"11F057IND","property_t":"Industrial","used":"TYPE-C","allotted_p":"Yes","plotsizesq":416,"plot_size":"416 SQMT","plot_no":"057","sector":"11","block":"F","mplanduse":"B","ppt_type":"IND","ppt_full":"Industrial","authority":"NOIDA","category":"industrial","execution_stage":"allotted"}},{"type":"Feature","geometry":{"type":"Polygon","coordinates":[[[77.330896,28.5996],[77.331026,28.599697],[77.330813,28.599922],[77.330684,28.599823],[77.330896,28.5996]]]},"properties":{"objectid":28210,"plotmapid":"11F056IND","property_t":"Industrial","used":"TYPE-C","allotted_p":"Yes","plotsizesq":522,"plot_size":"522 SQMT","plot_no":"056","sector":"11","block":"F","mplanduse":"B","ppt_type":"IND","ppt_full":"Industrial","authority":"NOIDA","category":"industrial","execution_stage":"allotted"}},{"type":"Feature","geometry":{"type":"Polygon","coordinates":[[[77.331242,28.599859],[77.331313,28.599911],[77.331106,28.60013],[77.33096,28.600019],[77.331167,28.599803],[77.331242,28.599859]]]},"properties":{"objectid":28211,"plotmapid":"11F055IND","property_t":"Industrial","used":"TYPE-C","allotted_p":"Yes","plotsizesq":595,"plot_size":"595 SQMT","plot_no":"055","sector":"11","block":"F","mplanduse":"B","ppt_type":"IND","ppt_full":"Industrial","authority":"NOIDA","category":"industrial","execution_stage":"allotted"}},{"type":"Feature","geometry":{"type":"Polygon","coordinates":[[[77.331313,28.599911],[77.331414,28.599986],[77.331204,28.600205],[77.331106,28.60013],[77.331313,28.599911]]]},"properties":{"objectid":28212,"plotmapid":"11F054IND","property_t":"Industrial","used":"TYPE-C","allotted_p":"YES","plotsizesq":416,"plot_size":"416 SQMT","plot_no":"054","sector":"11","block":"F","mplanduse":"B","ppt_type":"IND","ppt_full":"Industrial","authority":"NOIDA","category":"industrial","execution_stage":"allotted"}},{"type":"Feature","geometry":{"type":"Polygon","coordinates":[[[77.331471,28.600029],[77.331516,28.600062],[77.331305,28.600283],[77.331204,28.600205],[77.331414,28.599986],[77.331471,28.600029]]]},"properties":{"objectid":28213,"plotmapid":"11F053IND","property_t":"Industrial","used":"TYPE-C","allotted_p":"YES","plotsizesq":416,"plot_size":"416 SQMT","plot_no":"053","sector":"11","block":"F","mplanduse":"B","ppt_type":"IND","ppt_full":"Industrial","authority":"NOIDA","category":"industrial","execution_stage":"allotted"}},{"type":"Feature","geometry":{"type":"Polygon","coordinates":[[[77.331572,28.600104],[77.331617,28.600137],[77.331406,28.60036],[77.331305,28.600283],[77.331516,28.600062],[77.331572,28.600104]]]},"properties":{"objectid":28214,"plotmapid":"11F052IND","property_t":"Industrial","used":"TYPE-C","allotted_p":"YES","plotsizesq":416,"plot_size":"416 SQMT","plot_no":"052","sector":"11","block":"F","mplanduse":"B","ppt_type":"IND","ppt_full":"Industrial","authority":"NOIDA","category":"industrial","execution_stage":"allotted"}},{"type":"Feature","geometry":{"type":"Polygon","coordinates":[[[77.331674,28.600179],[77.33172,28.600214],[77.331508,28.600437],[77.331406,28.60036],[77.331617,28.600137],[77.331674,28.600179]]]},"properties":{"objectid":28215,"plotmapid":"11F051IND","property_t":"Industrial","used":"TYPE-C","allotted_p":"YES","plotsizesq":416,"plot_size":"416 SQMT","plot_no":"051","sector":"11","block":"F","mplanduse":"B","ppt_type":"IND","ppt_full":"Industrial","authority":"NOIDA","category":"industrial","execution_stage":"allotted"}},{"type":"Feature","geometry":{"type":"Polygon","coordinates":[[[77.331774,28.600255],[77.331821,28.60029],[77.33161,28.600515],[77.331508,28.600437],[77.33172,28.600214],[77.331774,28.600255]]]},"properties":{"objectid":28217,"plotmapid":"11F050IND","property_t":"Industrial","used":"TYPE-C","allotted_p":"YES","plotsizesq":416,"plot_size":"416 SQMT","plot_no":"050","sector":"11","block":"F","mplanduse":"B","ppt_type":"IND","ppt_full":"Industrial","authority":"NOIDA","category":"industrial","execution_stage":"allotted"}},{"type":"Feature","geometry":{"type":"Polygon","coordinates":[[[77.331875,28.600331],[77.331922,28.600366],[77.331708,28.60059],[77.33161,28.600515],[77.331821,28.60029],[77.331875,28.600331]]]},"properties":{"objectid":28218,"plotmapid":"11F049IND","property_t":"Industrial","used":"TYPE-C","allotted_p":"YES","plotsizesq":416,"plot_size":"416 SQMT","plot_no":"049","sector":"11","block":"F","mplanduse":"B","ppt_type":"IND","ppt_full":"Industrial","authority":"NOIDA","category":"industrial","execution_stage":"allotted"}},{"type":"Feature","geometry":{"type":"Polygon","coordinates":[[[77.332021,28.60044],[77.331807,28.600666],[77.331708,28.60059],[77.331922,28.600366],[77.332021,28.60044]]]},"properties":{"objectid":28219,"plotmapid":"11F048IND","property_t":"Industrial","used":"TYPE-C","allotted_p":"YES","plotsizesq":416,"plot_size":"416 SQMT","plot_no":"048","sector":"11","block":"F","mplanduse":"B","ppt_type":"IND","ppt_full":"Industrial","authority":"NOIDA","category":"industrial","execution_stage":"allotted"}},{"type":"Feature","geometry":{"type":"Polygon","coordinates":[[[77.332022,28.600441],[77.332124,28.600518],[77.331909,28.600744],[77.331807,28.600666],[77.332022,28.600441]]]},"properties":{"objectid":28220,"plotmapid":"11F047IND","property_t":"Industrial","used":"TYPE-C","allotted_p":"YES","plotsizesq":416,"plot_size":"416 SQMT","plot_no":"047","sector":"11","block":"F","mplanduse":"B","ppt_type":"IND","ppt_full":"Industrial","authority":"NOIDA","category":"industrial","execution_stage":"allotted"}},{"type":"Feature","geometry":{"type":"Polygon","coordinates":[[[77.332177,28.600558],[77.332201,28.600576],[77.331989,28.600805],[77.331909,28.600744],[77.332124,28.600518],[77.332177,28.600558]]]},"properties":{"objectid":28221,"plotmapid":"11F046IND","property_t":"Industrial","used":"TYPE-C","allotted_p":"YES","plotsizesq":416,"plot_size":"416 SQMT","plot_no":"046","sector":"11","block":"F","mplanduse":"B","ppt_type":"IND","ppt_full":"Industrial","authority":"NOIDA","category":"industrial","execution_stage":"allotted"}},{"type":"Feature","geometry":{"type":"Polygon","coordinates":[[[77.332278,28.600634],[77.332326,28.60067],[77.332108,28.600896],[77.331989,28.600805],[77.332201,28.600576],[77.332278,28.600634]]]},"properties":{"objectid":28222,"plotmapid":"11F045IND","property_t":"Industrial","used":"TYPE-C","allotted_p":"YES","plotsizesq":416,"plot_size":"416 SQMT","plot_no":"045","sector":"11","block":"F","mplanduse":"B","ppt_type":"IND","ppt_full":"Industrial","authority":"NOIDA","category":"industrial","execution_stage":"allotted"}},{"type":"Feature","geometry":{"type":"Polygon","coordinates":[[[77.332379,28.60071],[77.332429,28.600748],[77.332214,28.600977],[77.332108,28.600896],[77.332326,28.60067],[77.332379,28.60071]]]},"properties":{"objectid":28223,"plotmapid":"11F044IND","property_t":"Industrial","used":"TYPE-C","allotted_p":"YES","plotsizesq":416,"plot_size":"416 SQMT","plot_no":"044","sector":"11","block":"F","mplanduse":"B","ppt_type":"IND","ppt_full":"Industrial","authority":"NOIDA","category":"industrial","execution_stage":"allotted"}},{"type":"Feature","geometry":{"type":"Polygon","coordinates":[[[77.330454,28.599872],[77.330198,28.60015],[77.330036,28.600029],[77.3303,28.599754],[77.330454,28.599872]]]},"properties":{"objectid":28231,"plotmapid":"11G010IND","property_t":"Industrial","used":"TYPE-D","allotted_p":"YES","plotsizesq":800,"plot_size":"800 SQMT","plot_no":"010","sector":"11","block":"G","mplanduse":"B","ppt_type":"IND","ppt_full":"Industrial","authority":"NOIDA","category":"industrial","execution_stage":"allotted"}},{"type":"Feature","geometry":{"type":"Polygon","coordinates":[[[77.330572,28.599962],[77.330687,28.60005],[77.330433,28.600325],[77.330198,28.60015],[77.330454,28.599872],[77.330572,28.599962]]]},"properties":{"objectid":28232,"plotmapid":"11G011IND","property_t":"Industrial","used":"TYPE-D","allotted_p":"Yes","plotsizesq":1264,"plot_size":"1264 SQMT","plot_no":"011","sector":"11","block":"G","mplanduse":"B","ppt_type":"IND","ppt_full":"Industrial","authority":"NOIDA","category":"industrial","execution_stage":"allotted"}},{"type":"Feature","geometry":{"type":"Polygon","coordinates":[[[77.330317,28.600239],[77.330433,28.600325],[77.330333,28.600434],[77.33001,28.600353],[77.330198,28.60015],[77.330317,28.600239]]]},"properties":{"objectid":28233,"plotmapid":"11G014IND","property_t":"Industrial","used":"TYPE-D","allotted_p":"Yes","plotsizesq":699,"plot_size":"699 SQMT","plot_no":"014","sector":"11","block":"G","mplanduse":"B","ppt_type":"IND","ppt_full":"Industrial","authority":"NOIDA","category":"industrial","execution_stage":"allotted"}},{"type":"Feature","geometry":{"type":"Polygon","coordinates":[[[77.331472,28.600621],[77.331309,28.600912],[77.330398,28.60062],[77.330855,28.600135],[77.331494,28.600582],[77.331472,28.600621]]]},"properties":{"objectid":28234,"plotmapid":"11G012IND","property_t":"Industrial","used":"TYPE-F","allotted_p":"Yes","plotsizesq":4396,"plot_size":"4396 SQMT","plot_no":"012","sector":"11","block":"G","mplanduse":"B","ppt_type":"IND","ppt_full":"Industrial","authority":"NOIDA","category":"industrial","execution_stage":"allotted"}},{"type":"Feature","geometry":{"type":"Polygon","coordinates":[[[77.337253,28.601066],[77.337413,28.601184],[77.337152,28.601458],[77.336958,28.601316],[77.337219,28.601041],[77.337253,28.601066]]]},"properties":{"objectid":28246,"plotmapid":"11W032IND","property_t":"Industrial","allotted_p":"Yes","plotsizesq":1000,"plot_size":"1000 SQMT","plot_no":"032","sector":"11","block":"W","mplanduse":"B","ppt_type":"IND","ppt_full":"Industrial","authority":"NOIDA","category":"industrial","execution_stage":"allotted"}},{"type":"Feature","geometry":{"type":"Polygon","coordinates":[[[77.33248,28.600786],[77.332666,28.600926],[77.332533,28.601065],[77.332214,28.600977],[77.332429,28.600748],[77.33248,28.600786]]]},"properties":{"objectid":28249,"plotmapid":"11F043IND","property_t":"Industrial","used":"TYPE-C","allotted_p":"Yes","plotsizesq":564,"plot_size":"564 SQMT","plot_no":"043","sector":"11","block":"F","mplanduse":"B","ppt_type":"IND","ppt_full":"Industrial","authority":"NOIDA","category":"industrial","execution_stage":"allotted"}},{"type":"Feature","geometry":{"type":"Polygon","coordinates":[[[77.334004,28.601212],[77.333948,28.60127],[77.333635,28.601033],[77.333686,28.60098],[77.334004,28.601212]]]},"properties":{"objectid":28250,"plotmapid":"11W010AIND","property_t":"Industrial","allotted_p":"YES","plotsizesq":800,"plot_size":"800 SQMT","plot_no":"010A","sector":"11","block":"W","mplanduse":"B","ppt_type":"IND","ppt_full":"Industrial","authority":"NOIDA","category":"industrial","execution_stage":"allotted"}},{"type":"Feature","geometry":{"type":"Polygon","coordinates":[[[77.33694,28.601303],[77.336673,28.601583],[77.336545,28.601489],[77.336816,28.601211],[77.33694,28.601303]]]},"properties":{"objectid":28254,"plotmapid":"11W032BIND","property_t":"Industrial","allotted_p":"Yes","plotsizesq":0,"plot_no":"032B","sector":"11","block":"W","mplanduse":"B","ppt_type":"IND","ppt_full":"Industrial","authority":"NOIDA","category":"industrial","execution_stage":"allotted"}},{"type":"Feature","geometry":{"type":"Polygon","coordinates":[[[77.336756,28.6007],[77.336485,28.600968],[77.336332,28.600855],[77.336591,28.600579],[77.336756,28.6007]]]},"properties":{"objectid":28265,"plotmapid":"11W028&029IND","property_t":"Industrial","allotted_p":"Yes","plotsizesq":800,"plot_size":"800 SQMT","plot_no":"028&029","sector":"11","block":"W","mplanduse":"B","ppt_type":"IND","ppt_full":"Industrial","authority":"NOIDA","category":"industrial","execution_stage":"allotted"}}]}
