{"type":"FeatureCollection","features":[{"type":"Feature","geometry":{"type":"Polygon","coordinates":[[[77.31505,28.592326],[77.314871,28.59255],[77.314676,28.592431],[77.314858,28.592197],[77.31505,28.592326]]]},"properties":{"objectid":23191,"plotmapid":"6A052IND","property_t":"Industrial","used":"NA","plotsizesq":0,"plot_no":"052","sector":"6","block":"A","mplanduse":"V","ppt_type":"IND","ppt_full":"Industrial","remark":"As per drone is vacant ,not Alloted & not buildup","authority":"NOIDA","category":"industrial","execution_stage":"unknown"}},{"type":"Feature","geometry":{"type":"Polygon","coordinates":[[[77.313999,28.588291],[77.314056,28.588323],[77.313876,28.588566],[77.313776,28.58851],[77.313953,28.588265],[77.313999,28.588291]]]},"properties":{"objectid":23221,"plotmapid":"1B021IND","property_t":"Industrial","used":"INDUSTRIAL","allotted_p":"Yes","plotsizesq":416,"plot_size":"416 SQMT","plot_no":"021","sector":"1","block":"B","mplanduse":"B","ppt_type":"IND","ppt_full":"Industrial","remark":"As per Drone is vacant but Alloted","authority":"NOIDA","category":"industrial","execution_stage":"allotted"}},{"type":"Feature","geometry":{"type":"Polygon","coordinates":[[[77.314801,28.591912],[77.314677,28.592093],[77.314307,28.591881],[77.314475,28.591638],[77.314849,28.591841],[77.314801,28.591912]]]},"properties":{"objectid":23236,"plotmapid":"6A005IND","property_t":"Industrial","used":"D-TYPE PLOTS","allotted_p":"Yes","plotsizesq":1357.55,"plot_size":"1357.55 SQMT","plot_no":"005","sector":"6","block":"A","mplanduse":"V","ppt_type":"IND","ppt_full":"Industrial","authority":"NOIDA","category":"industrial","execution_stage":"allotted"}},{"type":"Feature","geometry":{"type":"Polygon","coordinates":[[[77.315055,28.587445],[77.315305,28.587588],[77.315096,28.587876],[77.314842,28.587735],[77.315055,28.587445]]]},"properties":{"objectid":23334,"plotmapid":"2A021IND","property_t":"Industrial","allotted_p":"Yes","plotsizesq":1111.31,"plot_size":"1111.31 SQMT","plot_no":"021","sector":"2","block":"A","mplanduse":"B","ppt_type":"IND","ppt_full":"Industrial","authority":"NOIDA","category":"industrial","execution_stage":"allotted"}},{"type":"Feature","geometry":{"type":"Polygon","coordinates":[[[77.316094,28.588193],[77.315752,28.588669],[77.315494,28.588524],[77.315826,28.58807],[77.316094,28.588193]]]},"properties":{"objectid":23516,"plotmapid":"2A081IND","property_t":"Industrial","allotted_p":"Yes","plotsizesq":1845,"plot_size":"1845 SQMT","plot_no":"081","sector":"2","block":"A","mplanduse":"B","ppt_type":"IND","ppt_full":"Industrial","authority":"NOIDA","category":"industrial","execution_stage":"allotted"}},{"type":"Feature","geometry":{"type":"Polygon","coordinates":[[[77.315826,28.58807],[77.315494,28.588524],[77.315236,28.588381],[77.315566,28.587928],[77.315826,28.58807]]]},"properties":{"objectid":23517,"plotmapid":"2A080IND","property_t":"Industrial","allotted_p":"Yes","plotsizesq":1800,"plot_size":"1800 SQMT","plot_no":"080","sector":"2","block":"A","mplanduse":"B","ppt_type":"IND","ppt_full":"Industrial","authority":"NOIDA","category":"industrial","execution_stage":"allotted"}},{"type":"Feature","geometry":{"type":"Polygon","coordinates":[[[77.315566,28.587928],[77.315236,28.588381],[77.314974,28.588238],[77.315302,28.587783],[77.315566,28.587928]]]},"properties":{"objectid":23518,"plotmapid":"2A079IND","property_t":"Industrial","allotted_p":"Yes","plotsizesq":1480,"plot_size":"1480 SQMT","plot_no":"079","sector":"2","block":"A","mplanduse":"B","ppt_type":"IND","ppt_full":"Industrial","authority":"NOIDA","category":"industrial","execution_stage":"allotted"}},{"type":"Feature","geometry":{"type":"Polygon","coordinates":[[[77.315096,28.587876],[77.314874,28.588184],[77.314622,28.588041],[77.314842,28.587735],[77.315096,28.587876]]]},"properties":{"objectid":23523,"plotmapid":"2A020IND","property_t":"Industrial","allotted_p":"Yes","plotsizesq":1158.4,"plot_size":"1158.4 SQMT","plot_no":"020","sector":"2","block":"A","mplanduse":"B","ppt_type":"IND","ppt_full":"Industrial","authority":"NOIDA","category":"industrial","execution_stage":"allotted"}},{"type":"Feature","geometry":{"type":"Polygon","coordinates":[[[77.314842,28.587735],[77.314622,28.588041],[77.314464,28.587952],[77.314684,28.587647],[77.314842,28.587735]]]},"properties":{"objectid":23524,"plotmapid":"2A019IND","property_t":"Industrial","allotted_p":"Yes","plotsizesq":731.6,"plot_size":"731.6 SQMT","plot_no":"019","sector":"2","block":"A","mplanduse":"B","ppt_type":"IND","ppt_full":"Industrial","authority":"NOIDA","category":"industrial","execution_stage":"allotted"}},{"type":"Feature","geometry":{"type":"Polygon","coordinates":[[[77.314684,28.587647],[77.314464,28.587952],[77.314305,28.587863],[77.314526,28.587559],[77.314684,28.587647]]]},"properties":{"objectid":23525,"plotmapid":"2A018IND","property_t":"Industrial","allotted_p":"Yes","plotsizesq":731.3,"plot_size":"731.3 SQMT","plot_no":"018","sector":"2","block":"A","mplanduse":"B","ppt_type":"IND","ppt_full":"Industrial","authority":"NOIDA","category":"industrial","execution_stage":"allotted"}},{"type":"Feature","geometry":{"type":"Polygon","coordinates":[[[77.314526,28.587559],[77.314305,28.587863],[77.314145,28.587776],[77.314366,28.58747],[77.314526,28.587559]]]},"properties":{"objectid":23526,"plotmapid":"2A017IND","property_t":"Industrial","allotted_p":"Yes","plotsizesq":731.3,"plot_size":"731.3 SQMT","plot_no":"017","sector":"2","block":"A","mplanduse":"B","ppt_type":"IND","ppt_full":"Industrial","authority":"NOIDA","category":"industrial","execution_stage":"allotted"}},{"type":"Feature","geometry":{"type":"Polygon","coordinates":[[[77.314366,28.58747],[77.314145,28.587776],[77.313986,28.587689],[77.314209,28.587383],[77.314366,28.58747]]]},"properties":{"objectid":23527,"plotmapid":"2A016IND","property_t":"Industrial","allotted_p":"Yes","plotsizesq":731.6,"plot_size":"731.6 SQMT","plot_no":"016","sector":"2","block":"A","mplanduse":"B","ppt_type":"IND","ppt_full":"Industrial","authority":"NOIDA","category":"industrial","execution_stage":"allotted"}},{"type":"Feature","geometry":{"type":"Polygon","coordinates":[[[77.314209,28.587383],[77.313986,28.587689],[77.313829,28.587602],[77.314051,28.587293],[77.314209,28.587383]]]},"properties":{"objectid":23528,"plotmapid":"2A015IND","property_t":"Industrial","allotted_p":"Yes","plotsizesq":736.4,"plot_size":"736.4 SQMT","plot_no":"015","sector":"2","block":"A","mplanduse":"B","ppt_type":"IND","ppt_full":"Industrial","authority":"NOIDA","category":"industrial","execution_stage":"allotted"}},{"type":"Feature","geometry":{"type":"Polygon","coordinates":[[[77.313702,28.587097],[77.31348,28.587405],[77.313293,28.587299],[77.313517,28.586992],[77.313702,28.587097]]]},"properties":{"objectid":23529,"plotmapid":"2A012IND","property_t":"Industrial","allotted_p":"Yes","plotsizesq":731.6,"plot_size":"731.6 SQMT","plot_no":"012","sector":"2","block":"A","mplanduse":"B","ppt_type":"IND","ppt_full":"Industrial","authority":"NOIDA","category":"industrial","execution_stage":"allotted"}},{"type":"Feature","geometry":{"type":"Polygon","coordinates":[[[77.313517,28.586992],[77.313293,28.587299],[77.313141,28.587214],[77.313363,28.586905],[77.313517,28.586992]]]},"properties":{"objectid":23531,"plotmapid":"2A011IND","property_t":"Industrial","allotted_p":"Yes","plotsizesq":731.6,"plot_size":"731.6 SQMT","plot_no":"011","sector":"2","block":"A","mplanduse":"B","ppt_type":"IND","ppt_full":"Industrial","authority":"NOIDA","category":"industrial","execution_stage":"allotted"}},{"type":"Feature","geometry":{"type":"Polygon","coordinates":[[[77.313363,28.586905],[77.313141,28.587214],[77.312953,28.587109],[77.313175,28.586799],[77.313363,28.586905]]]},"properties":{"objectid":23532,"plotmapid":"2A010IND","property_t":"Industrial","allotted_p":"Yes","plotsizesq":864,"plot_size":"864 SQMT","plot_no":"010","sector":"2","block":"A","mplanduse":"B","ppt_type":"IND","ppt_full":"Industrial","authority":"NOIDA","category":"industrial","execution_stage":"allotted"}},{"type":"Feature","geometry":{"type":"Polygon","coordinates":[[[77.315053,28.587443],[77.314842,28.587735],[77.314684,28.587647],[77.314895,28.587353],[77.315053,28.587443]]]},"properties":{"objectid":23533,"plotmapid":"2A022IND","property_t":"Industrial","allotted_p":"Yes","plotsizesq":703.34,"plot_size":"703.34 SQMT","plot_no":"022","sector":"2","block":"A","mplanduse":"B","ppt_type":"IND","ppt_full":"Industrial","authority":"NOIDA","category":"industrial","execution_stage":"allotted"}},{"type":"Feature","geometry":{"type":"Polygon","coordinates":[[[77.314895,28.587353],[77.314684,28.587647],[77.314526,28.587559],[77.31474,28.587264],[77.314895,28.587353]]]},"properties":{"objectid":23534,"plotmapid":"2A023IND","property_t":"Industrial","allotted_p":"Yes","plotsizesq":708.64,"plot_size":"708.64 SQMT","plot_no":"023","sector":"2","block":"A","mplanduse":"B","ppt_type":"IND","ppt_full":"Industrial","authority":"NOIDA","category":"industrial","execution_stage":"allotted"}},{"type":"Feature","geometry":{"type":"Polygon","coordinates":[[[77.31474,28.587264],[77.314526,28.587559],[77.314366,28.58747],[77.314582,28.587172],[77.31474,28.587264]]]},"properties":{"objectid":23535,"plotmapid":"2A024IND","property_t":"Industrial","allotted_p":"Yes","plotsizesq":713.95,"plot_size":"713.95 SQMT","plot_no":"024","sector":"2","block":"A","mplanduse":"B","ppt_type":"IND","ppt_full":"Industrial","authority":"NOIDA","category":"industrial","execution_stage":"allotted"}},{"type":"Feature","geometry":{"type":"Polygon","coordinates":[[[77.314582,28.587172],[77.314366,28.58747],[77.314209,28.587383],[77.314427,28.587083],[77.314582,28.587172]]]},"properties":{"objectid":23536,"plotmapid":"2A025IND","property_t":"Industrial","allotted_p":"Yes","plotsizesq":713.51,"plot_size":"713.51 SQMT","plot_no":"025","sector":"2","block":"A","mplanduse":"B","ppt_type":"IND","ppt_full":"Industrial","authority":"NOIDA","category":"industrial","execution_stage":"allotted"}},{"type":"Feature","geometry":{"type":"Polygon","coordinates":[[[77.314427,28.587083],[77.314209,28.587383],[77.314051,28.587293],[77.314268,28.586991],[77.314427,28.587083]]]},"properties":{"objectid":23537,"plotmapid":"2A026IND","property_t":"Industrial","allotted_p":"Yes","plotsizesq":729.22,"plot_size":"729.22 SQMT","plot_no":"026","sector":"2","block":"A","mplanduse":"B","ppt_type":"IND","ppt_full":"Industrial","authority":"NOIDA","category":"industrial","execution_stage":"allotted"}},{"type":"Feature","geometry":{"type":"Polygon","coordinates":[[[77.315222,28.587393],[77.315398,28.587149],[77.315553,28.587235],[77.315377,28.587479],[77.315222,28.587393]]]},"properties":{"objectid":23774,"plotmapid":"2A059IND","property_t":"Industrial","used":"C-TYPE PLOTS","allotted_p":"Yes","plotsizesq":416,"plot_size":"416 SQMT","plot_no":"059","sector":"2","block":"A","mplanduse":"B","ppt_type":"IND","ppt_full":"Industrial","authority":"NOIDA","category":"industrial","execution_stage":"allotted"}},{"type":"Feature","geometry":{"type":"Polygon","coordinates":[[[77.315728,28.586993],[77.315553,28.587235],[77.315398,28.587149],[77.315574,28.586906],[77.315728,28.586993]]]},"properties":{"objectid":23775,"plotmapid":"2A060IND","property_t":"Industrial","used":"C-TYPE PLOTS","allotted_p":"Yes","plotsizesq":416,"plot_size":"416 SQMT","plot_no":"060","sector":"2","block":"A","mplanduse":"B","ppt_type":"IND","ppt_full":"Industrial","authority":"NOIDA","category":"industrial","execution_stage":"allotted"}},{"type":"Feature","geometry":{"type":"Polygon","coordinates":[[[77.315574,28.586906],[77.315398,28.587149],[77.315287,28.587087],[77.315463,28.586844],[77.315574,28.586906]]]},"properties":{"objectid":23776,"plotmapid":"2A061IND","property_t":"Industrial","used":"C-TYPE PLOTS","allotted_p":"Yes","plotsizesq":416,"plot_size":"416 SQMT","plot_no":"061","sector":"2","block":"A","mplanduse":"B","ppt_type":"IND","ppt_full":"Industrial","authority":"NOIDA","category":"industrial","execution_stage":"allotted"}},{"type":"Feature","geometry":{"type":"Polygon","coordinates":[[[77.315398,28.587149],[77.315222,28.587393],[77.315109,28.58733],[77.315287,28.587087],[77.315398,28.587149]]]},"properties":{"objectid":23778,"plotmapid":"2A058IND","property_t":"Industrial","used":"C-TYPE PLOTS","allotted_p":"Yes","plotsizesq":420,"plot_size":"420 SQMT","plot_no":"058","sector":"2","block":"A","mplanduse":"B","ppt_type":"IND","ppt_full":"Industrial","authority":"NOIDA","category":"industrial","execution_stage":"allotted"}},{"type":"Feature","geometry":{"type":"Polygon","coordinates":[[[77.315287,28.587087],[77.315109,28.58733],[77.314999,28.587267],[77.315175,28.587023],[77.315287,28.587087]]]},"properties":{"objectid":23779,"plotmapid":"2A057IND","property_t":"Industrial","used":"C-TYPE PLOTS","allotted_p":"Yes","plotsizesq":416,"plot_size":"416 SQMT","plot_no":"057","sector":"2","block":"A","mplanduse":"B","ppt_type":"IND","ppt_full":"Industrial","authority":"NOIDA","category":"industrial","execution_stage":"allotted"}},{"type":"Feature","geometry":{"type":"Polygon","coordinates":[[[77.315175,28.587023],[77.314999,28.587267],[77.314884,28.587203],[77.315064,28.586959],[77.315175,28.587023]]]},"properties":{"objectid":23780,"plotmapid":"2A056IND","property_t":"Industrial","used":"C-TYPE PLOTS","allotted_p":"Yes","plotsizesq":416,"plot_size":"416 SQMT","plot_no":"056","sector":"2","block":"A","mplanduse":"B","ppt_type":"IND","ppt_full":"Industrial","authority":"NOIDA","category":"industrial","execution_stage":"allotted"}},{"type":"Feature","geometry":{"type":"Polygon","coordinates":[[[77.315064,28.586959],[77.314884,28.587203],[77.314729,28.587115],[77.314907,28.586869],[77.315064,28.586959]]]},"properties":{"objectid":23783,"plotmapid":"2A055IND","property_t":"Industrial","used":"C-TYPE PLOTS","allotted_p":"Yes","plotsizesq":576,"plot_size":"576 SQMT","plot_no":"055","sector":"2","block":"A","mplanduse":"B","ppt_type":"IND","ppt_full":"Industrial","authority":"NOIDA","category":"industrial","execution_stage":"allotted"}},{"type":"Feature","geometry":{"type":"Polygon","coordinates":[[[77.31537,28.588734],[77.315859,28.589026],[77.315466,28.589607],[77.314476,28.589015],[77.314882,28.588444],[77.31537,28.588734]]]},"properties":{"objectid":23959,"plotmapid":"1C001A,B,14A,BIND","property_t":"Industrial","used":"INDUSTRIAL","plotsizesq":1995,"plot_size":"1995 SQMT","plot_no":"001A,B,14A,B","sector":"1","block":"C","mplanduse":"B","ppt_type":"IND","ppt_full":"Industrial","authority":"NOIDA","category":"industrial","execution_stage":"unknown"}},{"type":"Feature","geometry":{"type":"Polygon","coordinates":[[[77.314734,28.590689],[77.314555,28.590954],[77.314019,28.590645],[77.314208,28.590378],[77.314734,28.590689]]]},"properties":{"objectid":23960,"plotmapid":"1C010IND","property_t":"Industrial","used":"INDUSTRIAL","allotted_p":"Yes","plotsizesq":1995,"plot_size":"1995 SQMT","plot_no":"010","sector":"1","block":"C","mplanduse":"B","ppt_type":"IND","ppt_full":"Industrial","authority":"NOIDA","category":"industrial","execution_stage":"allotted"}},{"type":"Feature","geometry":{"type":"Polygon","coordinates":[[[77.314918,28.590417],[77.314734,28.590689],[77.314208,28.590378],[77.314396,28.590111],[77.314918,28.590417]]]},"properties":{"objectid":23961,"plotmapid":"1C011IND","property_t":"Industrial","used":"INDUSTRIAL","allotted_p":"Yes","plotsizesq":1995,"plot_size":"1995 SQMT","plot_no":"011","sector":"1","block":"C","mplanduse":"B","ppt_type":"IND","ppt_full":"Industrial","authority":"NOIDA","category":"industrial","execution_stage":"allotted"}},{"type":"Feature","geometry":{"type":"Polygon","coordinates":[[[77.3151,28.590148],[77.314918,28.590417],[77.314396,28.590111],[77.314584,28.589845],[77.3151,28.590148]]]},"properties":{"objectid":23962,"plotmapid":"1C012IND","property_t":"Industrial","used":"INDUSTRIAL","allotted_p":"Yes","plotsizesq":1995,"plot_size":"1995 SQMT","plot_no":"012","sector":"1","block":"C","mplanduse":"B","ppt_type":"IND","ppt_full":"Industrial","authority":"NOIDA","category":"industrial","execution_stage":"allotted"}},{"type":"Feature","geometry":{"type":"Polygon","coordinates":[[[77.312888,28.58767],[77.312995,28.587729],[77.312819,28.587974],[77.312713,28.587914],[77.312888,28.58767]]]},"properties":{"objectid":23965,"plotmapid":"1B031IND","property_t":"Industrial","used":"INDUSTRIAL","allotted_p":"Yes","plotsizesq":416,"plot_size":"416 SQMT","plot_no":"031","sector":"1","block":"B","mplanduse":"B","ppt_type":"IND","ppt_full":"Industrial","authority":"NOIDA","category":"industrial","execution_stage":"allotted"}},{"type":"Feature","geometry":{"type":"Polygon","coordinates":[[[77.313101,28.587788],[77.312924,28.588033],[77.312819,28.587974],[77.312995,28.587729],[77.313101,28.587788]]]},"properties":{"objectid":23966,"plotmapid":"1B030IND","property_t":"Industrial","used":"INDUSTRIAL","allotted_p":"Yes","plotsizesq":416,"plot_size":"416 SQMT","plot_no":"030","sector":"1","block":"B","mplanduse":"B","ppt_type":"IND","ppt_full":"Industrial","authority":"NOIDA","category":"industrial","execution_stage":"allotted"}},{"type":"Feature","geometry":{"type":"Polygon","coordinates":[[[77.313154,28.587818],[77.313207,28.587848],[77.31303,28.588092],[77.312924,28.588033],[77.313101,28.587788],[77.313154,28.587818]]]},"properties":{"objectid":23967,"plotmapid":"1B029IND","property_t":"Industrial","used":"INDUSTRIAL","allotted_p":"Yes","plotsizesq":416,"plot_size":"416 SQMT","plot_no":"029","sector":"1","block":"B","mplanduse":"B","ppt_type":"IND","ppt_full":"Industrial","authority":"NOIDA","category":"industrial","execution_stage":"allotted"}},{"type":"Feature","geometry":{"type":"Polygon","coordinates":[[[77.313259,28.587877],[77.313314,28.587907],[77.313137,28.588152],[77.31303,28.588092],[77.313207,28.587848],[77.313259,28.587877]]]},"properties":{"objectid":23968,"plotmapid":"1B028IND","property_t":"Industrial","used":"INDUSTRIAL","allotted_p":"Yes","plotsizesq":416,"plot_size":"416 SQMT","plot_no":"028","sector":"1","block":"B","mplanduse":"B","ppt_type":"IND","ppt_full":"Industrial","authority":"NOIDA","category":"industrial","execution_stage":"allotted"}},{"type":"Feature","geometry":{"type":"Polygon","coordinates":[[[77.313576,28.588054],[77.313632,28.588085],[77.313456,28.588331],[77.313347,28.58827],[77.313526,28.588026],[77.313576,28.588054]]]},"properties":{"objectid":23969,"plotmapid":"1B025IND","property_t":"Industrial","used":"INDUSTRIAL","allotted_p":"Yes","plotsizesq":416,"plot_size":"416 SQMT","plot_no":"025","sector":"1","block":"B","mplanduse":"B","ppt_type":"IND","ppt_full":"Industrial","authority":"NOIDA","category":"industrial","execution_stage":"allotted"}},{"type":"Feature","geometry":{"type":"Polygon","coordinates":[[[77.313682,28.588113],[77.313736,28.588144],[77.313557,28.588387],[77.313456,28.588331],[77.313632,28.588085],[77.313682,28.588113]]]},"properties":{"objectid":23970,"plotmapid":"1B024IND","property_t":"Industrial","used":"INDUSTRIAL","allotted_p":"Yes","plotsizesq":416,"plot_size":"416 SQMT","plot_no":"024","sector":"1","block":"B","mplanduse":"B","ppt_type":"IND","ppt_full":"Industrial","authority":"NOIDA","category":"industrial","execution_stage":"allotted"}},{"type":"Feature","geometry":{"type":"Polygon","coordinates":[[[77.313788,28.588173],[77.313846,28.588205],[77.313671,28.588451],[77.313557,28.588387],[77.313736,28.588144],[77.313788,28.588173]]]},"properties":{"objectid":23971,"plotmapid":"1B023IND","property_t":"Industrial","used":"INDUSTRIAL","allotted_p":"Yes","plotsizesq":416,"plot_size":"416 SQMT","plot_no":"023","sector":"1","block":"B","mplanduse":"B","ppt_type":"IND","ppt_full":"Industrial","authority":"NOIDA","category":"industrial","execution_stage":"allotted"}},{"type":"Feature","geometry":{"type":"Polygon","coordinates":[[[77.313893,28.588232],[77.313953,28.588265],[77.313776,28.58851],[77.313671,28.588451],[77.313846,28.588205],[77.313893,28.588232]]]},"properties":{"objectid":23972,"plotmapid":"1B022IND","property_t":"Industrial","used":"INDUSTRIAL","allotted_p":"Yes","plotsizesq":416,"plot_size":"416 SQMT","plot_no":"022","sector":"1","block":"B","mplanduse":"B","ppt_type":"IND","ppt_full":"Industrial","authority":"NOIDA","category":"industrial","execution_stage":"allotted"}},{"type":"Feature","geometry":{"type":"Polygon","coordinates":[[[77.314105,28.58835],[77.314162,28.588382],[77.313985,28.588627],[77.313876,28.588566],[77.314056,28.588323],[77.314105,28.58835]]]},"properties":{"objectid":23973,"plotmapid":"1B020IND","property_t":"Industrial","used":"INDUSTRIAL","allotted_p":"Yes","plotsizesq":416,"plot_size":"416 SQMT","plot_no":"020","sector":"1","block":"B","mplanduse":"B","ppt_type":"IND","ppt_full":"Industrial","authority":"NOIDA","category":"industrial","execution_stage":"allotted"}},{"type":"Feature","geometry":{"type":"Polygon","coordinates":[[[77.314211,28.588409],[77.314267,28.588441],[77.314091,28.588686],[77.313985,28.588627],[77.314162,28.588382],[77.314211,28.588409]]]},"properties":{"objectid":23974,"plotmapid":"1B019IND","property_t":"Industrial","used":"INDUSTRIAL","allotted_p":"Yes","plotsizesq":416,"plot_size":"416 SQMT","plot_no":"019","sector":"1","block":"B","mplanduse":"B","ppt_type":"IND","ppt_full":"Industrial","authority":"NOIDA","category":"industrial","execution_stage":"allotted"}},{"type":"Feature","geometry":{"type":"Polygon","coordinates":[[[77.314316,28.588468],[77.314373,28.5885],[77.314196,28.588745],[77.314091,28.588686],[77.314267,28.588441],[77.314316,28.588468]]]},"properties":{"objectid":23975,"plotmapid":"1B018IND","property_t":"Industrial","used":"INDUSTRIAL","allotted_p":"Yes","plotsizesq":416,"plot_size":"416 SQMT","plot_no":"018","sector":"1","block":"B","mplanduse":"B","ppt_type":"IND","ppt_full":"Industrial","authority":"NOIDA","category":"industrial","execution_stage":"allotted"}},{"type":"Feature","geometry":{"type":"Polygon","coordinates":[[[77.314373,28.5885],[77.314478,28.588559],[77.314304,28.588805],[77.314196,28.588745],[77.314373,28.5885]]]},"properties":{"objectid":23976,"plotmapid":"1B017IND","property_t":"Industrial","used":"INDUSTRIAL","allotted_p":"Yes","plotsizesq":0,"plot_no":"017","sector":"1","block":"B","mplanduse":"B","ppt_type":"IND","ppt_full":"Industrial","authority":"NOIDA","category":"industrial","execution_stage":"allotted"}},{"type":"Feature","geometry":{"type":"Polygon","coordinates":[[[77.314649,28.588317],[77.314478,28.588559],[77.314373,28.5885],[77.314548,28.588261],[77.314649,28.588317]]]},"properties":{"objectid":23977,"plotmapid":"1B016IND","property_t":"Industrial","used":"INDUSTRIAL","allotted_p":"Yes","plotsizesq":0,"plot_no":"016","sector":"1","block":"B","mplanduse":"B","ppt_type":"IND","ppt_full":"Industrial","authority":"NOIDA","category":"industrial","execution_stage":"allotted"}},{"type":"Feature","geometry":{"type":"Polygon","coordinates":[[[77.314548,28.588261],[77.314373,28.5885],[77.314267,28.588441],[77.314439,28.588199],[77.314548,28.588261]]]},"properties":{"objectid":23978,"plotmapid":"1B015IND","property_t":"Industrial","used":"INDUSTRIAL","allotted_p":"Yes","plotsizesq":416,"plot_size":"416 SQMT","plot_no":"015","sector":"1","block":"B","mplanduse":"B","ppt_type":"IND","ppt_full":"Industrial","authority":"NOIDA","category":"industrial","execution_stage":"allotted"}},{"type":"Feature","geometry":{"type":"Polygon","coordinates":[[[77.314439,28.588199],[77.314267,28.588441],[77.314162,28.588382],[77.314335,28.588141],[77.314439,28.588199]]]},"properties":{"objectid":23979,"plotmapid":"1B014IND","property_t":"Industrial","used":"INDUSTRIAL","allotted_p":"Yes","plotsizesq":416,"plot_size":"416 SQMT","plot_no":"014","sector":"1","block":"B","mplanduse":"B","ppt_type":"IND","ppt_full":"Industrial","authority":"NOIDA","category":"industrial","execution_stage":"allotted"}},{"type":"Feature","geometry":{"type":"Polygon","coordinates":[[[77.314335,28.588141],[77.314162,28.588382],[77.314056,28.588323],[77.314233,28.588084],[77.314335,28.588141]]]},"properties":{"objectid":23980,"plotmapid":"1B013IND","property_t":"Industrial","used":"INDUSTRIAL","allotted_p":"Yes","plotsizesq":416,"plot_size":"416 SQMT","plot_no":"013","sector":"1","block":"B","mplanduse":"B","ppt_type":"IND","ppt_full":"Industrial","authority":"NOIDA","category":"industrial","execution_stage":"allotted"}},{"type":"Feature","geometry":{"type":"Polygon","coordinates":[[[77.314233,28.588084],[77.314056,28.588323],[77.313953,28.588265],[77.314127,28.588024],[77.314233,28.588084]]]},"properties":{"objectid":23981,"plotmapid":"1B012IND","property_t":"Industrial","used":"INDUSTRIAL","allotted_p":"Yes","plotsizesq":416,"plot_size":"416 SQMT","plot_no":"012","sector":"1","block":"B","mplanduse":"B","ppt_type":"IND","ppt_full":"Industrial","authority":"NOIDA","category":"industrial","execution_stage":"allotted"}},{"type":"Feature","geometry":{"type":"Polygon","coordinates":[[[77.314127,28.588024],[77.313953,28.588265],[77.313846,28.588205],[77.314018,28.587963],[77.314127,28.588024]]]},"properties":{"objectid":23982,"plotmapid":"1B011IND","property_t":"Industrial","used":"INDUSTRIAL","allotted_p":"Yes","plotsizesq":416,"plot_size":"416 SQMT","plot_no":"011","sector":"1","block":"B","mplanduse":"B","ppt_type":"IND","ppt_full":"Industrial","authority":"NOIDA","category":"industrial","execution_stage":"allotted"}},{"type":"Feature","geometry":{"type":"Polygon","coordinates":[[[77.314018,28.587963],[77.313846,28.588205],[77.313736,28.588144],[77.313911,28.587904],[77.314018,28.587963]]]},"properties":{"objectid":23983,"plotmapid":"1B010IND","property_t":"Industrial","used":"INDUSTRIAL","allotted_p":"Yes","plotsizesq":416,"plot_size":"416 SQMT","plot_no":"010","sector":"1","block":"B","mplanduse":"B","ppt_type":"IND","ppt_full":"Industrial","authority":"NOIDA","category":"industrial","execution_stage":"allotted"}},{"type":"Feature","geometry":{"type":"Polygon","coordinates":[[[77.313911,28.587904],[77.313736,28.588144],[77.313632,28.588085],[77.313805,28.587844],[77.313911,28.587904]]]},"properties":{"objectid":23984,"plotmapid":"1B009IND","property_t":"Industrial","used":"INDUSTRIAL","allotted_p":"Yes","plotsizesq":416,"plot_size":"416 SQMT","plot_no":"009","sector":"1","block":"B","mplanduse":"B","ppt_type":"IND","ppt_full":"Industrial","authority":"NOIDA","category":"industrial","execution_stage":"allotted"}},{"type":"Feature","geometry":{"type":"Polygon","coordinates":[[[77.313702,28.587786],[77.313526,28.588026],[77.313423,28.587968],[77.313597,28.587727],[77.313702,28.587786]]]},"properties":{"objectid":23985,"plotmapid":"1B007IND","property_t":"Industrial","used":"INDUSTRIAL","allotted_p":"Yes","plotsizesq":416,"plot_size":"416 SQMT","plot_no":"007","sector":"1","block":"B","mplanduse":"B","ppt_type":"IND","ppt_full":"Industrial","authority":"NOIDA","category":"industrial","execution_stage":"allotted"}},{"type":"Feature","geometry":{"type":"Polygon","coordinates":[[[77.313597,28.587727],[77.313423,28.587968],[77.313314,28.587907],[77.313488,28.587666],[77.313597,28.587727]]]},"properties":{"objectid":23986,"plotmapid":"1B006IND","property_t":"Industrial","used":"INDUSTRIAL","allotted_p":"Yes","plotsizesq":416,"plot_size":"416 SQMT","plot_no":"006","sector":"1","block":"B","mplanduse":"B","ppt_type":"IND","ppt_full":"Industrial","authority":"NOIDA","category":"industrial","execution_stage":"allotted"}},{"type":"Feature","geometry":{"type":"Polygon","coordinates":[[[77.313488,28.587666],[77.313314,28.587907],[77.313207,28.587848],[77.313382,28.587606],[77.313488,28.587666]]]},"properties":{"objectid":23987,"plotmapid":"1B005IND","property_t":"Industrial","used":"INDUSTRIAL","allotted_p":"Yes","plotsizesq":416,"plot_size":"416 SQMT","plot_no":"005","sector":"1","block":"B","mplanduse":"B","ppt_type":"IND","ppt_full":"Industrial","authority":"NOIDA","category":"industrial","execution_stage":"allotted"}},{"type":"Feature","geometry":{"type":"Polygon","coordinates":[[[77.313382,28.587606],[77.313207,28.587848],[77.313101,28.587788],[77.313275,28.587546],[77.313382,28.587606]]]},"properties":{"objectid":23988,"plotmapid":"1B004IND","property_t":"Industrial","used":"INDUSTRIAL","allotted_p":"Yes","plotsizesq":416,"plot_size":"416 SQMT","plot_no":"004","sector":"1","block":"B","mplanduse":"B","ppt_type":"IND","ppt_full":"Industrial","authority":"NOIDA","category":"industrial","execution_stage":"allotted"}},{"type":"Feature","geometry":{"type":"Polygon","coordinates":[[[77.313275,28.587546],[77.313101,28.587788],[77.312995,28.587729],[77.313169,28.587487],[77.313275,28.587546]]]},"properties":{"objectid":23989,"plotmapid":"1B003IND","property_t":"Industrial","used":"INDUSTRIAL","allotted_p":"Yes","plotsizesq":416,"plot_size":"416 SQMT","plot_no":"003","sector":"1","block":"B","mplanduse":"B","ppt_type":"IND","ppt_full":"Industrial","authority":"NOIDA","category":"industrial","execution_stage":"allotted"}},{"type":"Feature","geometry":{"type":"Polygon","coordinates":[[[77.314774,28.589575],[77.314584,28.589845],[77.314092,28.589556],[77.314284,28.589286],[77.314774,28.589575]]]},"properties":{"objectid":23990,"plotmapid":"1C002IND","property_t":"Industrial","used":"INDUSTRIAL","allotted_p":"Yes","plotsizesq":1995,"plot_size":"1995 SQMT","plot_no":"002","sector":"1","block":"C","mplanduse":"B","ppt_type":"IND","ppt_full":"Industrial","authority":"NOIDA","category":"industrial","execution_stage":"allotted"}},{"type":"Feature","geometry":{"type":"Polygon","coordinates":[[[77.314208,28.590378],[77.314019,28.590645],[77.313527,28.590362],[77.313718,28.590088],[77.314208,28.590378]]]},"properties":{"objectid":23991,"plotmapid":"1C005IND","property_t":"Industrial","used":"INDUSTRIAL","allotted_p":"Yes","plotsizesq":1995,"plot_size":"1995 SQMT","plot_no":"005","sector":"1","block":"C","mplanduse":"B","ppt_type":"IND","ppt_full":"Industrial","authority":"NOIDA","category":"industrial","execution_stage":"allotted"}},{"type":"Feature","geometry":{"type":"Polygon","coordinates":[[[77.313335,28.590638],[77.313527,28.590362],[77.314019,28.590645],[77.31383,28.590913],[77.313335,28.590638]]]},"properties":{"objectid":23992,"plotmapid":"1C006IND","property_t":"Industrial","used":"INDUSTRIAL","allotted_p":"Yes","plotsizesq":1995,"plot_size":"1995 SQMT","plot_no":"006","sector":"1","block":"C","mplanduse":"B","ppt_type":"IND","ppt_full":"Industrial","authority":"NOIDA","category":"industrial","execution_stage":"allotted"}},{"type":"Feature","geometry":{"type":"Polygon","coordinates":[[[77.314555,28.590954],[77.314371,28.591227],[77.31383,28.590913],[77.314019,28.590645],[77.314555,28.590954]]]},"properties":{"objectid":23993,"plotmapid":"1C009IND","property_t":"Industrial","used":"INDUSTRIAL","allotted_p":"Yes","plotsizesq":1995,"plot_size":"1995 SQMT","plot_no":"009","sector":"1","block":"C","mplanduse":"B","ppt_type":"IND","ppt_full":"Industrial","authority":"NOIDA","category":"industrial","execution_stage":"allotted"}},{"type":"Feature","geometry":{"type":"Polygon","coordinates":[[[77.314371,28.591227],[77.314184,28.591502],[77.313637,28.591185],[77.31383,28.590913],[77.314371,28.591227]]]},"properties":{"objectid":23994,"plotmapid":"1C008IND","property_t":"Industrial","used":"INDUSTRIAL","allotted_p":"Yes","plotsizesq":1995,"plot_size":"1995 SQMT","plot_no":"008","sector":"1","block":"C","mplanduse":"B","ppt_type":"IND","ppt_full":"Industrial","authority":"NOIDA","category":"industrial","execution_stage":"allotted"}},{"type":"Feature","geometry":{"type":"Polygon","coordinates":[[[77.313805,28.587844],[77.313632,28.588085],[77.313526,28.588026],[77.313702,28.587786],[77.313805,28.587844]]]},"properties":{"objectid":23995,"plotmapid":"1B08 & 09IND","property_t":"Industrial","used":"INDUSTRIAL","plotsizesq":416,"plot_size":"416 SQMT","plot_no":"08 & 09","sector":"1","block":"B","mplanduse":"B","ppt_type":"IND","ppt_full":"Industrial","authority":"NOIDA","category":"industrial","execution_stage":"unknown"}},{"type":"Feature","geometry":{"type":"Polygon","coordinates":[[[77.313423,28.587968],[77.313246,28.588213],[77.313137,28.588152],[77.313314,28.587907],[77.313423,28.587968]]]},"properties":{"objectid":23996,"plotmapid":"1B027IND","property_t":"Industrial","used":"INDUSTRIAL","plotsizesq":416,"plot_size":"416 SQMT","plot_no":"027","sector":"1","block":"B","mplanduse":"B","ppt_type":"IND","ppt_full":"Industrial","authority":"NOIDA","category":"industrial","execution_stage":"unknown"}},{"type":"Feature","geometry":{"type":"Polygon","coordinates":[[[77.314051,28.587293],[77.313829,28.587602],[77.31348,28.587405],[77.313771,28.587002],[77.31412,28.587196],[77.314051,28.587293]]]},"properties":{"objectid":24028,"plotmapid":"2A013,014IND","property_t":"Industrial","plotsizesq":0,"plot_no":"013,014","sector":"2","block":"A","mplanduse":"B","ppt_type":"IND","ppt_full":"Industrial","authority":"NOIDA","category":"industrial","execution_stage":"unknown"}},{"type":"Feature","geometry":{"type":"Polygon","coordinates":[[[77.313924,28.586789],[77.314268,28.586991],[77.31412,28.587196],[77.313771,28.587002],[77.313924,28.586789]]]},"properties":{"objectid":24029,"plotmapid":"2A027,028IND","property_t":"Industrial","plotsizesq":0,"plot_no":"027,028","sector":"2","block":"A","mplanduse":"B","ppt_type":"IND","ppt_full":"Industrial","authority":"NOIDA","category":"industrial","execution_stage":"unknown"}},{"type":"Feature","geometry":{"type":"Polygon","coordinates":[[[77.3161,28.590646],[77.315973,28.59081],[77.31564,28.590612],[77.315759,28.590443],[77.3161,28.590646]]]},"properties":{"objectid":24255,"plotmapid":"6A016IND","property_t":"Industrial","used":"NA","allotted_p":"Yes","plotsizesq":823,"plot_size":"823 SQMT","plot_no":"016","sector":"6","block":"A","mplanduse":"B","ppt_type":"IND","ppt_full":"Industrial","authority":"NOIDA","category":"industrial","execution_stage":"allotted"}},{"type":"Feature","geometry":{"type":"Polygon","coordinates":[[[77.315759,28.590443],[77.31564,28.590612],[77.315302,28.590411],[77.315421,28.590242],[77.315759,28.590443]]]},"properties":{"objectid":24261,"plotmapid":"6A017IND","property_t":"Industrial","used":"NA","allotted_p":"Yes","plotsizesq":840,"plot_size":"840 SQMT","plot_no":"017","sector":"6","block":"A","mplanduse":"B","ppt_type":"IND","ppt_full":"Industrial","authority":"NOIDA","category":"industrial","execution_stage":"allotted"}},{"type":"Feature","geometry":{"type":"Polygon","coordinates":[[[77.31503,28.590813],[77.315302,28.590411],[77.315973,28.59081],[77.315686,28.591203],[77.31503,28.590813]]]},"properties":{"objectid":24314,"plotmapid":"6A015IND","property_t":"Industrial","used":"NA","allotted_p":"Yes","plotsizesq":4055.83,"plot_size":"4055.83 SQMT","plot_no":"015","sector":"6","block":"A","mplanduse":"B","ppt_type":"IND","ppt_full":"Industrial","authority":"NOIDA","category":"industrial","execution_stage":"allotted"}},{"type":"Feature","geometry":{"type":"Polygon","coordinates":[[[77.315618,28.591305],[77.315534,28.59142],[77.315251,28.591253],[77.315333,28.591133],[77.315618,28.591305]]]},"properties":{"objectid":24347,"plotmapid":"6A042IND","property_t":"Industrial","used":"C-TYPE PLOTS","allotted_p":"Yes","plotsizesq":519,"plot_size":"519 SQMT","plot_no":"042","sector":"6","block":"A","mplanduse":"B","ppt_type":"IND","ppt_full":"Industrial","authority":"NOIDA","category":"industrial","execution_stage":"allotted"}},{"type":"Feature","geometry":{"type":"Polygon","coordinates":[[[77.315251,28.591253],[77.315237,28.591274],[77.314857,28.591076],[77.314967,28.590913],[77.315333,28.591133],[77.315251,28.591253]]]},"properties":{"objectid":24353,"plotmapid":"6A010IND","property_t":"Industrial","used":"D-TYPE PLOTS","allotted_p":"Yes","plotsizesq":833,"plot_size":"833 SQMT","plot_no":"010","sector":"6","block":"A","mplanduse":"B","ppt_type":"IND","ppt_full":"Industrial","authority":"NOIDA","category":"industrial","execution_stage":"allotted"}},{"type":"Feature","geometry":{"type":"Polygon","coordinates":[[[77.315534,28.59142],[77.315465,28.591514],[77.315184,28.591351],[77.315251,28.591253],[77.315534,28.59142]]]},"properties":{"objectid":24362,"plotmapid":"6A043IND","property_t":"Industrial","used":"C-TYPE PLOTS","allotted_p":"Yes","plotsizesq":403,"plot_size":"403 SQMT","plot_no":"043","sector":"6","block":"A","mplanduse":"B","ppt_type":"IND","ppt_full":"Industrial","authority":"NOIDA","category":"industrial","execution_stage":"allotted"}},{"type":"Feature","geometry":{"type":"Polygon","coordinates":[[[77.315237,28.591274],[77.315137,28.591419],[77.31476,28.591219],[77.314857,28.591076],[77.315237,28.591274]]]},"properties":{"objectid":24373,"plotmapid":"6A009IND","property_t":"Industrial","used":"D-TYPE PLOTS","allotted_p":"Yes","plotsizesq":878,"plot_size":"878 SQMT","plot_no":"009","sector":"6","block":"A","mplanduse":"B","ppt_type":"IND","ppt_full":"Industrial","authority":"NOIDA","category":"industrial","execution_stage":"allotted"}},{"type":"Feature","geometry":{"type":"Polygon","coordinates":[[[77.315465,28.591514],[77.315399,28.591603],[77.315122,28.591442],[77.315184,28.591351],[77.315465,28.591514]]]},"properties":{"objectid":24378,"plotmapid":"6A044IND","property_t":"Industrial","used":"C-TYPE PLOTS","allotted_p":"Yes","plotsizesq":398,"plot_size":"398 SQMT","plot_no":"044","sector":"6","block":"A","mplanduse":"B","ppt_type":"IND","ppt_full":"Industrial","authority":"NOIDA","category":"industrial","execution_stage":"allotted"}},{"type":"Feature","geometry":{"type":"Polygon","coordinates":[[[77.316025,28.591546],[77.315786,28.591852],[77.315487,28.591688],[77.315725,28.591369],[77.316025,28.591546]]]},"properties":{"objectid":24379,"plotmapid":"6A062IND","property_t":"Industrial","used":"NA","plotsizesq":0,"plot_no":"062","sector":"6","block":"A","mplanduse":"B","ppt_type":"IND","ppt_full":"Industrial","authority":"NOIDA","category":"industrial","execution_stage":"unknown"}},{"type":"Feature","geometry":{"type":"Polygon","coordinates":[[[77.315399,28.591603],[77.31533,28.591698],[77.315056,28.591539],[77.315122,28.591442],[77.315399,28.591603]]]},"properties":{"objectid":24391,"plotmapid":"6A045IND","property_t":"Industrial","used":"C-TYPE PLOTS","allotted_p":"Yes","plotsizesq":393,"plot_size":"393 SQMT","plot_no":"045","sector":"6","block":"A","mplanduse":"B","ppt_type":"IND","ppt_full":"Industrial","authority":"NOIDA","category":"industrial","execution_stage":"allotted"}},{"type":"Feature","geometry":{"type":"Polygon","coordinates":[[[77.315056,28.591539],[77.315041,28.591561],[77.314664,28.59136],[77.31476,28.591219],[77.315137,28.591419],[77.315056,28.591539]]]},"properties":{"objectid":24396,"plotmapid":"6A008IND","property_t":"Industrial","used":"D-TYPE PLOTS","allotted_p":"Yes","plotsizesq":780,"plot_size":"780 SQMT","plot_no":"008","sector":"6","block":"A","mplanduse":"B","ppt_type":"IND","ppt_full":"Industrial","authority":"NOIDA","category":"industrial","execution_stage":"allotted"}},{"type":"Feature","geometry":{"type":"Polygon","coordinates":[[[77.31533,28.591698],[77.315261,28.59179],[77.314993,28.591631],[77.315056,28.591539],[77.31533,28.591698]]]},"properties":{"objectid":24404,"plotmapid":"6A046IND","property_t":"Industrial","used":"C-TYPE PLOTS","allotted_p":"Yes","plotsizesq":372,"plot_size":"372 SQMT","plot_no":"046","sector":"6","block":"A","mplanduse":"B","ppt_type":"IND","ppt_full":"Industrial","authority":"NOIDA","category":"industrial","execution_stage":"allotted"}},{"type":"Feature","geometry":{"type":"Polygon","coordinates":[[[77.316038,28.592258],[77.315998,28.592312],[77.315763,28.59217],[77.315805,28.592116],[77.316038,28.592258]]]},"properties":{"objectid":24408,"plotmapid":"6B032IND","property_t":"Industrial","used":"C-TYPE SHEDS","allotted_p":"Yes","plotsizesq":211,"plot_size":"211 SQMT","plot_no":"032","sector":"6","block":"B","mplanduse":"B","ppt_type":"IND","ppt_full":"Industrial","authority":"NOIDA","category":"industrial","execution_stage":"allotted"}},{"type":"Feature","geometry":{"type":"Polygon","coordinates":[[[77.314993,28.591631],[77.314945,28.591701],[77.314572,28.591495],[77.314664,28.59136],[77.315041,28.591561],[77.314993,28.591631]]]},"properties":{"objectid":24417,"plotmapid":"6A007IND","property_t":"Industrial","used":"D-TYPE PLOTS","allotted_p":"Yes","plotsizesq":780,"plot_size":"780 SQMT","plot_no":"007","sector":"6","block":"A","mplanduse":"B","ppt_type":"IND","ppt_full":"Industrial","authority":"NOIDA","category":"industrial","execution_stage":"allotted"}},{"type":"Feature","geometry":{"type":"Polygon","coordinates":[[[77.315261,28.59179],[77.315194,28.591882],[77.314929,28.591725],[77.314993,28.591631],[77.315261,28.59179]]]},"properties":{"objectid":24432,"plotmapid":"6A047IND","property_t":"Industrial","used":"C-TYPE PLOTS","allotted_p":"Yes","plotsizesq":383.69,"plot_size":"383.69 SQMT","plot_no":"047","sector":"6","block":"A","mplanduse":"B","ppt_type":"IND","ppt_full":"Industrial","authority":"NOIDA","category":"industrial","execution_stage":"allotted"}},{"type":"Feature","geometry":{"type":"Polygon","coordinates":[[[77.315998,28.592312],[77.315952,28.592372],[77.315719,28.592227],[77.315763,28.59217],[77.315998,28.592312]]]},"properties":{"objectid":24435,"plotmapid":"6B031IND","property_t":"Industrial","used":"C-TYPE SHEDS","allotted_p":"Yes","plotsizesq":210.46,"plot_size":"210.46 SQMT","plot_no":"031","sector":"6","block":"B","mplanduse":"B","ppt_type":"IND","ppt_full":"Industrial","authority":"NOIDA","category":"industrial","execution_stage":"allotted"}},{"type":"Feature","geometry":{"type":"Polygon","coordinates":[[[77.315786,28.591852],[77.315552,28.59215],[77.315268,28.591983],[77.315487,28.591688],[77.315786,28.591852]]]},"properties":{"objectid":24437,"plotmapid":"6A061IND","property_t":"Industrial","used":"NA","plotsizesq":0,"plot_no":"061","sector":"6","block":"A","mplanduse":"B","ppt_type":"IND","ppt_full":"Industrial","authority":"NOIDA","category":"industrial","execution_stage":"unknown"}},{"type":"Feature","geometry":{"type":"Polygon","coordinates":[[[77.315949,28.59237],[77.315909,28.592427],[77.315674,28.592284],[77.315719,28.592227],[77.315949,28.59237]]]},"properties":{"objectid":24452,"plotmapid":"6B030IND","property_t":"Industrial","used":"C-TYPE SHEDS","plotsizesq":0,"plot_no":"030","sector":"6","block":"B","mplanduse":"B","ppt_type":"IND","ppt_full":"Industrial","authority":"NOIDA","category":"industrial","execution_stage":"unknown"}},{"type":"Feature","geometry":{"type":"Polygon","coordinates":[[[77.314865,28.591818],[77.314929,28.591725],[77.315194,28.591882],[77.315125,28.591975],[77.314865,28.591818]]]},"properties":{"objectid":24457,"plotmapid":"6A048IND","property_t":"Industrial","used":"C-TYPE PLOTS","allotted_p":"Yes","plotsizesq":378,"plot_size":"378 SQMT","plot_no":"048","sector":"6","block":"A","mplanduse":"B","ppt_type":"IND","ppt_full":"Industrial","authority":"NOIDA","category":"industrial","execution_stage":"allotted"}},{"type":"Feature","geometry":{"type":"Polygon","coordinates":[[[77.314865,28.591818],[77.314849,28.591841],[77.314475,28.591638],[77.314572,28.591495],[77.314945,28.591701],[77.314865,28.591818]]]},"properties":{"objectid":24458,"plotmapid":"6A006IND","property_t":"Industrial","used":"D-TYPE PLOTS","allotted_p":"Yes","plotsizesq":780,"plot_size":"780 SQMT","plot_no":"006","sector":"6","block":"A","mplanduse":"B","ppt_type":"IND","ppt_full":"Industrial","authority":"NOIDA","category":"industrial","execution_stage":"allotted"}},{"type":"Feature","geometry":{"type":"Polygon","coordinates":[[[77.315909,28.592427],[77.315864,28.592485],[77.315628,28.592341],[77.315674,28.592284],[77.315909,28.592427]]]},"properties":{"objectid":24461,"plotmapid":"6B029IND","property_t":"Industrial","used":"C-TYPE SHEDS","plotsizesq":0,"plot_no":"029","sector":"6","block":"B","mplanduse":"B","ppt_type":"IND","ppt_full":"Industrial","authority":"NOIDA","category":"industrial","execution_stage":"unknown"}},{"type":"Feature","geometry":{"type":"Polygon","coordinates":[[[77.315864,28.592485],[77.31582,28.592541],[77.315586,28.592396],[77.315628,28.592341],[77.315864,28.592485]]]},"properties":{"objectid":24464,"plotmapid":"6B028IND","property_t":"Industrial","used":"C-TYPE SHEDS","plotsizesq":0,"plot_no":"028","sector":"6","block":"B","mplanduse":"B","ppt_type":"IND","ppt_full":"Industrial","authority":"NOIDA","category":"industrial","execution_stage":"unknown"}},{"type":"Feature","geometry":{"type":"Polygon","coordinates":[[[77.315125,28.591975],[77.315056,28.592069],[77.314801,28.591912],[77.314865,28.591818],[77.315125,28.591975]]]},"properties":{"objectid":24466,"plotmapid":"6A049IND","property_t":"Industrial","used":"C-TYPE PLOTS","allotted_p":"Yes","plotsizesq":374,"plot_size":"374 SQMT","plot_no":"049","sector":"6","block":"A","mplanduse":"B","ppt_type":"IND","ppt_full":"Industrial","authority":"NOIDA","category":"industrial","execution_stage":"allotted"}},{"type":"Feature","geometry":{"type":"Polygon","coordinates":[[[77.315362,28.592038],[77.315169,28.592266],[77.315158,28.592259],[77.315222,28.592183],[77.31515,28.592141],[77.315268,28.591983],[77.315362,28.592038]]]},"properties":{"objectid":24494,"plotmapid":"6AIND","property_t":"Industrial","used":"NA","plotsizesq":0,"sector":"6","block":"A","mplanduse":"B","ppt_type":"IND","ppt_full":"Industrial","authority":"NOIDA","category":"industrial","execution_stage":"unknown"}},{"type":"Feature","geometry":{"type":"Polygon","coordinates":[[[77.315529,28.592136],[77.315552,28.59215],[77.315369,28.592384],[77.315169,28.592266],[77.315362,28.592038],[77.315529,28.592136]]]},"properties":{"objectid":24495,"plotmapid":"6A060IND","property_t":"Industrial","used":"FIRE FIGHTING RESERVIOR","plotsizesq":0,"plot_no":"060","sector":"6","block":"A","mplanduse":"B","ppt_type":"IND","ppt_full":"Industrial","authority":"NOIDA","category":"industrial","execution_stage":"unknown"}},{"type":"Feature","geometry":{"type":"Polygon","coordinates":[[[77.315816,28.592539],[77.315758,28.592621],[77.315523,28.592475],[77.315586,28.592396],[77.315816,28.592539]]]},"properties":{"objectid":24496,"plotmapid":"6B027IND","property_t":"Industrial","used":"C-TYPE SHEDS","plotsizesq":0,"plot_no":"027","sector":"6","block":"B","mplanduse":"B","ppt_type":"IND","ppt_full":"Industrial","authority":"NOIDA","category":"industrial","execution_stage":"unknown"}},{"type":"Feature","geometry":{"type":"Polygon","coordinates":[[[77.31582,28.592541],[77.316048,28.592684],[77.315986,28.592763],[77.315758,28.592621],[77.31582,28.592541]]]},"properties":{"objectid":24497,"plotmapid":"6B086IND","property_t":"Industrial","used":"C-TYPE SHEDS","plotsizesq":0,"plot_no":"086","sector":"6","block":"B","mplanduse":"B","ppt_type":"IND","ppt_full":"Industrial","authority":"NOIDA","category":"industrial","execution_stage":"unknown"}},{"type":"Feature","geometry":{"type":"Polygon","coordinates":[[[77.315056,28.592069],[77.31493,28.592241],[77.314677,28.592093],[77.314801,28.591912],[77.315056,28.592069]]]},"properties":{"objectid":24510,"plotmapid":"6A050IND","property_t":"Industrial","used":"C-TYPE PLOTS","allotted_p":"Yes","plotsizesq":685,"plot_size":"685 SQMT","plot_no":"050","sector":"6","block":"A","mplanduse":"B","ppt_type":"IND","ppt_full":"Industrial","authority":"NOIDA","category":"industrial","execution_stage":"allotted"}},{"type":"Feature","geometry":{"type":"Polygon","coordinates":[[[77.315174,28.592401],[77.314998,28.592627],[77.314871,28.59255],[77.31505,28.592326],[77.315174,28.592401]]]},"properties":{"objectid":24511,"plotmapid":"6A053IND","property_t":"Industrial","used":"NA","allotted_p":"Yes","plotsizesq":448,"plot_size":"448 SQMT","plot_no":"053","sector":"6","block":"A","mplanduse":"B","ppt_type":"IND","ppt_full":"Industrial","authority":"NOIDA","category":"industrial","execution_stage":"allotted"}},{"type":"Feature","geometry":{"type":"Polygon","coordinates":[[[77.315174,28.592401],[77.315298,28.592477],[77.315122,28.592702],[77.314998,28.592627],[77.315174,28.592401]]]},"properties":{"objectid":24512,"plotmapid":"6A054IND","property_t":"Industrial","used":"NA","allotted_p":"Yes","plotsizesq":448,"plot_size":"448 SQMT","plot_no":"054","sector":"6","block":"A","mplanduse":"B","ppt_type":"IND","ppt_full":"Industrial","authority":"NOIDA","category":"industrial","execution_stage":"allotted"}},{"type":"Feature","geometry":{"type":"Polygon","coordinates":[[[77.315454,28.592575],[77.315594,28.592659],[77.315412,28.592882],[77.315272,28.592797],[77.315454,28.592575]]]},"properties":{"objectid":24513,"plotmapid":"6B026IND","property_t":"Industrial","used":"NA","plotsizesq":0,"plot_no":"026","sector":"6","block":"B","mplanduse":"B","ppt_type":"IND","ppt_full":"Industrial","authority":"NOIDA","category":"industrial","execution_stage":"unknown"}},{"type":"Feature","geometry":{"type":"Polygon","coordinates":[[[77.315697,28.592722],[77.315515,28.592945],[77.315412,28.592882],[77.315594,28.592659],[77.315697,28.592722]]]},"properties":{"objectid":24514,"plotmapid":"6B025IND","property_t":"Industrial","used":"NA","plotsizesq":0,"plot_no":"025","sector":"6","block":"B","mplanduse":"B","ppt_type":"IND","ppt_full":"Industrial","authority":"NOIDA","category":"industrial","execution_stage":"unknown"}},{"type":"Feature","geometry":{"type":"Polygon","coordinates":[[[77.314676,28.592431],[77.314809,28.592512],[77.314635,28.59274],[77.314499,28.592657],[77.314676,28.592431]]]},"properties":{"objectid":24564,"plotmapid":"6A058IND","property_t":"Industrial","used":"NA","plotsizesq":0,"plot_no":"058","sector":"6","block":"A","mplanduse":"B","ppt_type":"IND","ppt_full":"Industrial","authority":"NOIDA","category":"industrial","execution_stage":"unknown"}},{"type":"Feature","geometry":{"type":"Polygon","coordinates":[[[77.314871,28.59255],[77.314912,28.592575],[77.314736,28.592802],[77.314635,28.59274],[77.314809,28.592512],[77.314871,28.59255]]]},"properties":{"objectid":24565,"plotmapid":"6A057IND","property_t":"Industrial","used":"NA","plotsizesq":0,"plot_no":"057","sector":"6","block":"A","mplanduse":"B","ppt_type":"IND","ppt_full":"Industrial","authority":"NOIDA","category":"industrial","execution_stage":"unknown"}},{"type":"Feature","geometry":{"type":"Polygon","coordinates":[[[77.314998,28.592627],[77.315016,28.592638],[77.314839,28.592864],[77.314736,28.592802],[77.314912,28.592575],[77.314998,28.592627]]]},"properties":{"objectid":24566,"plotmapid":"6A056IND","property_t":"Industrial","used":"NA","plotsizesq":0,"plot_no":"056","sector":"6","block":"A","mplanduse":"B","ppt_type":"IND","ppt_full":"Industrial","authority":"NOIDA","category":"industrial","execution_stage":"unknown"}},{"type":"Feature","geometry":{"type":"Polygon","coordinates":[[[77.315122,28.592702],[77.314945,28.592929],[77.314839,28.592864],[77.315016,28.592638],[77.315122,28.592702]]]},"properties":{"objectid":24567,"plotmapid":"6A055IND","property_t":"Industrial","used":"NA","allotted_p":"Yes","plotsizesq":372,"plot_size":"372 SQMT","plot_no":"055","sector":"6","block":"A","mplanduse":"B","ppt_type":"IND","ppt_full":"Industrial","authority":"NOIDA","category":"industrial","execution_stage":"allotted"}},{"type":"Feature","geometry":{"type":"Polygon","coordinates":[[[77.313062,28.587427],[77.313169,28.587487],[77.312995,28.587729],[77.312888,28.58767],[77.313062,28.587427]]]},"properties":{"objectid":28276,"plotmapid":"1B002IND","property_t":"Industrial","used":"INDUSTRIAL","allotted_p":"Yes","plotsizesq":416,"plot_size":"416 SQMT","plot_no":"002","sector":"1","block":"B","mplanduse":"B","ppt_type":"IND","ppt_full":"Industrial","authority":"NOIDA","category":"industrial","execution_stage":"allotted"}},{"type":"Feature","geometry":{"type":"Polygon","coordinates":[[[77.313062,28.587427],[77.312888,28.58767],[77.312785,28.587613],[77.312959,28.587369],[77.313062,28.587427]]]},"properties":{"objectid":28277,"plotmapid":"1B1,2,31&32IND","property_t":"Industrial","used":"INDUSTRIAL","allotted_p":"Yes","plotsizesq":416,"plot_size":"416 SQMT","plot_no":"1,2,31&32","sector":"1","block":"B","mplanduse":"B","ppt_type":"IND","ppt_full":"Industrial","authority":"NOIDA","category":"industrial","execution_stage":"allotted"}},{"type":"Feature","geometry":{"type":"Polygon","coordinates":[[[77.312888,28.58767],[77.312713,28.587914],[77.31261,28.587857],[77.312785,28.587613],[77.312888,28.58767]]]},"properties":{"objectid":28278,"plotmapid":"1B032IND","property_t":"Industrial","used":"INDUSTRIAL","allotted_p":"Yes","plotsizesq":416,"plot_size":"416 SQMT","plot_no":"032","sector":"1","block":"B","mplanduse":"B","ppt_type":"IND","ppt_full":"Industrial","authority":"NOIDA","category":"industrial","execution_stage":"allotted"}},{"type":"Feature","geometry":{"type":"Polygon","coordinates":[[[77.313423,28.587968],[77.313526,28.588026],[77.313347,28.58827],[77.313246,28.588213],[77.313423,28.587968]]]},"properties":{"objectid":28279,"plotmapid":"1B026 & 027IND","property_t":"Industrial","used":"INDUSTRIAL","plotsizesq":416,"plot_size":"416 SQMT","plot_no":"026 & 027","sector":"1","block":"B","mplanduse":"B","ppt_type":"IND","ppt_full":"Industrial","authority":"NOIDA","category":"industrial","execution_stage":"unknown"}},{"type":"Feature","geometry":{"type":"Polygon","coordinates":[[[77.31383,28.590913],[77.313637,28.591185],[77.313151,28.590903],[77.313335,28.590638],[77.31383,28.590913]]]},"properties":{"objectid":28280,"plotmapid":"1C006 & 007IND","property_t":"Industrial","used":"INDUSTRIAL","allotted_p":"Yes","plotsizesq":1995,"plot_size":"1995 SQMT","plot_no":"006 & 007","sector":"1","block":"C","mplanduse":"B","ppt_type":"IND","ppt_full":"Industrial","authority":"NOIDA","category":"industrial","execution_stage":"allotted"}}]}
