{"type":"FeatureCollection","features":[{"type":"Feature","geometry":{"type":"Polygon","coordinates":[[[77.330345,28.592963],[77.330639,28.59319],[77.330377,28.593474],[77.330075,28.593249],[77.330345,28.592963]]]},"properties":{"objectid":25479,"plotmapid":"8A018IND","property_t":"Industrial","used":"D-TYPE PLOTS","allotted_p":"Yes","plotsizesq":1536,"plot_size":"1536 SQMT","plot_no":"018","sector":"8","block":"A","mplanduse":"B","ppt_type":"IND","ppt_full":"Industrial","authority":"NOIDA","category":"industrial","execution_stage":"allotted"}},{"type":"Feature","geometry":{"type":"Polygon","coordinates":[[[77.331023,28.592776],[77.330639,28.59319],[77.330344,28.592962],[77.330723,28.592555],[77.331023,28.592776]]]},"properties":{"objectid":25480,"plotmapid":"8A011IND","property_t":"Industrial","used":"E-TYPE PLOTS","allotted_p":"Yes","plotsizesq":2304,"plot_size":"2304 SQMT","plot_no":"011","sector":"8","block":"A","mplanduse":"B","ppt_type":"IND","ppt_full":"Industrial","authority":"NOIDA","category":"industrial","execution_stage":"allotted"}},{"type":"Feature","geometry":{"type":"Polygon","coordinates":[[[77.33038,28.593624],[77.330123,28.593904],[77.329965,28.593789],[77.330223,28.59351],[77.33038,28.593624]]]},"properties":{"objectid":25492,"plotmapid":"8A047IND","property_t":"Industrial","used":"D-TYPE PLOTS","allotted_p":"Yes","plotsizesq":800,"plot_size":"800 SQMT","plot_no":"047","sector":"8","block":"A","mplanduse":"B","ppt_type":"IND","ppt_full":"Industrial","authority":"NOIDA","category":"industrial","execution_stage":"allotted"}},{"type":"Feature","geometry":{"type":"Polygon","coordinates":[[[77.330794,28.593309],[77.330535,28.59359],[77.330377,28.593474],[77.330639,28.59319],[77.330794,28.593309]]]},"properties":{"objectid":25498,"plotmapid":"8A017IND","property_t":"Industrial","used":"D-TYPE PLOTS","allotted_p":"Yes","plotsizesq":800,"plot_size":"800 SQMT","plot_no":"017","sector":"8","block":"A","mplanduse":"B","ppt_type":"IND","ppt_full":"Industrial","authority":"NOIDA","category":"industrial","execution_stage":"allotted"}},{"type":"Feature","geometry":{"type":"Polygon","coordinates":[[[77.331061,28.592804],[77.33126,28.592948],[77.330872,28.593369],[77.330639,28.59319],[77.331023,28.592776],[77.331061,28.592804]]]},"properties":{"objectid":25501,"plotmapid":"8A012IND","property_t":"Industrial","used":"E-TYPE PLOTS","allotted_p":"Yes","plotsizesq":1800,"plot_size":"1800 SQMT","plot_no":"012","sector":"8","block":"A","mplanduse":"B","ppt_type":"IND","ppt_full":"Industrial","authority":"NOIDA","category":"industrial","execution_stage":"allotted"}},{"type":"Feature","geometry":{"type":"Polygon","coordinates":[[[77.330538,28.59374],[77.33028,28.594019],[77.330123,28.593904],[77.330383,28.593627],[77.330538,28.59374]]]},"properties":{"objectid":25509,"plotmapid":"8A048IND","property_t":"Industrial","used":"D-TYPE PLOTS","allotted_p":"Yes","plotsizesq":800,"plot_size":"800 SQMT","plot_no":"048","sector":"8","block":"A","mplanduse":"B","ppt_type":"IND","ppt_full":"Industrial","authority":"NOIDA","category":"industrial","execution_stage":"allotted"}},{"type":"Feature","geometry":{"type":"Polygon","coordinates":[[[77.33095,28.593427],[77.330693,28.593707],[77.330535,28.59359],[77.330794,28.593309],[77.33095,28.593427]]]},"properties":{"objectid":25512,"plotmapid":"8A016IND","property_t":"Industrial","used":"D-TYPE PLOTS","allotted_p":"Yes","plotsizesq":800,"plot_size":"800 SQMT","plot_no":"016","sector":"8","block":"A","mplanduse":"B","ppt_type":"IND","ppt_full":"Industrial","authority":"NOIDA","category":"industrial","execution_stage":"allotted"}},{"type":"Feature","geometry":{"type":"Polygon","coordinates":[[[77.33028,28.594019],[77.330437,28.594134],[77.330179,28.594412],[77.33002,28.594296],[77.33028,28.594019]]]},"properties":{"objectid":25523,"plotmapid":"8A054IND","property_t":"Industrial","used":"D-TYPE PLOTS","allotted_p":"Yes","plotsizesq":800,"plot_size":"800 SQMT","plot_no":"054","sector":"8","block":"A","mplanduse":"B","ppt_type":"IND","ppt_full":"Industrial","authority":"NOIDA","category":"industrial","execution_stage":"allotted"}},{"type":"Feature","geometry":{"type":"Polygon","coordinates":[[[77.33054,28.593741],[77.330696,28.593855],[77.330437,28.594134],[77.33028,28.594019],[77.33054,28.593741]]]},"properties":{"objectid":25524,"plotmapid":"8A049IND","property_t":"Industrial","used":"D-TYPE PLOTS","allotted_p":"Yes","plotsizesq":800,"plot_size":"800 SQMT","plot_no":"049","sector":"8","block":"A","mplanduse":"B","ppt_type":"IND","ppt_full":"Industrial","authority":"NOIDA","category":"industrial","execution_stage":"allotted"}},{"type":"Feature","geometry":{"type":"Polygon","coordinates":[[[77.332993,28.593177],[77.33287,28.593314],[77.332825,28.593282],[77.332952,28.593148],[77.332993,28.593177]]]},"properties":{"objectid":25563,"plotmapid":"10D381IND","property_t":"Industrial","allotted_p":"Yes","plotsizesq":114,"plot_size":"114 SQMT","plot_no":"381","sector":"10","block":"D","mplanduse":"B","ppt_type":"IND","ppt_full":"Industrial","authority":"NOIDA","category":"industrial","execution_stage":"allotted"}},{"type":"Feature","geometry":{"type":"Polygon","coordinates":[[[77.331105,28.593542],[77.330846,28.593821],[77.330693,28.593707],[77.33095,28.593427],[77.331105,28.593542]]]},"properties":{"objectid":25570,"plotmapid":"8A015IND","property_t":"Industrial","used":"D-TYPE PLOTS","allotted_p":"Yes","plotsizesq":800,"plot_size":"800 SQMT","plot_no":"015","sector":"8","block":"A","mplanduse":"B","ppt_type":"IND","ppt_full":"Industrial","authority":"NOIDA","category":"industrial","execution_stage":"allotted"}},{"type":"Feature","geometry":{"type":"Polygon","coordinates":[[[77.331498,28.593122],[77.331105,28.593542],[77.330872,28.593369],[77.33126,28.592948],[77.331498,28.593122]]]},"properties":{"objectid":25571,"plotmapid":"8A013IND","property_t":"Industrial","used":"E-TYPE PLOTS","allotted_p":"Yes","plotsizesq":1800,"plot_size":"1800 SQMT","plot_no":"013","sector":"8","block":"A","mplanduse":"B","ppt_type":"IND","ppt_full":"Industrial","authority":"NOIDA","category":"industrial","execution_stage":"allotted"}},{"type":"Feature","geometry":{"type":"Polygon","coordinates":[[[77.330596,28.594249],[77.330336,28.594529],[77.330179,28.594412],[77.330437,28.594134],[77.330596,28.594249]]]},"properties":{"objectid":25581,"plotmapid":"8A053IND","property_t":"Industrial","used":"D-TYPE PLOTS","allotted_p":"Yes","plotsizesq":800,"plot_size":"800 SQMT","plot_no":"053","sector":"8","block":"A","mplanduse":"B","ppt_type":"IND","ppt_full":"Industrial","authority":"NOIDA","category":"industrial","execution_stage":"allotted"}},{"type":"Feature","geometry":{"type":"Polygon","coordinates":[[[77.330854,28.593971],[77.330596,28.594249],[77.330437,28.594134],[77.330696,28.593855],[77.330854,28.593971]]]},"properties":{"objectid":25582,"plotmapid":"8A050IND","property_t":"Industrial","used":"D-TYPE PLOTS","allotted_p":"Yes","plotsizesq":800,"plot_size":"800 SQMT","plot_no":"050","sector":"8","block":"A","mplanduse":"B","ppt_type":"IND","ppt_full":"Industrial","authority":"NOIDA","category":"industrial","execution_stage":"allotted"}},{"type":"Feature","geometry":{"type":"Polygon","coordinates":[[[77.330214,28.594659],[77.330443,28.594827],[77.330201,28.59509],[77.329968,28.594918],[77.330214,28.594659]]]},"properties":{"objectid":25605,"plotmapid":"8B026IND","property_t":"Industrial","used":"NA","allotted_p":"Yes","plotsizesq":1118.15,"plot_size":"1118.15 SQMT","plot_no":"026","sector":"8","block":"B","mplanduse":"B","ppt_type":"IND","ppt_full":"Industrial","authority":"NOIDA","category":"industrial","execution_stage":"allotted"}},{"type":"Feature","geometry":{"type":"Polygon","coordinates":[[[77.330825,28.594417],[77.330564,28.594699],[77.330336,28.594529],[77.330596,28.594249],[77.330825,28.594417]]]},"properties":{"objectid":25606,"plotmapid":"8A052IND","property_t":"Industrial","used":"D-TYPE PLOTS","allotted_p":"Yes","plotsizesq":1168,"plot_size":"1168 SQMT","plot_no":"052","sector":"8","block":"A","mplanduse":"B","ppt_type":"IND","ppt_full":"Industrial","authority":"NOIDA","category":"industrial","execution_stage":"allotted"}},{"type":"Feature","geometry":{"type":"Polygon","coordinates":[[[77.330854,28.593971],[77.331084,28.594139],[77.330825,28.594417],[77.330596,28.594249],[77.330854,28.593971]]]},"properties":{"objectid":25607,"plotmapid":"8A051IND","property_t":"Industrial","used":"D-TYPE PLOTS","allotted_p":"Yes","plotsizesq":1168,"plot_size":"1168 SQMT","plot_no":"051","sector":"8","block":"A","mplanduse":"B","ppt_type":"IND","ppt_full":"Industrial","authority":"NOIDA","category":"industrial","execution_stage":"allotted"}},{"type":"Feature","geometry":{"type":"Polygon","coordinates":[[[77.33068,28.5961],[77.330389,28.596416],[77.329682,28.595896],[77.329974,28.59558],[77.33068,28.5961]]]},"properties":{"objectid":25614,"plotmapid":"8D008IND","property_t":"Industrial","used":"F-TYPE PLOTS","allotted_p":"Yes","plotsizesq":4095,"plot_size":"4095 SQMT","plot_no":"008","sector":"8","block":"D","mplanduse":"B","ppt_type":"IND","ppt_full":"Industrial","authority":"NOIDA","category":"industrial","execution_stage":"allotted"}},{"type":"Feature","geometry":{"type":"Polygon","coordinates":[[[77.330257,28.595281],[77.330963,28.595801],[77.33068,28.5961],[77.329974,28.59558],[77.330257,28.595281]]]},"properties":{"objectid":25615,"plotmapid":"8D007IND","property_t":"Industrial","used":"F-TYPE PLOTS","allotted_p":"Yes","plotsizesq":3870,"plot_size":"3870 SQMT","plot_no":"007","sector":"8","block":"D","mplanduse":"B","ppt_type":"IND","ppt_full":"Industrial","authority":"NOIDA","category":"industrial","execution_stage":"allotted"}},{"type":"Feature","geometry":{"type":"Polygon","coordinates":[[[77.331244,28.595501],[77.330963,28.595801],[77.330257,28.595281],[77.330538,28.594981],[77.331244,28.595501]]]},"properties":{"objectid":25616,"plotmapid":"8D006IND","property_t":"Industrial","used":"F-TYPE PLOTS","allotted_p":"Yes","plotsizesq":3870,"plot_size":"3870 SQMT","plot_no":"006","sector":"8","block":"D","mplanduse":"B","ppt_type":"IND","ppt_full":"Industrial","authority":"NOIDA","category":"industrial","execution_stage":"allotted"}},{"type":"Feature","geometry":{"type":"Polygon","coordinates":[[[77.331526,28.595205],[77.331244,28.595501],[77.330538,28.594981],[77.330816,28.594683],[77.331526,28.595205]]]},"properties":{"objectid":25617,"plotmapid":"8D005IND","property_t":"Industrial","used":"F-TYPE PLOTS","allotted_p":"Yes","plotsizesq":3870,"plot_size":"3870 SQMT","plot_no":"005","sector":"8","block":"D","mplanduse":"B","ppt_type":"IND","ppt_full":"Industrial","authority":"NOIDA","category":"industrial","execution_stage":"allotted"}},{"type":"Feature","geometry":{"type":"Polygon","coordinates":[[[77.331085,28.594382],[77.331806,28.594911],[77.331526,28.595205],[77.330816,28.594683],[77.331085,28.594382]]]},"properties":{"objectid":25618,"plotmapid":"8D004IND","property_t":"Industrial","used":"F-TYPE PLOTS","allotted_p":"Yes","plotsizesq":3870,"plot_size":"3870 SQMT","plot_no":"004","sector":"8","block":"D","mplanduse":"B","ppt_type":"IND","ppt_full":"Industrial","authority":"NOIDA","category":"industrial","execution_stage":"allotted"}},{"type":"Feature","geometry":{"type":"Polygon","coordinates":[[[77.331365,28.59408],[77.332074,28.594601],[77.331806,28.594911],[77.33108,28.594378],[77.331365,28.59408]]]},"properties":{"objectid":25619,"plotmapid":"8D003IND","property_t":"Industrial","used":"F-TYPE PLOTS","allotted_p":"Yes","plotsizesq":3870,"plot_size":"3870 SQMT","plot_no":"003","sector":"8","block":"D","mplanduse":"B","ppt_type":"IND","ppt_full":"Industrial","authority":"NOIDA","category":"industrial","execution_stage":"allotted"}},{"type":"Feature","geometry":{"type":"Polygon","coordinates":[[[77.331643,28.59378],[77.332351,28.594301],[77.332074,28.594601],[77.331362,28.594078],[77.331643,28.59378]]]},"properties":{"objectid":25620,"plotmapid":"8D002IND","property_t":"Industrial","used":"F-TYPE PLOTS","allotted_p":"Yes","plotsizesq":3870.6,"plot_size":"3870.6 SQMT","plot_no":"002","sector":"8","block":"D","mplanduse":"B","ppt_type":"IND","ppt_full":"Industrial","authority":"NOIDA","category":"industrial","execution_stage":"allotted"}},{"type":"Feature","geometry":{"type":"Polygon","coordinates":[[[77.331945,28.593454],[77.332654,28.593974],[77.332351,28.594301],[77.331638,28.593778],[77.331945,28.593454]]]},"properties":{"objectid":25621,"plotmapid":"8D001IND","property_t":"Industrial","used":"F-TYPE PLOTS","allotted_p":"Yes","plotsizesq":4180.5,"plot_size":"4180.5 SQMT","plot_no":"001","sector":"8","block":"D","mplanduse":"B","ppt_type":"IND","ppt_full":"Industrial","authority":"NOIDA","category":"industrial","execution_stage":"allotted"}},{"type":"Feature","geometry":{"type":"Polygon","coordinates":[[[77.333366,28.592797],[77.333238,28.592931],[77.333191,28.592896],[77.333319,28.592763],[77.333366,28.592797]]]},"properties":{"objectid":27203,"plotmapid":"10D324IND","property_t":"Industrial","allotted_p":"Yes","plotsizesq":114,"plot_size":"114 SQMT","plot_no":"324","sector":"10","block":"D","mplanduse":"B","ppt_type":"IND","ppt_full":"Industrial","authority":"NOIDA","category":"industrial","execution_stage":"allotted"}},{"type":"Feature","geometry":{"type":"Polygon","coordinates":[[[77.333413,28.592832],[77.333285,28.592965],[77.333238,28.592931],[77.333366,28.592797],[77.333413,28.592832]]]},"properties":{"objectid":27204,"plotmapid":"10D325IND","property_t":"Industrial","allotted_p":"Yes","plotsizesq":114,"plot_size":"114 SQMT","plot_no":"325","sector":"10","block":"D","mplanduse":"B","ppt_type":"IND","ppt_full":"Industrial","authority":"NOIDA","category":"industrial","execution_stage":"allotted"}},{"type":"Feature","geometry":{"type":"Polygon","coordinates":[[[77.33346,28.592867],[77.333332,28.593],[77.333285,28.592965],[77.333413,28.592832],[77.33346,28.592867]]]},"properties":{"objectid":27205,"plotmapid":"10D326IND","property_t":"Industrial","allotted_p":"Yes","plotsizesq":114,"plot_size":"114 SQMT","plot_no":"326","sector":"10","block":"D","mplanduse":"B","ppt_type":"IND","ppt_full":"Industrial","authority":"NOIDA","category":"industrial","execution_stage":"allotted"}},{"type":"Feature","geometry":{"type":"Polygon","coordinates":[[[77.333507,28.592902],[77.33338,28.593035],[77.333332,28.593],[77.33346,28.592867],[77.333507,28.592902]]]},"properties":{"objectid":27206,"plotmapid":"10D327IND","property_t":"Industrial","allotted_p":"Yes","plotsizesq":114,"plot_size":"114 SQMT","plot_no":"327","sector":"10","block":"D","mplanduse":"B","ppt_type":"IND","ppt_full":"Industrial","authority":"NOIDA","category":"industrial","execution_stage":"allotted"}},{"type":"Feature","geometry":{"type":"Polygon","coordinates":[[[77.333554,28.592937],[77.333427,28.59307],[77.33338,28.593035],[77.333507,28.592902],[77.333554,28.592937]]]},"properties":{"objectid":27207,"plotmapid":"10D328IND","property_t":"Industrial","allotted_p":"Yes","plotsizesq":114,"plot_size":"114 SQMT","plot_no":"328","sector":"10","block":"D","mplanduse":"B","ppt_type":"IND","ppt_full":"Industrial","authority":"NOIDA","category":"industrial","execution_stage":"allotted"}},{"type":"Feature","geometry":{"type":"Polygon","coordinates":[[[77.333626,28.59299],[77.3335,28.593124],[77.333427,28.59307],[77.333554,28.592937],[77.333626,28.59299]]]},"properties":{"objectid":27208,"plotmapid":"10D327IND","property_t":"Industrial","allotted_p":"Yes","plotsizesq":114,"plot_size":"114 SQMT","plot_no":"327","sector":"10","block":"D","mplanduse":"B","ppt_type":"IND","ppt_full":"Industrial","authority":"NOIDA","category":"industrial","execution_stage":"allotted"}},{"type":"Feature","geometry":{"type":"Polygon","coordinates":[[[77.33305,28.592791],[77.332922,28.592924],[77.332875,28.592889],[77.333003,28.592756],[77.33305,28.592791]]]},"properties":{"objectid":27280,"plotmapid":"10D337IND","property_t":"Industrial","allotted_p":"Yes","plotsizesq":114,"plot_size":"114 SQMT","plot_no":"337","sector":"10","block":"D","mplanduse":"B","ppt_type":"IND","ppt_full":"Industrial","authority":"NOIDA","category":"industrial","execution_stage":"allotted"}},{"type":"Feature","geometry":{"type":"Polygon","coordinates":[[[77.333097,28.592826],[77.332969,28.592959],[77.332922,28.592924],[77.33305,28.592791],[77.333097,28.592826]]]},"properties":{"objectid":27281,"plotmapid":"10D336IND","property_t":"Industrial","allotted_p":"Yes","plotsizesq":114,"plot_size":"114 SQMT","plot_no":"336","sector":"10","block":"D","mplanduse":"B","ppt_type":"IND","ppt_full":"Industrial","authority":"NOIDA","category":"industrial","execution_stage":"allotted"}},{"type":"Feature","geometry":{"type":"Polygon","coordinates":[[[77.333144,28.592861],[77.333016,28.592994],[77.332969,28.592959],[77.333097,28.592826],[77.333144,28.592861]]]},"properties":{"objectid":27282,"plotmapid":"10D335IND","property_t":"Industrial","allotted_p":"Yes","plotsizesq":114,"plot_size":"114 SQMT","plot_no":"335","sector":"10","block":"D","mplanduse":"B","ppt_type":"IND","ppt_full":"Industrial","authority":"NOIDA","category":"industrial","execution_stage":"allotted"}},{"type":"Feature","geometry":{"type":"Polygon","coordinates":[[[77.333191,28.592896],[77.333064,28.593029],[77.333016,28.592994],[77.333144,28.592861],[77.333191,28.592896]]]},"properties":{"objectid":27283,"plotmapid":"10D334IND","property_t":"Industrial","allotted_p":"Yes","plotsizesq":114,"plot_size":"114 SQMT","plot_no":"334","sector":"10","block":"D","mplanduse":"B","ppt_type":"IND","ppt_full":"Industrial","authority":"NOIDA","category":"industrial","execution_stage":"allotted"}},{"type":"Feature","geometry":{"type":"Polygon","coordinates":[[[77.333238,28.592931],[77.333111,28.593064],[77.333064,28.593029],[77.333191,28.592896],[77.333238,28.592931]]]},"properties":{"objectid":27284,"plotmapid":"10D333IND","property_t":"Industrial","allotted_p":"Yes","plotsizesq":114,"plot_size":"114 SQMT","plot_no":"333","sector":"10","block":"D","mplanduse":"B","ppt_type":"IND","ppt_full":"Industrial","authority":"NOIDA","category":"industrial","execution_stage":"allotted"}},{"type":"Feature","geometry":{"type":"Polygon","coordinates":[[[77.333285,28.592965],[77.333158,28.593098],[77.333111,28.593064],[77.333238,28.592931],[77.333285,28.592965]]]},"properties":{"objectid":27285,"plotmapid":"10D332IND","property_t":"Industrial","allotted_p":"Yes","plotsizesq":152,"plot_size":"152 SQMT","plot_no":"332","sector":"10","block":"D","mplanduse":"B","ppt_type":"IND","ppt_full":"Industrial","authority":"NOIDA","category":"industrial","execution_stage":"allotted"}},{"type":"Feature","geometry":{"type":"Polygon","coordinates":[[[77.333332,28.593],[77.333205,28.593133],[77.333158,28.593098],[77.333285,28.592965],[77.333332,28.593]]]},"properties":{"objectid":27286,"plotmapid":"10D331IND","property_t":"Industrial","plotsizesq":0,"plot_no":"331","sector":"10","block":"D","mplanduse":"B","ppt_type":"IND","ppt_full":"Industrial","authority":"NOIDA","category":"industrial","execution_stage":"unknown"}},{"type":"Feature","geometry":{"type":"Polygon","coordinates":[[[77.33338,28.593035],[77.333252,28.593168],[77.333205,28.593133],[77.333332,28.593],[77.33338,28.593035]]]},"properties":{"objectid":27287,"plotmapid":"10D330IND","property_t":"Industrial","plotsizesq":0,"plot_no":"330","sector":"10","block":"D","mplanduse":"B","ppt_type":"IND","ppt_full":"Industrial","authority":"NOIDA","category":"industrial","execution_stage":"unknown"}},{"type":"Feature","geometry":{"type":"Polygon","coordinates":[[[77.333427,28.59307],[77.333299,28.593203],[77.333252,28.593168],[77.33338,28.593035],[77.333427,28.59307]]]},"properties":{"objectid":27288,"plotmapid":"10D329IND","property_t":"Industrial","allotted_p":"Yes","plotsizesq":152,"plot_size":"152 SQMT","plot_no":"329","sector":"10","block":"D","mplanduse":"B","ppt_type":"IND","ppt_full":"Industrial","authority":"NOIDA","category":"industrial","execution_stage":"allotted"}},{"type":"Feature","geometry":{"type":"Polygon","coordinates":[[[77.3335,28.593124],[77.333375,28.593259],[77.333299,28.593203],[77.333427,28.59307],[77.3335,28.593124]]]},"properties":{"objectid":27289,"plotmapid":"10D328IND","property_t":"Industrial","allotted_p":"Yes","plotsizesq":114,"plot_size":"114 SQMT","plot_no":"328","sector":"10","block":"D","mplanduse":"B","ppt_type":"IND","ppt_full":"Industrial","authority":"NOIDA","category":"industrial","execution_stage":"allotted"}},{"type":"Feature","geometry":{"type":"Polygon","coordinates":[[[77.332428,28.592764],[77.332303,28.592899],[77.332258,28.592867],[77.33239,28.592736],[77.332428,28.592764]]]},"properties":{"objectid":27354,"plotmapid":"10D371IND","property_t":"Industrial","allotted_p":"Yes","plotsizesq":114,"plot_size":"114 SQMT","plot_no":"371","sector":"10","block":"D","mplanduse":"B","ppt_type":"IND","ppt_full":"Industrial","authority":"NOIDA","category":"industrial","execution_stage":"allotted"}},{"type":"Feature","geometry":{"type":"Polygon","coordinates":[[[77.332481,28.592803],[77.332352,28.592935],[77.332303,28.592899],[77.332433,28.592768],[77.332481,28.592803]]]},"properties":{"objectid":27355,"plotmapid":"10D372IND","property_t":"Industrial","allotted_p":"Yes","plotsizesq":114,"plot_size":"114 SQMT","plot_no":"372","sector":"10","block":"D","mplanduse":"B","ppt_type":"IND","ppt_full":"Industrial","authority":"NOIDA","category":"industrial","execution_stage":"allotted"}},{"type":"Feature","geometry":{"type":"Polygon","coordinates":[[[77.332616,28.592902],[77.332491,28.593037],[77.332352,28.592935],[77.332481,28.592803],[77.332616,28.592902]]]},"properties":{"objectid":27356,"plotmapid":"10D373IND","property_t":"Industrial","used":"PLOT","allotted_p":"Yes","plotsizesq":332,"plot_size":"332 SQMT","plot_no":"373","sector":"10","block":"D","mplanduse":"B","ppt_type":"IND","ppt_full":"Industrial","authority":"NOIDA","category":"industrial","execution_stage":"allotted"}},{"type":"Feature","geometry":{"type":"Polygon","coordinates":[[[77.332668,28.592939],[77.33254,28.593073],[77.332491,28.593037],[77.332623,28.592907],[77.332668,28.592939]]]},"properties":{"objectid":27357,"plotmapid":"10D374IND","property_t":"Industrial","allotted_p":"Yes","plotsizesq":114,"plot_size":"114 SQMT","plot_no":"374","sector":"10","block":"D","mplanduse":"B","ppt_type":"IND","ppt_full":"Industrial","authority":"NOIDA","category":"industrial","execution_stage":"allotted"}},{"type":"Feature","geometry":{"type":"Polygon","coordinates":[[[77.332716,28.592975],[77.332588,28.593108],[77.33254,28.593073],[77.332668,28.592939],[77.332716,28.592975]]]},"properties":{"objectid":27358,"plotmapid":"10D375IND","property_t":"Industrial","allotted_p":"Yes","plotsizesq":114,"plot_size":"114 SQMT","plot_no":"375","sector":"10","block":"D","mplanduse":"B","ppt_type":"IND","ppt_full":"Industrial","authority":"NOIDA","category":"industrial","execution_stage":"allotted"}},{"type":"Feature","geometry":{"type":"Polygon","coordinates":[[[77.332758,28.593005],[77.332637,28.593144],[77.332588,28.593108],[77.332716,28.592975],[77.332758,28.593005]]]},"properties":{"objectid":27359,"plotmapid":"10D376IND","property_t":"Industrial","allotted_p":"Yes","plotsizesq":114,"plot_size":"114 SQMT","plot_no":"376","sector":"10","block":"D","mplanduse":"B","ppt_type":"IND","ppt_full":"Industrial","authority":"NOIDA","category":"industrial","execution_stage":"allotted"}},{"type":"Feature","geometry":{"type":"Polygon","coordinates":[[[77.332828,28.593057],[77.332703,28.593192],[77.332637,28.593144],[77.332764,28.59301],[77.332828,28.593057]]]},"properties":{"objectid":27360,"plotmapid":"10D377IND","property_t":"Industrial","allotted_p":"Yes","plotsizesq":114,"plot_size":"114 SQMT","plot_no":"377","sector":"10","block":"D","mplanduse":"B","ppt_type":"IND","ppt_full":"Industrial","authority":"NOIDA","category":"industrial","execution_stage":"allotted"}},{"type":"Feature","geometry":{"type":"Polygon","coordinates":[[[77.332852,28.593074],[77.332731,28.593212],[77.332703,28.593192],[77.332828,28.593057],[77.332852,28.593074]]]},"properties":{"objectid":27361,"plotmapid":"10D378IND","property_t":"Industrial","allotted_p":"Yes","plotsizesq":114,"plot_size":"114 SQMT","plot_no":"378","sector":"10","block":"D","mplanduse":"B","ppt_type":"IND","ppt_full":"Industrial","authority":"NOIDA","category":"industrial","execution_stage":"allotted"}},{"type":"Feature","geometry":{"type":"Polygon","coordinates":[[[77.332899,28.593108],[77.332778,28.593247],[77.332731,28.593212],[77.332857,28.593078],[77.332899,28.593108]]]},"properties":{"objectid":27362,"plotmapid":"10D379IND","property_t":"Industrial","allotted_p":"Yes","plotsizesq":114,"plot_size":"114 SQMT","plot_no":"379","sector":"10","block":"D","mplanduse":"B","ppt_type":"IND","ppt_full":"Industrial","authority":"NOIDA","category":"industrial","execution_stage":"allotted"}},{"type":"Feature","geometry":{"type":"Polygon","coordinates":[[[77.332946,28.593143],[77.332825,28.593282],[77.332778,28.593247],[77.332904,28.593112],[77.332946,28.593143]]]},"properties":{"objectid":27363,"plotmapid":"10D380IND","property_t":"Industrial","allotted_p":"Yes","plotsizesq":114,"plot_size":"114 SQMT","plot_no":"380","sector":"10","block":"D","mplanduse":"B","ppt_type":"IND","ppt_full":"Industrial","authority":"NOIDA","category":"industrial","execution_stage":"allotted"}},{"type":"Feature","geometry":{"type":"Polygon","coordinates":[[[77.33304,28.593212],[77.33305,28.593219],[77.332919,28.59335],[77.33287,28.593314],[77.332997,28.593181],[77.33304,28.593212]]]},"properties":{"objectid":27364,"plotmapid":"10D382IND","property_t":"Industrial","allotted_p":"Yes","plotsizesq":114,"plot_size":"114 SQMT","plot_no":"382","sector":"10","block":"D","mplanduse":"B","ppt_type":"IND","ppt_full":"Industrial","authority":"NOIDA","category":"industrial","execution_stage":"allotted"}},{"type":"Feature","geometry":{"type":"Polygon","coordinates":[[[77.333087,28.593246],[77.332966,28.593384],[77.332919,28.59335],[77.33305,28.593219],[77.333087,28.593246]]]},"properties":{"objectid":27365,"plotmapid":"10D383IND","property_t":"Industrial","allotted_p":"Yes","plotsizesq":114,"plot_size":"114 SQMT","plot_no":"383","sector":"10","block":"D","mplanduse":"B","ppt_type":"IND","ppt_full":"Industrial","authority":"NOIDA","category":"industrial","execution_stage":"allotted"}},{"type":"Feature","geometry":{"type":"Polygon","coordinates":[[[77.333141,28.593286],[77.333015,28.59342],[77.332966,28.593384],[77.333095,28.593252],[77.333141,28.593286]]]},"properties":{"objectid":27366,"plotmapid":"10D384IND","property_t":"Industrial","allotted_p":"Yes","plotsizesq":114,"plot_size":"114 SQMT","plot_no":"384","sector":"10","block":"D","mplanduse":"B","ppt_type":"IND","ppt_full":"Industrial","authority":"NOIDA","category":"industrial","execution_stage":"allotted"}},{"type":"Feature","geometry":{"type":"Polygon","coordinates":[[[77.333181,28.593315],[77.333061,28.593454],[77.333015,28.59342],[77.333141,28.593286],[77.333181,28.593315]]]},"properties":{"objectid":27367,"plotmapid":"10D385IND","property_t":"Industrial","allotted_p":"Yes","plotsizesq":114,"plot_size":"114 SQMT","plot_no":"385","sector":"10","block":"D","mplanduse":"B","ppt_type":"IND","ppt_full":"Industrial","authority":"NOIDA","category":"industrial","execution_stage":"allotted"}},{"type":"Feature","geometry":{"type":"Polygon","coordinates":[[[77.333188,28.59332],[77.333262,28.593374],[77.333134,28.593507],[77.333061,28.593454],[77.333188,28.59332]]]},"properties":{"objectid":27368,"plotmapid":"10D386IND","property_t":"Industrial","allotted_p":"Yes","plotsizesq":163,"plot_size":"163 SQMT","plot_no":"386","sector":"10","block":"D","mplanduse":"B","ppt_type":"IND","ppt_full":"Industrial","authority":"NOIDA","category":"industrial","execution_stage":"allotted"}},{"type":"Feature","geometry":{"type":"Polygon","coordinates":[[[77.332185,28.592813],[77.331896,28.593115],[77.331742,28.593001],[77.332027,28.592697],[77.332185,28.592813]]]},"properties":{"objectid":27388,"plotmapid":"10D394IND","property_t":"Industrial","allotted_p":"Yes","plotsizesq":872,"plot_size":"872 SQMT","plot_no":"394","sector":"10","block":"D","mplanduse":"B","ppt_type":"IND","ppt_full":"Industrial","authority":"NOIDA","category":"industrial","execution_stage":"allotted"}},{"type":"Feature","geometry":{"type":"Polygon","coordinates":[[[77.332343,28.592928],[77.332055,28.593232],[77.331896,28.593115],[77.332185,28.592813],[77.332343,28.592928]]]},"properties":{"objectid":27389,"plotmapid":"10D393IND","property_t":"Industrial","allotted_p":"Yes","plotsizesq":872,"plot_size":"872 SQMT","plot_no":"393","sector":"10","block":"D","mplanduse":"B","ppt_type":"IND","ppt_full":"Industrial","authority":"NOIDA","category":"industrial","execution_stage":"allotted"}},{"type":"Feature","geometry":{"type":"Polygon","coordinates":[[[77.332499,28.593043],[77.332215,28.593349],[77.332055,28.593232],[77.332343,28.592928],[77.332499,28.593043]]]},"properties":{"objectid":27390,"plotmapid":"10D392IND","property_t":"Industrial","allotted_p":"Yes","plotsizesq":872,"plot_size":"872 SQMT","plot_no":"392","sector":"10","block":"D","mplanduse":"B","ppt_type":"IND","ppt_full":"Industrial","authority":"NOIDA","category":"industrial","execution_stage":"allotted"}},{"type":"Feature","geometry":{"type":"Polygon","coordinates":[[[77.332657,28.593158],[77.332369,28.593462],[77.332215,28.593349],[77.332499,28.593043],[77.332657,28.593158]]]},"properties":{"objectid":27391,"plotmapid":"10D391IND","property_t":"Industrial","allotted_p":"Yes","plotsizesq":872,"plot_size":"872 SQMT","plot_no":"391","sector":"10","block":"D","mplanduse":"B","ppt_type":"IND","ppt_full":"Industrial","authority":"NOIDA","category":"industrial","execution_stage":"allotted"}},{"type":"Feature","geometry":{"type":"Polygon","coordinates":[[[77.332818,28.593276],[77.332526,28.593577],[77.332369,28.593462],[77.332657,28.593158],[77.332818,28.593276]]]},"properties":{"objectid":27392,"plotmapid":"10D390IND","property_t":"Industrial","allotted_p":"Yes","plotsizesq":872,"plot_size":"872 SQMT","plot_no":"390","sector":"10","block":"D","mplanduse":"B","ppt_type":"IND","ppt_full":"Industrial","authority":"NOIDA","category":"industrial","execution_stage":"allotted"}},{"type":"Feature","geometry":{"type":"Polygon","coordinates":[[[77.332973,28.59339],[77.332685,28.593693],[77.332526,28.593577],[77.332818,28.593276],[77.332973,28.59339]]]},"properties":{"objectid":27393,"plotmapid":"10D389IND","property_t":"Industrial","allotted_p":"Yes","plotsizesq":1059,"plot_size":"1059 SQMT","plot_no":"389","sector":"10","block":"D","mplanduse":"B","ppt_type":"IND","ppt_full":"Industrial","authority":"NOIDA","category":"industrial","execution_stage":"allotted"}},{"type":"Feature","geometry":{"type":"Polygon","coordinates":[[[77.333134,28.593507],[77.332845,28.593809],[77.332685,28.593693],[77.332973,28.59339],[77.333134,28.593507]]]},"properties":{"objectid":27394,"plotmapid":"10D388IND","property_t":"Industrial","allotted_p":"Yes","plotsizesq":1059,"plot_size":"1059 SQMT","plot_no":"388","sector":"10","block":"D","mplanduse":"B","ppt_type":"IND","ppt_full":"Industrial","authority":"NOIDA","category":"industrial","execution_stage":"allotted"}},{"type":"Feature","geometry":{"type":"Polygon","coordinates":[[[77.330425,28.597701],[77.330165,28.597994],[77.330018,28.597888],[77.330282,28.597595],[77.330425,28.597701]]]},"properties":{"objectid":27461,"plotmapid":"11E003IND","property_t":"Industrial","used":"TYPE-D","allotted_p":"Yes","plotsizesq":800,"plot_size":"800 SQMT","plot_no":"003","sector":"11","block":"E","mplanduse":"V","ppt_type":"IND","ppt_full":"Industrial","authority":"NOIDA","category":"industrial","execution_stage":"allotted"}},{"type":"Feature","geometry":{"type":"Polygon","coordinates":[[[77.330363,28.598138],[77.330113,28.598416],[77.329919,28.598272],[77.330165,28.597994],[77.330363,28.598138]]]},"properties":{"objectid":27466,"plotmapid":"11E035IND","property_t":"Industrial","used":"TYPE-D","allotted_p":"Yes","plotsizesq":800,"plot_size":"800 SQMT","plot_no":"035","sector":"11","block":"E","mplanduse":"B","ppt_type":"IND","ppt_full":"Industrial","authority":"NOIDA","category":"industrial","execution_stage":"allotted"}},{"type":"Feature","geometry":{"type":"Polygon","coordinates":[[[77.330506,28.598241],[77.330254,28.598521],[77.330113,28.598416],[77.330363,28.598138],[77.330506,28.598241]]]},"properties":{"objectid":27467,"plotmapid":"11E034IND","property_t":"Industrial","used":"TYPE-D","allotted_p":"Yes","plotsizesq":800,"plot_size":"800 SQMT","plot_no":"034","sector":"11","block":"E","mplanduse":"B","ppt_type":"IND","ppt_full":"Industrial","authority":"NOIDA","category":"industrial","execution_stage":"allotted"}},{"type":"Feature","geometry":{"type":"Polygon","coordinates":[[[77.330641,28.598339],[77.330388,28.598621],[77.330254,28.598521],[77.330506,28.598241],[77.330641,28.598339]]]},"properties":{"objectid":27468,"plotmapid":"11E033IND","property_t":"Industrial","used":"TYPE-D","allotted_p":"Yes","plotsizesq":800,"plot_size":"800 SQMT","plot_no":"033","sector":"11","block":"E","mplanduse":"B","ppt_type":"IND","ppt_full":"Industrial","authority":"NOIDA","category":"industrial","execution_stage":"allotted"}},{"type":"Feature","geometry":{"type":"Polygon","coordinates":[[[77.330796,28.598457],[77.330546,28.598739],[77.330388,28.598621],[77.330641,28.598339],[77.330796,28.598457]]]},"properties":{"objectid":27469,"plotmapid":"11E032IND","property_t":"Industrial","used":"TYPE-D","allotted_p":"Yes","plotsizesq":800,"plot_size":"800 SQMT","plot_no":"032","sector":"11","block":"E","mplanduse":"B","ppt_type":"IND","ppt_full":"Industrial","authority":"NOIDA","category":"industrial","execution_stage":"allotted"}},{"type":"Feature","geometry":{"type":"Polygon","coordinates":[[[77.330947,28.598569],[77.330696,28.59885],[77.330546,28.598739],[77.330796,28.598457],[77.330947,28.598569]]]},"properties":{"objectid":27470,"plotmapid":"11E031IND","property_t":"Industrial","used":"TYPE-D","allotted_p":"Yes","plotsizesq":800,"plot_size":"800 SQMT","plot_no":"031","sector":"11","block":"E","mplanduse":"B","ppt_type":"IND","ppt_full":"Industrial","authority":"NOIDA","category":"industrial","execution_stage":"allotted"}},{"type":"Feature","geometry":{"type":"Polygon","coordinates":[[[77.3336,28.596992],[77.333004,28.597618],[77.332547,28.597279],[77.333138,28.596655],[77.3336,28.596992]]]},"properties":{"objectid":28042,"plotmapid":"11C005IND","property_t":"Industrial","allotted_p":"Yes","plotsizesq":5184,"plot_size":"5184 SQMT","plot_no":"005","sector":"11","block":"C","mplanduse":"B","ppt_type":"IND","ppt_full":"Industrial","authority":"NOIDA","category":"industrial","execution_stage":"allotted"}},{"type":"Feature","geometry":{"type":"Polygon","coordinates":[[[77.334107,28.597353],[77.334168,28.597398],[77.333601,28.597986],[77.333182,28.597674],[77.333747,28.597085],[77.334107,28.597353]]]},"properties":{"objectid":28043,"plotmapid":"11D001IND","property_t":"Industrial","used":"TYPE-","allotted_p":"Yes","plotsizesq":3827,"plot_size":"3827 SQMT","plot_no":"001","sector":"11","block":"D","mplanduse":"B","ppt_type":"IND","ppt_full":"Industrial","authority":"NOIDA","category":"industrial","execution_stage":"allotted"}},{"type":"Feature","geometry":{"type":"Polygon","coordinates":[[[77.334467,28.59762],[77.334513,28.597655],[77.333955,28.598251],[77.333601,28.597986],[77.334168,28.597398],[77.334467,28.59762]]]},"properties":{"objectid":28044,"plotmapid":"11D002IND","property_t":"Industrial","used":"TYPE-","allotted_p":"Yes","plotsizesq":3827,"plot_size":"3827 SQMT","plot_no":"002","sector":"11","block":"D","mplanduse":"B","ppt_type":"IND","ppt_full":"Industrial","authority":"NOIDA","category":"industrial","execution_stage":"allotted"}},{"type":"Feature","geometry":{"type":"Polygon","coordinates":[[[77.334869,28.597919],[77.334302,28.598513],[77.333955,28.598251],[77.334513,28.597655],[77.334869,28.597919]]]},"properties":{"objectid":28045,"plotmapid":"11D003IND","property_t":"Industrial","used":"TYPE-","allotted_p":"Yes","plotsizesq":3829,"plot_size":"3829 SQMT","plot_no":"003","sector":"11","block":"D","mplanduse":"B","ppt_type":"IND","ppt_full":"Industrial","authority":"NOIDA","category":"industrial","execution_stage":"allotted"}},{"type":"Feature","geometry":{"type":"Polygon","coordinates":[[[77.334869,28.597919],[77.33529,28.598232],[77.334719,28.598828],[77.334302,28.598513],[77.334869,28.597919]]]},"properties":{"objectid":28046,"plotmapid":"11D004IND","property_t":"Industrial","used":"TYPE-","allotted_p":"Yes","plotsizesq":4590,"plot_size":"4590 SQMT","plot_no":"004","sector":"11","block":"D","mplanduse":"B","ppt_type":"IND","ppt_full":"Industrial","authority":"NOIDA","category":"industrial","execution_stage":"allotted"}},{"type":"Feature","geometry":{"type":"Polygon","coordinates":[[[77.33243,28.596139],[77.331662,28.59693],[77.331319,28.596668],[77.33208,28.595884],[77.33243,28.596139]]]},"properties":{"objectid":28047,"plotmapid":"11C002IND","property_t":"Industrial","used":"TYPE-F","allotted_p":"Yes","plotsizesq":5126,"plot_size":"5126 SQMT","plot_no":"002","sector":"11","block":"C","mplanduse":"B","ppt_type":"IND","ppt_full":"Industrial","authority":"NOIDA","category":"industrial","execution_stage":"allotted"}},{"type":"Feature","geometry":{"type":"Polygon","coordinates":[[[77.332802,28.59641],[77.332011,28.597227],[77.331662,28.59693],[77.33243,28.596139],[77.332802,28.59641]]]},"properties":{"objectid":28048,"plotmapid":"11C003IND","property_t":"Industrial","used":"TYPE-F","allotted_p":"Yes","plotsizesq":5310,"plot_size":"5310 SQMT","plot_no":"003","sector":"11","block":"C","mplanduse":"B","ppt_type":"IND","ppt_full":"Industrial","authority":"NOIDA","category":"industrial","execution_stage":"allotted"}},{"type":"Feature","geometry":{"type":"Polygon","coordinates":[[[77.333138,28.596655],[77.332313,28.597526],[77.332196,28.597386],[77.332011,28.597227],[77.332802,28.59641],[77.333138,28.596655]]]},"properties":{"objectid":28049,"plotmapid":"11C004IND","property_t":"Industrial","used":"TYPE-F","allotted_p":"Yes","plotsizesq":5525,"plot_size":"5525 SQMT","plot_no":"004","sector":"11","block":"C","mplanduse":"B","ppt_type":"IND","ppt_full":"Industrial","authority":"NOIDA","category":"industrial","execution_stage":"allotted"}},{"type":"Feature","geometry":{"type":"Polygon","coordinates":[[[77.333481,28.597896],[77.333076,28.598312],[77.33278,28.598093],[77.333182,28.597674],[77.333481,28.597896]]]},"properties":{"objectid":28051,"plotmapid":"11D028IND","property_t":"Industrial","used":"TYPE-","allotted_p":"Yes","plotsizesq":2238,"plot_size":"2238 SQMT","plot_no":"028","sector":"11","block":"D","mplanduse":"B","ppt_type":"IND","ppt_full":"Industrial","authority":"NOIDA","category":"industrial","execution_stage":"allotted"}},{"type":"Feature","geometry":{"type":"Polygon","coordinates":[[[77.333717,28.598073],[77.333309,28.598486],[77.333076,28.598312],[77.333481,28.597896],[77.333717,28.598073]]]},"properties":{"objectid":28052,"plotmapid":"11D027IND","property_t":"Industrial","used":"TYPE-","allotted_p":"Yes","plotsizesq":1800,"plot_size":"1800 SQMT","plot_no":"027","sector":"11","block":"D","mplanduse":"B","ppt_type":"IND","ppt_full":"Industrial","authority":"NOIDA","category":"industrial","execution_stage":"allotted"}},{"type":"Feature","geometry":{"type":"Polygon","coordinates":[[[77.333955,28.598251],[77.333546,28.598661],[77.333309,28.598486],[77.333717,28.598073],[77.333955,28.598251]]]},"properties":{"objectid":28053,"plotmapid":"11D026IND","property_t":"Industrial","used":"TYPE-","allotted_p":"Yes","plotsizesq":1800,"plot_size":"1800 SQMT","plot_no":"026","sector":"11","block":"D","mplanduse":"B","ppt_type":"IND","ppt_full":"Industrial","authority":"NOIDA","category":"industrial","execution_stage":"allotted"}},{"type":"Feature","geometry":{"type":"Polygon","coordinates":[[[77.334171,28.598414],[77.334185,28.598425],[77.333778,28.598833],[77.333546,28.598661],[77.333955,28.598251],[77.334171,28.598414]]]},"properties":{"objectid":28054,"plotmapid":"11D025IND","property_t":"Industrial","used":"TYPE-","allotted_p":"Yes","plotsizesq":1800,"plot_size":"1800 SQMT","plot_no":"025","sector":"11","block":"D","mplanduse":"B","ppt_type":"IND","ppt_full":"Industrial","authority":"NOIDA","category":"industrial","execution_stage":"allotted"}},{"type":"Feature","geometry":{"type":"Polygon","coordinates":[[[77.332677,28.598225],[77.33289,28.598384],[77.332625,28.598656],[77.332409,28.598493],[77.332669,28.598219],[77.332677,28.598225]]]},"properties":{"objectid":28084,"plotmapid":"11D029IND","property_t":"Industrial","used":"TYPE-D","allotted_p":"Yes","plotsizesq":0,"plot_no":"029","sector":"11","block":"D","mplanduse":"B","ppt_type":"IND","ppt_full":"Industrial","authority":"NOIDA","category":"industrial","execution_stage":"allotted"}},{"type":"Feature","geometry":{"type":"Polygon","coordinates":[[[77.332625,28.598656],[77.33289,28.598384],[77.333041,28.598497],[77.332779,28.598772],[77.332625,28.598656]]]},"properties":{"objectid":28085,"plotmapid":"11D030IND","property_t":"Industrial","used":"TYPE-D","allotted_p":"Yes","plotsizesq":796,"plot_size":"796 SQMT","plot_no":"030","sector":"11","block":"D","mplanduse":"B","ppt_type":"IND","ppt_full":"Industrial","authority":"NOIDA","category":"industrial","execution_stage":"allotted"}},{"type":"Feature","geometry":{"type":"Polygon","coordinates":[[[77.330624,28.597849],[77.330363,28.598138],[77.330165,28.597994],[77.330425,28.597701],[77.330624,28.597849]]]},"properties":{"objectid":28130,"plotmapid":"11E4,5,6,33,34&35IND","property_t":"Industrial","used":"TYPE-D","allotted_p":"Yes","plotsizesq":800,"plot_size":"800 SQMT","plot_no":"4,5,6,33,34&35","sector":"11","block":"E","mplanduse":"B","ppt_type":"IND","ppt_full":"Industrial","authority":"NOIDA","category":"industrial","execution_stage":"allotted"}},{"type":"Feature","geometry":{"type":"Polygon","coordinates":[[[77.330766,28.597954],[77.330506,28.598241],[77.330363,28.598138],[77.330624,28.597849],[77.330766,28.597954]]]},"properties":{"objectid":28131,"plotmapid":"11E005IND","property_t":"Industrial","used":"TYPE-D","allotted_p":"Yes","plotsizesq":800,"plot_size":"800 SQMT","plot_no":"005","sector":"11","block":"E","mplanduse":"B","ppt_type":"IND","ppt_full":"Industrial","authority":"NOIDA","category":"industrial","execution_stage":"allotted"}},{"type":"Feature","geometry":{"type":"Polygon","coordinates":[[[77.330899,28.598052],[77.330641,28.598339],[77.330506,28.598241],[77.330766,28.597954],[77.330899,28.598052]]]},"properties":{"objectid":28132,"plotmapid":"11E006IND","property_t":"Industrial","used":"TYPE-D","allotted_p":"Yes","plotsizesq":800,"plot_size":"800 SQMT","plot_no":"006","sector":"11","block":"E","mplanduse":"B","ppt_type":"IND","ppt_full":"Industrial","authority":"NOIDA","category":"industrial","execution_stage":"allotted"}},{"type":"Feature","geometry":{"type":"Polygon","coordinates":[[[77.331054,28.598167],[77.330796,28.598457],[77.330641,28.598339],[77.330899,28.598052],[77.331054,28.598167]]]},"properties":{"objectid":28133,"plotmapid":"11E007IND","property_t":"Industrial","used":"TYPE-D","allotted_p":"Yes","plotsizesq":800,"plot_size":"800 SQMT","plot_no":"007","sector":"11","block":"E","mplanduse":"B","ppt_type":"IND","ppt_full":"Industrial","authority":"NOIDA","category":"industrial","execution_stage":"allotted"}},{"type":"Feature","geometry":{"type":"Polygon","coordinates":[[[77.331205,28.59828],[77.330947,28.598569],[77.330796,28.598457],[77.331054,28.598167],[77.331205,28.59828]]]},"properties":{"objectid":28134,"plotmapid":"11E008IND","property_t":"Industrial","used":"TYPE-D","allotted_p":"Yes","plotsizesq":800,"plot_size":"800 SQMT","plot_no":"008","sector":"11","block":"E","mplanduse":"B","ppt_type":"IND","ppt_full":"Industrial","authority":"NOIDA","category":"industrial","execution_stage":"allotted"}},{"type":"Feature","geometry":{"type":"Polygon","coordinates":[[[77.331368,28.598401],[77.33111,28.59869],[77.330947,28.598569],[77.331205,28.59828],[77.331368,28.598401]]]},"properties":{"objectid":28135,"plotmapid":"11E009IND","property_t":"Industrial","used":"TYPE-D","allotted_p":"Yes","plotsizesq":800,"plot_size":"800 SQMT","plot_no":"009","sector":"11","block":"E","mplanduse":"B","ppt_type":"IND","ppt_full":"Industrial","authority":"NOIDA","category":"industrial","execution_stage":"allotted"}},{"type":"Feature","geometry":{"type":"Polygon","coordinates":[[[77.331834,28.596138],[77.331319,28.596668],[77.33092,28.596282],[77.331377,28.595803],[77.331834,28.596138]]]},"properties":{"objectid":28861,"plotmapid":"11C001AIND","property_t":"Industrial","used":"TYPE-F","allotted_p":"Yes","plotsizesq":0,"plot_no":"001A","sector":"11","block":"C","mplanduse":"B","ppt_type":"IND","ppt_full":"Industrial","authority":"NOIDA","category":"industrial","execution_stage":"allotted"}},{"type":"Feature","geometry":{"type":"Polygon","coordinates":[[[77.331377,28.595803],[77.33162,28.595548],[77.33208,28.595884],[77.331834,28.596138],[77.331377,28.595803]]]},"properties":{"objectid":28862,"plotmapid":"11C001BIND","property_t":"Industrial","used":"TYPE-F","allotted_p":"Yes","plotsizesq":0,"plot_no":"001B","sector":"11","block":"C","mplanduse":"B","ppt_type":"IND","ppt_full":"Industrial","authority":"NOIDA","category":"industrial","execution_stage":"allotted"}}]}
