{"type":"FeatureCollection","features":[{"type":"Feature","geometry":{"type":"Polygon","coordinates":[[[77.391974,28.617208],[77.391667,28.617236],[77.391653,28.6171],[77.391961,28.617076],[77.391974,28.617208]]]},"properties":{"objectid":9476,"plotmapid":"63G170IND","property_t":"Industrial","used":"PLOT","plotsizesq":450,"plot_size":"450 SQMT","plot_no":"170","sector":"63","block":"G","mplanduse":"V","ppt_type":"IND","ppt_full":"Industrial","authority":"NOIDA","category":"industrial","execution_stage":"unknown"}},{"type":"Feature","geometry":{"type":"Polygon","coordinates":[[[77.392347,28.61786],[77.39204,28.617884],[77.392027,28.61775],[77.39233,28.617725],[77.392347,28.61786]]]},"properties":{"objectid":9479,"plotmapid":"63G151IND","property_t":"Industrial","used":"PLOT","plotsizesq":450,"plot_size":"450 SQMT","plot_no":"151","sector":"63","block":"G","mplanduse":"B","ppt_type":"IND","ppt_full":"Industrial","authority":"NOIDA","category":"industrial","execution_stage":"unknown"}},{"type":"Feature","geometry":{"type":"Polygon","coordinates":[[[77.392198,28.616373],[77.391891,28.616402],[77.391878,28.616267],[77.392186,28.616244],[77.392198,28.616373]]]},"properties":{"objectid":9738,"plotmapid":"63G140IND","property_t":"Industrial","used":"PLOT","plotsizesq":450,"plot_size":"450 SQMT","plot_no":"140","sector":"63","block":"G","mplanduse":"B","ppt_type":"IND","ppt_full":"Industrial","authority":"NOIDA","category":"industrial","execution_stage":"unknown"}},{"type":"Feature","geometry":{"type":"Polygon","coordinates":[[[77.391891,28.616397],[77.391587,28.616426],[77.391574,28.616291],[77.391878,28.616267],[77.391891,28.616397]]]},"properties":{"objectid":9739,"plotmapid":"63G176IND","property_t":"Industrial","used":"PLOT","plotsizesq":450,"plot_size":"450 SQMT","plot_no":"176","sector":"63","block":"G","mplanduse":"B","ppt_type":"IND","ppt_full":"Industrial","authority":"NOIDA","category":"industrial","execution_stage":"unknown"}},{"type":"Feature","geometry":{"type":"Polygon","coordinates":[[[77.39221,28.616508],[77.391905,28.616537],[77.391891,28.616402],[77.392198,28.616377],[77.39221,28.616508]]]},"properties":{"objectid":9750,"plotmapid":"63G141IND","property_t":"Industrial","used":"PLOT","plotsizesq":450,"plot_size":"450 SQMT","plot_no":"141","sector":"63","block":"G","mplanduse":"B","ppt_type":"IND","ppt_full":"Industrial","authority":"NOIDA","category":"industrial","execution_stage":"unknown"}},{"type":"Feature","geometry":{"type":"Polygon","coordinates":[[[77.391905,28.616532],[77.3916,28.61656],[77.391587,28.616426],[77.391891,28.616402],[77.391905,28.616532]]]},"properties":{"objectid":9751,"plotmapid":"63G175IND","property_t":"Industrial","used":"PLOT","plotsizesq":450,"plot_size":"450 SQMT","plot_no":"175","sector":"63","block":"G","mplanduse":"B","ppt_type":"IND","ppt_full":"Industrial","authority":"NOIDA","category":"industrial","execution_stage":"unknown"}},{"type":"Feature","geometry":{"type":"Polygon","coordinates":[[[77.392222,28.616643],[77.391919,28.616673],[77.391905,28.616537],[77.392211,28.616515],[77.392222,28.616643]]]},"properties":{"objectid":9790,"plotmapid":"63G142IND","property_t":"Industrial","used":"PLOT","plotsizesq":450,"plot_size":"450 SQMT","plot_no":"142","sector":"63","block":"G","mplanduse":"B","ppt_type":"IND","ppt_full":"Industrial","authority":"NOIDA","category":"industrial","execution_stage":"unknown"}},{"type":"Feature","geometry":{"type":"Polygon","coordinates":[[[77.391919,28.616667],[77.391614,28.616695],[77.3916,28.61656],[77.391905,28.616537],[77.391919,28.616667]]]},"properties":{"objectid":9791,"plotmapid":"63G174IND","property_t":"Industrial","used":"PLOT","plotsizesq":450,"plot_size":"450 SQMT","plot_no":"174","sector":"63","block":"G","mplanduse":"B","ppt_type":"IND","ppt_full":"Industrial","authority":"NOIDA","category":"industrial","execution_stage":"unknown"}},{"type":"Feature","geometry":{"type":"Polygon","coordinates":[[[77.392235,28.616779],[77.391934,28.616806],[77.391921,28.616673],[77.392223,28.616651],[77.392235,28.616779]]]},"properties":{"objectid":9806,"plotmapid":"63G143IND","property_t":"Industrial","used":"PLOT","plotsizesq":450,"plot_size":"450 SQMT","plot_no":"143","sector":"63","block":"G","mplanduse":"B","ppt_type":"IND","ppt_full":"Industrial","authority":"NOIDA","category":"industrial","execution_stage":"unknown"}},{"type":"Feature","geometry":{"type":"Polygon","coordinates":[[[77.391934,28.616802],[77.391627,28.61683],[77.391614,28.616695],[77.391921,28.616673],[77.391934,28.616802]]]},"properties":{"objectid":9807,"plotmapid":"63G173IND","property_t":"Industrial","used":"PLOT","plotsizesq":450,"plot_size":"450 SQMT","plot_no":"173","sector":"63","block":"G","mplanduse":"B","ppt_type":"IND","ppt_full":"Industrial","authority":"NOIDA","category":"industrial","execution_stage":"unknown"}},{"type":"Feature","geometry":{"type":"Polygon","coordinates":[[[77.392249,28.616914],[77.391947,28.616941],[77.391934,28.616806],[77.392235,28.616783],[77.392249,28.616914]]]},"properties":{"objectid":9824,"plotmapid":"63G144IND","property_t":"Industrial","used":"PLOT","plotsizesq":450,"plot_size":"450 SQMT","plot_no":"144","sector":"63","block":"G","mplanduse":"B","ppt_type":"IND","ppt_full":"Industrial","authority":"NOIDA","category":"industrial","execution_stage":"unknown"}},{"type":"Feature","geometry":{"type":"Polygon","coordinates":[[[77.391947,28.616938],[77.39164,28.616965],[77.391627,28.61683],[77.391934,28.616806],[77.391947,28.616938]]]},"properties":{"objectid":9825,"plotmapid":"63G172IND","property_t":"Industrial","used":"PLOT","plotsizesq":450,"plot_size":"450 SQMT","plot_no":"172","sector":"63","block":"G","mplanduse":"B","ppt_type":"IND","ppt_full":"Industrial","authority":"NOIDA","category":"industrial","execution_stage":"unknown"}},{"type":"Feature","geometry":{"type":"Polygon","coordinates":[[[77.392262,28.617049],[77.391961,28.617076],[77.391947,28.616941],[77.392249,28.616917],[77.392262,28.617049]]]},"properties":{"objectid":9840,"plotmapid":"63G145IND","property_t":"Industrial","used":"PLOT","plotsizesq":450,"plot_size":"450 SQMT","plot_no":"145","sector":"63","block":"G","mplanduse":"B","ppt_type":"IND","ppt_full":"Industrial","authority":"NOIDA","category":"industrial","execution_stage":"unknown"}},{"type":"Feature","geometry":{"type":"Polygon","coordinates":[[[77.39196,28.617073],[77.391653,28.6171],[77.39164,28.616965],[77.391947,28.616941],[77.39196,28.617073]]]},"properties":{"objectid":9841,"plotmapid":"63G171IND","property_t":"Industrial","used":"PLOT","plotsizesq":450,"plot_size":"450 SQMT","plot_no":"171","sector":"63","block":"G","mplanduse":"B","ppt_type":"IND","ppt_full":"Industrial","authority":"NOIDA","category":"industrial","execution_stage":"unknown"}},{"type":"Feature","geometry":{"type":"Polygon","coordinates":[[[77.392276,28.617184],[77.391974,28.617212],[77.391961,28.617076],[77.392263,28.617052],[77.392276,28.617184]]]},"properties":{"objectid":9857,"plotmapid":"63G146IND","property_t":"Industrial","used":"PLOT","plotsizesq":450,"plot_size":"450 SQMT","plot_no":"146","sector":"63","block":"G","mplanduse":"B","ppt_type":"IND","ppt_full":"Industrial","authority":"NOIDA","category":"industrial","execution_stage":"unknown"}},{"type":"Feature","geometry":{"type":"Polygon","coordinates":[[[77.392291,28.617319],[77.391987,28.617346],[77.391974,28.617212],[77.392277,28.617187],[77.392291,28.617319]]]},"properties":{"objectid":9892,"plotmapid":"63G147IND","property_t":"Industrial","used":"PLOT","plotsizesq":450,"plot_size":"450 SQMT","plot_no":"147","sector":"63","block":"G","mplanduse":"B","ppt_type":"IND","ppt_full":"Industrial","authority":"NOIDA","category":"industrial","execution_stage":"unknown"}},{"type":"Feature","geometry":{"type":"Polygon","coordinates":[[[77.391987,28.617343],[77.39168,28.617371],[77.391667,28.617236],[77.391974,28.617212],[77.391987,28.617343]]]},"properties":{"objectid":9893,"plotmapid":"63G169IND","property_t":"Industrial","used":"PLOT","plotsizesq":450,"plot_size":"450 SQMT","plot_no":"169","sector":"63","block":"G","mplanduse":"B","ppt_type":"IND","ppt_full":"Industrial","authority":"NOIDA","category":"industrial","execution_stage":"unknown"}},{"type":"Feature","geometry":{"type":"Polygon","coordinates":[[[77.392304,28.617455],[77.392,28.617482],[77.391987,28.617346],[77.392291,28.617321],[77.392304,28.617455]]]},"properties":{"objectid":9907,"plotmapid":"63G148IND","property_t":"Industrial","used":"PLOT","plotsizesq":450,"plot_size":"450 SQMT","plot_no":"148","sector":"63","block":"G","mplanduse":"B","ppt_type":"IND","ppt_full":"Industrial","authority":"NOIDA","category":"industrial","execution_stage":"unknown"}},{"type":"Feature","geometry":{"type":"Polygon","coordinates":[[[77.392,28.617479],[77.391693,28.617507],[77.39168,28.617371],[77.391987,28.617346],[77.392,28.617479]]]},"properties":{"objectid":9909,"plotmapid":"63G168IND","property_t":"Industrial","used":"PLOT","plotsizesq":450,"plot_size":"450 SQMT","plot_no":"168","sector":"63","block":"G","mplanduse":"B","ppt_type":"IND","ppt_full":"Industrial","authority":"NOIDA","category":"industrial","execution_stage":"unknown"}},{"type":"Feature","geometry":{"type":"Polygon","coordinates":[[[77.392321,28.61759],[77.392014,28.617616],[77.392,28.617482],[77.392305,28.617457],[77.392321,28.61759]]]},"properties":{"objectid":9940,"plotmapid":"63G149IND","property_t":"Industrial","used":"PLOT","plotsizesq":450,"plot_size":"450 SQMT","plot_no":"149","sector":"63","block":"G","mplanduse":"B","ppt_type":"IND","ppt_full":"Industrial","authority":"NOIDA","category":"industrial","execution_stage":"unknown"}},{"type":"Feature","geometry":{"type":"Polygon","coordinates":[[[77.392013,28.617614],[77.391707,28.617641],[77.391693,28.617507],[77.392,28.617482],[77.392013,28.617614]]]},"properties":{"objectid":9941,"plotmapid":"63G167IND","property_t":"Industrial","used":"PLOT","plotsizesq":450,"plot_size":"450 SQMT","plot_no":"167","sector":"63","block":"G","mplanduse":"B","ppt_type":"IND","ppt_full":"Industrial","authority":"NOIDA","category":"industrial","execution_stage":"unknown"}},{"type":"Feature","geometry":{"type":"Polygon","coordinates":[[[77.39233,28.617725],[77.392027,28.61775],[77.392014,28.617616],[77.392321,28.617591],[77.39233,28.617725]]]},"properties":{"objectid":9946,"plotmapid":"63G150IND","property_t":"Industrial","used":"PLOT","plotsizesq":450,"plot_size":"450 SQMT","plot_no":"150","sector":"63","block":"G","mplanduse":"B","ppt_type":"IND","ppt_full":"Industrial","authority":"NOIDA","category":"industrial","execution_stage":"unknown"}},{"type":"Feature","geometry":{"type":"Polygon","coordinates":[[[77.392027,28.617749],[77.39172,28.617775],[77.391707,28.617641],[77.392014,28.617616],[77.392027,28.617749]]]},"properties":{"objectid":9947,"plotmapid":"63G166IND","property_t":"Industrial","used":"PLOT","plotsizesq":450,"plot_size":"450 SQMT","plot_no":"166","sector":"63","block":"G","mplanduse":"B","ppt_type":"IND","ppt_full":"Industrial","authority":"NOIDA","category":"industrial","execution_stage":"unknown"}},{"type":"Feature","geometry":{"type":"Polygon","coordinates":[[[77.392027,28.61775],[77.39204,28.617884],[77.391733,28.617909],[77.39172,28.617775],[77.392027,28.61775]]]},"properties":{"objectid":9954,"plotmapid":"63G165IND","property_t":"Industrial","used":"PLOT","plotsizesq":450,"plot_size":"450 SQMT","plot_no":"165","sector":"63","block":"G","mplanduse":"B","ppt_type":"IND","ppt_full":"Industrial","authority":"NOIDA","category":"industrial","execution_stage":"unknown"}},{"type":"Feature","geometry":{"type":"Polygon","coordinates":[[[77.39236,28.617995],[77.392053,28.61802],[77.39204,28.617884],[77.392347,28.61786],[77.39236,28.617995]]]},"properties":{"objectid":9961,"plotmapid":"63G152IND","property_t":"Industrial","used":"PLOT","plotsizesq":450,"plot_size":"450 SQMT","plot_no":"152","sector":"63","block":"G","mplanduse":"B","ppt_type":"IND","ppt_full":"Industrial","authority":"NOIDA","category":"industrial","execution_stage":"unknown"}},{"type":"Feature","geometry":{"type":"Polygon","coordinates":[[[77.392053,28.61802],[77.391746,28.618044],[77.391733,28.617909],[77.39204,28.617884],[77.392053,28.61802]]]},"properties":{"objectid":9962,"plotmapid":"63G164IND","property_t":"Industrial","used":"PLOT","plotsizesq":450,"plot_size":"450 SQMT","plot_no":"164","sector":"63","block":"G","mplanduse":"B","ppt_type":"IND","ppt_full":"Industrial","authority":"NOIDA","category":"industrial","execution_stage":"unknown"}},{"type":"Feature","geometry":{"type":"Polygon","coordinates":[[[77.392414,28.618536],[77.392107,28.618563],[77.392093,28.618425],[77.3924,28.618401],[77.392414,28.618536]]]},"properties":{"objectid":9983,"plotmapid":"63G156IND","property_t":"Industrial","used":"PLOT","plotsizesq":450,"plot_size":"450 SQMT","plot_no":"156","sector":"63","block":"G","mplanduse":"V","ppt_type":"IND","ppt_full":"Industrial","authority":"NOIDA","category":"industrial","execution_stage":"unknown"}},{"type":"Feature","geometry":{"type":"Polygon","coordinates":[[[77.391858,28.621062],[77.391553,28.621083],[77.39154,28.620948],[77.391844,28.620926],[77.391858,28.621062]]]},"properties":{"objectid":10066,"plotmapid":"63F416IND","property_t":"Industrial","used":"PLOT","plotsizesq":450,"plot_size":"450 SQMT","plot_no":"416","sector":"63","block":"F","mplanduse":"V","ppt_type":"IND","ppt_full":"Industrial","authority":"NOIDA","category":"industrial","execution_stage":"unknown"}},{"type":"Feature","geometry":{"type":"Polygon","coordinates":[[[77.392374,28.618131],[77.392067,28.618155],[77.392053,28.61802],[77.39236,28.617995],[77.392374,28.618131]]]},"properties":{"objectid":10118,"plotmapid":"63G153IND","property_t":"Industrial","used":"PLOT","plotsizesq":450,"plot_size":"450 SQMT","plot_no":"153","sector":"63","block":"G","mplanduse":"B","ppt_type":"IND","ppt_full":"Industrial","authority":"NOIDA","category":"industrial","execution_stage":"unknown"}},{"type":"Feature","geometry":{"type":"Polygon","coordinates":[[[77.392067,28.618155],[77.391759,28.618179],[77.391746,28.618044],[77.392053,28.61802],[77.392067,28.618155]]]},"properties":{"objectid":10119,"plotmapid":"63G163IND","property_t":"Industrial","used":"PLOT","plotsizesq":450,"plot_size":"450 SQMT","plot_no":"163","sector":"63","block":"G","mplanduse":"B","ppt_type":"IND","ppt_full":"Industrial","authority":"NOIDA","category":"industrial","execution_stage":"unknown"}},{"type":"Feature","geometry":{"type":"Polygon","coordinates":[[[77.392387,28.618266],[77.39208,28.61829],[77.392067,28.618155],[77.392374,28.618131],[77.392387,28.618266]]]},"properties":{"objectid":10124,"plotmapid":"63G154IND","property_t":"Industrial","used":"PLOT","plotsizesq":450,"plot_size":"450 SQMT","plot_no":"154","sector":"63","block":"G","mplanduse":"B","ppt_type":"IND","ppt_full":"Industrial","authority":"NOIDA","category":"industrial","execution_stage":"unknown"}},{"type":"Feature","geometry":{"type":"Polygon","coordinates":[[[77.39208,28.61829],[77.391773,28.618314],[77.391759,28.618179],[77.392067,28.618155],[77.39208,28.61829]]]},"properties":{"objectid":10125,"plotmapid":"63G162IND","property_t":"Industrial","used":"PLOT","plotsizesq":450,"plot_size":"450 SQMT","plot_no":"162","sector":"63","block":"G","mplanduse":"B","ppt_type":"IND","ppt_full":"Industrial","authority":"NOIDA","category":"industrial","execution_stage":"unknown"}},{"type":"Feature","geometry":{"type":"Polygon","coordinates":[[[77.3924,28.618401],[77.392093,28.618425],[77.39208,28.61829],[77.392387,28.618266],[77.3924,28.618401]]]},"properties":{"objectid":10139,"plotmapid":"63G155IND","property_t":"Industrial","used":"PLOT","plotsizesq":450,"plot_size":"450 SQMT","plot_no":"155","sector":"63","block":"G","mplanduse":"B","ppt_type":"IND","ppt_full":"Industrial","authority":"NOIDA","category":"industrial","execution_stage":"unknown"}},{"type":"Feature","geometry":{"type":"Polygon","coordinates":[[[77.392093,28.618425],[77.391786,28.61845],[77.391773,28.618314],[77.39208,28.61829],[77.392093,28.618425]]]},"properties":{"objectid":10140,"plotmapid":"63G161IND","property_t":"Industrial","used":"PLOT","plotsizesq":450,"plot_size":"450 SQMT","plot_no":"161","sector":"63","block":"G","mplanduse":"B","ppt_type":"IND","ppt_full":"Industrial","authority":"NOIDA","category":"industrial","execution_stage":"unknown"}},{"type":"Feature","geometry":{"type":"Polygon","coordinates":[[[77.392106,28.618561],[77.391799,28.618586],[77.391786,28.61845],[77.392093,28.618425],[77.392106,28.618561]]]},"properties":{"objectid":10145,"plotmapid":"63G160IND","property_t":"Industrial","used":"PLOT","plotsizesq":450,"plot_size":"450 SQMT","plot_no":"160","sector":"63","block":"G","mplanduse":"B","ppt_type":"IND","ppt_full":"Industrial","authority":"NOIDA","category":"industrial","execution_stage":"unknown"}},{"type":"Feature","geometry":{"type":"Polygon","coordinates":[[[77.392414,28.61854],[77.392427,28.618672],[77.39212,28.618696],[77.392107,28.618563],[77.392414,28.61854]]]},"properties":{"objectid":10166,"plotmapid":"63G156-AIND","property_t":"Industrial","used":"PLOT","plotsizesq":450,"plot_size":"450 SQMT","plot_no":"156-A","sector":"63","block":"G","mplanduse":"B","ppt_type":"IND","ppt_full":"Industrial","authority":"NOIDA","category":"industrial","execution_stage":"unknown"}},{"type":"Feature","geometry":{"type":"Polygon","coordinates":[[[77.392107,28.618563],[77.39212,28.618696],[77.391813,28.61872],[77.391799,28.618586],[77.392107,28.618563]]]},"properties":{"objectid":10167,"plotmapid":"63G159IND","property_t":"Industrial","used":"PLOT","plotsizesq":450,"plot_size":"450 SQMT","plot_no":"159","sector":"63","block":"G","mplanduse":"B","ppt_type":"IND","ppt_full":"Industrial","authority":"NOIDA","category":"industrial","execution_stage":"unknown"}},{"type":"Feature","geometry":{"type":"Polygon","coordinates":[[[77.392427,28.618672],[77.39244,28.618808],[77.392133,28.618833],[77.39212,28.618696],[77.392427,28.618672]]]},"properties":{"objectid":10172,"plotmapid":"63G157IND","property_t":"Industrial","used":"PLOT","plotsizesq":0,"plot_size":"NA","plot_no":"157","sector":"63","block":"G","mplanduse":"B","ppt_type":"IND","ppt_full":"Industrial","authority":"NOIDA","category":"industrial","execution_stage":"unknown"}},{"type":"Feature","geometry":{"type":"Polygon","coordinates":[[[77.392133,28.618833],[77.391826,28.618857],[77.391813,28.61872],[77.39212,28.618696],[77.392133,28.618833]]]},"properties":{"objectid":10173,"plotmapid":"63G158IND","property_t":"Industrial","used":"PLOT","plotsizesq":0,"plot_size":"NA","plot_no":"158","sector":"63","block":"G","mplanduse":"B","ppt_type":"IND","ppt_full":"Industrial","authority":"NOIDA","category":"industrial","execution_stage":"unknown"}},{"type":"Feature","geometry":{"type":"Polygon","coordinates":[[[77.391584,28.619883],[77.39174,28.619871],[77.391767,28.620139],[77.391611,28.620151],[77.391584,28.619883]]]},"properties":{"objectid":10635,"plotmapid":"63F453IND","property_t":"Industrial","used":"PLOT","plotsizesq":0,"plot_size":"NA","plot_no":"453","sector":"63","block":"F","mplanduse":"B","ppt_type":"IND","ppt_full":"Industrial","authority":"NOIDA","category":"industrial","execution_stage":"unknown"}},{"type":"Feature","geometry":{"type":"Polygon","coordinates":[[[77.391611,28.620151],[77.391767,28.620139],[77.391794,28.620407],[77.391638,28.620419],[77.391611,28.620151]]]},"properties":{"objectid":10650,"plotmapid":"63F420IND","property_t":"Industrial","used":"PLOT","plotsizesq":0,"plot_size":"NA","plot_no":"420","sector":"63","block":"F","mplanduse":"B","ppt_type":"IND","ppt_full":"Industrial","authority":"NOIDA","category":"industrial","execution_stage":"unknown"}},{"type":"Feature","geometry":{"type":"Polygon","coordinates":[[[77.391929,28.621735],[77.391623,28.621757],[77.391608,28.621619],[77.391915,28.621595],[77.391929,28.621735]]]},"properties":{"objectid":10651,"plotmapid":"63F411IND","property_t":"Industrial","used":"PLOT","plotsizesq":450,"plot_size":"450 SQMT","plot_no":"411","sector":"63","block":"F","mplanduse":"B","ppt_type":"IND","ppt_full":"Industrial","authority":"NOIDA","category":"industrial","execution_stage":"unknown"}},{"type":"Feature","geometry":{"type":"Polygon","coordinates":[[[77.391901,28.621459],[77.391595,28.621485],[77.391581,28.621352],[77.391888,28.621332],[77.391901,28.621459]]]},"properties":{"objectid":10666,"plotmapid":"63F413IND","property_t":"Industrial","used":"PLOT","plotsizesq":450,"plot_size":"450 SQMT","plot_no":"413","sector":"63","block":"F","mplanduse":"B","ppt_type":"IND","ppt_full":"Industrial","authority":"NOIDA","category":"industrial","execution_stage":"unknown"}},{"type":"Feature","geometry":{"type":"Polygon","coordinates":[[[77.391941,28.621866],[77.391636,28.62189],[77.391623,28.621757],[77.391929,28.621735],[77.391941,28.621866]]]},"properties":{"objectid":10667,"plotmapid":"63F410IND","property_t":"Industrial","used":"PLOT","plotsizesq":450,"plot_size":"450 SQMT","plot_no":"410","sector":"63","block":"F","mplanduse":"B","ppt_type":"IND","ppt_full":"Industrial","authority":"NOIDA","category":"industrial","execution_stage":"unknown"}},{"type":"Feature","geometry":{"type":"Polygon","coordinates":[[[77.391954,28.621999],[77.39165,28.622024],[77.391636,28.62189],[77.391941,28.621866],[77.391954,28.621999]]]},"properties":{"objectid":10669,"plotmapid":"63F409IND","property_t":"Industrial","used":"PLOT","plotsizesq":450,"plot_size":"450 SQMT","plot_no":"409","sector":"63","block":"F","mplanduse":"B","ppt_type":"IND","ppt_full":"Industrial","authority":"NOIDA","category":"industrial","execution_stage":"unknown"}},{"type":"Feature","geometry":{"type":"Polygon","coordinates":[[[77.391844,28.620926],[77.39154,28.620948],[77.391526,28.620813],[77.391829,28.620791],[77.391844,28.620926]]]},"properties":{"objectid":10672,"plotmapid":"63F417IND","property_t":"Industrial","used":"PLOT","plotsizesq":450,"plot_size":"450 SQMT","plot_no":"417","sector":"63","block":"F","mplanduse":"B","ppt_type":"IND","ppt_full":"Industrial","authority":"NOIDA","category":"industrial","execution_stage":"unknown"}},{"type":"Feature","geometry":{"type":"Polygon","coordinates":[[[77.391873,28.621195],[77.391567,28.621218],[77.391553,28.621083],[77.391858,28.621062],[77.391873,28.621195]]]},"properties":{"objectid":10673,"plotmapid":"63F415IND","property_t":"Industrial","used":"PLOT","plotsizesq":450,"plot_size":"450 SQMT","plot_no":"415","sector":"63","block":"F","mplanduse":"B","ppt_type":"IND","ppt_full":"Industrial","authority":"NOIDA","category":"industrial","execution_stage":"unknown"}},{"type":"Feature","geometry":{"type":"Polygon","coordinates":[[[77.391888,28.621332],[77.391581,28.621352],[77.391567,28.621218],[77.391873,28.621195],[77.391888,28.621332]]]},"properties":{"objectid":10674,"plotmapid":"63F414IND","property_t":"Industrial","used":"PLOT","plotsizesq":450,"plot_size":"450 SQMT","plot_no":"414","sector":"63","block":"F","mplanduse":"B","ppt_type":"IND","ppt_full":"Industrial","authority":"NOIDA","category":"industrial","execution_stage":"unknown"}},{"type":"Feature","geometry":{"type":"Polygon","coordinates":[[[77.391829,28.620791],[77.391526,28.620813],[77.391512,28.620677],[77.391814,28.620653],[77.391829,28.620791]]]},"properties":{"objectid":10675,"plotmapid":"63F418IND","property_t":"Industrial","used":"PLOT","plotsizesq":450,"plot_size":"450 SQMT","plot_no":"418","sector":"63","block":"F","mplanduse":"B","ppt_type":"IND","ppt_full":"Industrial","authority":"NOIDA","category":"industrial","execution_stage":"unknown"}},{"type":"Feature","geometry":{"type":"Polygon","coordinates":[[[77.391915,28.621595],[77.391608,28.621619],[77.391595,28.621485],[77.391901,28.621459],[77.391915,28.621595]]]},"properties":{"objectid":10676,"plotmapid":"63F412IND","property_t":"Industrial","used":"PLOT","plotsizesq":450,"plot_size":"450 SQMT","plot_no":"412","sector":"63","block":"F","mplanduse":"B","ppt_type":"IND","ppt_full":"Industrial","authority":"NOIDA","category":"industrial","execution_stage":"unknown"}},{"type":"Feature","geometry":{"type":"Polygon","coordinates":[[[77.391968,28.622137],[77.391664,28.622161],[77.39165,28.622024],[77.391954,28.621999],[77.391968,28.622137]]]},"properties":{"objectid":10678,"plotmapid":"63F408IND","property_t":"Industrial","used":"PLOT","plotsizesq":450,"plot_size":"450 SQMT","plot_no":"408","sector":"63","block":"F","mplanduse":"B","ppt_type":"IND","ppt_full":"Industrial","authority":"NOIDA","category":"industrial","execution_stage":"unknown"}}]}
