{"type":"FeatureCollection","features":[{"type":"Feature","geometry":{"type":"Polygon","coordinates":[[[77.335513,28.590497],[77.335388,28.590631],[77.335356,28.590607],[77.335481,28.590473],[77.335513,28.590497]]]},"properties":{"objectid":25548,"plotmapid":"10D016IND","property_t":"Industrial","plotsizesq":0,"plot_no":"016","sector":"10","block":"D","mplanduse":"V","ppt_type":"IND","ppt_full":"Industrial","authority":"NOIDA","category":"industrial","execution_stage":"unknown"}},{"type":"Feature","geometry":{"type":"Polygon","coordinates":[[[77.335099,28.589701],[77.334823,28.589985],[77.334667,28.589869],[77.334943,28.589585],[77.335099,28.589701]]]},"properties":{"objectid":26376,"plotmapid":"10D003IND","property_t":"Industrial","allotted_p":"Yes","plotsizesq":820,"plot_size":"820 SQMT","plot_no":"003","sector":"10","block":"D","mplanduse":"B","ppt_type":"IND","ppt_full":"Industrial","authority":"NOIDA","category":"industrial","execution_stage":"allotted"}},{"type":"Feature","geometry":{"type":"Polygon","coordinates":[[[77.335255,28.589817],[77.334983,28.590104],[77.334823,28.589985],[77.335099,28.589701],[77.335255,28.589817]]]},"properties":{"objectid":26377,"plotmapid":"10D004IND","property_t":"Industrial","allotted_p":"Yes","plotsizesq":820,"plot_size":"820 SQMT","plot_no":"004","sector":"10","block":"D","mplanduse":"B","ppt_type":"IND","ppt_full":"Industrial","authority":"NOIDA","category":"industrial","execution_stage":"allotted"}},{"type":"Feature","geometry":{"type":"Polygon","coordinates":[[[77.335411,28.589932],[77.335142,28.590222],[77.334983,28.590104],[77.335255,28.589817],[77.335411,28.589932]]]},"properties":{"objectid":26378,"plotmapid":"10D005IND","property_t":"Industrial","allotted_p":"Yes","plotsizesq":820,"plot_size":"820 SQMT","plot_no":"005","sector":"10","block":"D","mplanduse":"B","ppt_type":"IND","ppt_full":"Industrial","authority":"NOIDA","category":"industrial","execution_stage":"allotted"}},{"type":"Feature","geometry":{"type":"Polygon","coordinates":[[[77.335573,28.590053],[77.335296,28.590336],[77.335142,28.590222],[77.335411,28.589932],[77.335573,28.590053]]]},"properties":{"objectid":26379,"plotmapid":"10D006IND","property_t":"Industrial","allotted_p":"Yes","plotsizesq":820,"plot_size":"820 SQMT","plot_no":"006","sector":"10","block":"D","mplanduse":"B","ppt_type":"IND","ppt_full":"Industrial","authority":"NOIDA","category":"industrial","execution_stage":"allotted"}},{"type":"Feature","geometry":{"type":"Polygon","coordinates":[[[77.335731,28.59017],[77.335455,28.590454],[77.335296,28.590336],[77.335573,28.590053],[77.335731,28.59017]]]},"properties":{"objectid":26380,"plotmapid":"10D007IND","property_t":"Industrial","allotted_p":"Yes","plotsizesq":820,"plot_size":"820 SQMT","plot_no":"007","sector":"10","block":"D","mplanduse":"B","ppt_type":"IND","ppt_full":"Industrial","authority":"NOIDA","category":"industrial","execution_stage":"allotted"}},{"type":"Feature","geometry":{"type":"Polygon","coordinates":[[[77.335889,28.590287],[77.33561,28.590569],[77.335455,28.590454],[77.335731,28.59017],[77.335889,28.590287]]]},"properties":{"objectid":26381,"plotmapid":"10D008IND","property_t":"Industrial","allotted_p":"Yes","plotsizesq":820,"plot_size":"820 SQMT","plot_no":"008","sector":"10","block":"D","mplanduse":"B","ppt_type":"IND","ppt_full":"Industrial","authority":"NOIDA","category":"industrial","execution_stage":"allotted"}},{"type":"Feature","geometry":{"type":"Polygon","coordinates":[[[77.336054,28.59041],[77.335782,28.590697],[77.33561,28.590569],[77.335889,28.590287],[77.336054,28.59041]]]},"properties":{"objectid":26382,"plotmapid":"10D009IND","property_t":"Industrial","allotted_p":"Yes","plotsizesq":890,"plot_size":"890 SQMT","plot_no":"009","sector":"10","block":"D","mplanduse":"B","ppt_type":"IND","ppt_full":"Industrial","authority":"NOIDA","category":"industrial","execution_stage":"allotted"}},{"type":"Feature","geometry":{"type":"Polygon","coordinates":[[[77.334961,28.590088],[77.334839,28.590224],[77.33479,28.590187],[77.334917,28.590055],[77.334961,28.590088]]]},"properties":{"objectid":26451,"plotmapid":"10D026IND","property_t":"Industrial","allotted_p":"Yes","plotsizesq":114,"plot_size":"114 SQMT","plot_no":"026","sector":"10","block":"D","mplanduse":"B","ppt_type":"IND","ppt_full":"Industrial","authority":"NOIDA","category":"industrial","execution_stage":"allotted"}},{"type":"Feature","geometry":{"type":"Polygon","coordinates":[[[77.335012,28.590126],[77.334887,28.590259],[77.334839,28.590224],[77.334964,28.59009],[77.335012,28.590126]]]},"properties":{"objectid":26452,"plotmapid":"10D025IND","property_t":"Industrial","allotted_p":"Yes","plotsizesq":114,"plot_size":"114 SQMT","plot_no":"025","sector":"10","block":"D","mplanduse":"B","ppt_type":"IND","ppt_full":"Industrial","authority":"NOIDA","category":"industrial","execution_stage":"allotted"}},{"type":"Feature","geometry":{"type":"Polygon","coordinates":[[[77.335152,28.59023],[77.335028,28.590364],[77.334887,28.590259],[77.335012,28.590126],[77.335152,28.59023]]]},"properties":{"objectid":26453,"plotmapid":"10D024IND","property_t":"Industrial","allotted_p":"Yes","plotsizesq":336,"plot_size":"336 SQMT","plot_no":"024","sector":"10","block":"D","mplanduse":"B","ppt_type":"IND","ppt_full":"Industrial","authority":"NOIDA","category":"industrial","execution_stage":"allotted"}},{"type":"Feature","geometry":{"type":"Polygon","coordinates":[[[77.335152,28.59023],[77.335195,28.590261],[77.335067,28.590393],[77.335028,28.590364],[77.335152,28.59023]]]},"properties":{"objectid":26454,"plotmapid":"10D023IND","property_t":"Industrial","allotted_p":"Yes","plotsizesq":114,"plot_size":"114 SQMT","plot_no":"023","sector":"10","block":"D","mplanduse":"B","ppt_type":"IND","ppt_full":"Industrial","authority":"NOIDA","category":"industrial","execution_stage":"allotted"}},{"type":"Feature","geometry":{"type":"Polygon","coordinates":[[[77.335242,28.590296],[77.335119,28.590431],[77.335067,28.590393],[77.335195,28.590261],[77.335242,28.590296]]]},"properties":{"objectid":26455,"plotmapid":"10D022IND","property_t":"Industrial","allotted_p":"Yes","plotsizesq":114,"plot_size":"114 SQMT","plot_no":"022","sector":"10","block":"D","mplanduse":"B","ppt_type":"IND","ppt_full":"Industrial","authority":"NOIDA","category":"industrial","execution_stage":"allotted"}},{"type":"Feature","geometry":{"type":"Polygon","coordinates":[[[77.335289,28.590331],[77.335168,28.590468],[77.335119,28.590431],[77.335246,28.590299],[77.335289,28.590331]]]},"properties":{"objectid":26456,"plotmapid":"10D021IND","property_t":"Industrial","allotted_p":"Yes","plotsizesq":114,"plot_size":"114 SQMT","plot_no":"021","sector":"10","block":"D","mplanduse":"B","ppt_type":"IND","ppt_full":"Industrial","authority":"NOIDA","category":"industrial","execution_stage":"allotted"}},{"type":"Feature","geometry":{"type":"Polygon","coordinates":[[[77.335336,28.590366],[77.335212,28.590501],[77.335168,28.590468],[77.335296,28.590336],[77.335336,28.590366]]]},"properties":{"objectid":26457,"plotmapid":"10D020IND","property_t":"Industrial","allotted_p":"Yes","plotsizesq":114,"plot_size":"114 SQMT","plot_no":"020","sector":"10","block":"D","mplanduse":"B","ppt_type":"IND","ppt_full":"Industrial","authority":"NOIDA","category":"industrial","execution_stage":"allotted"}},{"type":"Feature","geometry":{"type":"Polygon","coordinates":[[[77.335383,28.5904],[77.335261,28.590537],[77.335212,28.590501],[77.335339,28.590368],[77.335383,28.5904]]]},"properties":{"objectid":26458,"plotmapid":"10D019IND","property_t":"Industrial","allotted_p":"Yes","plotsizesq":114,"plot_size":"114 SQMT","plot_no":"019","sector":"10","block":"D","mplanduse":"B","ppt_type":"IND","ppt_full":"Industrial","authority":"NOIDA","category":"industrial","execution_stage":"allotted"}},{"type":"Feature","geometry":{"type":"Polygon","coordinates":[[[77.335429,28.590435],[77.335309,28.590572],[77.335261,28.590537],[77.335386,28.590403],[77.335429,28.590435]]]},"properties":{"objectid":26459,"plotmapid":"10D018IND","property_t":"Industrial","allotted_p":"Yes","plotsizesq":114,"plot_size":"114 SQMT","plot_no":"018","sector":"10","block":"D","mplanduse":"B","ppt_type":"IND","ppt_full":"Industrial","authority":"NOIDA","category":"industrial","execution_stage":"allotted"}},{"type":"Feature","geometry":{"type":"Polygon","coordinates":[[[77.335481,28.590473],[77.335356,28.590607],[77.335309,28.590572],[77.335433,28.590438],[77.335481,28.590473]]]},"properties":{"objectid":26460,"plotmapid":"10D017IND","property_t":"Industrial","allotted_p":"Yes","plotsizesq":114,"plot_size":"114 SQMT","plot_no":"017","sector":"10","block":"D","mplanduse":"B","ppt_type":"IND","ppt_full":"Industrial","authority":"NOIDA","category":"industrial","execution_stage":"allotted"}},{"type":"Feature","geometry":{"type":"Polygon","coordinates":[[[77.335523,28.590505],[77.33557,28.590539],[77.335442,28.590671],[77.335388,28.590631],[77.335513,28.590497],[77.335523,28.590505]]]},"properties":{"objectid":26461,"plotmapid":"10D015IND","property_t":"Industrial","plotsizesq":0,"plot_no":"015","sector":"10","block":"D","mplanduse":"B","ppt_type":"IND","ppt_full":"Industrial","authority":"NOIDA","category":"industrial","execution_stage":"unknown"}},{"type":"Feature","geometry":{"type":"Polygon","coordinates":[[[77.335621,28.590577],[77.335496,28.590712],[77.335442,28.590671],[77.33557,28.590539],[77.335621,28.590577]]]},"properties":{"objectid":26462,"plotmapid":"10D014IND","property_t":"Industrial","allotted_p":"Yes","plotsizesq":114,"plot_size":"114 SQMT","plot_no":"014","sector":"10","block":"D","mplanduse":"B","ppt_type":"IND","ppt_full":"Industrial","authority":"NOIDA","category":"industrial","execution_stage":"allotted"}},{"type":"Feature","geometry":{"type":"Polygon","coordinates":[[[77.335669,28.590613],[77.335543,28.590746],[77.335496,28.590712],[77.335621,28.590577],[77.335669,28.590613]]]},"properties":{"objectid":26463,"plotmapid":"10D013IND","property_t":"Industrial","allotted_p":"Yes","plotsizesq":114,"plot_size":"114 SQMT","plot_no":"013","sector":"10","block":"D","mplanduse":"B","ppt_type":"IND","ppt_full":"Industrial","authority":"NOIDA","category":"industrial","execution_stage":"allotted"}},{"type":"Feature","geometry":{"type":"Polygon","coordinates":[[[77.335716,28.590648],[77.335589,28.590781],[77.335543,28.590746],[77.335669,28.590613],[77.335716,28.590648]]]},"properties":{"objectid":26464,"plotmapid":"10D012IND","property_t":"Industrial","allotted_p":"Yes","plotsizesq":114,"plot_size":"114 SQMT","plot_no":"012","sector":"10","block":"D","mplanduse":"B","ppt_type":"IND","ppt_full":"Industrial","authority":"NOIDA","category":"industrial","execution_stage":"allotted"}},{"type":"Feature","geometry":{"type":"Polygon","coordinates":[[[77.335782,28.590697],[77.33566,28.590833],[77.335589,28.590781],[77.335716,28.590648],[77.335782,28.590697]]]},"properties":{"objectid":26465,"plotmapid":"10D011IND","property_t":"Industrial","allotted_p":"Yes","plotsizesq":152,"plot_size":"152 SQMT","plot_no":"011","sector":"10","block":"D","mplanduse":"B","ppt_type":"IND","ppt_full":"Industrial","authority":"NOIDA","category":"industrial","execution_stage":"allotted"}},{"type":"Feature","geometry":{"type":"Polygon","coordinates":[[[77.334997,28.590547],[77.334828,28.590726],[77.334764,28.59068],[77.334933,28.590501],[77.334997,28.590547]]]},"properties":{"objectid":26519,"plotmapid":"10D051IND","property_t":"Industrial","allotted_p":"Yes","plotsizesq":208,"plot_size":"208 SQMT","plot_no":"051","sector":"10","block":"D","mplanduse":"B","ppt_type":"IND","ppt_full":"Industrial","authority":"NOIDA","category":"industrial","execution_stage":"allotted"}},{"type":"Feature","geometry":{"type":"Polygon","coordinates":[[[77.335061,28.590593],[77.334891,28.590772],[77.334828,28.590726],[77.334997,28.590547],[77.335061,28.590593]]]},"properties":{"objectid":26520,"plotmapid":"10D052IND","property_t":"Industrial","allotted_p":"Yes","plotsizesq":208,"plot_size":"208 SQMT","plot_no":"052","sector":"10","block":"D","mplanduse":"B","ppt_type":"IND","ppt_full":"Industrial","authority":"NOIDA","category":"industrial","execution_stage":"allotted"}},{"type":"Feature","geometry":{"type":"Polygon","coordinates":[[[77.335124,28.590639],[77.334954,28.590818],[77.334891,28.590772],[77.335061,28.590593],[77.335124,28.590639]]]},"properties":{"objectid":26521,"plotmapid":"10D053IND","property_t":"Industrial","allotted_p":"Yes","plotsizesq":208,"plot_size":"208 SQMT","plot_no":"053","sector":"10","block":"D","mplanduse":"B","ppt_type":"IND","ppt_full":"Industrial","authority":"NOIDA","category":"industrial","execution_stage":"allotted"}},{"type":"Feature","geometry":{"type":"Polygon","coordinates":[[[77.335245,28.590731],[77.335075,28.590911],[77.335013,28.590867],[77.335183,28.590686],[77.335245,28.590731]]]},"properties":{"objectid":26522,"plotmapid":"10D054IND","property_t":"Industrial","allotted_p":"Yes","plotsizesq":208,"plot_size":"208 SQMT","plot_no":"054","sector":"10","block":"D","mplanduse":"B","ppt_type":"IND","ppt_full":"Industrial","authority":"NOIDA","category":"industrial","execution_stage":"allotted"}},{"type":"Feature","geometry":{"type":"Polygon","coordinates":[[[77.335307,28.590776],[77.335141,28.590959],[77.335075,28.590911],[77.335245,28.590731],[77.335307,28.590776]]]},"properties":{"objectid":26523,"plotmapid":"10D055IND","property_t":"Industrial","allotted_p":"Yes","plotsizesq":208,"plot_size":"208 SQMT","plot_no":"055","sector":"10","block":"D","mplanduse":"B","ppt_type":"IND","ppt_full":"Industrial","authority":"NOIDA","category":"industrial","execution_stage":"allotted"}},{"type":"Feature","geometry":{"type":"Polygon","coordinates":[[[77.335369,28.59082],[77.335202,28.591003],[77.335141,28.590959],[77.335307,28.590776],[77.335369,28.59082]]]},"properties":{"objectid":26524,"plotmapid":"10D056IND","property_t":"Industrial","allotted_p":"Yes","plotsizesq":208,"plot_size":"208 SQMT","plot_no":"056","sector":"10","block":"D","mplanduse":"B","ppt_type":"IND","ppt_full":"Industrial","authority":"NOIDA","category":"industrial","execution_stage":"allotted"}},{"type":"Feature","geometry":{"type":"Polygon","coordinates":[[[77.335431,28.590865],[77.335267,28.59105],[77.335202,28.591003],[77.335373,28.590823],[77.335431,28.590865]]]},"properties":{"objectid":26525,"plotmapid":"10D057IND","property_t":"Industrial","allotted_p":"Yes","plotsizesq":208,"plot_size":"208 SQMT","plot_no":"057","sector":"10","block":"D","mplanduse":"B","ppt_type":"IND","ppt_full":"Industrial","authority":"NOIDA","category":"industrial","execution_stage":"allotted"}},{"type":"Feature","geometry":{"type":"Polygon","coordinates":[[[77.335542,28.590944],[77.335376,28.591128],[77.335267,28.59105],[77.335439,28.59087],[77.335542,28.590944]]]},"properties":{"objectid":26526,"plotmapid":"10D058IND","property_t":"Industrial","allotted_p":"Yes","plotsizesq":208,"plot_size":"208 SQMT","plot_no":"058","sector":"10","block":"D","mplanduse":"B","ppt_type":"IND","ppt_full":"Industrial","authority":"NOIDA","category":"industrial","execution_stage":"allotted"}},{"type":"Feature","geometry":{"type":"Polygon","coordinates":[[[77.335075,28.590911],[77.334905,28.591092],[77.334843,28.591047],[77.335013,28.590867],[77.335075,28.590911]]]},"properties":{"objectid":26580,"plotmapid":"10D065IND","property_t":"Industrial","allotted_p":"Yes","plotsizesq":208,"plot_size":"208 SQMT","plot_no":"065","sector":"10","block":"D","mplanduse":"B","ppt_type":"IND","ppt_full":"Industrial","authority":"NOIDA","category":"industrial","execution_stage":"allotted"}},{"type":"Feature","geometry":{"type":"Polygon","coordinates":[[[77.335137,28.590956],[77.33497,28.591139],[77.334905,28.591092],[77.335075,28.590911],[77.335137,28.590956]]]},"properties":{"objectid":26581,"plotmapid":"10D064IND","property_t":"Industrial","allotted_p":"Yes","plotsizesq":208,"plot_size":"208 SQMT","plot_no":"064","sector":"10","block":"D","mplanduse":"B","ppt_type":"IND","ppt_full":"Industrial","authority":"NOIDA","category":"industrial","execution_stage":"allotted"}},{"type":"Feature","geometry":{"type":"Polygon","coordinates":[[[77.335199,28.591001],[77.335032,28.591183],[77.33497,28.591139],[77.335141,28.590959],[77.335199,28.591001]]]},"properties":{"objectid":26582,"plotmapid":"10D063IND","property_t":"Industrial","allotted_p":"Yes","plotsizesq":208,"plot_size":"208 SQMT","plot_no":"063","sector":"10","block":"D","mplanduse":"B","ppt_type":"IND","ppt_full":"Industrial","authority":"NOIDA","category":"industrial","execution_stage":"allotted"}},{"type":"Feature","geometry":{"type":"Polygon","coordinates":[[[77.335261,28.591045],[77.335095,28.591229],[77.335032,28.591183],[77.335202,28.591003],[77.335261,28.591045]]]},"properties":{"objectid":26583,"plotmapid":"10D062IND","property_t":"Industrial","allotted_p":"Yes","plotsizesq":208,"plot_size":"208 SQMT","plot_no":"062","sector":"10","block":"D","mplanduse":"B","ppt_type":"IND","ppt_full":"Industrial","authority":"NOIDA","category":"industrial","execution_stage":"allotted"}},{"type":"Feature","geometry":{"type":"Polygon","coordinates":[[[77.335376,28.591128],[77.335206,28.591308],[77.335095,28.591229],[77.335267,28.59105],[77.335376,28.591128]]]},"properties":{"objectid":26584,"plotmapid":"10D061IND","property_t":"Industrial","allotted_p":"Yes","plotsizesq":351,"plot_size":"351 SQMT","plot_no":"061","sector":"10","block":"D","mplanduse":"B","ppt_type":"IND","ppt_full":"Industrial","authority":"NOIDA","category":"industrial","execution_stage":"allotted"}},{"type":"Feature","geometry":{"type":"Polygon","coordinates":[[[77.334965,28.591348],[77.334841,28.591477],[77.334798,28.591445],[77.334921,28.591315],[77.334965,28.591348]]]},"properties":{"objectid":26675,"plotmapid":"10D105IND","property_t":"Industrial","allotted_p":"Yes","plotsizesq":114,"plot_size":"114 SQMT","plot_no":"105","sector":"10","block":"D","mplanduse":"B","ppt_type":"IND","ppt_full":"Industrial","authority":"NOIDA","category":"industrial","execution_stage":"allotted"}},{"type":"Feature","geometry":{"type":"Polygon","coordinates":[[[77.335016,28.591385],[77.334892,28.591514],[77.334841,28.591477],[77.334965,28.591348],[77.335016,28.591385]]]},"properties":{"objectid":26676,"plotmapid":"10D106IND","property_t":"Industrial","allotted_p":"Yes","plotsizesq":114,"plot_size":"114 SQMT","plot_no":"106","sector":"10","block":"D","mplanduse":"B","ppt_type":"IND","ppt_full":"Industrial","authority":"NOIDA","category":"industrial","execution_stage":"allotted"}},{"type":"Feature","geometry":{"type":"Polygon","coordinates":[[[77.335078,28.59143],[77.334954,28.591559],[77.334892,28.591514],[77.335016,28.591385],[77.335078,28.59143]]]},"properties":{"objectid":26677,"plotmapid":"10D107IND","property_t":"Industrial","allotted_p":"Yes","plotsizesq":152,"plot_size":"152 SQMT","plot_no":"107","sector":"10","block":"D","mplanduse":"B","ppt_type":"IND","ppt_full":"Industrial","authority":"NOIDA","category":"industrial","execution_stage":"allotted"}}]}
