{"type":"FeatureCollection","features":[{"type":"Feature","geometry":{"type":"Polygon","coordinates":[[[77.378433,28.612534],[77.378443,28.612627],[77.378239,28.612643],[77.378229,28.612551],[77.378433,28.612534]]]},"properties":{"objectid":2930,"plotmapid":"64B095IND","property_t":"Industrial","used":"PLOT","allotted_p":"Yes","plotsizesq":450,"plot_size":"200 SQMT","plot_no":"095","sector":"64","block":"B","mplanduse":"B","ppt_type":"IND","ppt_full":"Industrial","authority":"NOIDA","category":"industrial","execution_stage":"allotted"}},{"type":"Feature","geometry":{"type":"Polygon","coordinates":[[[77.37877,28.612839],[77.378468,28.612863],[77.378455,28.612737],[77.378757,28.612712],[77.37877,28.612839]]]},"properties":{"objectid":2931,"plotmapid":"64B120IND","property_t":"Industrial","used":"PLOT","allotted_p":"Yes","plotsizesq":1000,"plot_size":"450 SQMT","plot_no":"120","sector":"64","block":"B","mplanduse":"V","ppt_type":"IND","ppt_full":"Industrial","authority":"NOIDA","category":"industrial","execution_stage":"allotted"}},{"type":"Feature","geometry":{"type":"Polygon","coordinates":[[[77.377818,28.611844],[77.377678,28.611855],[77.377672,28.611789],[77.377811,28.611778],[77.377818,28.611844]]]},"properties":{"objectid":2932,"plotmapid":"64B067IND","property_t":"Industrial","used":"PLOT","allotted_p":"Yes","plotsizesq":450,"plot_size":"98 SQMT","plot_no":"067","sector":"64","block":"B","mplanduse":"B","ppt_type":"IND","ppt_full":"Industrial","authority":"NOIDA","category":"industrial","execution_stage":"allotted"}},{"type":"Feature","geometry":{"type":"Polygon","coordinates":[[[77.378305,28.614604],[77.377797,28.614643],[77.377709,28.613747],[77.378218,28.613708],[77.378305,28.614604]]]},"properties":{"objectid":3333,"plotmapid":"64A005IND","property_t":"Industrial","used":"PLOT","plotsizesq":5000,"plot_size":"5000 SQMT","plot_no":"005","sector":"64","block":"A","mplanduse":"B","ppt_type":"IND","ppt_full":"Industrial","authority":"NOIDA","category":"industrial","execution_stage":"unknown"}},{"type":"Feature","geometry":{"type":"Polygon","coordinates":[[[77.378816,28.614566],[77.378305,28.614604],[77.378218,28.613708],[77.378729,28.61367],[77.378816,28.614566]]]},"properties":{"objectid":3334,"plotmapid":"64A004IND","property_t":"Industrial","used":"PLOT","plotsizesq":5000,"plot_size":"5000 SQMT","plot_no":"004","sector":"64","block":"A","mplanduse":"B","ppt_type":"IND","ppt_full":"Industrial","authority":"NOIDA","category":"industrial","execution_stage":"unknown"}},{"type":"Feature","geometry":{"type":"Polygon","coordinates":[[[77.377797,28.614643],[77.377286,28.614681],[77.377198,28.613785],[77.377709,28.613747],[77.377797,28.614643]]]},"properties":{"objectid":3335,"plotmapid":"64A006IND","property_t":"Industrial","used":"PLOT","plotsizesq":5000,"plot_size":"5000 SQMT","plot_no":"006","sector":"64","block":"A","mplanduse":"B","ppt_type":"IND","ppt_full":"Industrial","authority":"NOIDA","category":"industrial","execution_stage":"unknown"}},{"type":"Feature","geometry":{"type":"Polygon","coordinates":[[[77.379746,28.613593],[77.380307,28.613551],[77.380395,28.614447],[77.379833,28.614489],[77.379746,28.613593]]]},"properties":{"objectid":3337,"plotmapid":"64A001IND","property_t":"Industrial","used":"PLOT","plotsizesq":5000,"plot_size":"5000 SQMT","plot_no":"001","sector":"64","block":"A","mplanduse":"B","ppt_type":"IND","ppt_full":"Industrial","authority":"NOIDA","category":"industrial","execution_stage":"unknown"}},{"type":"Feature","geometry":{"type":"Polygon","coordinates":[[[77.379833,28.614489],[77.378816,28.614566],[77.378729,28.61367],[77.379746,28.613593],[77.379833,28.614489]]]},"properties":{"objectid":3338,"plotmapid":"64A002,3IND","property_t":"Industrial","used":"PLOT","plotsizesq":5000,"plot_size":"5000 SQMT","plot_no":"002,3","sector":"64","block":"A","mplanduse":"B","ppt_type":"IND","ppt_full":"Industrial","authority":"NOIDA","category":"industrial","execution_stage":"unknown"}},{"type":"Feature","geometry":{"type":"Polygon","coordinates":[[[77.379692,28.613597],[77.37941,28.613618],[77.379357,28.613086],[77.37964,28.613064],[77.379692,28.613597]]]},"properties":{"objectid":3341,"plotmapid":"64A023IND","property_t":"Industrial","used":"PLOT","plotsizesq":1680,"plot_size":"1680 SQMT","plot_no":"023","sector":"64","block":"A","mplanduse":"B","ppt_type":"IND","ppt_full":"Industrial","authority":"NOIDA","category":"industrial","execution_stage":"unknown"}},{"type":"Feature","geometry":{"type":"Polygon","coordinates":[[[77.379122,28.61364],[77.37884,28.613661],[77.378787,28.613129],[77.37907,28.613107],[77.379122,28.61364]]]},"properties":{"objectid":3342,"plotmapid":"64A021IND","property_t":"Industrial","used":"PLOT","plotsizesq":1680,"plot_size":"1680 SQMT","plot_no":"021","sector":"64","block":"A","mplanduse":"B","ppt_type":"IND","ppt_full":"Industrial","authority":"NOIDA","category":"industrial","execution_stage":"unknown"}},{"type":"Feature","geometry":{"type":"Polygon","coordinates":[[[77.378265,28.613705],[77.377983,28.613726],[77.37793,28.613193],[77.378213,28.613172],[77.378265,28.613705]]]},"properties":{"objectid":3343,"plotmapid":"64A018IND","property_t":"Industrial","used":"PLOT","plotsizesq":1680,"plot_size":"1680 SQMT","plot_no":"018","sector":"64","block":"A","mplanduse":"B","ppt_type":"IND","ppt_full":"Industrial","authority":"NOIDA","category":"industrial","execution_stage":"unknown"}},{"type":"Feature","geometry":{"type":"Polygon","coordinates":[[[77.377983,28.613726],[77.377697,28.613748],[77.377645,28.613215],[77.37793,28.613193],[77.377983,28.613726]]]},"properties":{"objectid":3344,"plotmapid":"64A017IND","property_t":"Industrial","used":"PLOT","plotsizesq":1680,"plot_size":"1680 SQMT","plot_no":"017","sector":"64","block":"A","mplanduse":"B","ppt_type":"IND","ppt_full":"Industrial","authority":"NOIDA","category":"industrial","execution_stage":"unknown"}},{"type":"Feature","geometry":{"type":"Polygon","coordinates":[[[77.37884,28.613661],[77.378553,28.613683],[77.378501,28.61315],[77.378787,28.613129],[77.37884,28.613661]]]},"properties":{"objectid":3346,"plotmapid":"64A020IND","property_t":"Industrial","used":"PLOT","plotsizesq":1680,"plot_size":"1680 SQMT","plot_no":"020","sector":"64","block":"A","mplanduse":"B","ppt_type":"IND","ppt_full":"Industrial","authority":"NOIDA","category":"industrial","execution_stage":"unknown"}},{"type":"Feature","geometry":{"type":"Polygon","coordinates":[[[77.379188,28.613635],[77.379122,28.61364],[77.37907,28.613107],[77.379357,28.613086],[77.37941,28.613618],[77.379188,28.613635]]]},"properties":{"objectid":3347,"plotmapid":"64A022IND","property_t":"Industrial","used":"PLOT","plotsizesq":1680,"plot_size":"1680 SQMT","plot_no":"022","sector":"64","block":"A","mplanduse":"B","ppt_type":"IND","ppt_full":"Industrial","authority":"NOIDA","category":"industrial","execution_stage":"unknown"}},{"type":"Feature","geometry":{"type":"Polygon","coordinates":[[[77.378553,28.613683],[77.378265,28.613705],[77.378213,28.613172],[77.378501,28.61315],[77.378553,28.613683]]]},"properties":{"objectid":3348,"plotmapid":"64A019IND","property_t":"Industrial","used":"PLOT","plotsizesq":1680,"plot_size":"1680 SQMT","plot_no":"019","sector":"64","block":"A","mplanduse":"B","ppt_type":"IND","ppt_full":"Industrial","authority":"NOIDA","category":"industrial","execution_stage":"unknown"}},{"type":"Feature","geometry":{"type":"Polygon","coordinates":[[[77.379746,28.613593],[77.379692,28.613597],[77.37964,28.613064],[77.379928,28.613043],[77.37998,28.613576],[77.379746,28.613593]]]},"properties":{"objectid":3349,"plotmapid":"64A024IND","property_t":"Industrial","used":"PLOT","plotsizesq":1680,"plot_size":"1680 SQMT","plot_no":"024","sector":"64","block":"A","mplanduse":"B","ppt_type":"IND","ppt_full":"Industrial","authority":"NOIDA","category":"industrial","execution_stage":"unknown"}},{"type":"Feature","geometry":{"type":"Polygon","coordinates":[[[77.377697,28.613748],[77.377405,28.61377],[77.377353,28.613237],[77.377645,28.613215],[77.377697,28.613748]]]},"properties":{"objectid":3351,"plotmapid":"64A016IND","property_t":"Industrial","used":"PLOT","plotsizesq":1680,"plot_size":"1680 SQMT","plot_no":"016","sector":"64","block":"A","mplanduse":"B","ppt_type":"IND","ppt_full":"Industrial","authority":"NOIDA","category":"industrial","execution_stage":"unknown"}},{"type":"Feature","geometry":{"type":"Polygon","coordinates":[[[77.379928,28.613043],[77.380255,28.613018],[77.380307,28.613551],[77.37998,28.613576],[77.379928,28.613043]]]},"properties":{"objectid":3353,"plotmapid":"64A025IND","property_t":"Industrial","used":"PLOT","plotsizesq":1680,"plot_size":"1680 SQMT","plot_no":"025","sector":"64","block":"A","mplanduse":"B","ppt_type":"IND","ppt_full":"Industrial","authority":"NOIDA","category":"industrial","execution_stage":"unknown"}},{"type":"Feature","geometry":{"type":"Polygon","coordinates":[[[77.37877,28.612839],[77.378784,28.612971],[77.378481,28.612995],[77.378468,28.612863],[77.37877,28.612839]]]},"properties":{"objectid":3354,"plotmapid":"64B121IND","property_t":"Industrial","used":"PLOT","allotted_p":"Yes","plotsizesq":1000,"plot_size":"NA","plot_no":"121","sector":"64","block":"B","mplanduse":"B","ppt_type":"IND","ppt_full":"Industrial","authority":"NOIDA","category":"industrial","execution_stage":"allotted"}},{"type":"Feature","geometry":{"type":"Polygon","coordinates":[[[77.378359,28.611815],[77.378368,28.611906],[77.378164,28.611922],[77.378154,28.611831],[77.378359,28.611815]]]},"properties":{"objectid":3355,"plotmapid":"64B103IND","property_t":"Industrial","used":"PLOT","allotted_p":"Yes","plotsizesq":450,"plot_size":"200 SQMT","plot_no":"103","sector":"64","block":"B","mplanduse":"B","ppt_type":"IND","ppt_full":"Industrial","authority":"NOIDA","category":"industrial","execution_stage":"allotted"}},{"type":"Feature","geometry":{"type":"Polygon","coordinates":[[[77.378757,28.612712],[77.378455,28.612737],[77.378442,28.612616],[77.378745,28.612592],[77.378757,28.612712]]]},"properties":{"objectid":3356,"plotmapid":"64B119IND","property_t":"Industrial","used":"PLOT","allotted_p":"Yes","plotsizesq":1000,"plot_size":"450 SQMT","plot_no":"119","sector":"64","block":"B","mplanduse":"B","ppt_type":"IND","ppt_full":"Industrial","authority":"NOIDA","category":"industrial","execution_stage":"allotted"}},{"type":"Feature","geometry":{"type":"Polygon","coordinates":[[[77.378654,28.611717],[77.378351,28.611742],[77.378338,28.611619],[77.378641,28.611595],[77.378654,28.611717]]]},"properties":{"objectid":3357,"plotmapid":"64B111IND","property_t":"Industrial","used":"PLOT","allotted_p":"Yes","plotsizesq":1000,"plot_size":"450 SQMT","plot_no":"111","sector":"64","block":"B","mplanduse":"B","ppt_type":"IND","ppt_full":"Industrial","authority":"NOIDA","category":"industrial","execution_stage":"allotted"}},{"type":"Feature","geometry":{"type":"Polygon","coordinates":[[[77.378731,28.612463],[77.378429,28.612487],[77.378416,28.612364],[77.378718,28.612339],[77.378731,28.612463]]]},"properties":{"objectid":3358,"plotmapid":"64B117IND","property_t":"Industrial","used":"PLOT","allotted_p":"Yes","plotsizesq":800,"plot_size":"450 SQMT","plot_no":"117","sector":"64","block":"B","mplanduse":"B","ppt_type":"IND","ppt_full":"Industrial","authority":"NOIDA","category":"industrial","execution_stage":"allotted"}},{"type":"Feature","geometry":{"type":"Polygon","coordinates":[[[77.378692,28.61209],[77.37839,28.612114],[77.378377,28.611991],[77.37868,28.611966],[77.378692,28.61209]]]},"properties":{"objectid":3359,"plotmapid":"64B114IND","property_t":"Industrial","used":"PLOT","allotted_p":"Yes","plotsizesq":1000,"plot_size":"450 SQMT","plot_no":"114","sector":"64","block":"B","mplanduse":"B","ppt_type":"IND","ppt_full":"Industrial","authority":"NOIDA","category":"industrial","execution_stage":"allotted"}},{"type":"Feature","geometry":{"type":"Polygon","coordinates":[[[77.378705,28.612214],[77.378403,28.612238],[77.37839,28.612114],[77.378692,28.61209],[77.378705,28.612214]]]},"properties":{"objectid":3360,"plotmapid":"64B115IND","property_t":"Industrial","used":"PLOT","allotted_p":"Yes","plotsizesq":1000,"plot_size":"450 SQMT","plot_no":"115","sector":"64","block":"B","mplanduse":"B","ppt_type":"IND","ppt_full":"Industrial","authority":"NOIDA","category":"industrial","execution_stage":"allotted"}},{"type":"Feature","geometry":{"type":"Polygon","coordinates":[[[77.378667,28.611842],[77.378364,28.611866],[77.378351,28.611742],[77.378654,28.611717],[77.378667,28.611842]]]},"properties":{"objectid":3361,"plotmapid":"64B112IND","property_t":"Industrial","used":"PLOT","allotted_p":"Yes","plotsizesq":1000,"plot_size":"450 SQMT","plot_no":"112","sector":"64","block":"B","mplanduse":"B","ppt_type":"IND","ppt_full":"Industrial","authority":"NOIDA","category":"industrial","execution_stage":"allotted"}},{"type":"Feature","geometry":{"type":"Polygon","coordinates":[[[77.37868,28.611966],[77.378377,28.611991],[77.378364,28.611866],[77.378667,28.611842],[77.37868,28.611966]]]},"properties":{"objectid":3362,"plotmapid":"64B113IND","property_t":"Industrial","used":"PLOT","allotted_p":"Yes","plotsizesq":1000,"plot_size":"450 SQMT","plot_no":"113","sector":"64","block":"B","mplanduse":"B","ppt_type":"IND","ppt_full":"Industrial","authority":"NOIDA","category":"industrial","execution_stage":"allotted"}},{"type":"Feature","geometry":{"type":"Polygon","coordinates":[[[77.378718,28.612339],[77.378416,28.612364],[77.378403,28.612238],[77.378705,28.612214],[77.378718,28.612339]]]},"properties":{"objectid":3363,"plotmapid":"64B116IND","property_t":"Industrial","used":"PLOT","allotted_p":"Yes","plotsizesq":1000,"plot_size":"450 SQMT","plot_no":"116","sector":"64","block":"B","mplanduse":"B","ppt_type":"IND","ppt_full":"Industrial","authority":"NOIDA","category":"industrial","execution_stage":"allotted"}},{"type":"Feature","geometry":{"type":"Polygon","coordinates":[[[77.378641,28.611595],[77.378338,28.611619],[77.378325,28.611494],[77.378628,28.611469],[77.378641,28.611595]]]},"properties":{"objectid":3364,"plotmapid":"64B110IND","property_t":"Industrial","used":"PLOT","allotted_p":"Yes","plotsizesq":450,"plot_size":"450 SQMT","plot_no":"110","sector":"64","block":"B","mplanduse":"B","ppt_type":"IND","ppt_full":"Industrial","authority":"NOIDA","category":"industrial","execution_stage":"allotted"}},{"type":"Feature","geometry":{"type":"Polygon","coordinates":[[[77.378628,28.611469],[77.378325,28.611494],[77.378312,28.611365],[77.378614,28.611341],[77.378628,28.611469]]]},"properties":{"objectid":3365,"plotmapid":"64B109IND","property_t":"Industrial","used":"PLOT","allotted_p":"Yes","plotsizesq":450,"plot_size":"NA","plot_no":"109","sector":"64","block":"B","mplanduse":"B","ppt_type":"IND","ppt_full":"Industrial","authority":"NOIDA","category":"industrial","execution_stage":"allotted"}},{"type":"Feature","geometry":{"type":"Polygon","coordinates":[[[77.378745,28.612592],[77.378442,28.612616],[77.378429,28.612487],[77.378731,28.612463],[77.378745,28.612592]]]},"properties":{"objectid":3366,"plotmapid":"64B118IND","property_t":"Industrial","used":"PLOT","allotted_p":"Yes","plotsizesq":1000,"plot_size":"450 SQMT","plot_no":"118","sector":"64","block":"B","mplanduse":"B","ppt_type":"IND","ppt_full":"Industrial","authority":"NOIDA","category":"industrial","execution_stage":"allotted"}},{"type":"Feature","geometry":{"type":"Polygon","coordinates":[[[77.378331,28.611545],[77.378126,28.611562],[77.378117,28.611473],[77.378321,28.611456],[77.378331,28.611545]]]},"properties":{"objectid":3367,"plotmapid":"64B107IND","property_t":"Industrial","used":"PLOT","allotted_p":"Yes","plotsizesq":450,"plot_size":"200 SQMT","plot_no":"107","sector":"64","block":"B","mplanduse":"B","ppt_type":"IND","ppt_full":"Industrial","authority":"NOIDA","category":"industrial","execution_stage":"allotted"}},{"type":"Feature","geometry":{"type":"Polygon","coordinates":[[[77.378387,28.612087],[77.378182,28.612103],[77.378173,28.612014],[77.378378,28.611997],[77.378387,28.612087]]]},"properties":{"objectid":3368,"plotmapid":"64B101IND","property_t":"Industrial","used":"PLOT","allotted_p":"Yes","plotsizesq":450,"plot_size":"200 SQMT","plot_no":"101","sector":"64","block":"B","mplanduse":"B","ppt_type":"IND","ppt_full":"Industrial","authority":"NOIDA","category":"industrial","execution_stage":"allotted"}},{"type":"Feature","geometry":{"type":"Polygon","coordinates":[[[77.378349,28.611726],[77.378145,28.611742],[77.378136,28.611652],[77.37834,28.611636],[77.378349,28.611726]]]},"properties":{"objectid":3369,"plotmapid":"64B105IND","property_t":"Industrial","used":"PLOT","allotted_p":"Yes","plotsizesq":450,"plot_size":"200 SQMT","plot_no":"105","sector":"64","block":"B","mplanduse":"B","ppt_type":"IND","ppt_full":"Industrial","authority":"NOIDA","category":"industrial","execution_stage":"allotted"}},{"type":"Feature","geometry":{"type":"Polygon","coordinates":[[[77.37834,28.611636],[77.378136,28.611652],[77.378126,28.611562],[77.378331,28.611545],[77.37834,28.611636]]]},"properties":{"objectid":3370,"plotmapid":"64B106IND","property_t":"Industrial","used":"PLOT","allotted_p":"Yes","plotsizesq":450,"plot_size":"200 SQMT","plot_no":"106","sector":"64","block":"B","mplanduse":"B","ppt_type":"IND","ppt_full":"Industrial","authority":"NOIDA","category":"industrial","execution_stage":"allotted"}},{"type":"Feature","geometry":{"type":"Polygon","coordinates":[[[77.378321,28.611456],[77.378117,28.611473],[77.378107,28.611381],[77.378312,28.611365],[77.378321,28.611456]]]},"properties":{"objectid":3371,"plotmapid":"64B108IND","property_t":"Industrial","used":"PLOT","allotted_p":"Yes","plotsizesq":450,"plot_size":"NA","plot_no":"108","sector":"64","block":"B","mplanduse":"B","ppt_type":"IND","ppt_full":"Industrial","authority":"NOIDA","category":"industrial","execution_stage":"allotted"}},{"type":"Feature","geometry":{"type":"Polygon","coordinates":[[[77.378378,28.611997],[77.378173,28.612014],[77.378164,28.611922],[77.378368,28.611906],[77.378378,28.611997]]]},"properties":{"objectid":3372,"plotmapid":"64B102IND","property_t":"Industrial","used":"PLOT","allotted_p":"Yes","plotsizesq":450,"plot_size":"200 SQMT","plot_no":"102","sector":"64","block":"B","mplanduse":"B","ppt_type":"IND","ppt_full":"Industrial","authority":"NOIDA","category":"industrial","execution_stage":"allotted"}},{"type":"Feature","geometry":{"type":"Polygon","coordinates":[[[77.378424,28.612447],[77.37822,28.612463],[77.378211,28.612373],[77.378415,28.612357],[77.378424,28.612447]]]},"properties":{"objectid":3373,"plotmapid":"64B097IND","property_t":"Industrial","used":"PLOT","allotted_p":"Yes","plotsizesq":450,"plot_size":"200 SQMT","plot_no":"097","sector":"64","block":"B","mplanduse":"B","ppt_type":"IND","ppt_full":"Industrial","authority":"NOIDA","category":"industrial","execution_stage":"allotted"}},{"type":"Feature","geometry":{"type":"Polygon","coordinates":[[[77.378452,28.612717],[77.378248,28.612733],[77.378239,28.612643],[77.378443,28.612627],[77.378452,28.612717]]]},"properties":{"objectid":3374,"plotmapid":"64B094IND","property_t":"Industrial","used":"PLOT","allotted_p":"Yes","plotsizesq":450,"plot_size":"200 SQMT","plot_no":"094","sector":"64","block":"B","mplanduse":"B","ppt_type":"IND","ppt_full":"Industrial","authority":"NOIDA","category":"industrial","execution_stage":"allotted"}},{"type":"Feature","geometry":{"type":"Polygon","coordinates":[[[77.378396,28.612177],[77.378192,28.612193],[77.378182,28.612103],[77.378387,28.612087],[77.378396,28.612177]]]},"properties":{"objectid":3375,"plotmapid":"64B100IND","property_t":"Industrial","used":"PLOT","allotted_p":"Yes","plotsizesq":450,"plot_size":"200 SQMT","plot_no":"100","sector":"64","block":"B","mplanduse":"B","ppt_type":"IND","ppt_full":"Industrial","authority":"NOIDA","category":"industrial","execution_stage":"allotted"}},{"type":"Feature","geometry":{"type":"Polygon","coordinates":[[[77.378406,28.612267],[77.378201,28.612283],[77.378192,28.612193],[77.378396,28.612177],[77.378406,28.612267]]]},"properties":{"objectid":3376,"plotmapid":"64B099IND","property_t":"Industrial","used":"PLOT","allotted_p":"Yes","plotsizesq":450,"plot_size":"200 SQMT","plot_no":"099","sector":"64","block":"B","mplanduse":"B","ppt_type":"IND","ppt_full":"Industrial","authority":"NOIDA","category":"industrial","execution_stage":"allotted"}},{"type":"Feature","geometry":{"type":"Polygon","coordinates":[[[77.378415,28.612357],[77.378211,28.612373],[77.378201,28.612283],[77.378406,28.612267],[77.378415,28.612357]]]},"properties":{"objectid":3377,"plotmapid":"64B098IND","property_t":"Industrial","used":"PLOT","allotted_p":"Yes","plotsizesq":450,"plot_size":"200 SQMT","plot_no":"098","sector":"64","block":"B","mplanduse":"B","ppt_type":"IND","ppt_full":"Industrial","authority":"NOIDA","category":"industrial","execution_stage":"allotted"}},{"type":"Feature","geometry":{"type":"Polygon","coordinates":[[[77.378471,28.612898],[77.378267,28.612915],[77.378258,28.612824],[77.378462,28.612808],[77.378471,28.612898]]]},"properties":{"objectid":3378,"plotmapid":"64B092IND","property_t":"Industrial","used":"PLOT","allotted_p":"Yes","plotsizesq":450,"plot_size":"200 SQMT","plot_no":"092","sector":"64","block":"B","mplanduse":"B","ppt_type":"IND","ppt_full":"Industrial","authority":"NOIDA","category":"industrial","execution_stage":"allotted"}},{"type":"Feature","geometry":{"type":"Polygon","coordinates":[[[77.378462,28.612808],[77.378258,28.612824],[77.378248,28.612733],[77.378452,28.612717],[77.378462,28.612808]]]},"properties":{"objectid":3379,"plotmapid":"64B093IND","property_t":"Industrial","used":"PLOT","allotted_p":"Yes","plotsizesq":450,"plot_size":"200 SQMT","plot_no":"093","sector":"64","block":"B","mplanduse":"B","ppt_type":"IND","ppt_full":"Industrial","authority":"NOIDA","category":"industrial","execution_stage":"allotted"}},{"type":"Feature","geometry":{"type":"Polygon","coordinates":[[[77.378471,28.612898],[77.378481,28.612995],[77.378277,28.613011],[77.378267,28.612915],[77.378471,28.612898]]]},"properties":{"objectid":3380,"plotmapid":"64B091IND","property_t":"Industrial","used":"PLOT","allotted_p":"Yes","plotsizesq":450,"plot_size":"NA","plot_no":"091","sector":"64","block":"B","mplanduse":"B","ppt_type":"IND","ppt_full":"Industrial","authority":"NOIDA","category":"industrial","execution_stage":"allotted"}},{"type":"Feature","geometry":{"type":"Polygon","coordinates":[[[77.378359,28.611815],[77.378154,28.611831],[77.378145,28.611742],[77.378349,28.611726],[77.378359,28.611815]]]},"properties":{"objectid":3381,"plotmapid":"64B104IND","property_t":"Industrial","used":"PLOT","allotted_p":"Yes","plotsizesq":450,"plot_size":"200 SQMT","plot_no":"104","sector":"64","block":"B","mplanduse":"B","ppt_type":"IND","ppt_full":"Industrial","authority":"NOIDA","category":"industrial","execution_stage":"allotted"}},{"type":"Feature","geometry":{"type":"Polygon","coordinates":[[[77.378127,28.612844],[77.377922,28.61286],[77.377912,28.612759],[77.378116,28.612743],[77.378127,28.612844]]]},"properties":{"objectid":3382,"plotmapid":"64B088IND","property_t":"Industrial","used":"PLOT","allotted_p":"Yes","plotsizesq":450,"plot_size":"200 SQMT","plot_no":"088","sector":"64","block":"B","mplanduse":"B","ppt_type":"IND","ppt_full":"Industrial","authority":"NOIDA","category":"industrial","execution_stage":"allotted"}},{"type":"Feature","geometry":{"type":"Polygon","coordinates":[[[77.377783,28.611508],[77.377644,28.611519],[77.377634,28.61142],[77.377773,28.611409],[77.377783,28.611508]]]},"properties":{"objectid":3383,"plotmapid":"64B072IND","property_t":"Industrial","used":"PLOT","plotsizesq":0,"plot_size":"NA","plot_no":"072","sector":"64","block":"B","mplanduse":"B","ppt_type":"IND","ppt_full":"Industrial","authority":"NOIDA","category":"industrial","execution_stage":"unknown"}},{"type":"Feature","geometry":{"type":"Polygon","coordinates":[[[77.378135,28.612923],[77.377931,28.612939],[77.377922,28.61286],[77.378127,28.612844],[77.378135,28.612923]]]},"properties":{"objectid":3384,"plotmapid":"64B089IND","property_t":"Industrial","used":"PLOT","allotted_p":"Yes","plotsizesq":450,"plot_size":"200 SQMT","plot_no":"089","sector":"64","block":"B","mplanduse":"B","ppt_type":"IND","ppt_full":"Industrial","authority":"NOIDA","category":"industrial","execution_stage":"allotted"}},{"type":"Feature","geometry":{"type":"Polygon","coordinates":[[[77.378042,28.612022],[77.377838,28.612038],[77.377829,28.611952],[77.378033,28.611936],[77.378042,28.612022]]]},"properties":{"objectid":3385,"plotmapid":"64B079IND","property_t":"Industrial","used":"PLOT","allotted_p":"Yes","plotsizesq":800,"plot_size":"200 SQMT","plot_no":"079","sector":"64","block":"B","mplanduse":"B","ppt_type":"IND","ppt_full":"Industrial","authority":"NOIDA","category":"industrial","execution_stage":"allotted"}},{"type":"Feature","geometry":{"type":"Polygon","coordinates":[[[77.378135,28.612923],[77.378144,28.613011],[77.37794,28.613027],[77.377931,28.612939],[77.378135,28.612923]]]},"properties":{"objectid":3386,"plotmapid":"64B090IND","property_t":"Industrial","used":"PLOT","allotted_p":"Yes","plotsizesq":450,"plot_size":"NA","plot_no":"090","sector":"64","block":"B","mplanduse":"B","ppt_type":"IND","ppt_full":"Industrial","authority":"NOIDA","category":"industrial","execution_stage":"allotted"}},{"type":"Feature","geometry":{"type":"Polygon","coordinates":[[[77.377996,28.61157],[77.377791,28.611586],[77.377782,28.611498],[77.377987,28.611482],[77.377996,28.61157]]]},"properties":{"objectid":3387,"plotmapid":"64B074IND","property_t":"Industrial","used":"PLOT","allotted_p":"Yes","plotsizesq":800,"plot_size":"200 SQMT","plot_no":"074","sector":"64","block":"B","mplanduse":"B","ppt_type":"IND","ppt_full":"Industrial","authority":"NOIDA","category":"industrial","execution_stage":"allotted"}},{"type":"Feature","geometry":{"type":"Polygon","coordinates":[[[77.37807,28.612292],[77.377866,28.612308],[77.377856,28.612219],[77.378061,28.612203],[77.37807,28.612292]]]},"properties":{"objectid":3388,"plotmapid":"64B082IND","property_t":"Industrial","used":"PLOT","allotted_p":"Yes","plotsizesq":800,"plot_size":"200 SQMT","plot_no":"082","sector":"64","block":"B","mplanduse":"B","ppt_type":"IND","ppt_full":"Industrial","authority":"NOIDA","category":"industrial","execution_stage":"allotted"}},{"type":"Feature","geometry":{"type":"Polygon","coordinates":[[[77.377987,28.611482],[77.377782,28.611498],[77.377773,28.611409],[77.377977,28.611393],[77.377987,28.611482]]]},"properties":{"objectid":3389,"plotmapid":"64B073IND","property_t":"Industrial","used":"PLOT","allotted_p":"Yes","plotsizesq":800,"plot_size":"NA","plot_no":"073","sector":"64","block":"B","mplanduse":"B","ppt_type":"IND","ppt_full":"Industrial","authority":"NOIDA","category":"industrial","execution_stage":"allotted"}},{"type":"Feature","geometry":{"type":"Polygon","coordinates":[[[77.378098,28.612562],[77.377893,28.612578],[77.377884,28.612489],[77.378088,28.612473],[77.378098,28.612562]]]},"properties":{"objectid":3390,"plotmapid":"64B085IND","property_t":"Industrial","used":"PLOT","allotted_p":"Yes","plotsizesq":800,"plot_size":"200 SQMT","plot_no":"085","sector":"64","block":"B","mplanduse":"B","ppt_type":"IND","ppt_full":"Industrial","authority":"NOIDA","category":"industrial","execution_stage":"allotted"}},{"type":"Feature","geometry":{"type":"Polygon","coordinates":[[[77.378051,28.612111],[77.377847,28.612128],[77.377838,28.612038],[77.378042,28.612022],[77.378051,28.612111]]]},"properties":{"objectid":3391,"plotmapid":"64B080IND","property_t":"Industrial","used":"PLOT","allotted_p":"Yes","plotsizesq":880,"plot_size":"200 SQMT","plot_no":"080","sector":"64","block":"B","mplanduse":"B","ppt_type":"IND","ppt_full":"Industrial","authority":"NOIDA","category":"industrial","execution_stage":"allotted"}},{"type":"Feature","geometry":{"type":"Polygon","coordinates":[[[77.378088,28.612473],[77.377884,28.612489],[77.377875,28.612399],[77.378079,28.612383],[77.378088,28.612473]]]},"properties":{"objectid":3392,"plotmapid":"64B084IND","property_t":"Industrial","used":"PLOT","allotted_p":"Yes","plotsizesq":800,"plot_size":"200 SQMT","plot_no":"084","sector":"64","block":"B","mplanduse":"B","ppt_type":"IND","ppt_full":"Industrial","authority":"NOIDA","category":"industrial","execution_stage":"allotted"}},{"type":"Feature","geometry":{"type":"Polygon","coordinates":[[[77.378107,28.612652],[77.377903,28.612668],[77.377893,28.612578],[77.378098,28.612562],[77.378107,28.612652]]]},"properties":{"objectid":3393,"plotmapid":"64B086IND","property_t":"Industrial","used":"PLOT","allotted_p":"Yes","plotsizesq":880,"plot_size":"200 SQMT","plot_no":"086","sector":"64","block":"B","mplanduse":"B","ppt_type":"IND","ppt_full":"Industrial","authority":"NOIDA","category":"industrial","execution_stage":"allotted"}},{"type":"Feature","geometry":{"type":"Polygon","coordinates":[[[77.378024,28.611841],[77.377819,28.611858],[77.37781,28.611768],[77.378014,28.611752],[77.378024,28.611841]]]},"properties":{"objectid":3394,"plotmapid":"64B077IND","property_t":"Industrial","used":"PLOT","allotted_p":"Yes","plotsizesq":800,"plot_size":"200 SQMT","plot_no":"077","sector":"64","block":"B","mplanduse":"B","ppt_type":"IND","ppt_full":"Industrial","authority":"NOIDA","category":"industrial","execution_stage":"allotted"}},{"type":"Feature","geometry":{"type":"Polygon","coordinates":[[[77.378014,28.611752],[77.37781,28.611768],[77.377801,28.611677],[77.378005,28.611661],[77.378014,28.611752]]]},"properties":{"objectid":3395,"plotmapid":"64B076IND","property_t":"Industrial","used":"PLOT","allotted_p":"Yes","plotsizesq":800,"plot_size":"200 SQMT","plot_no":"076","sector":"64","block":"B","mplanduse":"B","ppt_type":"IND","ppt_full":"Industrial","authority":"NOIDA","category":"industrial","execution_stage":"allotted"}},{"type":"Feature","geometry":{"type":"Polygon","coordinates":[[[77.378061,28.612203],[77.377856,28.612219],[77.377847,28.612128],[77.378051,28.612111],[77.378061,28.612203]]]},"properties":{"objectid":3396,"plotmapid":"64B081IND","property_t":"Industrial","used":"PLOT","allotted_p":"Yes","plotsizesq":800,"plot_size":"200 SQMT","plot_no":"081","sector":"64","block":"B","mplanduse":"B","ppt_type":"IND","ppt_full":"Industrial","authority":"NOIDA","category":"industrial","execution_stage":"allotted"}},{"type":"Feature","geometry":{"type":"Polygon","coordinates":[[[77.378005,28.611661],[77.377801,28.611677],[77.377791,28.611586],[77.377996,28.61157],[77.378005,28.611661]]]},"properties":{"objectid":3397,"plotmapid":"64B075IND","property_t":"Industrial","used":"PLOT","allotted_p":"Yes","plotsizesq":800,"plot_size":"200 SQMT","plot_no":"075","sector":"64","block":"B","mplanduse":"B","ppt_type":"IND","ppt_full":"Industrial","authority":"NOIDA","category":"industrial","execution_stage":"allotted"}},{"type":"Feature","geometry":{"type":"Polygon","coordinates":[[[77.378079,28.612383],[77.377875,28.612399],[77.377866,28.612308],[77.37807,28.612292],[77.378079,28.612383]]]},"properties":{"objectid":3398,"plotmapid":"64B083IND","property_t":"Industrial","used":"PLOT","allotted_p":"Yes","plotsizesq":800,"plot_size":"200 SQMT","plot_no":"083","sector":"64","block":"B","mplanduse":"B","ppt_type":"IND","ppt_full":"Industrial","authority":"NOIDA","category":"industrial","execution_stage":"allotted"}},{"type":"Feature","geometry":{"type":"Polygon","coordinates":[[[77.378116,28.612743],[77.377912,28.612759],[77.377903,28.612668],[77.378107,28.612652],[77.378116,28.612743]]]},"properties":{"objectid":3399,"plotmapid":"64B087IND","property_t":"Industrial","used":"PLOT","allotted_p":"Yes","plotsizesq":450,"plot_size":"200 SQMT","plot_no":"087","sector":"64","block":"B","mplanduse":"B","ppt_type":"IND","ppt_full":"Industrial","authority":"NOIDA","category":"industrial","execution_stage":"allotted"}},{"type":"Feature","geometry":{"type":"Polygon","coordinates":[[[77.378033,28.611936],[77.377829,28.611952],[77.377819,28.611858],[77.378024,28.611841],[77.378033,28.611936]]]},"properties":{"objectid":3400,"plotmapid":"64B078IND","property_t":"Industrial","used":"PLOT","allotted_p":"Yes","plotsizesq":800,"plot_size":"200 SQMT","plot_no":"078","sector":"64","block":"B","mplanduse":"B","ppt_type":"IND","ppt_full":"Industrial","authority":"NOIDA","category":"industrial","execution_stage":"allotted"}},{"type":"Feature","geometry":{"type":"Polygon","coordinates":[[[77.377867,28.612318],[77.377727,28.612329],[77.377721,28.612266],[77.37786,28.612255],[77.377867,28.612318]]]},"properties":{"objectid":3401,"plotmapid":"64B060IND","property_t":"Industrial","used":"PLOT","allotted_p":"Yes","plotsizesq":450,"plot_size":"98 SQMT","plot_no":"060","sector":"64","block":"B","mplanduse":"B","ppt_type":"IND","ppt_full":"Industrial","authority":"NOIDA","category":"industrial","execution_stage":"allotted"}},{"type":"Feature","geometry":{"type":"Polygon","coordinates":[[[77.377839,28.612048],[77.377699,28.612059],[77.377693,28.611993],[77.377832,28.611982],[77.377839,28.612048]]]},"properties":{"objectid":3402,"plotmapid":"64B064IND","property_t":"Industrial","used":"PLOT","allotted_p":"Yes","plotsizesq":450,"plot_size":"98 SQMT","plot_no":"064","sector":"64","block":"B","mplanduse":"B","ppt_type":"IND","ppt_full":"Industrial","authority":"NOIDA","category":"industrial","execution_stage":"allotted"}},{"type":"Feature","geometry":{"type":"Polygon","coordinates":[[[77.377922,28.61286],[77.377783,28.612871],[77.377776,28.612805],[77.377916,28.612794],[77.377922,28.61286]]]},"properties":{"objectid":3403,"plotmapid":"64B052IND","property_t":"Industrial","used":"PLOT","allotted_p":"Yes","plotsizesq":450,"plot_size":"98 SQMT","plot_no":"052","sector":"64","block":"B","mplanduse":"B","ppt_type":"IND","ppt_full":"Industrial","authority":"NOIDA","category":"industrial","execution_stage":"allotted"}},{"type":"Feature","geometry":{"type":"Polygon","coordinates":[[[77.377902,28.612657],[77.377762,28.612668],[77.377755,28.612602],[77.377895,28.612591],[77.377902,28.612657]]]},"properties":{"objectid":3404,"plotmapid":"64B055IND","property_t":"Industrial","used":"PLOT","allotted_p":"Yes","plotsizesq":4500,"plot_size":"98 SQMT","plot_no":"055","sector":"64","block":"B","mplanduse":"B","ppt_type":"IND","ppt_full":"Industrial","authority":"NOIDA","category":"industrial","execution_stage":"allotted"}},{"type":"Feature","geometry":{"type":"Polygon","coordinates":[[[77.377888,28.612523],[77.377748,28.612534],[77.377741,28.612467],[77.377881,28.612456],[77.377888,28.612523]]]},"properties":{"objectid":3405,"plotmapid":"64B057IND","property_t":"Industrial","used":"PLOT","allotted_p":"Yes","plotsizesq":450,"plot_size":"98 SQMT","plot_no":"057","sector":"64","block":"B","mplanduse":"B","ppt_type":"IND","ppt_full":"Industrial","authority":"NOIDA","category":"industrial","execution_stage":"allotted"}},{"type":"Feature","geometry":{"type":"Polygon","coordinates":[[[77.377853,28.612184],[77.377713,28.612195],[77.377706,28.612128],[77.377846,28.612117],[77.377853,28.612184]]]},"properties":{"objectid":3406,"plotmapid":"64B062IND","property_t":"Industrial","used":"PLOT","allotted_p":"Yes","plotsizesq":450,"plot_size":"98 SQMT","plot_no":"062","sector":"64","block":"B","mplanduse":"B","ppt_type":"IND","ppt_full":"Industrial","authority":"NOIDA","category":"industrial","execution_stage":"allotted"}},{"type":"Feature","geometry":{"type":"Polygon","coordinates":[[[77.377916,28.612794],[77.377776,28.612805],[77.377769,28.612738],[77.377909,28.612727],[77.377916,28.612794]]]},"properties":{"objectid":3407,"plotmapid":"64B053IND","property_t":"Industrial","used":"PLOT","allotted_p":"Yes","plotsizesq":450,"plot_size":"98 SQMT","plot_no":"053","sector":"64","block":"B","mplanduse":"B","ppt_type":"IND","ppt_full":"Industrial","authority":"NOIDA","category":"industrial","execution_stage":"allotted"}},{"type":"Feature","geometry":{"type":"Polygon","coordinates":[[[77.37779,28.611575],[77.377651,28.611586],[77.377644,28.611519],[77.377783,28.611508],[77.37779,28.611575]]]},"properties":{"objectid":3408,"plotmapid":"64B071IND","property_t":"Industrial","used":"PLOT","plotsizesq":98,"plot_size":"98 SQMT","plot_no":"071","sector":"64","block":"B","mplanduse":"B","ppt_type":"IND","ppt_full":"Industrial","authority":"NOIDA","category":"industrial","execution_stage":"unknown"}},{"type":"Feature","geometry":{"type":"Polygon","coordinates":[[[77.377804,28.61171],[77.377665,28.611721],[77.377658,28.611654],[77.377797,28.611643],[77.377804,28.61171]]]},"properties":{"objectid":3409,"plotmapid":"64B069IND","property_t":"Industrial","used":"PLOT","allotted_p":"Yes","plotsizesq":540,"plot_size":"98 SQMT","plot_no":"069","sector":"64","block":"B","mplanduse":"B","ppt_type":"IND","ppt_full":"Industrial","authority":"NOIDA","category":"industrial","execution_stage":"allotted"}},{"type":"Feature","geometry":{"type":"Polygon","coordinates":[[[77.377797,28.611643],[77.377658,28.611654],[77.377651,28.611586],[77.37779,28.611575],[77.377797,28.611643]]]},"properties":{"objectid":3410,"plotmapid":"64B070IND","property_t":"Industrial","used":"PLOT","plotsizesq":98,"plot_size":"98 SQMT","plot_no":"070","sector":"64","block":"B","mplanduse":"B","ppt_type":"IND","ppt_full":"Industrial","authority":"NOIDA","category":"industrial","execution_stage":"unknown"}},{"type":"Feature","geometry":{"type":"Polygon","coordinates":[[[77.377929,28.612928],[77.37779,28.612939],[77.377783,28.612871],[77.377922,28.61286],[77.377929,28.612928]]]},"properties":{"objectid":3411,"plotmapid":"64B051IND","property_t":"Industrial","used":"PLOT","allotted_p":"Yes","plotsizesq":450,"plot_size":"98 SQMT","plot_no":"051","sector":"64","block":"B","mplanduse":"B","ppt_type":"IND","ppt_full":"Industrial","authority":"NOIDA","category":"industrial","execution_stage":"allotted"}},{"type":"Feature","geometry":{"type":"Polygon","coordinates":[[[77.377811,28.611778],[77.377672,28.611789],[77.377665,28.611721],[77.377804,28.61171],[77.377811,28.611778]]]},"properties":{"objectid":3412,"plotmapid":"64B068IND","property_t":"Industrial","used":"PLOT","allotted_p":"Yes","plotsizesq":450,"plot_size":"98 SQMT","plot_no":"068","sector":"64","block":"B","mplanduse":"B","ppt_type":"IND","ppt_full":"Industrial","authority":"NOIDA","category":"industrial","execution_stage":"allotted"}},{"type":"Feature","geometry":{"type":"Polygon","coordinates":[[[77.377895,28.612591],[77.377755,28.612602],[77.377748,28.612534],[77.377888,28.612523],[77.377895,28.612591]]]},"properties":{"objectid":3413,"plotmapid":"64B056IND","property_t":"Industrial","used":"PLOT","allotted_p":"Yes","plotsizesq":450,"plot_size":"98 SQMT","plot_no":"056","sector":"64","block":"B","mplanduse":"B","ppt_type":"IND","ppt_full":"Industrial","authority":"NOIDA","category":"industrial","execution_stage":"allotted"}},{"type":"Feature","geometry":{"type":"Polygon","coordinates":[[[77.377881,28.612456],[77.377741,28.612467],[77.377734,28.612399],[77.377874,28.612388],[77.377881,28.612456]]]},"properties":{"objectid":3414,"plotmapid":"64B058IND","property_t":"Industrial","used":"PLOT","allotted_p":"Yes","plotsizesq":450,"plot_size":"98 SQMT","plot_no":"058","sector":"64","block":"B","mplanduse":"B","ppt_type":"IND","ppt_full":"Industrial","authority":"NOIDA","category":"industrial","execution_stage":"allotted"}},{"type":"Feature","geometry":{"type":"Polygon","coordinates":[[[77.377825,28.611913],[77.377685,28.611924],[77.377678,28.611855],[77.377818,28.611844],[77.377825,28.611913]]]},"properties":{"objectid":3415,"plotmapid":"64B066IND","property_t":"Industrial","used":"PLOT","allotted_p":"Yes","plotsizesq":450,"plot_size":"98 SQMT","plot_no":"066","sector":"64","block":"B","mplanduse":"B","ppt_type":"IND","ppt_full":"Industrial","authority":"NOIDA","category":"industrial","execution_stage":"allotted"}},{"type":"Feature","geometry":{"type":"Polygon","coordinates":[[[77.377832,28.611982],[77.377693,28.611993],[77.377685,28.611924],[77.377825,28.611913],[77.377832,28.611982]]]},"properties":{"objectid":3416,"plotmapid":"64B065IND","property_t":"Industrial","used":"PLOT","allotted_p":"Yes","plotsizesq":450,"plot_size":"98 SQMT","plot_no":"065","sector":"64","block":"B","mplanduse":"B","ppt_type":"IND","ppt_full":"Industrial","authority":"NOIDA","category":"industrial","execution_stage":"allotted"}},{"type":"Feature","geometry":{"type":"Polygon","coordinates":[[[77.377846,28.612117],[77.377706,28.612128],[77.377699,28.612059],[77.377839,28.612048],[77.377846,28.612117]]]},"properties":{"objectid":3417,"plotmapid":"64B063IND","property_t":"Industrial","used":"PLOT","allotted_p":"Yes","plotsizesq":450,"plot_size":"98 SQMT","plot_no":"063","sector":"64","block":"B","mplanduse":"B","ppt_type":"IND","ppt_full":"Industrial","authority":"NOIDA","category":"industrial","execution_stage":"allotted"}},{"type":"Feature","geometry":{"type":"Polygon","coordinates":[[[77.377909,28.612727],[77.377769,28.612738],[77.377762,28.612668],[77.377902,28.612657],[77.377909,28.612727]]]},"properties":{"objectid":3418,"plotmapid":"64B054IND","property_t":"Industrial","used":"PLOT","allotted_p":"Yes","plotsizesq":450,"plot_size":"98 SQMT","plot_no":"054","sector":"64","block":"B","mplanduse":"B","ppt_type":"IND","ppt_full":"Industrial","authority":"NOIDA","category":"industrial","execution_stage":"allotted"}},{"type":"Feature","geometry":{"type":"Polygon","coordinates":[[[77.377874,28.612388],[77.377734,28.612399],[77.377727,28.612329],[77.377867,28.612318],[77.377874,28.612388]]]},"properties":{"objectid":3419,"plotmapid":"64B059IND","property_t":"Industrial","used":"PLOT","allotted_p":"Yes","plotsizesq":450,"plot_size":"98 SQMT","plot_no":"059","sector":"64","block":"B","mplanduse":"B","ppt_type":"IND","ppt_full":"Industrial","authority":"NOIDA","category":"industrial","execution_stage":"allotted"}},{"type":"Feature","geometry":{"type":"Polygon","coordinates":[[[77.37786,28.612255],[77.377721,28.612266],[77.377713,28.612195],[77.377853,28.612184],[77.37786,28.612255]]]},"properties":{"objectid":3420,"plotmapid":"64B061IND","property_t":"Industrial","used":"PLOT","allotted_p":"Yes","plotsizesq":450,"plot_size":"98 SQMT","plot_no":"061","sector":"64","block":"B","mplanduse":"B","ppt_type":"IND","ppt_full":"Industrial","authority":"NOIDA","category":"industrial","execution_stage":"allotted"}},{"type":"Feature","geometry":{"type":"Polygon","coordinates":[[[77.377929,28.612928],[77.37794,28.613027],[77.3778,28.613038],[77.37779,28.612939],[77.377929,28.612928]]]},"properties":{"objectid":3421,"plotmapid":"64B050IND","property_t":"Industrial","used":"PLOT","plotsizesq":0,"plot_size":"NA","plot_no":"050","sector":"64","block":"B","mplanduse":"B","ppt_type":"IND","ppt_full":"Industrial","authority":"NOIDA","category":"industrial","execution_stage":"unknown"}},{"type":"Feature","geometry":{"type":"Polygon","coordinates":[[[77.378433,28.612534],[77.378229,28.612551],[77.37822,28.612463],[77.378424,28.612447],[77.378433,28.612534]]]},"properties":{"objectid":3422,"plotmapid":"64B096IND","property_t":"Industrial","used":"PLOT","allotted_p":"Yes","plotsizesq":450,"plot_size":"200 SQMT","plot_no":"096","sector":"64","block":"B","mplanduse":"B","ppt_type":"IND","ppt_full":"Industrial","authority":"NOIDA","category":"industrial","execution_stage":"allotted"}},{"type":"Feature","geometry":{"type":"Polygon","coordinates":[[[77.377662,28.612948],[77.377673,28.613048],[77.377529,28.613059],[77.377519,28.612959],[77.377662,28.612948]]]},"properties":{"objectid":3424,"plotmapid":"64B049IND","property_t":"Industrial","used":"PLOT","allotted_p":"Yes","plotsizesq":450,"plot_size":"NA","plot_no":"049","sector":"64","block":"B","mplanduse":"B","ppt_type":"IND","ppt_full":"Industrial","authority":"NOIDA","category":"industrial","execution_stage":"allotted"}},{"type":"Feature","geometry":{"type":"Polygon","coordinates":[[[77.377607,28.612406],[77.377463,28.612417],[77.377457,28.612353],[77.3776,28.612342],[77.377607,28.612406]]]},"properties":{"objectid":3447,"plotmapid":"64B040IND","property_t":"Industrial","used":"PLOT","allotted_p":"Yes","plotsizesq":800,"plot_size":"98 SQMT","plot_no":"040","sector":"64","block":"B","mplanduse":"B","ppt_type":"IND","ppt_full":"Industrial","authority":"NOIDA","category":"industrial","execution_stage":"allotted"}},{"type":"Feature","geometry":{"type":"Polygon","coordinates":[[[77.377656,28.612882],[77.377512,28.612893],[77.377505,28.612828],[77.377649,28.612816],[77.377656,28.612882]]]},"properties":{"objectid":3448,"plotmapid":"64B047IND","property_t":"Industrial","used":"PLOT","allotted_p":"Yes","plotsizesq":450,"plot_size":"98 SQMT","plot_no":"047","sector":"64","block":"B","mplanduse":"B","ppt_type":"IND","ppt_full":"Industrial","authority":"NOIDA","category":"industrial","execution_stage":"allotted"}},{"type":"Feature","geometry":{"type":"Polygon","coordinates":[[[77.377662,28.612948],[77.377519,28.612959],[77.377512,28.612893],[77.377656,28.612882],[77.377662,28.612948]]]},"properties":{"objectid":3449,"plotmapid":"64B048IND","property_t":"Industrial","used":"PLOT","allotted_p":"Yes","plotsizesq":450,"plot_size":"98 SQMT","plot_no":"048","sector":"64","block":"B","mplanduse":"B","ppt_type":"IND","ppt_full":"Industrial","authority":"NOIDA","category":"industrial","execution_stage":"allotted"}},{"type":"Feature","geometry":{"type":"Polygon","coordinates":[[[77.377573,28.61207],[77.377429,28.612081],[77.377422,28.612015],[77.377566,28.612004],[77.377573,28.61207]]]},"properties":{"objectid":3451,"plotmapid":"64B035IND","property_t":"Industrial","used":"PLOT","allotted_p":"Yes","plotsizesq":800,"plot_size":"98 SQMT","plot_no":"035","sector":"64","block":"B","mplanduse":"B","ppt_type":"IND","ppt_full":"Industrial","authority":"NOIDA","category":"industrial","execution_stage":"allotted"}},{"type":"Feature","geometry":{"type":"Polygon","coordinates":[[[77.377593,28.612271],[77.37745,28.612282],[77.377443,28.612216],[77.377586,28.612205],[77.377593,28.612271]]]},"properties":{"objectid":3452,"plotmapid":"64B038IND","property_t":"Industrial","used":"PLOT","allotted_p":"Yes","plotsizesq":800,"plot_size":"98 SQMT","plot_no":"038","sector":"64","block":"B","mplanduse":"B","ppt_type":"IND","ppt_full":"Industrial","authority":"NOIDA","category":"industrial","execution_stage":"allotted"}},{"type":"Feature","geometry":{"type":"Polygon","coordinates":[[[77.377628,28.61261],[77.377484,28.612621],[77.377477,28.612554],[77.377621,28.612543],[77.377628,28.61261]]]},"properties":{"objectid":3453,"plotmapid":"64B043IND","property_t":"Industrial","used":"PLOT","allotted_p":"Yes","plotsizesq":450,"plot_size":"98 SQMT","plot_no":"043","sector":"64","block":"B","mplanduse":"B","ppt_type":"IND","ppt_full":"Industrial","authority":"NOIDA","category":"industrial","execution_stage":"allotted"}},{"type":"Feature","geometry":{"type":"Polygon","coordinates":[[[77.37758,28.612137],[77.377436,28.612148],[77.377429,28.612081],[77.377573,28.61207],[77.37758,28.612137]]]},"properties":{"objectid":3454,"plotmapid":"64B036IND","property_t":"Industrial","used":"PLOT","allotted_p":"Yes","plotsizesq":800,"plot_size":"98 SQMT","plot_no":"036","sector":"64","block":"B","mplanduse":"B","ppt_type":"IND","ppt_full":"Industrial","authority":"NOIDA","category":"industrial","execution_stage":"allotted"}},{"type":"Feature","geometry":{"type":"Polygon","coordinates":[[[77.377552,28.611867],[77.377408,28.611878],[77.377402,28.611811],[77.377545,28.6118],[77.377552,28.611867]]]},"properties":{"objectid":3456,"plotmapid":"64B032IND","property_t":"Industrial","used":"PLOT","allotted_p":"Yes","plotsizesq":800,"plot_size":"98 SQMT","plot_no":"032","sector":"64","block":"B","mplanduse":"B","ppt_type":"IND","ppt_full":"Industrial","authority":"NOIDA","category":"industrial","execution_stage":"allotted"}},{"type":"Feature","geometry":{"type":"Polygon","coordinates":[[[77.377586,28.612205],[77.377443,28.612216],[77.377436,28.612148],[77.37758,28.612137],[77.377586,28.612205]]]},"properties":{"objectid":3457,"plotmapid":"64B037IND","property_t":"Industrial","used":"PLOT","allotted_p":"Yes","plotsizesq":800,"plot_size":"98 SQMT","plot_no":"037","sector":"64","block":"B","mplanduse":"B","ppt_type":"IND","ppt_full":"Industrial","authority":"NOIDA","category":"industrial","execution_stage":"allotted"}},{"type":"Feature","geometry":{"type":"Polygon","coordinates":[[[77.377621,28.612543],[77.377477,28.612554],[77.377471,28.612486],[77.377614,28.612475],[77.377621,28.612543]]]},"properties":{"objectid":3458,"plotmapid":"64B042IND","property_t":"Industrial","used":"PLOT","allotted_p":"Yes","plotsizesq":450,"plot_size":"98 SQMT","plot_no":"042","sector":"64","block":"B","mplanduse":"B","ppt_type":"IND","ppt_full":"Industrial","authority":"NOIDA","category":"industrial","execution_stage":"allotted"}},{"type":"Feature","geometry":{"type":"Polygon","coordinates":[[[77.377649,28.612816],[77.377505,28.612828],[77.377498,28.612759],[77.377642,28.612748],[77.377649,28.612816]]]},"properties":{"objectid":3459,"plotmapid":"64B046IND","property_t":"Industrial","used":"PLOT","allotted_p":"Yes","plotsizesq":450,"plot_size":"98 SQMT","plot_no":"046","sector":"64","block":"B","mplanduse":"B","ppt_type":"IND","ppt_full":"Industrial","authority":"NOIDA","category":"industrial","execution_stage":"allotted"}},{"type":"Feature","geometry":{"type":"Polygon","coordinates":[[[77.377566,28.612004],[77.377422,28.612015],[77.377415,28.611947],[77.377559,28.611935],[77.377566,28.612004]]]},"properties":{"objectid":3460,"plotmapid":"64B034IND","property_t":"Industrial","used":"PLOT","allotted_p":"Yes","plotsizesq":800,"plot_size":"98 SQMT","plot_no":"034","sector":"64","block":"B","mplanduse":"B","ppt_type":"IND","ppt_full":"Industrial","authority":"NOIDA","category":"industrial","execution_stage":"allotted"}},{"type":"Feature","geometry":{"type":"Polygon","coordinates":[[[77.377559,28.611935],[77.377415,28.611947],[77.377408,28.611878],[77.377552,28.611867],[77.377559,28.611935]]]},"properties":{"objectid":3461,"plotmapid":"64B033IND","property_t":"Industrial","used":"PLOT","allotted_p":"Yes","plotsizesq":800,"plot_size":"98 SQMT","plot_no":"033","sector":"64","block":"B","mplanduse":"B","ppt_type":"IND","ppt_full":"Industrial","authority":"NOIDA","category":"industrial","execution_stage":"allotted"}},{"type":"Feature","geometry":{"type":"Polygon","coordinates":[[[77.377614,28.612475],[77.377471,28.612486],[77.377463,28.612417],[77.377607,28.612406],[77.377614,28.612475]]]},"properties":{"objectid":3462,"plotmapid":"64B041IND","property_t":"Industrial","used":"PLOT","allotted_p":"Yes","plotsizesq":800,"plot_size":"98 SQMT","plot_no":"041","sector":"64","block":"B","mplanduse":"B","ppt_type":"IND","ppt_full":"Industrial","authority":"NOIDA","category":"industrial","execution_stage":"allotted"}},{"type":"Feature","geometry":{"type":"Polygon","coordinates":[[[77.377642,28.612748],[77.377498,28.612759],[77.377491,28.61269],[77.377635,28.612679],[77.377642,28.612748]]]},"properties":{"objectid":3463,"plotmapid":"64B045IND","property_t":"Industrial","used":"PLOT","allotted_p":"Yes","plotsizesq":450,"plot_size":"98 SQMT","plot_no":"045","sector":"64","block":"B","mplanduse":"B","ppt_type":"IND","ppt_full":"Industrial","authority":"NOIDA","category":"industrial","execution_stage":"allotted"}},{"type":"Feature","geometry":{"type":"Polygon","coordinates":[[[77.377635,28.612679],[77.377491,28.61269],[77.377484,28.612621],[77.377628,28.61261],[77.377635,28.612679]]]},"properties":{"objectid":3464,"plotmapid":"64B044IND","property_t":"Industrial","used":"PLOT","allotted_p":"Yes","plotsizesq":450,"plot_size":"98 SQMT","plot_no":"044","sector":"64","block":"B","mplanduse":"B","ppt_type":"IND","ppt_full":"Industrial","authority":"NOIDA","category":"industrial","execution_stage":"allotted"}},{"type":"Feature","geometry":{"type":"Polygon","coordinates":[[[77.377545,28.6118],[77.377402,28.611811],[77.377395,28.611742],[77.377538,28.61173],[77.377545,28.6118]]]},"properties":{"objectid":3465,"plotmapid":"64B031IND","property_t":"Industrial","used":"PLOT","allotted_p":"Yes","plotsizesq":800,"plot_size":"98 SQMT","plot_no":"031","sector":"64","block":"B","mplanduse":"B","ppt_type":"IND","ppt_full":"Industrial","authority":"NOIDA","category":"industrial","execution_stage":"allotted"}},{"type":"Feature","geometry":{"type":"Polygon","coordinates":[[[77.3776,28.612342],[77.377457,28.612353],[77.37745,28.612282],[77.377593,28.612271],[77.3776,28.612342]]]},"properties":{"objectid":3467,"plotmapid":"64B039IND","property_t":"Industrial","used":"PLOT","allotted_p":"Yes","plotsizesq":800,"plot_size":"98 SQMT","plot_no":"039","sector":"64","block":"B","mplanduse":"B","ppt_type":"IND","ppt_full":"Industrial","authority":"NOIDA","category":"industrial","execution_stage":"allotted"}},{"type":"Feature","geometry":{"type":"Polygon","coordinates":[[[77.378158,28.610857],[77.378054,28.610865],[77.377979,28.610138],[77.37849,28.610097],[77.378565,28.610826],[77.378158,28.610857]]]},"properties":{"objectid":3469,"plotmapid":"64A031IND","property_t":"Industrial","used":"PLOT","plotsizesq":3200,"plot_size":"3200 SQMT","plot_no":"031","sector":"64","block":"A","mplanduse":"B","ppt_type":"IND","ppt_full":"Industrial","authority":"NOIDA","category":"industrial","execution_stage":"unknown"}},{"type":"Feature","geometry":{"type":"Polygon","coordinates":[[[77.377748,28.610888],[77.377643,28.610896],[77.377569,28.61017],[77.377979,28.610138],[77.378054,28.610865],[77.377748,28.610888]]]},"properties":{"objectid":3474,"plotmapid":"64A032IND","property_t":"Industrial","used":"PLOT","plotsizesq":3200,"plot_size":"3200 SQMT","plot_no":"032","sector":"64","block":"A","mplanduse":"B","ppt_type":"IND","ppt_full":"Industrial","authority":"NOIDA","category":"industrial","execution_stage":"unknown"}},{"type":"Feature","geometry":{"type":"Polygon","coordinates":[[[77.378395,28.611199],[77.378194,28.611215],[77.378158,28.610857],[77.378359,28.610841],[77.378395,28.611199]]]},"properties":{"objectid":3482,"plotmapid":"64A052IND","property_t":"Industrial","used":"PLOT","plotsizesq":800,"plot_size":"800 SQMT","plot_no":"052","sector":"64","block":"A","mplanduse":"B","ppt_type":"IND","ppt_full":"Industrial","authority":"NOIDA","category":"industrial","execution_stage":"unknown"}},{"type":"Feature","geometry":{"type":"Polygon","coordinates":[[[77.377988,28.61123],[77.377784,28.611246],[77.377748,28.610888],[77.377952,28.610873],[77.377988,28.61123]]]},"properties":{"objectid":3488,"plotmapid":"64A050IND","property_t":"Industrial","used":"PLOT","plotsizesq":800,"plot_size":"800 SQMT","plot_no":"050","sector":"64","block":"A","mplanduse":"B","ppt_type":"IND","ppt_full":"Industrial","authority":"NOIDA","category":"industrial","execution_stage":"unknown"}},{"type":"Feature","geometry":{"type":"Polygon","coordinates":[[[77.378194,28.611215],[77.377988,28.61123],[77.377952,28.610873],[77.378158,28.610857],[77.378194,28.611215]]]},"properties":{"objectid":3492,"plotmapid":"64A051IND","property_t":"Industrial","used":"PLOT","plotsizesq":800,"plot_size":"800 SQMT","plot_no":"051","sector":"64","block":"A","mplanduse":"B","ppt_type":"IND","ppt_full":"Industrial","authority":"NOIDA","category":"industrial","execution_stage":"unknown"}},{"type":"Feature","geometry":{"type":"Polygon","coordinates":[[[77.378359,28.610841],[77.378565,28.610826],[77.378602,28.611183],[77.378395,28.611199],[77.378359,28.610841]]]},"properties":{"objectid":3493,"plotmapid":"64A053IND","property_t":"Industrial","used":"PLOT","plotsizesq":800,"plot_size":"800 SQMT","plot_no":"053","sector":"64","block":"A","mplanduse":"B","ppt_type":"IND","ppt_full":"Industrial","authority":"NOIDA","category":"industrial","execution_stage":"unknown"}},{"type":"Feature","geometry":{"type":"Polygon","coordinates":[[[77.377784,28.611246],[77.377577,28.611262],[77.377542,28.610904],[77.377748,28.610888],[77.377784,28.611246]]]},"properties":{"objectid":3494,"plotmapid":"64A049IND","property_t":"Industrial","used":"PLOT","plotsizesq":800,"plot_size":"800 SQMT","plot_no":"049","sector":"64","block":"A","mplanduse":"B","ppt_type":"IND","ppt_full":"Industrial","authority":"NOIDA","category":"industrial","execution_stage":"unknown"}},{"type":"Feature","geometry":{"type":"Polygon","coordinates":[[[77.382159,28.613416],[77.381869,28.613438],[77.381815,28.612902],[77.382105,28.61288],[77.382159,28.613416]]]},"properties":{"objectid":6512,"plotmapid":"65A011IND","property_t":"Industrial","used":"PLOT","plotsizesq":1680,"plot_size":"1680 SQMT","plot_no":"011","sector":"65","block":"A","mplanduse":"V","ppt_type":"IND","ppt_full":"Industrial","authority":"NOIDA","category":"industrial","execution_stage":"unknown"}},{"type":"Feature","geometry":{"type":"Polygon","coordinates":[[[77.380986,28.610635],[77.381021,28.610997],[77.380814,28.611013],[77.380777,28.61065],[77.380986,28.610635]]]},"properties":{"objectid":6517,"plotmapid":"65A091IND","property_t":"Industrial","used":"PLOT","plotsizesq":800,"plot_size":"800 SQMT","plot_no":"091","sector":"65","block":"A","mplanduse":"V","ppt_type":"IND","ppt_full":"Industrial","authority":"NOIDA","category":"industrial","execution_stage":"unknown"}},{"type":"Feature","geometry":{"type":"Polygon","coordinates":[[[77.381587,28.61346],[77.381294,28.613482],[77.381241,28.612946],[77.381533,28.612924],[77.381587,28.61346]]]},"properties":{"objectid":7166,"plotmapid":"65A009IND","property_t":"Industrial","used":"PLOT","plotsizesq":0,"plot_size":"NA","plot_no":"009","sector":"65","block":"A","mplanduse":"B","ppt_type":"IND","ppt_full":"Industrial","authority":"NOIDA","category":"industrial","execution_stage":"unknown"}},{"type":"Feature","geometry":{"type":"Polygon","coordinates":[[[77.381872,28.614336],[77.381383,28.614374],[77.381294,28.613482],[77.381783,28.613445],[77.381872,28.614336]]]},"properties":{"objectid":7167,"plotmapid":"65A007IND","property_t":"Industrial","used":"PLOT","plotsizesq":0,"plot_size":"NA","plot_no":"007","sector":"65","block":"A","mplanduse":"B","ppt_type":"IND","ppt_full":"Industrial","authority":"NOIDA","category":"industrial","execution_stage":"unknown"}},{"type":"Feature","geometry":{"type":"Polygon","coordinates":[[[77.382362,28.614299],[77.381872,28.614336],[77.381783,28.613445],[77.382273,28.613407],[77.382362,28.614299]]]},"properties":{"objectid":7168,"plotmapid":"65A006IND","property_t":"Industrial","used":"PLOT","plotsizesq":5000,"plot_size":"5000 SQMT","plot_no":"006","sector":"65","block":"A","mplanduse":"B","ppt_type":"IND","ppt_full":"Industrial","authority":"NOIDA","category":"industrial","execution_stage":"unknown"}},{"type":"Feature","geometry":{"type":"Polygon","coordinates":[[[77.381869,28.613438],[77.381587,28.61346],[77.381533,28.612924],[77.381815,28.612902],[77.381869,28.613438]]]},"properties":{"objectid":7173,"plotmapid":"65A010IND","property_t":"Industrial","used":"PLOT","plotsizesq":1680,"plot_size":"1680 SQMT","plot_no":"010","sector":"65","block":"A","mplanduse":"B","ppt_type":"IND","ppt_full":"Industrial","authority":"NOIDA","category":"industrial","execution_stage":"unknown"}},{"type":"Feature","geometry":{"type":"Polygon","coordinates":[[[77.381429,28.610966],[77.38122,28.610982],[77.381185,28.61062],[77.381393,28.610605],[77.381429,28.610966]]]},"properties":{"objectid":7242,"plotmapid":"65A093IND","property_t":"Industrial","used":"PLOT","plotsizesq":800,"plot_size":"800 SQMT","plot_no":"093","sector":"65","block":"A","mplanduse":"B","ppt_type":"IND","ppt_full":"Industrial","authority":"NOIDA","category":"industrial","execution_stage":"unknown"}},{"type":"Feature","geometry":{"type":"Polygon","coordinates":[[[77.381185,28.61062],[77.38122,28.610982],[77.381021,28.610997],[77.380986,28.610635],[77.381185,28.61062]]]},"properties":{"objectid":7243,"plotmapid":"65A092IND","property_t":"Industrial","used":"PLOT","plotsizesq":800,"plot_size":"800 SQMT","plot_no":"092","sector":"65","block":"A","mplanduse":"B","ppt_type":"IND","ppt_full":"Industrial","authority":"NOIDA","category":"industrial","execution_stage":"unknown"}},{"type":"Feature","geometry":{"type":"Polygon","coordinates":[[[77.382242,28.610905],[77.382041,28.61092],[77.382006,28.61056],[77.382207,28.610545],[77.382242,28.610905]]]},"properties":{"objectid":7249,"plotmapid":"65A097IND","property_t":"Industrial","used":"PLOT","plotsizesq":800,"plot_size":"800 SQMT","plot_no":"097","sector":"65","block":"A","mplanduse":"B","ppt_type":"IND","ppt_full":"Industrial","authority":"NOIDA","category":"industrial","execution_stage":"unknown"}},{"type":"Feature","geometry":{"type":"Polygon","coordinates":[[[77.38163,28.610951],[77.381429,28.610966],[77.381393,28.610605],[77.381595,28.61059],[77.38163,28.610951]]]},"properties":{"objectid":7250,"plotmapid":"65A094IND","property_t":"Industrial","used":"PLOT","plotsizesq":800,"plot_size":"800 SQMT","plot_no":"094","sector":"65","block":"A","mplanduse":"B","ppt_type":"IND","ppt_full":"Industrial","authority":"NOIDA","category":"industrial","execution_stage":"unknown"}},{"type":"Feature","geometry":{"type":"Polygon","coordinates":[[[77.381799,28.610576],[77.381834,28.610936],[77.38163,28.610951],[77.381595,28.61059],[77.381799,28.610576]]]},"properties":{"objectid":7253,"plotmapid":"65A095IND","property_t":"Industrial","used":"PLOT","plotsizesq":800,"plot_size":"800 SQMT","plot_no":"095","sector":"65","block":"A","mplanduse":"B","ppt_type":"IND","ppt_full":"Industrial","authority":"NOIDA","category":"industrial","execution_stage":"unknown"}},{"type":"Feature","geometry":{"type":"Polygon","coordinates":[[[77.380777,28.610651],[77.380814,28.611013],[77.380607,28.611028],[77.380573,28.610665],[77.380777,28.610651]]]},"properties":{"objectid":7257,"plotmapid":"65A090IND","property_t":"Industrial","used":"PLOT","plotsizesq":800,"plot_size":"800 SQMT","plot_no":"090","sector":"65","block":"A","mplanduse":"B","ppt_type":"IND","ppt_full":"Industrial","authority":"NOIDA","category":"industrial","execution_stage":"unknown"}},{"type":"Feature","geometry":{"type":"Polygon","coordinates":[[[77.380607,28.611028],[77.380402,28.611044],[77.380366,28.61068],[77.380573,28.610665],[77.380607,28.611028]]]},"properties":{"objectid":7259,"plotmapid":"65A089IND","property_t":"Industrial","used":"PLOT","plotsizesq":800,"plot_size":"800 SQMT","plot_no":"089","sector":"65","block":"A","mplanduse":"B","ppt_type":"IND","ppt_full":"Industrial","authority":"NOIDA","category":"industrial","execution_stage":"unknown"}},{"type":"Feature","geometry":{"type":"Polygon","coordinates":[[[77.382041,28.61092],[77.381834,28.610936],[77.381799,28.610575],[77.382006,28.61056],[77.382041,28.61092]]]},"properties":{"objectid":7272,"plotmapid":"65A096IND","property_t":"Industrial","used":"PLOT","plotsizesq":800,"plot_size":"800 SQMT","plot_no":"096","sector":"65","block":"A","mplanduse":"B","ppt_type":"IND","ppt_full":"Industrial","authority":"NOIDA","category":"industrial","execution_stage":"unknown"}},{"type":"Feature","geometry":{"type":"Polygon","coordinates":[[[77.378593,28.615532],[77.378336,28.615551],[77.378304,28.615218],[77.378561,28.615199],[77.378593,28.615532]]]},"properties":{"objectid":9464,"plotmapid":"63B142IND","property_t":"Industrial","used":"PLOT","plotsizesq":1000,"plot_size":"1000 SQMT","plot_no":"142","sector":"63","block":"B","mplanduse":"B","ppt_type":"IND","ppt_full":"Industrial","authority":"NOIDA","category":"industrial","execution_stage":"unknown"}},{"type":"Feature","geometry":{"type":"Polygon","coordinates":[[[77.381547,28.614646],[77.381568,28.61486],[77.38075,28.614921],[77.380728,28.614697],[77.381546,28.614636],[77.381547,28.614646]]]},"properties":{"objectid":9484,"plotmapid":"63C015, 16IND","property_t":"Industrial","used":"PLOT","plotsizesq":1000,"plot_size":"1000 SQMT","plot_no":"015, 16","sector":"63","block":"C","mplanduse":"B","ppt_type":"IND","ppt_full":"Industrial","authority":"NOIDA","category":"industrial","execution_stage":"unknown"}},{"type":"Feature","geometry":{"type":"Polygon","coordinates":[[[77.380059,28.614751],[77.380422,28.614724],[77.380456,28.615058],[77.380091,28.615085],[77.380059,28.614751]]]},"properties":{"objectid":9488,"plotmapid":"63B160IND","property_t":"Industrial","used":"PLOT","plotsizesq":0,"plot_size":"NA","plot_no":"160","sector":"63","block":"B","mplanduse":"B","ppt_type":"IND","ppt_full":"Industrial","authority":"NOIDA","category":"industrial","execution_stage":"unknown"}},{"type":"Feature","geometry":{"type":"Polygon","coordinates":[[[77.380091,28.615085],[77.379837,28.615104],[77.379804,28.61477],[77.380059,28.614751],[77.380091,28.615085]]]},"properties":{"objectid":9489,"plotmapid":"63B159IND","property_t":"Industrial","used":"PLOT","plotsizesq":1000,"plot_size":"1000 SQMT","plot_no":"159","sector":"63","block":"B","mplanduse":"B","ppt_type":"IND","ppt_full":"Industrial","authority":"NOIDA","category":"industrial","execution_stage":"unknown"}},{"type":"Feature","geometry":{"type":"Polygon","coordinates":[[[77.379837,28.615104],[77.379582,28.615123],[77.37955,28.614789],[77.379804,28.61477],[77.379837,28.615104]]]},"properties":{"objectid":9490,"plotmapid":"63B158IND","property_t":"Industrial","used":"PLOT","plotsizesq":1000,"plot_size":"1000 SQMT","plot_no":"158","sector":"63","block":"B","mplanduse":"B","ppt_type":"IND","ppt_full":"Industrial","authority":"NOIDA","category":"industrial","execution_stage":"unknown"}},{"type":"Feature","geometry":{"type":"Polygon","coordinates":[[[77.379582,28.615123],[77.379326,28.615142],[77.379294,28.614808],[77.37955,28.614789],[77.379582,28.615123]]]},"properties":{"objectid":9491,"plotmapid":"63B157IND","property_t":"Industrial","used":"PLOT","plotsizesq":1000,"plot_size":"1000 SQMT","plot_no":"157","sector":"63","block":"B","mplanduse":"B","ppt_type":"IND","ppt_full":"Industrial","authority":"NOIDA","category":"industrial","execution_stage":"unknown"}},{"type":"Feature","geometry":{"type":"Polygon","coordinates":[[[77.379326,28.615142],[77.379071,28.615161],[77.379039,28.614827],[77.379294,28.614808],[77.379326,28.615142]]]},"properties":{"objectid":9492,"plotmapid":"63B156IND","property_t":"Industrial","used":"PLOT","plotsizesq":1000,"plot_size":"1000 SQMT","plot_no":"156","sector":"63","block":"B","mplanduse":"B","ppt_type":"IND","ppt_full":"Industrial","authority":"NOIDA","category":"industrial","execution_stage":"unknown"}},{"type":"Feature","geometry":{"type":"Polygon","coordinates":[[[77.379071,28.615161],[77.378814,28.61518],[77.37878,28.614847],[77.379039,28.614827],[77.379071,28.615161]]]},"properties":{"objectid":9493,"plotmapid":"63B155IND","property_t":"Industrial","used":"PLOT","plotsizesq":1000,"plot_size":"1000 SQMT","plot_no":"155","sector":"63","block":"B","mplanduse":"B","ppt_type":"IND","ppt_full":"Industrial","authority":"NOIDA","category":"industrial","execution_stage":"unknown"}},{"type":"Feature","geometry":{"type":"Polygon","coordinates":[[[77.378814,28.61518],[77.378561,28.615199],[77.378529,28.614865],[77.37878,28.614847],[77.378814,28.61518]]]},"properties":{"objectid":9494,"plotmapid":"63B154IND","property_t":"Industrial","used":"PLOT","plotsizesq":1000,"plot_size":"1000 SQMT","plot_no":"154","sector":"63","block":"B","mplanduse":"B","ppt_type":"IND","ppt_full":"Industrial","authority":"NOIDA","category":"industrial","execution_stage":"unknown"}},{"type":"Feature","geometry":{"type":"Polygon","coordinates":[[[77.378561,28.615199],[77.378304,28.615218],[77.378273,28.614884],[77.378529,28.614865],[77.378561,28.615199]]]},"properties":{"objectid":9495,"plotmapid":"63B153IND","property_t":"Industrial","used":"PLOT","plotsizesq":1000,"plot_size":"1000 SQMT","plot_no":"153","sector":"63","block":"B","mplanduse":"B","ppt_type":"IND","ppt_full":"Industrial","authority":"NOIDA","category":"industrial","execution_stage":"unknown"}},{"type":"Feature","geometry":{"type":"Polygon","coordinates":[[[77.37802,28.614903],[77.378273,28.614884],[77.378304,28.615218],[77.378052,28.615237],[77.37802,28.614903]]]},"properties":{"objectid":9496,"plotmapid":"63B152IND","property_t":"Industrial","used":"PLOT","plotsizesq":1000,"plot_size":"1000 SQMT","plot_no":"152","sector":"63","block":"B","mplanduse":"B","ppt_type":"IND","ppt_full":"Industrial","authority":"NOIDA","category":"industrial","execution_stage":"unknown"}},{"type":"Feature","geometry":{"type":"Polygon","coordinates":[[[77.378052,28.615237],[77.377798,28.615256],[77.377765,28.614922],[77.37802,28.614903],[77.378052,28.615237]]]},"properties":{"objectid":9497,"plotmapid":"63B151IND","property_t":"Industrial","used":"PLOT","plotsizesq":1000,"plot_size":"1000 SQMT","plot_no":"151","sector":"63","block":"B","mplanduse":"B","ppt_type":"IND","ppt_full":"Industrial","authority":"NOIDA","category":"industrial","execution_stage":"unknown"}},{"type":"Feature","geometry":{"type":"Polygon","coordinates":[[[77.377798,28.615256],[77.377541,28.615275],[77.377509,28.614941],[77.377765,28.614922],[77.377798,28.615256]]]},"properties":{"objectid":9498,"plotmapid":"63B150IND","property_t":"Industrial","used":"PLOT","plotsizesq":1000,"plot_size":"1000 SQMT","plot_no":"150","sector":"63","block":"B","mplanduse":"B","ppt_type":"IND","ppt_full":"Industrial","authority":"NOIDA","category":"industrial","execution_stage":"unknown"}},{"type":"Feature","geometry":{"type":"Polygon","coordinates":[[[77.381589,28.615085],[77.38118,28.615116],[77.381159,28.61489],[77.381568,28.61486],[77.381589,28.615085]]]},"properties":{"objectid":9504,"plotmapid":"63C017IND","property_t":"Industrial","used":"PLOT","plotsizesq":1000,"plot_size":"1000 SQMT","plot_no":"017","sector":"63","block":"C","mplanduse":"B","ppt_type":"IND","ppt_full":"Industrial","authority":"NOIDA","category":"industrial","execution_stage":"unknown"}},{"type":"Feature","geometry":{"type":"Polygon","coordinates":[[[77.38118,28.615116],[77.380771,28.615146],[77.38075,28.614921],[77.381159,28.61489],[77.38118,28.615116]]]},"properties":{"objectid":9505,"plotmapid":"63C014IND","property_t":"Industrial","used":"PLOT","plotsizesq":1000,"plot_size":"1000 SQMT","plot_no":"014","sector":"63","block":"C","mplanduse":"B","ppt_type":"IND","ppt_full":"Industrial","authority":"NOIDA","category":"industrial","execution_stage":"unknown"}},{"type":"Feature","geometry":{"type":"Polygon","coordinates":[[[77.382105,28.615132],[77.381778,28.615156],[77.381727,28.614623],[77.382052,28.614599],[77.382105,28.615132]]]},"properties":{"objectid":9517,"plotmapid":"63C127IND","property_t":"Industrial","used":"PLOT","plotsizesq":1800,"plot_size":"1800 SQMT","plot_no":"127","sector":"63","block":"C","mplanduse":"B","ppt_type":"IND","ppt_full":"Industrial","authority":"NOIDA","category":"industrial","execution_stage":"unknown"}},{"type":"Feature","geometry":{"type":"Polygon","coordinates":[[[77.38161,28.61531],[77.381201,28.615341],[77.38118,28.615116],[77.381589,28.615085],[77.38161,28.61531]]]},"properties":{"objectid":9527,"plotmapid":"63C018IND","property_t":"Industrial","used":"PLOT","plotsizesq":1000,"plot_size":"1000 SQMT","plot_no":"018","sector":"63","block":"C","mplanduse":"B","ppt_type":"IND","ppt_full":"Industrial","authority":"NOIDA","category":"industrial","execution_stage":"unknown"}},{"type":"Feature","geometry":{"type":"Polygon","coordinates":[[[77.381201,28.615341],[77.380792,28.615372],[77.380771,28.615146],[77.38118,28.615116],[77.381201,28.615341]]]},"properties":{"objectid":9528,"plotmapid":"63C013IND","property_t":"Industrial","used":"PLOT","plotsizesq":1000,"plot_size":"1000 SQMT","plot_no":"013","sector":"63","block":"C","mplanduse":"B","ppt_type":"IND","ppt_full":"Industrial","authority":"NOIDA","category":"industrial","execution_stage":"unknown"}},{"type":"Feature","geometry":{"type":"Polygon","coordinates":[[[77.380091,28.615085],[77.380456,28.615058],[77.38049,28.615391],[77.380121,28.615418],[77.380091,28.615085]]]},"properties":{"objectid":9533,"plotmapid":"63B135IND","property_t":"Industrial","used":"PLOT","plotsizesq":0,"plot_size":"NA","plot_no":"135","sector":"63","block":"B","mplanduse":"B","ppt_type":"IND","ppt_full":"Industrial","authority":"NOIDA","category":"industrial","execution_stage":"unknown"}},{"type":"Feature","geometry":{"type":"Polygon","coordinates":[[[77.380121,28.615418],[77.379869,28.615437],[77.379837,28.615104],[77.380091,28.615085],[77.380121,28.615418]]]},"properties":{"objectid":9534,"plotmapid":"63B136IND","property_t":"Industrial","used":"PLOT","plotsizesq":1000,"plot_size":"1000 SQMT","plot_no":"136","sector":"63","block":"B","mplanduse":"B","ppt_type":"IND","ppt_full":"Industrial","authority":"NOIDA","category":"industrial","execution_stage":"unknown"}},{"type":"Feature","geometry":{"type":"Polygon","coordinates":[[[77.379869,28.615437],[77.379614,28.615456],[77.379582,28.615123],[77.379837,28.615104],[77.379869,28.615437]]]},"properties":{"objectid":9535,"plotmapid":"63B137IND","property_t":"Industrial","used":"PLOT","plotsizesq":1000,"plot_size":"1000 SQMT","plot_no":"137","sector":"63","block":"B","mplanduse":"B","ppt_type":"IND","ppt_full":"Industrial","authority":"NOIDA","category":"industrial","execution_stage":"unknown"}},{"type":"Feature","geometry":{"type":"Polygon","coordinates":[[[77.379614,28.615456],[77.379359,28.615475],[77.379326,28.615142],[77.379582,28.615123],[77.379614,28.615456]]]},"properties":{"objectid":9536,"plotmapid":"63B138IND","property_t":"Industrial","used":"PLOT","plotsizesq":1000,"plot_size":"1000 SQMT","plot_no":"138","sector":"63","block":"B","mplanduse":"B","ppt_type":"IND","ppt_full":"Industrial","authority":"NOIDA","category":"industrial","execution_stage":"unknown"}},{"type":"Feature","geometry":{"type":"Polygon","coordinates":[[[77.379359,28.615475],[77.379103,28.615494],[77.379071,28.615161],[77.379326,28.615142],[77.379359,28.615475]]]},"properties":{"objectid":9537,"plotmapid":"63B139IND","property_t":"Industrial","used":"PLOT","plotsizesq":1000,"plot_size":"1000 SQMT","plot_no":"139","sector":"63","block":"B","mplanduse":"B","ppt_type":"IND","ppt_full":"Industrial","authority":"NOIDA","category":"industrial","execution_stage":"unknown"}},{"type":"Feature","geometry":{"type":"Polygon","coordinates":[[[77.379103,28.615494],[77.378847,28.615513],[77.378814,28.61518],[77.379071,28.615161],[77.379103,28.615494]]]},"properties":{"objectid":9538,"plotmapid":"63B140IND","property_t":"Industrial","used":"PLOT","plotsizesq":1000,"plot_size":"1000 SQMT","plot_no":"140","sector":"63","block":"B","mplanduse":"B","ppt_type":"IND","ppt_full":"Industrial","authority":"NOIDA","category":"industrial","execution_stage":"unknown"}},{"type":"Feature","geometry":{"type":"Polygon","coordinates":[[[77.378847,28.615513],[77.378593,28.615532],[77.378561,28.615199],[77.378814,28.61518],[77.378847,28.615513]]]},"properties":{"objectid":9539,"plotmapid":"63B141IND","property_t":"Industrial","used":"PLOT","plotsizesq":1000,"plot_size":"1000 SQMT","plot_no":"141","sector":"63","block":"B","mplanduse":"B","ppt_type":"IND","ppt_full":"Industrial","authority":"NOIDA","category":"industrial","execution_stage":"unknown"}},{"type":"Feature","geometry":{"type":"Polygon","coordinates":[[[77.378052,28.615237],[77.378304,28.615218],[77.378336,28.615551],[77.378084,28.61557],[77.378052,28.615237]]]},"properties":{"objectid":9540,"plotmapid":"63B143IND","property_t":"Industrial","used":"PLOT","plotsizesq":1000,"plot_size":"1000 SQMT","plot_no":"143","sector":"63","block":"B","mplanduse":"B","ppt_type":"IND","ppt_full":"Industrial","authority":"NOIDA","category":"industrial","execution_stage":"unknown"}},{"type":"Feature","geometry":{"type":"Polygon","coordinates":[[[77.378084,28.61557],[77.37783,28.615589],[77.377798,28.615256],[77.378052,28.615237],[77.378084,28.61557]]]},"properties":{"objectid":9541,"plotmapid":"63B144IND","property_t":"Industrial","used":"PLOT","plotsizesq":1000,"plot_size":"1000 SQMT","plot_no":"144","sector":"63","block":"B","mplanduse":"B","ppt_type":"IND","ppt_full":"Industrial","authority":"NOIDA","category":"industrial","execution_stage":"unknown"}},{"type":"Feature","geometry":{"type":"Polygon","coordinates":[[[77.37783,28.615589],[77.377573,28.615608],[77.377541,28.615275],[77.377798,28.615256],[77.37783,28.615589]]]},"properties":{"objectid":9542,"plotmapid":"63B145IND","property_t":"Industrial","used":"PLOT","plotsizesq":1000,"plot_size":"1000 SQMT","plot_no":"145","sector":"63","block":"B","mplanduse":"B","ppt_type":"IND","ppt_full":"Industrial","authority":"NOIDA","category":"industrial","execution_stage":"unknown"}},{"type":"Feature","geometry":{"type":"Polygon","coordinates":[[[77.381632,28.615535],[77.381223,28.615566],[77.381201,28.615341],[77.38161,28.61531],[77.381632,28.615535]]]},"properties":{"objectid":9556,"plotmapid":"63C019IND","property_t":"Industrial","used":"PLOT","plotsizesq":1000,"plot_size":"1000 SQMT","plot_no":"019","sector":"63","block":"C","mplanduse":"B","ppt_type":"IND","ppt_full":"Industrial","authority":"NOIDA","category":"industrial","execution_stage":"unknown"}},{"type":"Feature","geometry":{"type":"Polygon","coordinates":[[[77.381223,28.615566],[77.380814,28.615597],[77.380792,28.615372],[77.381201,28.615341],[77.381223,28.615566]]]},"properties":{"objectid":9557,"plotmapid":"63C012IND","property_t":"Industrial","used":"PLOT","plotsizesq":1000,"plot_size":"1000 SQMT","plot_no":"012","sector":"63","block":"C","mplanduse":"B","ppt_type":"IND","ppt_full":"Industrial","authority":"NOIDA","category":"industrial","execution_stage":"unknown"}},{"type":"Feature","geometry":{"type":"Polygon","coordinates":[[[77.382159,28.615673],[77.381829,28.615698],[77.381778,28.615156],[77.382105,28.615132],[77.382159,28.615673]]]},"properties":{"objectid":9576,"plotmapid":"63C126IND","property_t":"Industrial","used":"PLOT","plotsizesq":1800,"plot_size":"1800 SQMT","plot_no":"126","sector":"63","block":"C","mplanduse":"B","ppt_type":"IND","ppt_full":"Industrial","authority":"NOIDA","category":"industrial","execution_stage":"unknown"}},{"type":"Feature","geometry":{"type":"Polygon","coordinates":[[[77.380521,28.615814],[77.380116,28.615844],[77.38009,28.615582],[77.380496,28.615551],[77.380521,28.615814]]]},"properties":{"objectid":9577,"plotmapid":"63B134IND","property_t":"Industrial","used":"PLOT","plotsizesq":0,"plot_size":"NA","plot_no":"134","sector":"63","block":"B","mplanduse":"B","ppt_type":"IND","ppt_full":"Industrial","authority":"NOIDA","category":"industrial","execution_stage":"unknown"}},{"type":"Feature","geometry":{"type":"Polygon","coordinates":[[[77.380091,28.61559],[77.380116,28.615844],[77.379709,28.615875],[77.379683,28.615616],[77.380091,28.61559]]]},"properties":{"objectid":9578,"plotmapid":"63B111IND","property_t":"Industrial","used":"PLOT","plotsizesq":0,"plot_size":"NA","plot_no":"111","sector":"63","block":"B","mplanduse":"B","ppt_type":"IND","ppt_full":"Industrial","authority":"NOIDA","category":"industrial","execution_stage":"unknown"}},{"type":"Feature","geometry":{"type":"Polygon","coordinates":[[[77.381653,28.615761],[77.381244,28.615791],[77.381223,28.615566],[77.381632,28.615535],[77.381653,28.615761]]]},"properties":{"objectid":9579,"plotmapid":"63C020IND","property_t":"Industrial","used":"PLOT","plotsizesq":1000,"plot_size":"1000 SQMT","plot_no":"020","sector":"63","block":"C","mplanduse":"B","ppt_type":"IND","ppt_full":"Industrial","authority":"NOIDA","category":"industrial","execution_stage":"unknown"}},{"type":"Feature","geometry":{"type":"Polygon","coordinates":[[[77.379575,28.615894],[77.379422,28.615906],[77.379396,28.615638],[77.379549,28.615626],[77.379575,28.615894]]]},"properties":{"objectid":9580,"plotmapid":"63B110IND","property_t":"Industrial","used":"PLOT","plotsizesq":0,"plot_size":"NA","plot_no":"110","sector":"63","block":"B","mplanduse":"B","ppt_type":"IND","ppt_full":"Industrial","authority":"NOIDA","category":"industrial","execution_stage":"unknown"}},{"type":"Feature","geometry":{"type":"Polygon","coordinates":[[[77.379422,28.615906],[77.37927,28.615917],[77.379243,28.61565],[77.379396,28.615638],[77.379422,28.615906]]]},"properties":{"objectid":9581,"plotmapid":"63B109IND","property_t":"Industrial","used":"PLOT","plotsizesq":450,"plot_size":"450 SQMT","plot_no":"109","sector":"63","block":"B","mplanduse":"B","ppt_type":"IND","ppt_full":"Industrial","authority":"NOIDA","category":"industrial","execution_stage":"unknown"}},{"type":"Feature","geometry":{"type":"Polygon","coordinates":[[[77.37927,28.615917],[77.379117,28.615929],[77.379091,28.615661],[77.379243,28.61565],[77.37927,28.615917]]]},"properties":{"objectid":9582,"plotmapid":"63B108IND","property_t":"Industrial","used":"PLOT","plotsizesq":450,"plot_size":"450 SQMT","plot_no":"108","sector":"63","block":"B","mplanduse":"B","ppt_type":"IND","ppt_full":"Industrial","authority":"NOIDA","category":"industrial","execution_stage":"unknown"}},{"type":"Feature","geometry":{"type":"Polygon","coordinates":[[[77.378941,28.615673],[77.379091,28.615661],[77.379117,28.615929],[77.378964,28.61594],[77.378941,28.615673]]]},"properties":{"objectid":9583,"plotmapid":"63B107IND","property_t":"Industrial","used":"PLOT","plotsizesq":450,"plot_size":"450 SQMT","plot_no":"107","sector":"63","block":"B","mplanduse":"B","ppt_type":"IND","ppt_full":"Industrial","authority":"NOIDA","category":"industrial","execution_stage":"unknown"}},{"type":"Feature","geometry":{"type":"Polygon","coordinates":[[[77.378964,28.61594],[77.378811,28.615952],[77.378785,28.615684],[77.378941,28.615673],[77.378964,28.61594]]]},"properties":{"objectid":9584,"plotmapid":"63B106IND","property_t":"Industrial","used":"PLOT","plotsizesq":450,"plot_size":"450 SQMT","plot_no":"106","sector":"63","block":"B","mplanduse":"B","ppt_type":"IND","ppt_full":"Industrial","authority":"NOIDA","category":"industrial","execution_stage":"unknown"}},{"type":"Feature","geometry":{"type":"Polygon","coordinates":[[[77.378811,28.615952],[77.378659,28.615964],[77.378632,28.615696],[77.378785,28.615684],[77.378811,28.615952]]]},"properties":{"objectid":9585,"plotmapid":"63B105IND","property_t":"Industrial","used":"PLOT","plotsizesq":450,"plot_size":"450 SQMT","plot_no":"105","sector":"63","block":"B","mplanduse":"B","ppt_type":"IND","ppt_full":"Industrial","authority":"NOIDA","category":"industrial","execution_stage":"unknown"}},{"type":"Feature","geometry":{"type":"Polygon","coordinates":[[[77.378659,28.615964],[77.378506,28.615975],[77.37848,28.615708],[77.378632,28.615696],[77.378659,28.615964]]]},"properties":{"objectid":9586,"plotmapid":"63B104IND","property_t":"Industrial","used":"PLOT","plotsizesq":450,"plot_size":"450 SQMT","plot_no":"104","sector":"63","block":"B","mplanduse":"B","ppt_type":"IND","ppt_full":"Industrial","authority":"NOIDA","category":"industrial","execution_stage":"unknown"}},{"type":"Feature","geometry":{"type":"Polygon","coordinates":[[[77.378506,28.615975],[77.378353,28.615987],[77.378327,28.615719],[77.37848,28.615708],[77.378506,28.615975]]]},"properties":{"objectid":9587,"plotmapid":"63B103IND","property_t":"Industrial","used":"PLOT","plotsizesq":450,"plot_size":"450 SQMT","plot_no":"103","sector":"63","block":"B","mplanduse":"B","ppt_type":"IND","ppt_full":"Industrial","authority":"NOIDA","category":"industrial","execution_stage":"unknown"}},{"type":"Feature","geometry":{"type":"Polygon","coordinates":[[[77.378353,28.615987],[77.378201,28.615999],[77.378174,28.615731],[77.378327,28.615719],[77.378353,28.615987]]]},"properties":{"objectid":9588,"plotmapid":"63B102IND","property_t":"Industrial","used":"PLOT","plotsizesq":450,"plot_size":"450 SQMT","plot_no":"102","sector":"63","block":"B","mplanduse":"B","ppt_type":"IND","ppt_full":"Industrial","authority":"NOIDA","category":"industrial","execution_stage":"unknown"}},{"type":"Feature","geometry":{"type":"Polygon","coordinates":[[[77.378201,28.615999],[77.378048,28.61601],[77.378022,28.615743],[77.378174,28.615731],[77.378201,28.615999]]]},"properties":{"objectid":9589,"plotmapid":"63B101IND","property_t":"Industrial","used":"PLOT","plotsizesq":450,"plot_size":"450 SQMT","plot_no":"101","sector":"63","block":"B","mplanduse":"B","ppt_type":"IND","ppt_full":"Industrial","authority":"NOIDA","category":"industrial","execution_stage":"unknown"}},{"type":"Feature","geometry":{"type":"Polygon","coordinates":[[[77.378048,28.61601],[77.377895,28.616022],[77.377869,28.615754],[77.378022,28.615743],[77.378048,28.61601]]]},"properties":{"objectid":9590,"plotmapid":"63B100IND","property_t":"Industrial","used":"PLOT","plotsizesq":450,"plot_size":"450 SQMT","plot_no":"100","sector":"63","block":"B","mplanduse":"B","ppt_type":"IND","ppt_full":"Industrial","authority":"NOIDA","category":"industrial","execution_stage":"unknown"}},{"type":"Feature","geometry":{"type":"Polygon","coordinates":[[[77.377895,28.616022],[77.377743,28.616034],[77.377716,28.615766],[77.377869,28.615754],[77.377895,28.616022]]]},"properties":{"objectid":9591,"plotmapid":"63B099IND","property_t":"Industrial","used":"PLOT","plotsizesq":0,"plot_size":"NA","plot_no":"099","sector":"63","block":"B","mplanduse":"B","ppt_type":"IND","ppt_full":"Industrial","authority":"NOIDA","category":"industrial","execution_stage":"unknown"}},{"type":"Feature","geometry":{"type":"Polygon","coordinates":[[[77.380543,28.61604],[77.380138,28.616071],[77.380116,28.615844],[77.380521,28.615814],[77.380543,28.61604]]]},"properties":{"objectid":9605,"plotmapid":"63B133IND","property_t":"Industrial","used":"PLOT","plotsizesq":0,"plot_size":"NA","plot_no":"133","sector":"63","block":"B","mplanduse":"B","ppt_type":"IND","ppt_full":"Industrial","authority":"NOIDA","category":"industrial","execution_stage":"unknown"}},{"type":"Feature","geometry":{"type":"Polygon","coordinates":[[[77.380136,28.616053],[77.380138,28.616071],[77.379731,28.616101],[77.379709,28.615875],[77.380116,28.615844],[77.380136,28.616053]]]},"properties":{"objectid":9606,"plotmapid":"63B112IND","property_t":"Industrial","used":"PLOT","plotsizesq":0,"plot_size":"NA","plot_no":"112","sector":"63","block":"B","mplanduse":"B","ppt_type":"IND","ppt_full":"Industrial","authority":"NOIDA","category":"industrial","execution_stage":"unknown"}},{"type":"Feature","geometry":{"type":"Polygon","coordinates":[[[77.382249,28.615844],[77.382267,28.616023],[77.38186,28.616052],[77.381841,28.61586],[77.382248,28.615831],[77.382249,28.615844]]]},"properties":{"objectid":9614,"plotmapid":"63C042IND","property_t":"Industrial","used":"PLOT","plotsizesq":0,"plot_size":"NA","plot_no":"042","sector":"63","block":"C","mplanduse":"B","ppt_type":"IND","ppt_full":"Industrial","authority":"NOIDA","category":"industrial","execution_stage":"unknown"}},{"type":"Feature","geometry":{"type":"Polygon","coordinates":[[[77.379575,28.615894],[77.379601,28.616162],[77.379449,28.616173],[77.379422,28.615906],[77.379575,28.615894]]]},"properties":{"objectid":9615,"plotmapid":"63B087IND","property_t":"Industrial","used":"PLOT","plotsizesq":0,"plot_size":"NA","plot_no":"087","sector":"63","block":"B","mplanduse":"B","ppt_type":"IND","ppt_full":"Industrial","authority":"NOIDA","category":"industrial","execution_stage":"unknown"}},{"type":"Feature","geometry":{"type":"Polygon","coordinates":[[[77.379449,28.616173],[77.379296,28.616185],[77.37927,28.615917],[77.379422,28.615906],[77.379449,28.616173]]]},"properties":{"objectid":9616,"plotmapid":"63B088IND","property_t":"Industrial","used":"PLOT","plotsizesq":450,"plot_size":"450 SQMT","plot_no":"088","sector":"63","block":"B","mplanduse":"B","ppt_type":"IND","ppt_full":"Industrial","authority":"NOIDA","category":"industrial","execution_stage":"unknown"}},{"type":"Feature","geometry":{"type":"Polygon","coordinates":[[[77.379296,28.616185],[77.379143,28.616196],[77.379117,28.615929],[77.37927,28.615917],[77.379296,28.616185]]]},"properties":{"objectid":9617,"plotmapid":"63B089IND","property_t":"Industrial","used":"PLOT","plotsizesq":450,"plot_size":"450 SQMT","plot_no":"089","sector":"63","block":"B","mplanduse":"B","ppt_type":"IND","ppt_full":"Industrial","authority":"NOIDA","category":"industrial","execution_stage":"unknown"}},{"type":"Feature","geometry":{"type":"Polygon","coordinates":[[[77.378964,28.61594],[77.379117,28.615929],[77.379143,28.616196],[77.378991,28.616208],[77.378964,28.61594]]]},"properties":{"objectid":9618,"plotmapid":"63B090IND","property_t":"Industrial","used":"PLOT","plotsizesq":450,"plot_size":"450 SQMT","plot_no":"090","sector":"63","block":"B","mplanduse":"B","ppt_type":"IND","ppt_full":"Industrial","authority":"NOIDA","category":"industrial","execution_stage":"unknown"}},{"type":"Feature","geometry":{"type":"Polygon","coordinates":[[[77.378991,28.616208],[77.378838,28.61622],[77.378811,28.615952],[77.378964,28.61594],[77.378991,28.616208]]]},"properties":{"objectid":9619,"plotmapid":"63B091IND","property_t":"Industrial","used":"PLOT","plotsizesq":450,"plot_size":"450 SQMT","plot_no":"091","sector":"63","block":"B","mplanduse":"B","ppt_type":"IND","ppt_full":"Industrial","authority":"NOIDA","category":"industrial","execution_stage":"unknown"}},{"type":"Feature","geometry":{"type":"Polygon","coordinates":[[[77.378838,28.61622],[77.378685,28.616231],[77.378659,28.615964],[77.378811,28.615952],[77.378838,28.61622]]]},"properties":{"objectid":9620,"plotmapid":"63B092IND","property_t":"Industrial","used":"PLOT","plotsizesq":450,"plot_size":"450 SQMT","plot_no":"092","sector":"63","block":"B","mplanduse":"B","ppt_type":"IND","ppt_full":"Industrial","authority":"NOIDA","category":"industrial","execution_stage":"unknown"}},{"type":"Feature","geometry":{"type":"Polygon","coordinates":[[[77.378685,28.616231],[77.378532,28.616243],[77.378506,28.615975],[77.378659,28.615964],[77.378685,28.616231]]]},"properties":{"objectid":9621,"plotmapid":"63B093IND","property_t":"Industrial","used":"PLOT","plotsizesq":450,"plot_size":"450 SQMT","plot_no":"093","sector":"63","block":"B","mplanduse":"B","ppt_type":"IND","ppt_full":"Industrial","authority":"NOIDA","category":"industrial","execution_stage":"unknown"}},{"type":"Feature","geometry":{"type":"Polygon","coordinates":[[[77.378532,28.616243],[77.37838,28.616255],[77.378353,28.615987],[77.378506,28.615975],[77.378532,28.616243]]]},"properties":{"objectid":9622,"plotmapid":"63B094IND","property_t":"Industrial","used":"PLOT","plotsizesq":450,"plot_size":"450 SQMT","plot_no":"094","sector":"63","block":"B","mplanduse":"B","ppt_type":"IND","ppt_full":"Industrial","authority":"NOIDA","category":"industrial","execution_stage":"unknown"}},{"type":"Feature","geometry":{"type":"Polygon","coordinates":[[[77.37838,28.616255],[77.378227,28.616266],[77.378201,28.615999],[77.378353,28.615987],[77.37838,28.616255]]]},"properties":{"objectid":9623,"plotmapid":"63B095IND","property_t":"Industrial","used":"PLOT","plotsizesq":450,"plot_size":"450 SQMT","plot_no":"095","sector":"63","block":"B","mplanduse":"B","ppt_type":"IND","ppt_full":"Industrial","authority":"NOIDA","category":"industrial","execution_stage":"unknown"}},{"type":"Feature","geometry":{"type":"Polygon","coordinates":[[[77.378227,28.616266],[77.378074,28.616278],[77.378048,28.61601],[77.378201,28.615999],[77.378227,28.616266]]]},"properties":{"objectid":9624,"plotmapid":"63B096IND","property_t":"Industrial","used":"PLOT","plotsizesq":450,"plot_size":"450 SQMT","plot_no":"096","sector":"63","block":"B","mplanduse":"B","ppt_type":"IND","ppt_full":"Industrial","authority":"NOIDA","category":"industrial","execution_stage":"unknown"}},{"type":"Feature","geometry":{"type":"Polygon","coordinates":[[[77.378074,28.616278],[77.377922,28.61629],[77.377895,28.616022],[77.378048,28.61601],[77.378074,28.616278]]]},"properties":{"objectid":9625,"plotmapid":"63B097IND","property_t":"Industrial","used":"PLOT","plotsizesq":450,"plot_size":"450 SQMT","plot_no":"097","sector":"63","block":"B","mplanduse":"B","ppt_type":"IND","ppt_full":"Industrial","authority":"NOIDA","category":"industrial","execution_stage":"unknown"}},{"type":"Feature","geometry":{"type":"Polygon","coordinates":[[[77.377922,28.61629],[77.377769,28.616301],[77.377743,28.616034],[77.377895,28.616022],[77.377922,28.61629]]]},"properties":{"objectid":9626,"plotmapid":"63B098IND","property_t":"Industrial","used":"PLOT","plotsizesq":0,"plot_size":"NA","plot_no":"098","sector":"63","block":"B","mplanduse":"B","ppt_type":"IND","ppt_full":"Industrial","authority":"NOIDA","category":"industrial","execution_stage":"unknown"}},{"type":"Feature","geometry":{"type":"Polygon","coordinates":[[[77.380565,28.616265],[77.38016,28.616295],[77.380138,28.616071],[77.380543,28.61604],[77.380565,28.616265]]]},"properties":{"objectid":9636,"plotmapid":"63B132IND","property_t":"Industrial","used":"PLOT","plotsizesq":0,"plot_size":"NA","plot_no":"132","sector":"63","block":"B","mplanduse":"B","ppt_type":"IND","ppt_full":"Industrial","authority":"NOIDA","category":"industrial","execution_stage":"unknown"}},{"type":"Feature","geometry":{"type":"Polygon","coordinates":[[[77.380158,28.61628],[77.38016,28.616295],[77.379752,28.616326],[77.379731,28.616101],[77.380138,28.616071],[77.380158,28.61628]]]},"properties":{"objectid":9638,"plotmapid":"63B113IND","property_t":"Industrial","used":"PLOT","plotsizesq":0,"plot_size":"NA","plot_no":"113","sector":"63","block":"B","mplanduse":"B","ppt_type":"IND","ppt_full":"Industrial","authority":"NOIDA","category":"industrial","execution_stage":"unknown"}},{"type":"Feature","geometry":{"type":"Polygon","coordinates":[[[77.381696,28.616211],[77.381287,28.616242],[77.381265,28.616017],[77.381675,28.615986],[77.381696,28.616211]]]},"properties":{"objectid":9641,"plotmapid":"63C021IND","property_t":"Industrial","used":"PLOT","plotsizesq":1000,"plot_size":"1000 SQMT","plot_no":"021","sector":"63","block":"C","mplanduse":"B","ppt_type":"IND","ppt_full":"Industrial","authority":"NOIDA","category":"industrial","execution_stage":"unknown"}},{"type":"Feature","geometry":{"type":"Polygon","coordinates":[[[77.38186,28.616052],[77.382267,28.616023],[77.382284,28.616203],[77.381877,28.616232],[77.38186,28.616052]]]},"properties":{"objectid":9643,"plotmapid":"63C041IND","property_t":"Industrial","used":"PLOT","plotsizesq":800,"plot_size":"800 SQMT","plot_no":"041","sector":"63","block":"C","mplanduse":"B","ppt_type":"IND","ppt_full":"Industrial","authority":"NOIDA","category":"industrial","execution_stage":"unknown"}},{"type":"Feature","geometry":{"type":"Polygon","coordinates":[[[77.381287,28.616242],[77.380878,28.616273],[77.380856,28.616048],[77.381265,28.616017],[77.381287,28.616242]]]},"properties":{"objectid":9689,"plotmapid":"63C009IND","property_t":"Industrial","used":"PLOT","plotsizesq":1000,"plot_size":"1000 SQMT","plot_no":"009","sector":"63","block":"C","mplanduse":"B","ppt_type":"IND","ppt_full":"Industrial","authority":"NOIDA","category":"industrial","execution_stage":"unknown"}},{"type":"Feature","geometry":{"type":"Polygon","coordinates":[[[77.381675,28.615986],[77.381265,28.616017],[77.381244,28.615791],[77.381653,28.615761],[77.381675,28.615986]]]},"properties":{"objectid":10381,"plotmapid":"63C028IND","property_t":"Industrial","used":"PLOT","plotsizesq":1000,"plot_size":"1000 SQMT","plot_no":"028","sector":"63","block":"C","mplanduse":"B","ppt_type":"IND","ppt_full":"Industrial","authority":"NOIDA","category":"industrial","execution_stage":"unknown"}},{"type":"Feature","geometry":{"type":"Polygon","coordinates":[[[77.381265,28.616017],[77.380856,28.616048],[77.380835,28.615822],[77.381244,28.615791],[77.381265,28.616017]]]},"properties":{"objectid":10384,"plotmapid":"63C010IND","property_t":"Industrial","used":"PLOT","plotsizesq":1000,"plot_size":"1000 SQMT","plot_no":"010","sector":"63","block":"C","mplanduse":"B","ppt_type":"IND","ppt_full":"Industrial","authority":"NOIDA","category":"industrial","execution_stage":"unknown"}},{"type":"Feature","geometry":{"type":"Polygon","coordinates":[[[77.380835,28.615822],[77.380814,28.615597],[77.381223,28.615566],[77.381244,28.615791],[77.380835,28.615822]]]},"properties":{"objectid":10385,"plotmapid":"63C011IND","property_t":"Industrial","used":"PLOT","plotsizesq":1000,"plot_size":"1000 SQMT","plot_no":"011","sector":"63","block":"C","mplanduse":"B","ppt_type":"IND","ppt_full":"Industrial","authority":"NOIDA","category":"industrial","execution_stage":"unknown"}},{"type":"Feature","geometry":{"type":"Polygon","coordinates":[[[77.377633,28.616197],[77.377328,28.61622],[77.377315,28.616086],[77.377619,28.616063],[77.377633,28.616197]]]},"properties":{"objectid":10557,"plotmapid":"63B058IND","property_t":"Industrial","used":"PLOT","plotsizesq":450,"plot_size":"450 SQMT","plot_no":"058","sector":"63","block":"B","mplanduse":"B","ppt_type":"IND","ppt_full":"Industrial","authority":"NOIDA","category":"industrial","execution_stage":"unknown"}}]}
