{"type":"FeatureCollection","features":[{"type":"Feature","geometry":{"type":"Polygon","coordinates":[[[77.330576,28.588103],[77.330449,28.588232],[77.330401,28.588197],[77.330526,28.588066],[77.330576,28.588103]]]},"properties":{"objectid":25554,"plotmapid":"10B002IND","property_t":"Industrial","allotted_p":"Yes","plotsizesq":114,"plot_size":"114 SQMT","plot_no":"002","sector":"10","block":"B","mplanduse":"V","ppt_type":"IND","ppt_full":"Industrial","authority":"NOIDA","category":"industrial","execution_stage":"allotted"}},{"type":"Feature","geometry":{"type":"Polygon","coordinates":[[[77.33133,28.588661],[77.331204,28.588792],[77.331158,28.588758],[77.331281,28.588625],[77.33133,28.588661]]]},"properties":{"objectid":25555,"plotmapid":"10B017IND","property_t":"Industrial","allotted_p":"Yes","plotsizesq":114,"plot_size":"114 SQMT","plot_no":"017","sector":"10","block":"B","mplanduse":"B","ppt_type":"IND","ppt_full":"Industrial","authority":"NOIDA","category":"industrial","execution_stage":"allotted"}},{"type":"Feature","geometry":{"type":"Polygon","coordinates":[[[77.330678,28.588837],[77.330554,28.588968],[77.330507,28.588934],[77.330631,28.588803],[77.330678,28.588837]]]},"properties":{"objectid":25557,"plotmapid":"10B051AIND","property_t":"Industrial","plotsizesq":0,"plot_no":"051A","sector":"10","block":"B","mplanduse":"V","ppt_type":"IND","ppt_full":"Industrial","authority":"NOIDA","category":"industrial","execution_stage":"unknown"}},{"type":"Feature","geometry":{"type":"Polygon","coordinates":[[[77.330381,28.589066],[77.330507,28.588934],[77.330554,28.588968],[77.330428,28.589101],[77.330381,28.589066]]]},"properties":{"objectid":25558,"plotmapid":"10B071AIND","property_t":"Industrial","plotsizesq":0,"plot_no":"071A","sector":"10","block":"B","mplanduse":"V","ppt_type":"IND","ppt_full":"Industrial","authority":"NOIDA","category":"industrial","execution_stage":"unknown"}},{"type":"Feature","geometry":{"type":"Polygon","coordinates":[[[77.332327,28.589128],[77.332294,28.589163],[77.332231,28.589117],[77.332404,28.588933],[77.332467,28.58898],[77.332327,28.589128]]]},"properties":{"objectid":25569,"plotmapid":"10C091IND","property_t":"Industrial","allotted_p":"Yes","plotsizesq":114,"plot_size":"114 SQMT","plot_no":"091","sector":"10","block":"C","mplanduse":"B","ppt_type":"IND","ppt_full":"Industrial","authority":"NOIDA","category":"industrial","execution_stage":"allotted"}},{"type":"Feature","geometry":{"type":"Polygon","coordinates":[[[77.331183,28.586798],[77.331343,28.586918],[77.331058,28.587201],[77.330906,28.587087],[77.331183,28.586798]]]},"properties":{"objectid":26364,"plotmapid":"10A007IND","property_t":"Industrial","allotted_p":"Yes","plotsizesq":741.62,"plot_size":"741.62 SQMT","plot_no":"007","sector":"10","block":"A","mplanduse":"B","ppt_type":"IND","ppt_full":"Industrial","authority":"NOIDA","category":"industrial","execution_stage":"allotted"}},{"type":"Feature","geometry":{"type":"Polygon","coordinates":[[[77.330681,28.586919],[77.330546,28.587048],[77.330498,28.587012],[77.330633,28.586883],[77.330681,28.586919]]]},"properties":{"objectid":26394,"plotmapid":"10A016IND","property_t":"Industrial","allotted_p":"Yes","plotsizesq":114,"plot_size":"114 SQMT","plot_no":"016","sector":"10","block":"A","mplanduse":"B","ppt_type":"IND","ppt_full":"Industrial","authority":"NOIDA","category":"industrial","execution_stage":"allotted"}},{"type":"Feature","geometry":{"type":"Polygon","coordinates":[[[77.330725,28.586952],[77.330592,28.587082],[77.330546,28.587048],[77.330681,28.586919],[77.330725,28.586952]]]},"properties":{"objectid":26395,"plotmapid":"10A015IND","property_t":"Industrial","allotted_p":"Yes","plotsizesq":114,"plot_size":"114 SQMT","plot_no":"015","sector":"10","block":"A","mplanduse":"B","ppt_type":"IND","ppt_full":"Industrial","authority":"NOIDA","category":"industrial","execution_stage":"allotted"}},{"type":"Feature","geometry":{"type":"Polygon","coordinates":[[[77.330737,28.586961],[77.330821,28.587024],[77.330686,28.587153],[77.330592,28.587082],[77.330725,28.586952],[77.330737,28.586961]]]},"properties":{"objectid":26396,"plotmapid":"10A014-013IND","property_t":"Industrial","plotsizesq":0,"plot_no":"014-013","sector":"10","block":"A","mplanduse":"B","ppt_type":"IND","ppt_full":"Industrial","authority":"NOIDA","category":"industrial","execution_stage":"unknown"}},{"type":"Feature","geometry":{"type":"Polygon","coordinates":[[[77.330858,28.587051],[77.330867,28.587058],[77.330733,28.587187],[77.330686,28.587153],[77.330821,28.587024],[77.330858,28.587051]]]},"properties":{"objectid":26397,"plotmapid":"10A012IND","property_t":"Industrial","allotted_p":"Yes","plotsizesq":114,"plot_size":"114 SQMT","plot_no":"012","sector":"10","block":"A","mplanduse":"B","ppt_type":"IND","ppt_full":"Industrial","authority":"NOIDA","category":"industrial","execution_stage":"allotted"}},{"type":"Feature","geometry":{"type":"Polygon","coordinates":[[[77.330898,28.587081],[77.330913,28.587092],[77.330778,28.587221],[77.330733,28.587187],[77.330867,28.587058],[77.330898,28.587081]]]},"properties":{"objectid":26398,"plotmapid":"10A011IND","property_t":"Industrial","allotted_p":"Yes","plotsizesq":114,"plot_size":"114 SQMT","plot_no":"011","sector":"10","block":"A","mplanduse":"B","ppt_type":"IND","ppt_full":"Industrial","authority":"NOIDA","category":"industrial","execution_stage":"allotted"}},{"type":"Feature","geometry":{"type":"Polygon","coordinates":[[[77.330954,28.587123],[77.330826,28.587257],[77.330778,28.587221],[77.330913,28.587092],[77.330954,28.587123]]]},"properties":{"objectid":26399,"plotmapid":"10A010IND","property_t":"Industrial","allotted_p":"Yes","plotsizesq":114,"plot_size":"114 SQMT","plot_no":"010","sector":"10","block":"A","mplanduse":"B","ppt_type":"IND","ppt_full":"Industrial","authority":"NOIDA","category":"industrial","execution_stage":"allotted"}},{"type":"Feature","geometry":{"type":"Polygon","coordinates":[[[77.331002,28.587159],[77.330875,28.587293],[77.330826,28.587257],[77.330958,28.587126],[77.331002,28.587159]]]},"properties":{"objectid":26400,"plotmapid":"10A009IND","property_t":"Industrial","allotted_p":"Yes","plotsizesq":114,"plot_size":"114 SQMT","plot_no":"009","sector":"10","block":"A","mplanduse":"B","ppt_type":"IND","ppt_full":"Industrial","authority":"NOIDA","category":"industrial","execution_stage":"allotted"}},{"type":"Feature","geometry":{"type":"Polygon","coordinates":[[[77.331008,28.587163],[77.331058,28.587201],[77.330926,28.587332],[77.330875,28.587293],[77.331008,28.587163]]]},"properties":{"objectid":26401,"plotmapid":"10A008IND","property_t":"Industrial","allotted_p":"Yes","plotsizesq":133,"plot_size":"133 SQMT","plot_no":"008","sector":"10","block":"A","mplanduse":"B","ppt_type":"IND","ppt_full":"Industrial","authority":"NOIDA","category":"industrial","execution_stage":"allotted"}},{"type":"Feature","geometry":{"type":"Polygon","coordinates":[[[77.332399,28.588198],[77.332277,28.588332],[77.332219,28.588289],[77.332344,28.588158],[77.332399,28.588198]]]},"properties":{"objectid":26402,"plotmapid":"10C048IND","property_t":"Industrial","allotted_p":"Yes","plotsizesq":133,"plot_size":"133 SQMT","plot_no":"048","sector":"10","block":"C","mplanduse":"B","ppt_type":"IND","ppt_full":"Industrial","authority":"NOIDA","category":"industrial","execution_stage":"allotted"}},{"type":"Feature","geometry":{"type":"Polygon","coordinates":[[[77.332446,28.588233],[77.332323,28.588366],[77.332277,28.588332],[77.332401,28.5882],[77.332446,28.588233]]]},"properties":{"objectid":26403,"plotmapid":"10C047IND","property_t":"Industrial","allotted_p":"Yes","plotsizesq":114,"plot_size":"114 SQMT","plot_no":"047","sector":"10","block":"C","mplanduse":"B","ppt_type":"IND","ppt_full":"Industrial","authority":"NOIDA","category":"industrial","execution_stage":"allotted"}},{"type":"Feature","geometry":{"type":"Polygon","coordinates":[[[77.332494,28.588268],[77.332373,28.5884],[77.332323,28.588366],[77.33245,28.588236],[77.332494,28.588268]]]},"properties":{"objectid":26404,"plotmapid":"10C046IND","property_t":"Industrial","allotted_p":"Yes","plotsizesq":114,"plot_size":"114 SQMT","plot_no":"046","sector":"10","block":"C","mplanduse":"B","ppt_type":"IND","ppt_full":"Industrial","authority":"NOIDA","category":"industrial","execution_stage":"allotted"}},{"type":"Feature","geometry":{"type":"Polygon","coordinates":[[[77.332541,28.588303],[77.332418,28.588436],[77.332371,28.588401],[77.332496,28.58827],[77.332541,28.588303]]]},"properties":{"objectid":26405,"plotmapid":"10C045IND","property_t":"Industrial","allotted_p":"Yes","plotsizesq":114,"plot_size":"114 SQMT","plot_no":"045","sector":"10","block":"C","mplanduse":"B","ppt_type":"IND","ppt_full":"Industrial","authority":"NOIDA","category":"industrial","execution_stage":"allotted"}},{"type":"Feature","geometry":{"type":"Polygon","coordinates":[[[77.331992,28.587407],[77.332035,28.587438],[77.331577,28.587921],[77.331349,28.587755],[77.33181,28.587274],[77.331992,28.587407]]]},"properties":{"objectid":26468,"plotmapid":"10B001BIND","property_t":"Industrial","plotsizesq":0,"plot_no":"001B","sector":"10","block":"B","mplanduse":"B","ppt_type":"IND","ppt_full":"Industrial","authority":"NOIDA","category":"industrial","execution_stage":"unknown"}},{"type":"Feature","geometry":{"type":"Polygon","coordinates":[[[77.33219,28.587552],[77.33226,28.587603],[77.331804,28.588087],[77.331577,28.587921],[77.332035,28.587438],[77.33219,28.587552]]]},"properties":{"objectid":26469,"plotmapid":"10B001CIND","property_t":"Industrial","plotsizesq":0,"plot_no":"001C","sector":"10","block":"B","mplanduse":"B","ppt_type":"IND","ppt_full":"Industrial","authority":"NOIDA","category":"industrial","execution_stage":"unknown"}},{"type":"Feature","geometry":{"type":"Polygon","coordinates":[[[77.33226,28.587603],[77.332492,28.587772],[77.332036,28.588256],[77.331804,28.588087],[77.33226,28.587603]]]},"properties":{"objectid":26470,"plotmapid":"10B001DIND","property_t":"Industrial","plotsizesq":0,"plot_no":"001D","sector":"10","block":"B","mplanduse":"B","ppt_type":"IND","ppt_full":"Industrial","authority":"NOIDA","category":"industrial","execution_stage":"unknown"}},{"type":"Feature","geometry":{"type":"Polygon","coordinates":[[[77.330262,28.587042],[77.330296,28.587066],[77.330121,28.587246],[77.33006,28.587201],[77.330234,28.587021],[77.330262,28.587042]]]},"properties":{"objectid":26476,"plotmapid":"10A030IND","property_t":"Industrial","plotsizesq":0,"plot_no":"030","sector":"10","block":"A","mplanduse":"B","ppt_type":"IND","ppt_full":"Industrial","authority":"NOIDA","category":"industrial","execution_stage":"unknown"}},{"type":"Feature","geometry":{"type":"Polygon","coordinates":[[[77.330329,28.587091],[77.330357,28.587112],[77.330185,28.587293],[77.330121,28.587246],[77.330296,28.587066],[77.330329,28.587091]]]},"properties":{"objectid":26477,"plotmapid":"10A031IND","property_t":"Industrial","allotted_p":"Yes","plotsizesq":208,"plot_size":"208 SQMT","plot_no":"031","sector":"10","block":"A","mplanduse":"B","ppt_type":"IND","ppt_full":"Industrial","authority":"NOIDA","category":"industrial","execution_stage":"allotted"}},{"type":"Feature","geometry":{"type":"Polygon","coordinates":[[[77.330395,28.58714],[77.330421,28.587159],[77.330246,28.587339],[77.330185,28.587293],[77.330357,28.587112],[77.330395,28.58714]]]},"properties":{"objectid":26478,"plotmapid":"10A032IND","property_t":"Industrial","allotted_p":"Yes","plotsizesq":208,"plot_size":"208 SQMT","plot_no":"032","sector":"10","block":"A","mplanduse":"B","ppt_type":"IND","ppt_full":"Industrial","authority":"NOIDA","category":"industrial","execution_stage":"allotted"}},{"type":"Feature","geometry":{"type":"Polygon","coordinates":[[[77.330461,28.587189],[77.330484,28.587206],[77.33031,28.587386],[77.330246,28.587339],[77.330421,28.587159],[77.330461,28.587189]]]},"properties":{"objectid":26479,"plotmapid":"10A033IND","property_t":"Industrial","allotted_p":"Yes","plotsizesq":208,"plot_size":"208 SQMT","plot_no":"033","sector":"10","block":"A","mplanduse":"B","ppt_type":"IND","ppt_full":"Industrial","authority":"NOIDA","category":"industrial","execution_stage":"allotted"}},{"type":"Feature","geometry":{"type":"Polygon","coordinates":[[[77.330528,28.587237],[77.330547,28.587251],[77.330372,28.587432],[77.33031,28.587386],[77.330484,28.587206],[77.330528,28.587237]]]},"properties":{"objectid":26480,"plotmapid":"10A034IND","property_t":"Industrial","allotted_p":"Yes","plotsizesq":208,"plot_size":"208 SQMT","plot_no":"034","sector":"10","block":"A","mplanduse":"B","ppt_type":"IND","ppt_full":"Industrial","authority":"NOIDA","category":"industrial","execution_stage":"allotted"}},{"type":"Feature","geometry":{"type":"Polygon","coordinates":[[[77.330594,28.587286],[77.33061,28.587298],[77.330435,28.587478],[77.330372,28.587432],[77.330547,28.587251],[77.330594,28.587286]]]},"properties":{"objectid":26481,"plotmapid":"10A035IND","property_t":"Industrial","allotted_p":"Yes","plotsizesq":208,"plot_size":"208 SQMT","plot_no":"035","sector":"10","block":"A","mplanduse":"B","ppt_type":"IND","ppt_full":"Industrial","authority":"NOIDA","category":"industrial","execution_stage":"allotted"}},{"type":"Feature","geometry":{"type":"Polygon","coordinates":[[[77.33066,28.587335],[77.330675,28.587345],[77.330499,28.587525],[77.330435,28.587478],[77.33061,28.587298],[77.33066,28.587335]]]},"properties":{"objectid":26482,"plotmapid":"10A036IND","property_t":"Industrial","allotted_p":"Yes","plotsizesq":208,"plot_size":"208 SQMT","plot_no":"036","sector":"10","block":"A","mplanduse":"B","ppt_type":"IND","ppt_full":"Industrial","authority":"NOIDA","category":"industrial","execution_stage":"allotted"}},{"type":"Feature","geometry":{"type":"Polygon","coordinates":[[[77.330727,28.587384],[77.330736,28.587391],[77.330563,28.587572],[77.330499,28.587525],[77.330675,28.587345],[77.330727,28.587384]]]},"properties":{"objectid":26483,"plotmapid":"10A037IND","property_t":"Industrial","allotted_p":"Yes","plotsizesq":208,"plot_size":"208 SQMT","plot_no":"037","sector":"10","block":"A","mplanduse":"B","ppt_type":"IND","ppt_full":"Industrial","authority":"NOIDA","category":"industrial","execution_stage":"allotted"}},{"type":"Feature","geometry":{"type":"Polygon","coordinates":[[[77.330736,28.587391],[77.33081,28.587445],[77.33064,28.587629],[77.330563,28.587572],[77.330736,28.587391]]]},"properties":{"objectid":26484,"plotmapid":"10A038IND","property_t":"Industrial","plotsizesq":0,"plot_no":"038","sector":"10","block":"A","mplanduse":"B","ppt_type":"IND","ppt_full":"Industrial","authority":"NOIDA","category":"industrial","execution_stage":"unknown"}},{"type":"Feature","geometry":{"type":"Polygon","coordinates":[[[77.332199,28.588471],[77.332026,28.588654],[77.331947,28.588596],[77.33212,28.588412],[77.332199,28.588471]]]},"properties":{"objectid":26485,"plotmapid":"10C049IND","property_t":"Industrial","allotted_p":"Yes","plotsizesq":260,"plot_size":"260 SQMT","plot_no":"049","sector":"10","block":"C","mplanduse":"B","ppt_type":"IND","ppt_full":"Industrial","authority":"NOIDA","category":"industrial","execution_stage":"allotted"}},{"type":"Feature","geometry":{"type":"Polygon","coordinates":[[[77.332262,28.588517],[77.332089,28.588701],[77.332026,28.588654],[77.332199,28.588471],[77.332262,28.588517]]]},"properties":{"objectid":26486,"plotmapid":"10C050IND","property_t":"Industrial","allotted_p":"Yes","plotsizesq":208,"plot_size":"208 SQMT","plot_no":"050","sector":"10","block":"C","mplanduse":"B","ppt_type":"IND","ppt_full":"Industrial","authority":"NOIDA","category":"industrial","execution_stage":"allotted"}},{"type":"Feature","geometry":{"type":"Polygon","coordinates":[[[77.332325,28.588564],[77.332152,28.588747],[77.332089,28.588701],[77.332262,28.588517],[77.332325,28.588564]]]},"properties":{"objectid":26487,"plotmapid":"10C051IND","property_t":"Industrial","allotted_p":"Yes","plotsizesq":208,"plot_size":"208 SQMT","plot_no":"051","sector":"10","block":"C","mplanduse":"B","ppt_type":"IND","ppt_full":"Industrial","authority":"NOIDA","category":"industrial","execution_stage":"allotted"}},{"type":"Feature","geometry":{"type":"Polygon","coordinates":[[[77.332388,28.58861],[77.332215,28.588794],[77.332152,28.588747],[77.332325,28.588564],[77.332388,28.58861]]]},"properties":{"objectid":26488,"plotmapid":"10C052IND","property_t":"Industrial","allotted_p":"Yes","plotsizesq":208,"plot_size":"208 SQMT","plot_no":"052","sector":"10","block":"C","mplanduse":"B","ppt_type":"IND","ppt_full":"Industrial","authority":"NOIDA","category":"industrial","execution_stage":"allotted"}},{"type":"Feature","geometry":{"type":"Polygon","coordinates":[[[77.332451,28.588657],[77.332278,28.58884],[77.332215,28.588794],[77.332388,28.58861],[77.332451,28.588657]]]},"properties":{"objectid":26489,"plotmapid":"10C053IND","property_t":"Industrial","allotted_p":"Yes","plotsizesq":208,"plot_size":"208 SQMT","plot_no":"053","sector":"10","block":"C","mplanduse":"B","ppt_type":"IND","ppt_full":"Industrial","authority":"NOIDA","category":"industrial","execution_stage":"allotted"}},{"type":"Feature","geometry":{"type":"Polygon","coordinates":[[[77.332514,28.588703],[77.332341,28.588887],[77.332278,28.58884],[77.332451,28.588657],[77.332514,28.588703]]]},"properties":{"objectid":26490,"plotmapid":"10C054IND","property_t":"Industrial","allotted_p":"Yes","plotsizesq":208,"plot_size":"208 SQMT","plot_no":"054","sector":"10","block":"C","mplanduse":"B","ppt_type":"IND","ppt_full":"Industrial","authority":"NOIDA","category":"industrial","execution_stage":"allotted"}},{"type":"Feature","geometry":{"type":"Polygon","coordinates":[[[77.332577,28.58875],[77.332404,28.588933],[77.332341,28.588887],[77.332514,28.588703],[77.332577,28.58875]]]},"properties":{"objectid":26491,"plotmapid":"10C055IND","property_t":"Industrial","allotted_p":"Yes","plotsizesq":208,"plot_size":"208 SQMT","plot_no":"055","sector":"10","block":"C","mplanduse":"B","ppt_type":"IND","ppt_full":"Industrial","authority":"NOIDA","category":"industrial","execution_stage":"allotted"}},{"type":"Feature","geometry":{"type":"Polygon","coordinates":[[[77.330292,28.587372],[77.33031,28.587386],[77.330136,28.587566],[77.330073,28.58752],[77.330246,28.587339],[77.330292,28.587372]]]},"properties":{"objectid":26533,"plotmapid":"10A044IND","property_t":"Industrial","allotted_p":"Yes","plotsizesq":208,"plot_size":"208 SQMT","plot_no":"044","sector":"10","block":"A","mplanduse":"B","ppt_type":"IND","ppt_full":"Industrial","authority":"NOIDA","category":"industrial","execution_stage":"allotted"}},{"type":"Feature","geometry":{"type":"Polygon","coordinates":[[[77.330358,28.587421],[77.330372,28.587432],[77.330197,28.587611],[77.330136,28.587566],[77.33031,28.587386],[77.330358,28.587421]]]},"properties":{"objectid":26534,"plotmapid":"10A043IND","property_t":"Industrial","allotted_p":"Yes","plotsizesq":208,"plot_size":"208 SQMT","plot_no":"043","sector":"10","block":"A","mplanduse":"B","ppt_type":"IND","ppt_full":"Industrial","authority":"NOIDA","category":"industrial","execution_stage":"allotted"}},{"type":"Feature","geometry":{"type":"Polygon","coordinates":[[[77.330425,28.58747],[77.330435,28.587478],[77.33026,28.587657],[77.330197,28.587611],[77.330372,28.587432],[77.330425,28.58747]]]},"properties":{"objectid":26535,"plotmapid":"10A042IND","property_t":"Industrial","allotted_p":"Yes","plotsizesq":208,"plot_size":"208 SQMT","plot_no":"042","sector":"10","block":"A","mplanduse":"B","ppt_type":"IND","ppt_full":"Industrial","authority":"NOIDA","category":"industrial","execution_stage":"allotted"}},{"type":"Feature","geometry":{"type":"Polygon","coordinates":[[[77.330491,28.587519],[77.330325,28.587705],[77.33026,28.587657],[77.330435,28.587478],[77.330491,28.587519]]]},"properties":{"objectid":26536,"plotmapid":"10A041IND","property_t":"Industrial","allotted_p":"Yes","plotsizesq":208,"plot_size":"208 SQMT","plot_no":"041","sector":"10","block":"A","mplanduse":"B","ppt_type":"IND","ppt_full":"Industrial","authority":"NOIDA","category":"industrial","execution_stage":"allotted"}},{"type":"Feature","geometry":{"type":"Polygon","coordinates":[[[77.330557,28.587568],[77.330384,28.587748],[77.330325,28.587705],[77.330499,28.587525],[77.330557,28.587568]]]},"properties":{"objectid":26537,"plotmapid":"10A040IND","property_t":"Industrial","allotted_p":"Yes","plotsizesq":208,"plot_size":"208 SQMT","plot_no":"040","sector":"10","block":"A","mplanduse":"B","ppt_type":"IND","ppt_full":"Industrial","authority":"NOIDA","category":"industrial","execution_stage":"allotted"}},{"type":"Feature","geometry":{"type":"Polygon","coordinates":[[[77.33064,28.587629],[77.330471,28.587813],[77.330384,28.587748],[77.330563,28.587572],[77.33064,28.587629]]]},"properties":{"objectid":26538,"plotmapid":"10A039IND","property_t":"Industrial","allotted_p":"Yes","plotsizesq":208,"plot_size":"208 SQMT","plot_no":"039","sector":"10","block":"A","mplanduse":"B","ppt_type":"IND","ppt_full":"Industrial","authority":"NOIDA","category":"industrial","execution_stage":"allotted"}},{"type":"Feature","geometry":{"type":"Polygon","coordinates":[[[77.332026,28.588654],[77.331853,28.588838],[77.331774,28.588779],[77.331947,28.588596],[77.332026,28.588654]]]},"properties":{"objectid":26542,"plotmapid":"10C098IND","property_t":"Industrial","allotted_p":"Yes","plotsizesq":260,"plot_size":"260 SQMT","plot_no":"098","sector":"10","block":"C","mplanduse":"B","ppt_type":"IND","ppt_full":"Industrial","authority":"NOIDA","category":"industrial","execution_stage":"allotted"}},{"type":"Feature","geometry":{"type":"Polygon","coordinates":[[[77.332089,28.588701],[77.331916,28.588884],[77.331853,28.588838],[77.332026,28.588654],[77.332089,28.588701]]]},"properties":{"objectid":26543,"plotmapid":"10C097IND","property_t":"Industrial","allotted_p":"Yes","plotsizesq":208,"plot_size":"208 SQMT","plot_no":"097","sector":"10","block":"C","mplanduse":"B","ppt_type":"IND","ppt_full":"Industrial","authority":"NOIDA","category":"industrial","execution_stage":"allotted"}},{"type":"Feature","geometry":{"type":"Polygon","coordinates":[[[77.332152,28.588747],[77.331979,28.588931],[77.331916,28.588884],[77.332089,28.588701],[77.332152,28.588747]]]},"properties":{"objectid":26544,"plotmapid":"10C096IND","property_t":"Industrial","allotted_p":"Yes","plotsizesq":208,"plot_size":"208 SQMT","plot_no":"096","sector":"10","block":"C","mplanduse":"B","ppt_type":"IND","ppt_full":"Industrial","authority":"NOIDA","category":"industrial","execution_stage":"allotted"}},{"type":"Feature","geometry":{"type":"Polygon","coordinates":[[[77.332215,28.588794],[77.332042,28.588977],[77.331979,28.588931],[77.332152,28.588747],[77.332215,28.588794]]]},"properties":{"objectid":26545,"plotmapid":"10C095IND","property_t":"Industrial","allotted_p":"Yes","plotsizesq":208,"plot_size":"208 SQMT","plot_no":"095","sector":"10","block":"C","mplanduse":"B","ppt_type":"IND","ppt_full":"Industrial","authority":"NOIDA","category":"industrial","execution_stage":"allotted"}},{"type":"Feature","geometry":{"type":"Polygon","coordinates":[[[77.332278,28.58884],[77.332105,28.589024],[77.332042,28.588977],[77.332215,28.588794],[77.332278,28.58884]]]},"properties":{"objectid":26546,"plotmapid":"10C094IND","property_t":"Industrial","allotted_p":"Yes","plotsizesq":208,"plot_size":"208 SQMT","plot_no":"094","sector":"10","block":"C","mplanduse":"B","ppt_type":"IND","ppt_full":"Industrial","authority":"NOIDA","category":"industrial","execution_stage":"allotted"}},{"type":"Feature","geometry":{"type":"Polygon","coordinates":[[[77.332341,28.588887],[77.332168,28.58907],[77.332105,28.589024],[77.332278,28.58884],[77.332341,28.588887]]]},"properties":{"objectid":26547,"plotmapid":"10C093IND","property_t":"Industrial","allotted_p":"Yes","plotsizesq":208,"plot_size":"208 SQMT","plot_no":"093","sector":"10","block":"C","mplanduse":"B","ppt_type":"IND","ppt_full":"Industrial","authority":"NOIDA","category":"industrial","execution_stage":"allotted"}},{"type":"Feature","geometry":{"type":"Polygon","coordinates":[[[77.332404,28.588933],[77.332231,28.589117],[77.332168,28.58907],[77.332341,28.588887],[77.332404,28.588933]]]},"properties":{"objectid":26548,"plotmapid":"10C092IND","property_t":"Industrial","allotted_p":"Yes","plotsizesq":208,"plot_size":"208 SQMT","plot_no":"092","sector":"10","block":"C","mplanduse":"B","ppt_type":"IND","ppt_full":"Industrial","authority":"NOIDA","category":"industrial","execution_stage":"allotted"}},{"type":"Feature","geometry":{"type":"Polygon","coordinates":[[[77.330208,28.587822],[77.330242,28.587847],[77.330107,28.587983],[77.330068,28.587955],[77.330208,28.587822]]]},"properties":{"objectid":26598,"plotmapid":"10A058IND","property_t":"Industrial","allotted_p":"Yes","plotsizesq":114,"plot_size":"114 SQMT","plot_no":"058","sector":"10","block":"A","mplanduse":"B","ppt_type":"IND","ppt_full":"Industrial","authority":"NOIDA","category":"industrial","execution_stage":"allotted"}},{"type":"Feature","geometry":{"type":"Polygon","coordinates":[[[77.330254,28.587856],[77.330295,28.587886],[77.330163,28.588025],[77.330107,28.587983],[77.330242,28.587847],[77.330254,28.587856]]]},"properties":{"objectid":26599,"plotmapid":"10A059IND","property_t":"Industrial","allotted_p":"Yes","plotsizesq":114,"plot_size":"114 SQMT","plot_no":"059","sector":"10","block":"A","mplanduse":"B","ppt_type":"IND","ppt_full":"Industrial","authority":"NOIDA","category":"industrial","execution_stage":"allotted"}},{"type":"Feature","geometry":{"type":"Polygon","coordinates":[[[77.3303,28.58789],[77.330354,28.587929],[77.33022,28.588067],[77.330163,28.588025],[77.3303,28.58789]]]},"properties":{"objectid":26600,"plotmapid":"10A060IND","property_t":"Industrial","allotted_p":"Yes","plotsizesq":133,"plot_size":"133 SQMT","plot_no":"060","sector":"10","block":"A","mplanduse":"B","ppt_type":"IND","ppt_full":"Industrial","authority":"NOIDA","category":"industrial","execution_stage":"allotted"}},{"type":"Feature","geometry":{"type":"Polygon","coordinates":[[[77.330621,28.588136],[77.330496,28.588268],[77.330449,28.588232],[77.330576,28.588103],[77.330621,28.588136]]]},"properties":{"objectid":26601,"plotmapid":"10B003IND","property_t":"Industrial","allotted_p":"Yes","plotsizesq":114,"plot_size":"114 SQMT","plot_no":"003","sector":"10","block":"B","mplanduse":"B","ppt_type":"IND","ppt_full":"Industrial","authority":"NOIDA","category":"industrial","execution_stage":"allotted"}},{"type":"Feature","geometry":{"type":"Polygon","coordinates":[[[77.330669,28.588172],[77.330547,28.588306],[77.330496,28.588268],[77.330621,28.588136],[77.330669,28.588172]]]},"properties":{"objectid":26602,"plotmapid":"10B004IND","property_t":"Industrial","allotted_p":"Yes","plotsizesq":114,"plot_size":"114 SQMT","plot_no":"004","sector":"10","block":"B","mplanduse":"B","ppt_type":"IND","ppt_full":"Industrial","authority":"NOIDA","category":"industrial","execution_stage":"allotted"}},{"type":"Feature","geometry":{"type":"Polygon","coordinates":[[[77.330716,28.588207],[77.330591,28.588338],[77.330547,28.588306],[77.330669,28.588172],[77.330716,28.588207]]]},"properties":{"objectid":26603,"plotmapid":"10B005IND","property_t":"Industrial","allotted_p":"Yes","plotsizesq":114,"plot_size":"114 SQMT","plot_no":"005","sector":"10","block":"B","mplanduse":"B","ppt_type":"IND","ppt_full":"Industrial","authority":"NOIDA","category":"industrial","execution_stage":"allotted"}},{"type":"Feature","geometry":{"type":"Polygon","coordinates":[[[77.330763,28.588242],[77.330638,28.588373],[77.330591,28.588338],[77.330716,28.588207],[77.330763,28.588242]]]},"properties":{"objectid":26604,"plotmapid":"10B006IND","property_t":"Industrial","allotted_p":"Yes","plotsizesq":114,"plot_size":"114 SQMT","plot_no":"006","sector":"10","block":"B","mplanduse":"B","ppt_type":"IND","ppt_full":"Industrial","authority":"NOIDA","category":"industrial","execution_stage":"allotted"}},{"type":"Feature","geometry":{"type":"Polygon","coordinates":[[[77.330811,28.588277],[77.330686,28.588408],[77.330638,28.588373],[77.330763,28.588242],[77.330811,28.588277]]]},"properties":{"objectid":26605,"plotmapid":"10B007IND","property_t":"Industrial","allotted_p":"Yes","plotsizesq":114,"plot_size":"114 SQMT","plot_no":"007","sector":"10","block":"B","mplanduse":"B","ppt_type":"IND","ppt_full":"Industrial","authority":"NOIDA","category":"industrial","execution_stage":"allotted"}},{"type":"Feature","geometry":{"type":"Polygon","coordinates":[[[77.330858,28.588312],[77.330733,28.588443],[77.330686,28.588408],[77.330811,28.588277],[77.330858,28.588312]]]},"properties":{"objectid":26606,"plotmapid":"10B008IND","property_t":"Industrial","allotted_p":"Yes","plotsizesq":114,"plot_size":"114 SQMT","plot_no":"008","sector":"10","block":"B","mplanduse":"B","ppt_type":"IND","ppt_full":"Industrial","authority":"NOIDA","category":"industrial","execution_stage":"allotted"}},{"type":"Feature","geometry":{"type":"Polygon","coordinates":[[[77.330906,28.588347],[77.330781,28.588478],[77.330733,28.588443],[77.330858,28.588312],[77.330906,28.588347]]]},"properties":{"objectid":26607,"plotmapid":"10B009IND","property_t":"Industrial","allotted_p":"Yes","plotsizesq":228,"plot_size":"228 SQMT","plot_no":"009","sector":"10","block":"B","mplanduse":"B","ppt_type":"IND","ppt_full":"Industrial","authority":"NOIDA","category":"industrial","execution_stage":"allotted"}},{"type":"Feature","geometry":{"type":"Polygon","coordinates":[[[77.330953,28.588382],[77.330828,28.588514],[77.330781,28.588478],[77.330906,28.588347],[77.330953,28.588382]]]},"properties":{"objectid":26608,"plotmapid":"10B010IND","property_t":"Industrial","allotted_p":"Yes","plotsizesq":114,"plot_size":"114 SQMT","plot_no":"010","sector":"10","block":"B","mplanduse":"B","ppt_type":"IND","ppt_full":"Industrial","authority":"NOIDA","category":"industrial","execution_stage":"allotted"}},{"type":"Feature","geometry":{"type":"Polygon","coordinates":[[[77.330996,28.588414],[77.330873,28.588547],[77.330828,28.588514],[77.330953,28.588382],[77.330996,28.588414]]]},"properties":{"objectid":26609,"plotmapid":"10B011IND","property_t":"Industrial","allotted_p":"Yes","plotsizesq":114,"plot_size":"114 SQMT","plot_no":"011","sector":"10","block":"B","mplanduse":"B","ppt_type":"IND","ppt_full":"Industrial","authority":"NOIDA","category":"industrial","execution_stage":"allotted"}},{"type":"Feature","geometry":{"type":"Polygon","coordinates":[[[77.331045,28.58845],[77.330923,28.588584],[77.330873,28.588547],[77.330996,28.588414],[77.331045,28.58845]]]},"properties":{"objectid":26610,"plotmapid":"10B011/AIND","property_t":"Industrial","plotsizesq":0,"plot_no":"011/A","sector":"10","block":"B","mplanduse":"B","ppt_type":"IND","ppt_full":"Industrial","authority":"NOIDA","category":"industrial","execution_stage":"unknown"}},{"type":"Feature","geometry":{"type":"Polygon","coordinates":[[[77.331096,28.588488],[77.330971,28.588619],[77.330923,28.588584],[77.331045,28.58845],[77.331096,28.588488]]]},"properties":{"objectid":26611,"plotmapid":"10B012 & 013IND","property_t":"Industrial","plotsizesq":0,"plot_no":"012 & 013","sector":"10","block":"B","mplanduse":"B","ppt_type":"IND","ppt_full":"Industrial","authority":"NOIDA","category":"industrial","execution_stage":"unknown"}},{"type":"Feature","geometry":{"type":"Polygon","coordinates":[[[77.331143,28.588523],[77.331018,28.588654],[77.330971,28.588619],[77.331096,28.588488],[77.331143,28.588523]]]},"properties":{"objectid":26612,"plotmapid":"10B013IND","property_t":"Industrial","allotted_p":"Yes","plotsizesq":228,"plot_size":"228 SQMT","plot_no":"013","sector":"10","block":"B","mplanduse":"B","ppt_type":"IND","ppt_full":"Industrial","authority":"NOIDA","category":"industrial","execution_stage":"allotted"}},{"type":"Feature","geometry":{"type":"Polygon","coordinates":[[[77.331188,28.588556],[77.331062,28.588686],[77.331018,28.588654],[77.331143,28.588523],[77.331188,28.588556]]]},"properties":{"objectid":26613,"plotmapid":"10B014IND","property_t":"Industrial","allotted_p":"Yes","plotsizesq":114,"plot_size":"114 SQMT","plot_no":"014","sector":"10","block":"B","mplanduse":"B","ppt_type":"IND","ppt_full":"Industrial","authority":"NOIDA","category":"industrial","execution_stage":"allotted"}},{"type":"Feature","geometry":{"type":"Polygon","coordinates":[[[77.331236,28.588591],[77.331111,28.588723],[77.331062,28.588686],[77.331188,28.588556],[77.331236,28.588591]]]},"properties":{"objectid":26614,"plotmapid":"10B015IND","property_t":"Industrial","allotted_p":"Yes","plotsizesq":114,"plot_size":"114 SQMT","plot_no":"015","sector":"10","block":"B","mplanduse":"B","ppt_type":"IND","ppt_full":"Industrial","authority":"NOIDA","category":"industrial","execution_stage":"allotted"}},{"type":"Feature","geometry":{"type":"Polygon","coordinates":[[[77.331281,28.588625],[77.331158,28.588758],[77.331111,28.588723],[77.331236,28.588591],[77.331281,28.588625]]]},"properties":{"objectid":26615,"plotmapid":"10B016IND","property_t":"Industrial","allotted_p":"Yes","plotsizesq":114,"plot_size":"114 SQMT","plot_no":"016","sector":"10","block":"B","mplanduse":"B","ppt_type":"IND","ppt_full":"Industrial","authority":"NOIDA","category":"industrial","execution_stage":"allotted"}},{"type":"Feature","geometry":{"type":"Polygon","coordinates":[[[77.331375,28.588694],[77.331251,28.588826],[77.331204,28.588792],[77.33133,28.588661],[77.331375,28.588694]]]},"properties":{"objectid":26616,"plotmapid":"10B018IND","property_t":"Industrial","allotted_p":"Yes","plotsizesq":114,"plot_size":"114 SQMT","plot_no":"018","sector":"10","block":"B","mplanduse":"B","ppt_type":"IND","ppt_full":"Industrial","authority":"NOIDA","category":"industrial","execution_stage":"allotted"}},{"type":"Feature","geometry":{"type":"Polygon","coordinates":[[[77.331424,28.58873],[77.331299,28.588862],[77.331251,28.588826],[77.331375,28.588694],[77.331424,28.58873]]]},"properties":{"objectid":26617,"plotmapid":"10B019IND","property_t":"Industrial","allotted_p":"Yes","plotsizesq":114,"plot_size":"114 SQMT","plot_no":"019","sector":"10","block":"B","mplanduse":"B","ppt_type":"IND","ppt_full":"Industrial","authority":"NOIDA","category":"industrial","execution_stage":"allotted"}},{"type":"Feature","geometry":{"type":"Polygon","coordinates":[[[77.33147,28.588763],[77.331346,28.588897],[77.331299,28.588862],[77.331424,28.58873],[77.33147,28.588763]]]},"properties":{"objectid":26618,"plotmapid":"10B020IND","property_t":"Industrial","allotted_p":"Yes","plotsizesq":114,"plot_size":"114 SQMT","plot_no":"020","sector":"10","block":"B","mplanduse":"B","ppt_type":"IND","ppt_full":"Industrial","authority":"NOIDA","category":"industrial","execution_stage":"allotted"}},{"type":"Feature","geometry":{"type":"Polygon","coordinates":[[[77.331524,28.588803],[77.331398,28.588935],[77.331346,28.588897],[77.33147,28.588763],[77.331524,28.588803]]]},"properties":{"objectid":26619,"plotmapid":"10B021IND","property_t":"Industrial","allotted_p":"Yes","plotsizesq":114,"plot_size":"114 SQMT","plot_no":"021","sector":"10","block":"B","mplanduse":"B","ppt_type":"IND","ppt_full":"Industrial","authority":"NOIDA","category":"industrial","execution_stage":"allotted"}},{"type":"Feature","geometry":{"type":"Polygon","coordinates":[[[77.331662,28.588907],[77.331716,28.588946],[77.331592,28.589076],[77.331541,28.589037],[77.331662,28.588907]]]},"properties":{"objectid":26620,"plotmapid":"10C099IND","property_t":"Industrial","allotted_p":"Yes","plotsizesq":133,"plot_size":"133 SQMT","plot_no":"099","sector":"10","block":"C","mplanduse":"B","ppt_type":"IND","ppt_full":"Industrial","authority":"NOIDA","category":"industrial","execution_stage":"allotted"}},{"type":"Feature","geometry":{"type":"Polygon","coordinates":[[[77.331762,28.58898],[77.331636,28.589108],[77.331592,28.589076],[77.331716,28.588946],[77.331762,28.58898]]]},"properties":{"objectid":26621,"plotmapid":"10C100IND","property_t":"Industrial","allotted_p":"Yes","plotsizesq":114,"plot_size":"114 SQMT","plot_no":"100","sector":"10","block":"C","mplanduse":"B","ppt_type":"IND","ppt_full":"Industrial","authority":"NOIDA","category":"industrial","execution_stage":"allotted"}},{"type":"Feature","geometry":{"type":"Polygon","coordinates":[[[77.331812,28.589017],[77.331686,28.589145],[77.331636,28.589108],[77.331762,28.58898],[77.331812,28.589017]]]},"properties":{"objectid":26622,"plotmapid":"10C101IND","property_t":"Industrial","allotted_p":"Yes","plotsizesq":114.59,"plot_size":"114.59 SQMT","plot_no":"101","sector":"10","block":"C","mplanduse":"B","ppt_type":"IND","ppt_full":"Industrial","authority":"NOIDA","category":"industrial","execution_stage":"allotted"}},{"type":"Feature","geometry":{"type":"Polygon","coordinates":[[[77.331854,28.589047],[77.331729,28.589177],[77.331686,28.589145],[77.331812,28.589017],[77.331854,28.589047]]]},"properties":{"objectid":26623,"plotmapid":"10C102IND","property_t":"Industrial","allotted_p":"Yes","plotsizesq":114,"plot_size":"114 SQMT","plot_no":"102","sector":"10","block":"C","mplanduse":"B","ppt_type":"IND","ppt_full":"Industrial","authority":"NOIDA","category":"industrial","execution_stage":"allotted"}},{"type":"Feature","geometry":{"type":"Polygon","coordinates":[[[77.331906,28.589086],[77.331781,28.589216],[77.331729,28.589177],[77.331854,28.589047],[77.331906,28.589086]]]},"properties":{"objectid":26624,"plotmapid":"10C103IND","property_t":"Industrial","allotted_p":"Yes","plotsizesq":114,"plot_size":"114 SQMT","plot_no":"103","sector":"10","block":"C","mplanduse":"B","ppt_type":"IND","ppt_full":"Industrial","authority":"NOIDA","category":"industrial","execution_stage":"allotted"}},{"type":"Feature","geometry":{"type":"Polygon","coordinates":[[[77.331952,28.58912],[77.331828,28.589251],[77.331781,28.589216],[77.331906,28.589086],[77.331952,28.58912]]]},"properties":{"objectid":26625,"plotmapid":"10C104IND","property_t":"Industrial","allotted_p":"Yes","plotsizesq":114,"plot_size":"114 SQMT","plot_no":"104","sector":"10","block":"C","mplanduse":"B","ppt_type":"IND","ppt_full":"Industrial","authority":"NOIDA","category":"industrial","execution_stage":"allotted"}},{"type":"Feature","geometry":{"type":"Polygon","coordinates":[[[77.331999,28.589155],[77.331875,28.589286],[77.331828,28.589251],[77.331952,28.58912],[77.331999,28.589155]]]},"properties":{"objectid":26626,"plotmapid":"10C105IND","property_t":"Industrial","allotted_p":"Yes","plotsizesq":114,"plot_size":"114 SQMT","plot_no":"105","sector":"10","block":"C","mplanduse":"B","ppt_type":"IND","ppt_full":"Industrial","authority":"NOIDA","category":"industrial","execution_stage":"allotted"}},{"type":"Feature","geometry":{"type":"Polygon","coordinates":[[[77.332046,28.58919],[77.331921,28.58932],[77.331875,28.589286],[77.331999,28.589155],[77.332046,28.58919]]]},"properties":{"objectid":26627,"plotmapid":"10C106IND","property_t":"Industrial","allotted_p":"Yes","plotsizesq":114,"plot_size":"114 SQMT","plot_no":"106","sector":"10","block":"C","mplanduse":"B","ppt_type":"IND","ppt_full":"Industrial","authority":"NOIDA","category":"industrial","execution_stage":"allotted"}},{"type":"Feature","geometry":{"type":"Polygon","coordinates":[[[77.332094,28.589226],[77.331969,28.589355],[77.331921,28.58932],[77.332046,28.58919],[77.332094,28.589226]]]},"properties":{"objectid":26628,"plotmapid":"10C107IND","property_t":"Industrial","allotted_p":"Yes","plotsizesq":114,"plot_size":"114 SQMT","plot_no":"107","sector":"10","block":"C","mplanduse":"B","ppt_type":"IND","ppt_full":"Industrial","authority":"NOIDA","category":"industrial","execution_stage":"allotted"}},{"type":"Feature","geometry":{"type":"Polygon","coordinates":[[[77.332143,28.589262],[77.332017,28.589391],[77.331969,28.589355],[77.332094,28.589226],[77.332143,28.589262]]]},"properties":{"objectid":26629,"plotmapid":"10C108IND","property_t":"Industrial","allotted_p":"Yes","plotsizesq":114,"plot_size":"114 SQMT","plot_no":"108","sector":"10","block":"C","mplanduse":"B","ppt_type":"IND","ppt_full":"Industrial","authority":"NOIDA","category":"industrial","execution_stage":"allotted"}},{"type":"Feature","geometry":{"type":"Polygon","coordinates":[[[77.332328,28.589399],[77.332203,28.589529],[77.332157,28.589495],[77.33228,28.589363],[77.332328,28.589399]]]},"properties":{"objectid":26630,"plotmapid":"10C110IND","property_t":"Industrial","allotted_p":"Yes","plotsizesq":114,"plot_size":"114 SQMT","plot_no":"110","sector":"10","block":"C","mplanduse":"B","ppt_type":"IND","ppt_full":"Industrial","authority":"NOIDA","category":"industrial","execution_stage":"allotted"}},{"type":"Feature","geometry":{"type":"Polygon","coordinates":[[[77.332374,28.589433],[77.332249,28.589564],[77.332203,28.589529],[77.332328,28.589399],[77.332374,28.589433]]]},"properties":{"objectid":26631,"plotmapid":"10C111IND","property_t":"Industrial","allotted_p":"Yes","plotsizesq":114,"plot_size":"114 SQMT","plot_no":"111","sector":"10","block":"C","mplanduse":"B","ppt_type":"IND","ppt_full":"Industrial","authority":"NOIDA","category":"industrial","execution_stage":"allotted"}},{"type":"Feature","geometry":{"type":"Polygon","coordinates":[[[77.332422,28.589469],[77.332298,28.5896],[77.332249,28.589564],[77.332374,28.589433],[77.332422,28.589469]]]},"properties":{"objectid":26632,"plotmapid":"10C112IND","property_t":"Industrial","allotted_p":"Yes","plotsizesq":114,"plot_size":"114 SQMT","plot_no":"112","sector":"10","block":"C","mplanduse":"B","ppt_type":"IND","ppt_full":"Industrial","authority":"NOIDA","category":"industrial","execution_stage":"allotted"}},{"type":"Feature","geometry":{"type":"Polygon","coordinates":[[[77.332468,28.589503],[77.332516,28.58954],[77.33239,28.589668],[77.332344,28.589634],[77.332468,28.589503]]]},"properties":{"objectid":26633,"plotmapid":"10C114IND","property_t":"Industrial","allotted_p":"Yes","plotsizesq":114,"plot_size":"114 SQMT","plot_no":"114","sector":"10","block":"C","mplanduse":"B","ppt_type":"IND","ppt_full":"Industrial","authority":"NOIDA","category":"industrial","execution_stage":"allotted"}},{"type":"Feature","geometry":{"type":"Polygon","coordinates":[[[77.332565,28.589576],[77.332439,28.589704],[77.33239,28.589668],[77.332516,28.58954],[77.332565,28.589576]]]},"properties":{"objectid":26634,"plotmapid":"10C115IND","property_t":"Industrial","allotted_p":"Yes","plotsizesq":114,"plot_size":"114 SQMT","plot_no":"115","sector":"10","block":"C","mplanduse":"B","ppt_type":"IND","ppt_full":"Industrial","authority":"NOIDA","category":"industrial","execution_stage":"allotted"}},{"type":"Feature","geometry":{"type":"Polygon","coordinates":[[[77.330449,28.588232],[77.330326,28.588368],[77.330275,28.58833],[77.330401,28.588197],[77.330449,28.588232]]]},"properties":{"objectid":26691,"plotmapid":"10B041IND","property_t":"Industrial","allotted_p":"Yes","plotsizesq":114,"plot_size":"114 SQMT","plot_no":"041","sector":"10","block":"B","mplanduse":"B","ppt_type":"IND","ppt_full":"Industrial","authority":"NOIDA","category":"industrial","execution_stage":"allotted"}},{"type":"Feature","geometry":{"type":"Polygon","coordinates":[[[77.330326,28.588368],[77.330449,28.588232],[77.330496,28.588268],[77.33037,28.5884],[77.330326,28.588368]]]},"properties":{"objectid":26692,"plotmapid":"10B040IND","property_t":"Industrial","allotted_p":"Yes","plotsizesq":114,"plot_size":"114 SQMT","plot_no":"040","sector":"10","block":"B","mplanduse":"B","ppt_type":"IND","ppt_full":"Industrial","authority":"NOIDA","category":"industrial","execution_stage":"allotted"}},{"type":"Feature","geometry":{"type":"Polygon","coordinates":[[[77.33037,28.5884],[77.330496,28.588268],[77.330547,28.588306],[77.33042,28.588438],[77.33037,28.5884]]]},"properties":{"objectid":26693,"plotmapid":"10B039IND","property_t":"Industrial","allotted_p":"Yes","plotsizesq":114,"plot_size":"114 SQMT","plot_no":"039","sector":"10","block":"B","mplanduse":"B","ppt_type":"IND","ppt_full":"Industrial","authority":"NOIDA","category":"industrial","execution_stage":"allotted"}},{"type":"Feature","geometry":{"type":"Polygon","coordinates":[[[77.33042,28.588438],[77.330547,28.588306],[77.330591,28.588338],[77.330464,28.588471],[77.33042,28.588438]]]},"properties":{"objectid":26694,"plotmapid":"10B038IND","property_t":"Industrial","allotted_p":"Yes","plotsizesq":114,"plot_size":"114 SQMT","plot_no":"038","sector":"10","block":"B","mplanduse":"B","ppt_type":"IND","ppt_full":"Industrial","authority":"NOIDA","category":"industrial","execution_stage":"allotted"}},{"type":"Feature","geometry":{"type":"Polygon","coordinates":[[[77.330464,28.588471],[77.330591,28.588338],[77.330638,28.588373],[77.330512,28.588506],[77.330464,28.588471]]]},"properties":{"objectid":26695,"plotmapid":"10B037IND","property_t":"Industrial","allotted_p":"Yes","plotsizesq":114,"plot_size":"114 SQMT","plot_no":"037","sector":"10","block":"B","mplanduse":"B","ppt_type":"IND","ppt_full":"Industrial","authority":"NOIDA","category":"industrial","execution_stage":"allotted"}},{"type":"Feature","geometry":{"type":"Polygon","coordinates":[[[77.330512,28.588506],[77.330638,28.588373],[77.330686,28.588408],[77.330559,28.588541],[77.330512,28.588506]]]},"properties":{"objectid":26696,"plotmapid":"10B036IND","property_t":"Industrial","allotted_p":"Yes","plotsizesq":114,"plot_size":"114 SQMT","plot_no":"036","sector":"10","block":"B","mplanduse":"B","ppt_type":"IND","ppt_full":"Industrial","authority":"NOIDA","category":"industrial","execution_stage":"allotted"}},{"type":"Feature","geometry":{"type":"Polygon","coordinates":[[[77.330559,28.588541],[77.330686,28.588408],[77.330733,28.588443],[77.330607,28.588576],[77.330559,28.588541]]]},"properties":{"objectid":26697,"plotmapid":"10B035IND","property_t":"Industrial","allotted_p":"Yes","plotsizesq":114,"plot_size":"114 SQMT","plot_no":"035","sector":"10","block":"B","mplanduse":"B","ppt_type":"IND","ppt_full":"Industrial","authority":"NOIDA","category":"industrial","execution_stage":"allotted"}},{"type":"Feature","geometry":{"type":"Polygon","coordinates":[[[77.330781,28.588478],[77.330654,28.588611],[77.330607,28.588576],[77.330733,28.588443],[77.330781,28.588478]]]},"properties":{"objectid":26698,"plotmapid":"10B034IND","property_t":"Industrial","allotted_p":"Yes","plotsizesq":114,"plot_size":"114 SQMT","plot_no":"034","sector":"10","block":"B","mplanduse":"B","ppt_type":"IND","ppt_full":"Industrial","authority":"NOIDA","category":"industrial","execution_stage":"allotted"}},{"type":"Feature","geometry":{"type":"Polygon","coordinates":[[[77.330828,28.588514],[77.330702,28.588646],[77.330654,28.588611],[77.330781,28.588478],[77.330828,28.588514]]]},"properties":{"objectid":26699,"plotmapid":"10B033IND","property_t":"Industrial","allotted_p":"Yes","plotsizesq":114,"plot_size":"114 SQMT","plot_no":"033","sector":"10","block":"B","mplanduse":"B","ppt_type":"IND","ppt_full":"Industrial","authority":"NOIDA","category":"industrial","execution_stage":"allotted"}},{"type":"Feature","geometry":{"type":"Polygon","coordinates":[[[77.330702,28.588646],[77.330828,28.588514],[77.330873,28.588547],[77.330749,28.588682],[77.330702,28.588646]]]},"properties":{"objectid":26700,"plotmapid":"10B032IND","property_t":"Industrial","allotted_p":"Yes","plotsizesq":114,"plot_size":"114 SQMT","plot_no":"032","sector":"10","block":"B","mplanduse":"B","ppt_type":"IND","ppt_full":"Industrial","authority":"NOIDA","category":"industrial","execution_stage":"allotted"}},{"type":"Feature","geometry":{"type":"Polygon","coordinates":[[[77.330749,28.588682],[77.330873,28.588547],[77.330923,28.588584],[77.330794,28.588715],[77.330749,28.588682]]]},"properties":{"objectid":26701,"plotmapid":"10B031AIND","property_t":"Industrial","plotsizesq":0,"plot_no":"031A","sector":"10","block":"B","mplanduse":"B","ppt_type":"IND","ppt_full":"Industrial","authority":"NOIDA","category":"industrial","execution_stage":"unknown"}},{"type":"Feature","geometry":{"type":"Polygon","coordinates":[[[77.330794,28.588715],[77.330923,28.588584],[77.330971,28.588619],[77.330844,28.588752],[77.330794,28.588715]]]},"properties":{"objectid":26702,"plotmapid":"10B031IND","property_t":"Industrial","allotted_p":"Yes","plotsizesq":114,"plot_size":"114 SQMT","plot_no":"031","sector":"10","block":"B","mplanduse":"B","ppt_type":"IND","ppt_full":"Industrial","authority":"NOIDA","category":"industrial","execution_stage":"allotted"}},{"type":"Feature","geometry":{"type":"Polygon","coordinates":[[[77.330844,28.588752],[77.330971,28.588619],[77.331018,28.588654],[77.330892,28.588787],[77.330844,28.588752]]]},"properties":{"objectid":26703,"plotmapid":"10B030IND","property_t":"Industrial","allotted_p":"Yes","plotsizesq":114,"plot_size":"114 SQMT","plot_no":"030","sector":"10","block":"B","mplanduse":"B","ppt_type":"IND","ppt_full":"Industrial","authority":"NOIDA","category":"industrial","execution_stage":"allotted"}},{"type":"Feature","geometry":{"type":"Polygon","coordinates":[[[77.330892,28.588787],[77.331018,28.588654],[77.331062,28.588686],[77.330936,28.58882],[77.330892,28.588787]]]},"properties":{"objectid":26704,"plotmapid":"10B029IND","property_t":"Industrial","allotted_p":"Yes","plotsizesq":114,"plot_size":"114 SQMT","plot_no":"029","sector":"10","block":"B","mplanduse":"B","ppt_type":"IND","ppt_full":"Industrial","authority":"NOIDA","category":"industrial","execution_stage":"allotted"}},{"type":"Feature","geometry":{"type":"Polygon","coordinates":[[[77.330936,28.58882],[77.331062,28.588686],[77.331111,28.588723],[77.330984,28.588856],[77.330936,28.58882]]]},"properties":{"objectid":26705,"plotmapid":"10B028IND","property_t":"Industrial","allotted_p":"Yes","plotsizesq":114,"plot_size":"114 SQMT","plot_no":"028","sector":"10","block":"B","mplanduse":"B","ppt_type":"IND","ppt_full":"Industrial","authority":"NOIDA","category":"industrial","execution_stage":"allotted"}},{"type":"Feature","geometry":{"type":"Polygon","coordinates":[[[77.330984,28.588856],[77.331111,28.588723],[77.331158,28.588758],[77.331032,28.588891],[77.330984,28.588856]]]},"properties":{"objectid":26706,"plotmapid":"10B027IND","property_t":"Industrial","allotted_p":"Yes","plotsizesq":114,"plot_size":"114 SQMT","plot_no":"027","sector":"10","block":"B","mplanduse":"B","ppt_type":"IND","ppt_full":"Industrial","authority":"NOIDA","category":"industrial","execution_stage":"allotted"}},{"type":"Feature","geometry":{"type":"Polygon","coordinates":[[[77.331032,28.588891],[77.331158,28.588758],[77.331204,28.588792],[77.331078,28.588925],[77.331032,28.588891]]]},"properties":{"objectid":26707,"plotmapid":"10B026IND","property_t":"Industrial","allotted_p":"Yes","plotsizesq":140,"plot_size":"140 SQMT","plot_no":"026","sector":"10","block":"B","mplanduse":"B","ppt_type":"IND","ppt_full":"Industrial","authority":"NOIDA","category":"industrial","execution_stage":"allotted"}},{"type":"Feature","geometry":{"type":"Polygon","coordinates":[[[77.331251,28.588826],[77.331126,28.58896],[77.331078,28.588925],[77.331204,28.588792],[77.331251,28.588826]]]},"properties":{"objectid":26708,"plotmapid":"10B025IND","property_t":"Industrial","allotted_p":"Yes","plotsizesq":114,"plot_size":"114 SQMT","plot_no":"025","sector":"10","block":"B","mplanduse":"B","ppt_type":"IND","ppt_full":"Industrial","authority":"NOIDA","category":"industrial","execution_stage":"allotted"}},{"type":"Feature","geometry":{"type":"Polygon","coordinates":[[[77.331126,28.58896],[77.331251,28.588826],[77.331299,28.588862],[77.331171,28.588994],[77.331126,28.58896]]]},"properties":{"objectid":26709,"plotmapid":"10B024IND","property_t":"Industrial","allotted_p":"Yes","plotsizesq":114,"plot_size":"114 SQMT","plot_no":"024","sector":"10","block":"B","mplanduse":"B","ppt_type":"IND","ppt_full":"Industrial","authority":"NOIDA","category":"industrial","execution_stage":"allotted"}},{"type":"Feature","geometry":{"type":"Polygon","coordinates":[[[77.331346,28.588897],[77.331224,28.589033],[77.331171,28.588994],[77.331299,28.588862],[77.331346,28.588897]]]},"properties":{"objectid":26710,"plotmapid":"10B023IND","property_t":"Industrial","allotted_p":"Yes","plotsizesq":114,"plot_size":"114 SQMT","plot_no":"023","sector":"10","block":"B","mplanduse":"B","ppt_type":"IND","ppt_full":"Industrial","authority":"NOIDA","category":"industrial","execution_stage":"allotted"}},{"type":"Feature","geometry":{"type":"Polygon","coordinates":[[[77.331224,28.589033],[77.331346,28.588897],[77.331398,28.588935],[77.331271,28.589068],[77.331224,28.589033]]]},"properties":{"objectid":26711,"plotmapid":"10B022IND","property_t":"Industrial","allotted_p":"Yes","plotsizesq":114,"plot_size":"114 SQMT","plot_no":"022","sector":"10","block":"B","mplanduse":"B","ppt_type":"IND","ppt_full":"Industrial","authority":"NOIDA","category":"industrial","execution_stage":"allotted"}},{"type":"Feature","geometry":{"type":"Polygon","coordinates":[[[77.331541,28.589037],[77.331592,28.589076],[77.331467,28.589206],[77.331419,28.589169],[77.331541,28.589037]]]},"properties":{"objectid":26712,"plotmapid":"10C164IND","property_t":"Industrial","allotted_p":"Yes","plotsizesq":133,"plot_size":"133 SQMT","plot_no":"164","sector":"10","block":"C","mplanduse":"B","ppt_type":"IND","ppt_full":"Industrial","authority":"NOIDA","category":"industrial","execution_stage":"allotted"}},{"type":"Feature","geometry":{"type":"Polygon","coordinates":[[[77.331467,28.589206],[77.331592,28.589076],[77.331636,28.589108],[77.331514,28.589241],[77.331467,28.589206]]]},"properties":{"objectid":26713,"plotmapid":"10C163IND","property_t":"Industrial","allotted_p":"Yes","plotsizesq":114,"plot_size":"114 SQMT","plot_no":"163","sector":"10","block":"C","mplanduse":"B","ppt_type":"IND","ppt_full":"Industrial","authority":"NOIDA","category":"industrial","execution_stage":"allotted"}},{"type":"Feature","geometry":{"type":"Polygon","coordinates":[[[77.331683,28.589143],[77.331561,28.589276],[77.331514,28.589241],[77.331636,28.589108],[77.331683,28.589143]]]},"properties":{"objectid":26714,"plotmapid":"10C162IND","property_t":"Industrial","allotted_p":"Yes","plotsizesq":208,"plot_size":"208 SQMT","plot_no":"162","sector":"10","block":"C","mplanduse":"B","ppt_type":"IND","ppt_full":"Industrial","authority":"NOIDA","category":"industrial","execution_stage":"allotted"}},{"type":"Feature","geometry":{"type":"Polygon","coordinates":[[[77.331729,28.589177],[77.331608,28.589311],[77.331561,28.589276],[77.331686,28.589145],[77.331729,28.589177]]]},"properties":{"objectid":26715,"plotmapid":"10C161IND","property_t":"Industrial","allotted_p":"Yes","plotsizesq":114,"plot_size":"114 SQMT","plot_no":"161","sector":"10","block":"C","mplanduse":"B","ppt_type":"IND","ppt_full":"Industrial","authority":"NOIDA","category":"industrial","execution_stage":"allotted"}},{"type":"Feature","geometry":{"type":"Polygon","coordinates":[[[77.331608,28.589311],[77.331732,28.589179],[77.331781,28.589216],[77.331657,28.589348],[77.331608,28.589311]]]},"properties":{"objectid":26716,"plotmapid":"10C160IND","property_t":"Industrial","allotted_p":"Yes","plotsizesq":114,"plot_size":"114 SQMT","plot_no":"160","sector":"10","block":"C","mplanduse":"B","ppt_type":"IND","ppt_full":"Industrial","authority":"NOIDA","category":"industrial","execution_stage":"allotted"}},{"type":"Feature","geometry":{"type":"Polygon","coordinates":[[[77.331657,28.589348],[77.331781,28.589216],[77.331828,28.589251],[77.331704,28.589383],[77.331657,28.589348]]]},"properties":{"objectid":26717,"plotmapid":"10C159IND","property_t":"Industrial","allotted_p":"Yes","plotsizesq":114,"plot_size":"114 SQMT","plot_no":"159","sector":"10","block":"C","mplanduse":"B","ppt_type":"IND","ppt_full":"Industrial","authority":"NOIDA","category":"industrial","execution_stage":"allotted"}},{"type":"Feature","geometry":{"type":"Polygon","coordinates":[[[77.331704,28.589383],[77.331828,28.589251],[77.331875,28.589286],[77.331749,28.589417],[77.331704,28.589383]]]},"properties":{"objectid":26718,"plotmapid":"10C158IND","property_t":"Industrial","allotted_p":"Yes","plotsizesq":114,"plot_size":"114 SQMT","plot_no":"158","sector":"10","block":"C","mplanduse":"B","ppt_type":"IND","ppt_full":"Industrial","authority":"NOIDA","category":"industrial","execution_stage":"allotted"}},{"type":"Feature","geometry":{"type":"Polygon","coordinates":[[[77.331749,28.589417],[77.331875,28.589286],[77.331921,28.58932],[77.331797,28.589454],[77.331749,28.589417]]]},"properties":{"objectid":26719,"plotmapid":"10C157IND","property_t":"Industrial","allotted_p":"Yes","plotsizesq":114,"plot_size":"114 SQMT","plot_no":"157","sector":"10","block":"C","mplanduse":"B","ppt_type":"IND","ppt_full":"Industrial","authority":"NOIDA","category":"industrial","execution_stage":"allotted"}},{"type":"Feature","geometry":{"type":"Polygon","coordinates":[[[77.331797,28.589454],[77.331921,28.58932],[77.331969,28.589355],[77.331844,28.589488],[77.331797,28.589454]]]},"properties":{"objectid":26720,"plotmapid":"10C156IND","property_t":"Industrial","allotted_p":"Yes","plotsizesq":114,"plot_size":"114 SQMT","plot_no":"156","sector":"10","block":"C","mplanduse":"B","ppt_type":"IND","ppt_full":"Industrial","authority":"NOIDA","category":"industrial","execution_stage":"allotted"}},{"type":"Feature","geometry":{"type":"Polygon","coordinates":[[[77.331844,28.589488],[77.331969,28.589355],[77.332017,28.589391],[77.33189,28.589522],[77.331844,28.589488]]]},"properties":{"objectid":26721,"plotmapid":"10C155IND","property_t":"Industrial","allotted_p":"Yes","plotsizesq":114,"plot_size":"114 SQMT","plot_no":"155","sector":"10","block":"C","mplanduse":"B","ppt_type":"IND","ppt_full":"Industrial","authority":"NOIDA","category":"industrial","execution_stage":"allotted"}},{"type":"Feature","geometry":{"type":"Polygon","coordinates":[[[77.332157,28.589495],[77.332029,28.589624],[77.33189,28.589522],[77.332143,28.589262],[77.33228,28.589363],[77.332157,28.589495]]]},"properties":{"objectid":26722,"plotmapid":"10C109IND","property_t":"Industrial","allotted_p":"Yes","plotsizesq":684,"plot_size":"684 SQMT","plot_no":"109","sector":"10","block":"C","mplanduse":"B","ppt_type":"IND","ppt_full":"Industrial","authority":"NOIDA","category":"industrial","execution_stage":"allotted"}},{"type":"Feature","geometry":{"type":"Polygon","coordinates":[[[77.332029,28.589624],[77.332157,28.589495],[77.332203,28.589529],[77.33208,28.589662],[77.332029,28.589624]]]},"properties":{"objectid":26723,"plotmapid":"10C154IND","property_t":"Industrial","allotted_p":"Yes","plotsizesq":114,"plot_size":"114 SQMT","plot_no":"154","sector":"10","block":"C","mplanduse":"B","ppt_type":"IND","ppt_full":"Industrial","authority":"NOIDA","category":"industrial","execution_stage":"allotted"}},{"type":"Feature","geometry":{"type":"Polygon","coordinates":[[[77.33208,28.589662],[77.332203,28.589529],[77.332249,28.589564],[77.332125,28.589695],[77.33208,28.589662]]]},"properties":{"objectid":26724,"plotmapid":"10C153IND","property_t":"Industrial","allotted_p":"Yes","plotsizesq":114,"plot_size":"114 SQMT","plot_no":"153","sector":"10","block":"C","mplanduse":"B","ppt_type":"IND","ppt_full":"Industrial","authority":"NOIDA","category":"industrial","execution_stage":"allotted"}},{"type":"Feature","geometry":{"type":"Polygon","coordinates":[[[77.332125,28.589695],[77.332249,28.589564],[77.332298,28.5896],[77.332174,28.589731],[77.332125,28.589695]]]},"properties":{"objectid":26725,"plotmapid":"10C152IND","property_t":"Industrial","allotted_p":"Yes","plotsizesq":114,"plot_size":"114 SQMT","plot_no":"152","sector":"10","block":"C","mplanduse":"B","ppt_type":"IND","ppt_full":"Industrial","authority":"NOIDA","category":"industrial","execution_stage":"allotted"}},{"type":"Feature","geometry":{"type":"Polygon","coordinates":[[[77.332174,28.589731],[77.332298,28.5896],[77.332344,28.589634],[77.332219,28.589764],[77.332174,28.589731]]]},"properties":{"objectid":26726,"plotmapid":"10C151IND","property_t":"Industrial","allotted_p":"Yes","plotsizesq":114,"plot_size":"114 SQMT","plot_no":"151","sector":"10","block":"C","mplanduse":"B","ppt_type":"IND","ppt_full":"Industrial","authority":"NOIDA","category":"industrial","execution_stage":"allotted"}},{"type":"Feature","geometry":{"type":"Polygon","coordinates":[[[77.332219,28.589764],[77.332344,28.589634],[77.33239,28.589668],[77.332267,28.589799],[77.332219,28.589764]]]},"properties":{"objectid":26727,"plotmapid":"10C150IND","property_t":"Industrial","allotted_p":"Yes","plotsizesq":114,"plot_size":"114 SQMT","plot_no":"150","sector":"10","block":"C","mplanduse":"B","ppt_type":"IND","ppt_full":"Industrial","authority":"NOIDA","category":"industrial","execution_stage":"allotted"}},{"type":"Feature","geometry":{"type":"Polygon","coordinates":[[[77.332267,28.589799],[77.33239,28.589668],[77.332439,28.589704],[77.332315,28.589834],[77.332267,28.589799]]]},"properties":{"objectid":26728,"plotmapid":"10C149IND","property_t":"Industrial","allotted_p":"Yes","plotsizesq":114,"plot_size":"114 SQMT","plot_no":"149","sector":"10","block":"C","mplanduse":"B","ppt_type":"IND","ppt_full":"Industrial","authority":"NOIDA","category":"industrial","execution_stage":"allotted"}},{"type":"Feature","geometry":{"type":"Polygon","coordinates":[[[77.332476,28.589732],[77.332485,28.589739],[77.332361,28.589868],[77.332315,28.589834],[77.332439,28.589704],[77.332476,28.589732]]]},"properties":{"objectid":26729,"plotmapid":"10C148IND","property_t":"Industrial","allotted_p":"Yes","plotsizesq":114,"plot_size":"114 SQMT","plot_no":"148","sector":"10","block":"C","mplanduse":"B","ppt_type":"IND","ppt_full":"Industrial","authority":"NOIDA","category":"industrial","execution_stage":"allotted"}},{"type":"Feature","geometry":{"type":"Polygon","coordinates":[[[77.332523,28.589767],[77.332532,28.589774],[77.332408,28.589903],[77.332361,28.589868],[77.332485,28.589739],[77.332523,28.589767]]]},"properties":{"objectid":26730,"plotmapid":"10C147IND","property_t":"Industrial","allotted_p":"Yes","plotsizesq":114,"plot_size":"114 SQMT","plot_no":"147","sector":"10","block":"C","mplanduse":"B","ppt_type":"IND","ppt_full":"Industrial","authority":"NOIDA","category":"industrial","execution_stage":"allotted"}},{"type":"Feature","geometry":{"type":"Polygon","coordinates":[[[77.332408,28.589903],[77.332532,28.589774],[77.332579,28.589808],[77.332457,28.589939],[77.332408,28.589903]]]},"properties":{"objectid":26731,"plotmapid":"10C146IND","property_t":"Industrial","allotted_p":"Yes","plotsizesq":114,"plot_size":"114 SQMT","plot_no":"146","sector":"10","block":"C","mplanduse":"B","ppt_type":"IND","ppt_full":"Industrial","authority":"NOIDA","category":"industrial","execution_stage":"allotted"}},{"type":"Feature","geometry":{"type":"Polygon","coordinates":[[[77.330254,28.588524],[77.330129,28.588655],[77.330082,28.58862],[77.330207,28.588489],[77.330254,28.588524]]]},"properties":{"objectid":26786,"plotmapid":"10B043IND","property_t":"Industrial","allotted_p":"Yes","plotsizesq":114,"plot_size":"114 SQMT","plot_no":"043","sector":"10","block":"B","mplanduse":"B","ppt_type":"IND","ppt_full":"Industrial","authority":"NOIDA","category":"industrial","execution_stage":"allotted"}},{"type":"Feature","geometry":{"type":"Polygon","coordinates":[[[77.330301,28.588559],[77.330176,28.58869],[77.330129,28.588655],[77.330254,28.588524],[77.330301,28.588559]]]},"properties":{"objectid":26787,"plotmapid":"10B044IND","property_t":"Industrial","allotted_p":"Yes","plotsizesq":114,"plot_size":"114 SQMT","plot_no":"044","sector":"10","block":"B","mplanduse":"B","ppt_type":"IND","ppt_full":"Industrial","authority":"NOIDA","category":"industrial","execution_stage":"allotted"}},{"type":"Feature","geometry":{"type":"Polygon","coordinates":[[[77.330348,28.588594],[77.330224,28.588725],[77.330176,28.58869],[77.330301,28.588559],[77.330348,28.588594]]]},"properties":{"objectid":26788,"plotmapid":"10B045IND","property_t":"Industrial","allotted_p":"Yes","plotsizesq":114,"plot_size":"114 SQMT","plot_no":"045","sector":"10","block":"B","mplanduse":"B","ppt_type":"IND","ppt_full":"Industrial","authority":"NOIDA","category":"industrial","execution_stage":"allotted"}},{"type":"Feature","geometry":{"type":"Polygon","coordinates":[[[77.330395,28.588628],[77.330271,28.58876],[77.330224,28.588725],[77.330348,28.588594],[77.330395,28.588628]]]},"properties":{"objectid":26789,"plotmapid":"10B046IND","property_t":"Industrial","allotted_p":"Yes","plotsizesq":114,"plot_size":"114 SQMT","plot_no":"046","sector":"10","block":"B","mplanduse":"B","ppt_type":"IND","ppt_full":"Industrial","authority":"NOIDA","category":"industrial","execution_stage":"allotted"}},{"type":"Feature","geometry":{"type":"Polygon","coordinates":[[[77.330443,28.588663],[77.330318,28.588794],[77.330271,28.58876],[77.330395,28.588628],[77.330443,28.588663]]]},"properties":{"objectid":26790,"plotmapid":"10B047IND","property_t":"Industrial","allotted_p":"Yes","plotsizesq":114,"plot_size":"114 SQMT","plot_no":"047","sector":"10","block":"B","mplanduse":"B","ppt_type":"IND","ppt_full":"Industrial","authority":"NOIDA","category":"industrial","execution_stage":"allotted"}},{"type":"Feature","geometry":{"type":"Polygon","coordinates":[[[77.33049,28.588698],[77.330365,28.588829],[77.330318,28.588794],[77.330443,28.588663],[77.33049,28.588698]]]},"properties":{"objectid":26791,"plotmapid":"10B048IND","property_t":"Industrial","allotted_p":"Yes","plotsizesq":114,"plot_size":"114 SQMT","plot_no":"048","sector":"10","block":"B","mplanduse":"B","ppt_type":"IND","ppt_full":"Industrial","authority":"NOIDA","category":"industrial","execution_stage":"allotted"}},{"type":"Feature","geometry":{"type":"Polygon","coordinates":[[[77.330537,28.588733],[77.330412,28.588864],[77.330365,28.588829],[77.33049,28.588698],[77.330537,28.588733]]]},"properties":{"objectid":26792,"plotmapid":"10B049IND","property_t":"Industrial","allotted_p":"Yes","plotsizesq":114,"plot_size":"114 SQMT","plot_no":"049","sector":"10","block":"B","mplanduse":"B","ppt_type":"IND","ppt_full":"Industrial","authority":"NOIDA","category":"industrial","execution_stage":"allotted"}},{"type":"Feature","geometry":{"type":"Polygon","coordinates":[[[77.330584,28.588768],[77.33046,28.588899],[77.330412,28.588864],[77.330537,28.588733],[77.330584,28.588768]]]},"properties":{"objectid":26793,"plotmapid":"10B050IND","property_t":"Industrial","allotted_p":"Yes","plotsizesq":114,"plot_size":"114 SQMT","plot_no":"050","sector":"10","block":"B","mplanduse":"B","ppt_type":"IND","ppt_full":"Industrial","authority":"NOIDA","category":"industrial","execution_stage":"allotted"}},{"type":"Feature","geometry":{"type":"Polygon","coordinates":[[[77.330631,28.588803],[77.330507,28.588934],[77.33046,28.588899],[77.330584,28.588768],[77.330631,28.588803]]]},"properties":{"objectid":26794,"plotmapid":"10B051IND","property_t":"Industrial","allotted_p":"Yes","plotsizesq":114,"plot_size":"114 SQMT","plot_no":"051","sector":"10","block":"B","mplanduse":"B","ppt_type":"IND","ppt_full":"Industrial","authority":"NOIDA","category":"industrial","execution_stage":"allotted"}},{"type":"Feature","geometry":{"type":"Polygon","coordinates":[[[77.330726,28.588872],[77.330601,28.589003],[77.330554,28.588968],[77.330678,28.588837],[77.330726,28.588872]]]},"properties":{"objectid":26795,"plotmapid":"10B052IND","property_t":"Industrial","allotted_p":"Yes","plotsizesq":114,"plot_size":"114 SQMT","plot_no":"052","sector":"10","block":"B","mplanduse":"B","ppt_type":"IND","ppt_full":"Industrial","authority":"NOIDA","category":"industrial","execution_stage":"allotted"}},{"type":"Feature","geometry":{"type":"Polygon","coordinates":[[[77.330773,28.588907],[77.330648,28.589038],[77.330601,28.589003],[77.330726,28.588872],[77.330773,28.588907]]]},"properties":{"objectid":26796,"plotmapid":"10B053IND","property_t":"Industrial","allotted_p":"Yes","plotsizesq":114,"plot_size":"114 SQMT","plot_no":"053","sector":"10","block":"B","mplanduse":"B","ppt_type":"IND","ppt_full":"Industrial","authority":"NOIDA","category":"industrial","execution_stage":"allotted"}},{"type":"Feature","geometry":{"type":"Polygon","coordinates":[[[77.33082,28.588942],[77.330695,28.589073],[77.330648,28.589038],[77.330773,28.588907],[77.33082,28.588942]]]},"properties":{"objectid":26797,"plotmapid":"10B054IND","property_t":"Industrial","allotted_p":"Yes","plotsizesq":114,"plot_size":"114 SQMT","plot_no":"054","sector":"10","block":"B","mplanduse":"B","ppt_type":"IND","ppt_full":"Industrial","authority":"NOIDA","category":"industrial","execution_stage":"allotted"}},{"type":"Feature","geometry":{"type":"Polygon","coordinates":[[[77.330867,28.588977],[77.330743,28.589108],[77.330695,28.589073],[77.33082,28.588942],[77.330867,28.588977]]]},"properties":{"objectid":26798,"plotmapid":"10B055IND","property_t":"Industrial","allotted_p":"Yes","plotsizesq":114,"plot_size":"114 SQMT","plot_no":"055","sector":"10","block":"B","mplanduse":"B","ppt_type":"IND","ppt_full":"Industrial","authority":"NOIDA","category":"industrial","execution_stage":"allotted"}},{"type":"Feature","geometry":{"type":"Polygon","coordinates":[[[77.330914,28.589011],[77.33079,28.589143],[77.330743,28.589108],[77.330867,28.588977],[77.330914,28.589011]]]},"properties":{"objectid":26799,"plotmapid":"10B056IND","property_t":"Industrial","allotted_p":"Yes","plotsizesq":114,"plot_size":"114 SQMT","plot_no":"056","sector":"10","block":"B","mplanduse":"B","ppt_type":"IND","ppt_full":"Industrial","authority":"NOIDA","category":"industrial","execution_stage":"allotted"}},{"type":"Feature","geometry":{"type":"Polygon","coordinates":[[[77.330962,28.589046],[77.330837,28.589177],[77.33079,28.589143],[77.330914,28.589011],[77.330962,28.589046]]]},"properties":{"objectid":26800,"plotmapid":"10B057IND","property_t":"Industrial","allotted_p":"Yes","plotsizesq":114,"plot_size":"114 SQMT","plot_no":"057","sector":"10","block":"B","mplanduse":"B","ppt_type":"IND","ppt_full":"Industrial","authority":"NOIDA","category":"industrial","execution_stage":"allotted"}},{"type":"Feature","geometry":{"type":"Polygon","coordinates":[[[77.331009,28.589081],[77.330884,28.589212],[77.330837,28.589177],[77.330962,28.589046],[77.331009,28.589081]]]},"properties":{"objectid":26801,"plotmapid":"10B058IND","property_t":"Industrial","allotted_p":"Yes","plotsizesq":114,"plot_size":"114 SQMT","plot_no":"058","sector":"10","block":"B","mplanduse":"B","ppt_type":"IND","ppt_full":"Industrial","authority":"NOIDA","category":"industrial","execution_stage":"allotted"}},{"type":"Feature","geometry":{"type":"Polygon","coordinates":[[[77.331056,28.589115],[77.330931,28.589247],[77.330884,28.589212],[77.331009,28.589081],[77.331056,28.589115]]]},"properties":{"objectid":26802,"plotmapid":"10B059IND","property_t":"Industrial","allotted_p":"Yes","plotsizesq":114,"plot_size":"114 SQMT","plot_no":"059","sector":"10","block":"B","mplanduse":"B","ppt_type":"IND","ppt_full":"Industrial","authority":"NOIDA","category":"industrial","execution_stage":"allotted"}},{"type":"Feature","geometry":{"type":"Polygon","coordinates":[[[77.331104,28.58915],[77.330979,28.589282],[77.330931,28.589247],[77.331056,28.589115],[77.331104,28.58915]]]},"properties":{"objectid":26803,"plotmapid":"10B060IND","property_t":"Industrial","allotted_p":"Yes","plotsizesq":114,"plot_size":"114 SQMT","plot_no":"060","sector":"10","block":"B","mplanduse":"B","ppt_type":"IND","ppt_full":"Industrial","authority":"NOIDA","category":"industrial","execution_stage":"allotted"}},{"type":"Feature","geometry":{"type":"Polygon","coordinates":[[[77.331353,28.589329],[77.331224,28.589464],[77.331169,28.589424],[77.331298,28.589289],[77.331353,28.589329]]]},"properties":{"objectid":26804,"plotmapid":"10C165IND","property_t":"Industrial","allotted_p":"Yes","plotsizesq":133,"plot_size":"133 SQMT","plot_no":"165","sector":"10","block":"C","mplanduse":"B","ppt_type":"IND","ppt_full":"Industrial","authority":"NOIDA","category":"industrial","execution_stage":"allotted"}},{"type":"Feature","geometry":{"type":"Polygon","coordinates":[[[77.3314,28.589364],[77.331271,28.589499],[77.331224,28.589464],[77.331353,28.589329],[77.3314,28.589364]]]},"properties":{"objectid":26806,"plotmapid":"10C166IND","property_t":"Industrial","allotted_p":"Yes","plotsizesq":114,"plot_size":"114 SQMT","plot_no":"166","sector":"10","block":"C","mplanduse":"B","ppt_type":"IND","ppt_full":"Industrial","authority":"NOIDA","category":"industrial","execution_stage":"allotted"}},{"type":"Feature","geometry":{"type":"Polygon","coordinates":[[[77.331448,28.589399],[77.331318,28.589534],[77.331271,28.589499],[77.3314,28.589364],[77.331448,28.589399]]]},"properties":{"objectid":26807,"plotmapid":"10C167IND","property_t":"Industrial","allotted_p":"Yes","plotsizesq":114,"plot_size":"114 SQMT","plot_no":"167","sector":"10","block":"C","mplanduse":"B","ppt_type":"IND","ppt_full":"Industrial","authority":"NOIDA","category":"industrial","execution_stage":"allotted"}},{"type":"Feature","geometry":{"type":"Polygon","coordinates":[[[77.331495,28.589433],[77.331365,28.589568],[77.331318,28.589534],[77.331448,28.589399],[77.331495,28.589433]]]},"properties":{"objectid":26808,"plotmapid":"10C168IND","property_t":"Industrial","allotted_p":"Yes","plotsizesq":114,"plot_size":"114 SQMT","plot_no":"168","sector":"10","block":"C","mplanduse":"B","ppt_type":"IND","ppt_full":"Industrial","authority":"NOIDA","category":"industrial","execution_stage":"allotted"}},{"type":"Feature","geometry":{"type":"Polygon","coordinates":[[[77.331542,28.589468],[77.331413,28.589603],[77.331365,28.589568],[77.331495,28.589433],[77.331542,28.589468]]]},"properties":{"objectid":26809,"plotmapid":"10C169IND","property_t":"Industrial","allotted_p":"Yes","plotsizesq":114,"plot_size":"114 SQMT","plot_no":"169","sector":"10","block":"C","mplanduse":"B","ppt_type":"IND","ppt_full":"Industrial","authority":"NOIDA","category":"industrial","execution_stage":"allotted"}},{"type":"Feature","geometry":{"type":"Polygon","coordinates":[[[77.331589,28.589503],[77.33146,28.589638],[77.331413,28.589603],[77.331542,28.589468],[77.331589,28.589503]]]},"properties":{"objectid":26810,"plotmapid":"10C170IND","property_t":"Industrial","allotted_p":"Yes","plotsizesq":114,"plot_size":"114 SQMT","plot_no":"170","sector":"10","block":"C","mplanduse":"B","ppt_type":"IND","ppt_full":"Industrial","authority":"NOIDA","category":"industrial","execution_stage":"allotted"}},{"type":"Feature","geometry":{"type":"Polygon","coordinates":[[[77.331636,28.589538],[77.331507,28.589673],[77.33146,28.589638],[77.331589,28.589503],[77.331636,28.589538]]]},"properties":{"objectid":26811,"plotmapid":"10C171IND","property_t":"Industrial","allotted_p":"Yes","plotsizesq":114,"plot_size":"114 SQMT","plot_no":"171","sector":"10","block":"C","mplanduse":"B","ppt_type":"IND","ppt_full":"Industrial","authority":"NOIDA","category":"industrial","execution_stage":"allotted"}},{"type":"Feature","geometry":{"type":"Polygon","coordinates":[[[77.331683,28.589572],[77.331554,28.589707],[77.331507,28.589673],[77.331636,28.589538],[77.331683,28.589572]]]},"properties":{"objectid":26812,"plotmapid":"10C172IND","property_t":"Industrial","allotted_p":"Yes","plotsizesq":208,"plot_size":"208 SQMT","plot_no":"172","sector":"10","block":"C","mplanduse":"B","ppt_type":"IND","ppt_full":"Industrial","authority":"NOIDA","category":"industrial","execution_stage":"allotted"}},{"type":"Feature","geometry":{"type":"Polygon","coordinates":[[[77.33173,28.589607],[77.331601,28.589742],[77.331554,28.589707],[77.331683,28.589572],[77.33173,28.589607]]]},"properties":{"objectid":26813,"plotmapid":"10C173IND","property_t":"Industrial","allotted_p":"Yes","plotsizesq":114,"plot_size":"114 SQMT","plot_no":"173","sector":"10","block":"C","mplanduse":"B","ppt_type":"IND","ppt_full":"Industrial","authority":"NOIDA","category":"industrial","execution_stage":"allotted"}},{"type":"Feature","geometry":{"type":"Polygon","coordinates":[[[77.331778,28.589642],[77.331648,28.589777],[77.331601,28.589742],[77.33173,28.589607],[77.331778,28.589642]]]},"properties":{"objectid":26814,"plotmapid":"10C174IND","property_t":"Industrial","allotted_p":"Yes","plotsizesq":114,"plot_size":"114 SQMT","plot_no":"174","sector":"10","block":"C","mplanduse":"B","ppt_type":"IND","ppt_full":"Industrial","authority":"NOIDA","category":"industrial","execution_stage":"allotted"}},{"type":"Feature","geometry":{"type":"Polygon","coordinates":[[[77.331966,28.589781],[77.331837,28.589915],[77.33179,28.589881],[77.331919,28.589746],[77.331966,28.589781]]]},"properties":{"objectid":26815,"plotmapid":"10C176IND","property_t":"Industrial","allotted_p":"Yes","plotsizesq":114,"plot_size":"114 SQMT","plot_no":"176","sector":"10","block":"C","mplanduse":"B","ppt_type":"IND","ppt_full":"Industrial","authority":"NOIDA","category":"industrial","execution_stage":"allotted"}},{"type":"Feature","geometry":{"type":"Polygon","coordinates":[[[77.332013,28.589815],[77.331884,28.58995],[77.331837,28.589915],[77.331966,28.589781],[77.332013,28.589815]]]},"properties":{"objectid":26816,"plotmapid":"10C177IND","property_t":"Industrial","allotted_p":"Yes","plotsizesq":114,"plot_size":"114 SQMT","plot_no":"177","sector":"10","block":"C","mplanduse":"B","ppt_type":"IND","ppt_full":"Industrial","authority":"NOIDA","category":"industrial","execution_stage":"allotted"}},{"type":"Feature","geometry":{"type":"Polygon","coordinates":[[[77.330098,28.588857],[77.330224,28.588725],[77.330271,28.58876],[77.330145,28.588892],[77.330098,28.588857]]]},"properties":{"objectid":26867,"plotmapid":"10B077IND","property_t":"Industrial","allotted_p":"Yes","plotsizesq":114,"plot_size":"114 SQMT","plot_no":"077","sector":"10","block":"B","mplanduse":"B","ppt_type":"IND","ppt_full":"Industrial","authority":"NOIDA","category":"industrial","execution_stage":"allotted"}},{"type":"Feature","geometry":{"type":"Polygon","coordinates":[[[77.330145,28.588892],[77.330271,28.58876],[77.330318,28.588794],[77.330192,28.588927],[77.330145,28.588892]]]},"properties":{"objectid":26868,"plotmapid":"10B076IND","property_t":"Industrial","allotted_p":"Yes","plotsizesq":114,"plot_size":"114 SQMT","plot_no":"076","sector":"10","block":"B","mplanduse":"B","ppt_type":"IND","ppt_full":"Industrial","authority":"NOIDA","category":"industrial","execution_stage":"allotted"}},{"type":"Feature","geometry":{"type":"Polygon","coordinates":[[[77.330365,28.588829],[77.330239,28.588962],[77.330192,28.588927],[77.330318,28.588794],[77.330365,28.588829]]]},"properties":{"objectid":26869,"plotmapid":"10B075IND","property_t":"Industrial","allotted_p":"Yes","plotsizesq":114,"plot_size":"114 SQMT","plot_no":"075","sector":"10","block":"B","mplanduse":"B","ppt_type":"IND","ppt_full":"Industrial","authority":"NOIDA","category":"industrial","execution_stage":"allotted"}},{"type":"Feature","geometry":{"type":"Polygon","coordinates":[[[77.330412,28.588864],[77.330286,28.588997],[77.330239,28.588962],[77.330365,28.588829],[77.330412,28.588864]]]},"properties":{"objectid":26870,"plotmapid":"10B074IND","property_t":"Industrial","allotted_p":"Yes","plotsizesq":114,"plot_size":"114 SQMT","plot_no":"074","sector":"10","block":"B","mplanduse":"B","ppt_type":"IND","ppt_full":"Industrial","authority":"NOIDA","category":"industrial","execution_stage":"allotted"}},{"type":"Feature","geometry":{"type":"Polygon","coordinates":[[[77.330286,28.588997],[77.330412,28.588864],[77.33046,28.588899],[77.330334,28.589031],[77.330286,28.588997]]]},"properties":{"objectid":26871,"plotmapid":"10B073IND","property_t":"Industrial","allotted_p":"Yes","plotsizesq":114,"plot_size":"114 SQMT","plot_no":"073","sector":"10","block":"B","mplanduse":"B","ppt_type":"IND","ppt_full":"Industrial","authority":"NOIDA","category":"industrial","execution_stage":"allotted"}},{"type":"Feature","geometry":{"type":"Polygon","coordinates":[[[77.330507,28.588934],[77.330381,28.589066],[77.330334,28.589031],[77.33046,28.588899],[77.330507,28.588934]]]},"properties":{"objectid":26872,"plotmapid":"10B072IND","property_t":"Industrial","allotted_p":"Yes","plotsizesq":114,"plot_size":"114 SQMT","plot_no":"072","sector":"10","block":"B","mplanduse":"B","ppt_type":"IND","ppt_full":"Industrial","authority":"NOIDA","category":"industrial","execution_stage":"allotted"}},{"type":"Feature","geometry":{"type":"Polygon","coordinates":[[[77.330428,28.589101],[77.330554,28.588968],[77.330601,28.589003],[77.330475,28.589136],[77.330428,28.589101]]]},"properties":{"objectid":26873,"plotmapid":"10B071IND","property_t":"Industrial","allotted_p":"Yes","plotsizesq":114,"plot_size":"114 SQMT","plot_no":"071","sector":"10","block":"B","mplanduse":"B","ppt_type":"IND","ppt_full":"Industrial","authority":"NOIDA","category":"industrial","execution_stage":"allotted"}},{"type":"Feature","geometry":{"type":"Polygon","coordinates":[[[77.330648,28.589038],[77.330522,28.589171],[77.330475,28.589136],[77.330601,28.589003],[77.330648,28.589038]]]},"properties":{"objectid":26874,"plotmapid":"10B070IND","property_t":"Industrial","allotted_p":"Yes","plotsizesq":114,"plot_size":"114 SQMT","plot_no":"070","sector":"10","block":"B","mplanduse":"B","ppt_type":"IND","ppt_full":"Industrial","authority":"NOIDA","category":"industrial","execution_stage":"allotted"}},{"type":"Feature","geometry":{"type":"Polygon","coordinates":[[[77.330695,28.589073],[77.33057,28.589205],[77.330522,28.589171],[77.330648,28.589038],[77.330695,28.589073]]]},"properties":{"objectid":26875,"plotmapid":"10B069IND","property_t":"Industrial","allotted_p":"Yes","plotsizesq":114,"plot_size":"114 SQMT","plot_no":"069","sector":"10","block":"B","mplanduse":"B","ppt_type":"IND","ppt_full":"Industrial","authority":"NOIDA","category":"industrial","execution_stage":"allotted"}},{"type":"Feature","geometry":{"type":"Polygon","coordinates":[[[77.33057,28.589205],[77.330695,28.589073],[77.330743,28.589108],[77.330617,28.58924],[77.33057,28.589205]]]},"properties":{"objectid":26876,"plotmapid":"10B068IND","property_t":"Industrial","allotted_p":"Yes","plotsizesq":1140,"plot_size":"1140 SQMT","plot_no":"068","sector":"10","block":"B","mplanduse":"B","ppt_type":"IND","ppt_full":"Industrial","authority":"NOIDA","category":"industrial","execution_stage":"allotted"}},{"type":"Feature","geometry":{"type":"Polygon","coordinates":[[[77.330617,28.58924],[77.330743,28.589108],[77.33079,28.589143],[77.330664,28.589275],[77.330617,28.58924]]]},"properties":{"objectid":26877,"plotmapid":"10B067IND","property_t":"Industrial","allotted_p":"Yes","plotsizesq":114,"plot_size":"114 SQMT","plot_no":"067","sector":"10","block":"B","mplanduse":"B","ppt_type":"IND","ppt_full":"Industrial","authority":"NOIDA","category":"industrial","execution_stage":"allotted"}},{"type":"Feature","geometry":{"type":"Polygon","coordinates":[[[77.330664,28.589275],[77.33079,28.589143],[77.330837,28.589177],[77.330711,28.58931],[77.330664,28.589275]]]},"properties":{"objectid":26878,"plotmapid":"10B066IND","property_t":"Industrial","allotted_p":"Yes","plotsizesq":114,"plot_size":"114 SQMT","plot_no":"066","sector":"10","block":"B","mplanduse":"B","ppt_type":"IND","ppt_full":"Industrial","authority":"NOIDA","category":"industrial","execution_stage":"allotted"}},{"type":"Feature","geometry":{"type":"Polygon","coordinates":[[[77.330711,28.58931],[77.330837,28.589177],[77.330884,28.589212],[77.330758,28.589345],[77.330711,28.58931]]]},"properties":{"objectid":26879,"plotmapid":"10B065IND","property_t":"Industrial","allotted_p":"Yes","plotsizesq":114,"plot_size":"114 SQMT","plot_no":"065","sector":"10","block":"B","mplanduse":"B","ppt_type":"IND","ppt_full":"Industrial","authority":"NOIDA","category":"industrial","execution_stage":"allotted"}},{"type":"Feature","geometry":{"type":"Polygon","coordinates":[[[77.330758,28.589345],[77.330884,28.589212],[77.330931,28.589247],[77.330805,28.58938],[77.330758,28.589345]]]},"properties":{"objectid":26880,"plotmapid":"10B064IND","property_t":"Industrial","allotted_p":"Yes","plotsizesq":114,"plot_size":"114 SQMT","plot_no":"064","sector":"10","block":"B","mplanduse":"B","ppt_type":"IND","ppt_full":"Industrial","authority":"NOIDA","category":"industrial","execution_stage":"allotted"}},{"type":"Feature","geometry":{"type":"Polygon","coordinates":[[[77.330805,28.58938],[77.330931,28.589247],[77.330979,28.589282],[77.330853,28.589414],[77.330805,28.58938]]]},"properties":{"objectid":26881,"plotmapid":"10B063IND","property_t":"Industrial","allotted_p":"Yes","plotsizesq":114,"plot_size":"114 SQMT","plot_no":"063","sector":"10","block":"B","mplanduse":"B","ppt_type":"IND","ppt_full":"Industrial","authority":"NOIDA","category":"industrial","execution_stage":"allotted"}},{"type":"Feature","geometry":{"type":"Polygon","coordinates":[[[77.331042,28.589556],[77.331169,28.589424],[77.331224,28.589464],[77.331097,28.589597],[77.331042,28.589556]]]},"properties":{"objectid":26882,"plotmapid":"10C230IND","property_t":"Industrial","allotted_p":"Yes","plotsizesq":133,"plot_size":"133 SQMT","plot_no":"230","sector":"10","block":"C","mplanduse":"B","ppt_type":"IND","ppt_full":"Industrial","authority":"NOIDA","category":"industrial","execution_stage":"allotted"}},{"type":"Feature","geometry":{"type":"Polygon","coordinates":[[[77.331097,28.589597],[77.331224,28.589464],[77.331271,28.589499],[77.331144,28.589631],[77.331097,28.589597]]]},"properties":{"objectid":26883,"plotmapid":"10C229IND","property_t":"Industrial","allotted_p":"Yes","plotsizesq":114,"plot_size":"114 SQMT","plot_no":"229","sector":"10","block":"C","mplanduse":"B","ppt_type":"IND","ppt_full":"Industrial","authority":"NOIDA","category":"industrial","execution_stage":"allotted"}},{"type":"Feature","geometry":{"type":"Polygon","coordinates":[[[77.331144,28.589631],[77.331271,28.589499],[77.331318,28.589534],[77.331191,28.589666],[77.331144,28.589631]]]},"properties":{"objectid":26884,"plotmapid":"10C228IND","property_t":"Industrial","allotted_p":"Yes","plotsizesq":114,"plot_size":"114 SQMT","plot_no":"228","sector":"10","block":"C","mplanduse":"B","ppt_type":"IND","ppt_full":"Industrial","authority":"NOIDA","category":"industrial","execution_stage":"allotted"}},{"type":"Feature","geometry":{"type":"Polygon","coordinates":[[[77.331191,28.589666],[77.331318,28.589534],[77.331365,28.589568],[77.331239,28.589701],[77.331191,28.589666]]]},"properties":{"objectid":26885,"plotmapid":"10C227IND","property_t":"Industrial","allotted_p":"Yes","plotsizesq":114,"plot_size":"114 SQMT","plot_no":"227","sector":"10","block":"C","mplanduse":"B","ppt_type":"IND","ppt_full":"Industrial","authority":"NOIDA","category":"industrial","execution_stage":"allotted"}},{"type":"Feature","geometry":{"type":"Polygon","coordinates":[[[77.331239,28.589701],[77.331365,28.589568],[77.331413,28.589603],[77.331286,28.589735],[77.331239,28.589701]]]},"properties":{"objectid":26886,"plotmapid":"10C226IND","property_t":"Industrial","allotted_p":"Yes","plotsizesq":114,"plot_size":"114 SQMT","plot_no":"226","sector":"10","block":"C","mplanduse":"B","ppt_type":"IND","ppt_full":"Industrial","authority":"NOIDA","category":"industrial","execution_stage":"allotted"}},{"type":"Feature","geometry":{"type":"Polygon","coordinates":[[[77.33146,28.589638],[77.331333,28.58977],[77.331286,28.589735],[77.331413,28.589603],[77.33146,28.589638]]]},"properties":{"objectid":26887,"plotmapid":"10C225IND","property_t":"Industrial","allotted_p":"Yes","plotsizesq":114,"plot_size":"114 SQMT","plot_no":"225","sector":"10","block":"C","mplanduse":"B","ppt_type":"IND","ppt_full":"Industrial","authority":"NOIDA","category":"industrial","execution_stage":"allotted"}},{"type":"Feature","geometry":{"type":"Polygon","coordinates":[[[77.331333,28.58977],[77.33146,28.589638],[77.331507,28.589673],[77.33138,28.589805],[77.331333,28.58977]]]},"properties":{"objectid":26888,"plotmapid":"10C224IND","property_t":"Industrial","allotted_p":"Yes","plotsizesq":114,"plot_size":"114 SQMT","plot_no":"224","sector":"10","block":"C","mplanduse":"B","ppt_type":"IND","ppt_full":"Industrial","authority":"NOIDA","category":"industrial","execution_stage":"allotted"}},{"type":"Feature","geometry":{"type":"Polygon","coordinates":[[[77.33138,28.589805],[77.331507,28.589673],[77.331554,28.589707],[77.331427,28.589839],[77.33138,28.589805]]]},"properties":{"objectid":26889,"plotmapid":"10C223IND","property_t":"Industrial","allotted_p":"Yes","plotsizesq":114,"plot_size":"114 SQMT","plot_no":"223","sector":"10","block":"C","mplanduse":"B","ppt_type":"IND","ppt_full":"Industrial","authority":"NOIDA","category":"industrial","execution_stage":"allotted"}},{"type":"Feature","geometry":{"type":"Polygon","coordinates":[[[77.331427,28.589839],[77.331554,28.589707],[77.331601,28.589742],[77.331475,28.589874],[77.331427,28.589839]]]},"properties":{"objectid":26890,"plotmapid":"10C222IND","property_t":"Industrial","allotted_p":"Yes","plotsizesq":114,"plot_size":"114 SQMT","plot_no":"222","sector":"10","block":"C","mplanduse":"B","ppt_type":"IND","ppt_full":"Industrial","authority":"NOIDA","category":"industrial","execution_stage":"allotted"}},{"type":"Feature","geometry":{"type":"Polygon","coordinates":[[[77.331475,28.589874],[77.331601,28.589742],[77.331648,28.589777],[77.331522,28.589909],[77.331475,28.589874]]]},"properties":{"objectid":26891,"plotmapid":"10C221IND","property_t":"Industrial","allotted_p":"Yes","plotsizesq":114,"plot_size":"114 SQMT","plot_no":"221","sector":"10","block":"C","mplanduse":"B","ppt_type":"IND","ppt_full":"Industrial","authority":"NOIDA","category":"industrial","execution_stage":"allotted"}},{"type":"Feature","geometry":{"type":"Polygon","coordinates":[[[77.331522,28.589909],[77.331778,28.589642],[77.331919,28.589746],[77.331663,28.590012],[77.331522,28.589909]]]},"properties":{"objectid":26892,"plotmapid":"10C175IND","property_t":"Industrial","allotted_p":"Yes","plotsizesq":663,"plot_size":"663 SQMT","plot_no":"175","sector":"10","block":"C","mplanduse":"B","ppt_type":"IND","ppt_full":"Industrial","authority":"NOIDA","category":"industrial","execution_stage":"allotted"}},{"type":"Feature","geometry":{"type":"Polygon","coordinates":[[[77.330997,28.589734],[77.330875,28.58987],[77.330792,28.58981],[77.330917,28.589676],[77.330997,28.589734]]]},"properties":{"objectid":26947,"plotmapid":"10C231IND","property_t":"Industrial","allotted_p":"Yes","plotsizesq":190,"plot_size":"190 SQMT","plot_no":"231","sector":"10","block":"C","mplanduse":"B","ppt_type":"IND","ppt_full":"Industrial","authority":"NOIDA","category":"industrial","execution_stage":"allotted"}},{"type":"Feature","geometry":{"type":"Polygon","coordinates":[[[77.331068,28.589786],[77.330947,28.589922],[77.330875,28.58987],[77.330997,28.589734],[77.331068,28.589786]]]},"properties":{"objectid":26948,"plotmapid":"10C232IND","property_t":"Industrial","allotted_p":"Yes","plotsizesq":171,"plot_size":"171 SQMT","plot_no":"232","sector":"10","block":"C","mplanduse":"B","ppt_type":"IND","ppt_full":"Industrial","authority":"NOIDA","category":"industrial","execution_stage":"allotted"}},{"type":"Feature","geometry":{"type":"Polygon","coordinates":[[[77.331068,28.589786],[77.33114,28.589838],[77.331015,28.589972],[77.330947,28.589922],[77.331068,28.589786]]]},"properties":{"objectid":26949,"plotmapid":"10C233IND","property_t":"Industrial","allotted_p":"Yes","plotsizesq":171,"plot_size":"171 SQMT","plot_no":"233","sector":"10","block":"C","mplanduse":"B","ppt_type":"IND","ppt_full":"Industrial","authority":"NOIDA","category":"industrial","execution_stage":"allotted"}},{"type":"Feature","geometry":{"type":"Polygon","coordinates":[[[77.331151,28.589185],[77.331026,28.589316],[77.330979,28.589282],[77.331104,28.58915],[77.331151,28.589185]]]},"properties":{"objectid":27402,"plotmapid":"10B061IND","property_t":"Industrial","allotted_p":"Yes","plotsizesq":114,"plot_size":"114 SQMT","plot_no":"061","sector":"10","block":"B","mplanduse":"B","ppt_type":"IND","ppt_full":"Industrial","authority":"NOIDA","category":"industrial","execution_stage":"allotted"}},{"type":"Feature","geometry":{"type":"Polygon","coordinates":[[[77.330853,28.589414],[77.330979,28.589282],[77.331026,28.589316],[77.3309,28.589449],[77.330853,28.589414]]]},"properties":{"objectid":27403,"plotmapid":"10B062IND","property_t":"Industrial","allotted_p":"Yes","plotsizesq":114,"plot_size":"114 SQMT","plot_no":"062","sector":"10","block":"B","mplanduse":"B","ppt_type":"IND","ppt_full":"Industrial","authority":"NOIDA","category":"industrial","execution_stage":"allotted"}},{"type":"Feature","geometry":{"type":"Polygon","coordinates":[[[77.332468,28.589503],[77.332344,28.589634],[77.332298,28.5896],[77.332422,28.589469],[77.332468,28.589503]]]},"properties":{"objectid":27429,"plotmapid":"10C113IND","property_t":"Industrial","allotted_p":"Yes","plotsizesq":114,"plot_size":"114 SQMT","plot_no":"113","sector":"10","block":"C","mplanduse":"B","ppt_type":"IND","ppt_full":"Industrial","authority":"NOIDA","category":"industrial","execution_stage":"allotted"}}]}
