{"type":"FeatureCollection","features":[{"type":"Feature","geometry":{"type":"Polygon","coordinates":[[[77.332834,28.588037],[77.332564,28.58832],[77.332344,28.588158],[77.332614,28.587874],[77.332834,28.588037]]]},"properties":{"objectid":25546,"plotmapid":"10C001IND","property_t":"Industrial","allotted_p":"Yes","plotsizesq":1148,"plot_size":"1148 SQMT","plot_no":"001","sector":"10","block":"C","mplanduse":"B","ppt_type":"IND","ppt_full":"Industrial","authority":"NOIDA","category":"industrial","execution_stage":"allotted"}},{"type":"Feature","geometry":{"type":"Polygon","coordinates":[[[77.333148,28.588269],[77.332879,28.588552],[77.332722,28.588436],[77.332991,28.588153],[77.333148,28.588269]]]},"properties":{"objectid":25547,"plotmapid":"10C003IND","property_t":"Industrial","allotted_p":"Yes","plotsizesq":820,"plot_size":"820 SQMT","plot_no":"003","sector":"10","block":"C","mplanduse":"B","ppt_type":"IND","ppt_full":"Industrial","authority":"NOIDA","category":"industrial","execution_stage":"allotted"}},{"type":"Feature","geometry":{"type":"Polygon","coordinates":[[[77.333498,28.589449],[77.333331,28.589627],[77.333267,28.589581],[77.333435,28.589403],[77.333498,28.589449]]]},"properties":{"objectid":25550,"plotmapid":"10C067IND","property_t":"Industrial","allotted_p":"Yes","plotsizesq":208,"plot_size":"208 SQMT","plot_no":"067","sector":"10","block":"C","mplanduse":"V","ppt_type":"IND","ppt_full":"Industrial","authority":"NOIDA","category":"industrial","execution_stage":"allotted"}},{"type":"Feature","geometry":{"type":"Polygon","coordinates":[[[77.332991,28.588153],[77.332722,28.588436],[77.332564,28.58832],[77.332834,28.588037],[77.332991,28.588153]]]},"properties":{"objectid":26365,"plotmapid":"10C002IND","property_t":"Industrial","allotted_p":"Yes","plotsizesq":802,"plot_size":"802 SQMT","plot_no":"002","sector":"10","block":"C","mplanduse":"B","ppt_type":"IND","ppt_full":"Industrial","authority":"NOIDA","category":"industrial","execution_stage":"allotted"}},{"type":"Feature","geometry":{"type":"Polygon","coordinates":[[[77.333305,28.588384],[77.333036,28.588668],[77.332879,28.588552],[77.333148,28.588269],[77.333305,28.588384]]]},"properties":{"objectid":26366,"plotmapid":"10C004IND","property_t":"Industrial","allotted_p":"Yes","plotsizesq":820,"plot_size":"820 SQMT","plot_no":"004","sector":"10","block":"C","mplanduse":"B","ppt_type":"IND","ppt_full":"Industrial","authority":"NOIDA","category":"industrial","execution_stage":"allotted"}},{"type":"Feature","geometry":{"type":"Polygon","coordinates":[[[77.333463,28.5885],[77.333193,28.588784],[77.333036,28.588668],[77.333305,28.588384],[77.333463,28.5885]]]},"properties":{"objectid":26367,"plotmapid":"10C005IND","property_t":"Industrial","allotted_p":"Yes","plotsizesq":820,"plot_size":"820 SQMT","plot_no":"005","sector":"10","block":"C","mplanduse":"B","ppt_type":"IND","ppt_full":"Industrial","authority":"NOIDA","category":"industrial","execution_stage":"allotted"}},{"type":"Feature","geometry":{"type":"Polygon","coordinates":[[[77.33362,28.588616],[77.33335,28.5889],[77.333193,28.588784],[77.333463,28.5885],[77.33362,28.588616]]]},"properties":{"objectid":26368,"plotmapid":"10C006IND","property_t":"Industrial","allotted_p":"Yes","plotsizesq":802,"plot_size":"802 SQMT","plot_no":"006","sector":"10","block":"C","mplanduse":"B","ppt_type":"IND","ppt_full":"Industrial","authority":"NOIDA","category":"industrial","execution_stage":"allotted"}},{"type":"Feature","geometry":{"type":"Polygon","coordinates":[[[77.333777,28.588732],[77.333507,28.589016],[77.33335,28.5889],[77.33362,28.588616],[77.333777,28.588732]]]},"properties":{"objectid":26369,"plotmapid":"10C007IND","property_t":"Industrial","allotted_p":"Yes","plotsizesq":820,"plot_size":"820 SQMT","plot_no":"007","sector":"10","block":"C","mplanduse":"B","ppt_type":"IND","ppt_full":"Industrial","authority":"NOIDA","category":"industrial","execution_stage":"allotted"}},{"type":"Feature","geometry":{"type":"Polygon","coordinates":[[[77.333934,28.588848],[77.333665,28.589132],[77.333507,28.589016],[77.333777,28.588732],[77.333934,28.588848]]]},"properties":{"objectid":26370,"plotmapid":"10C008IND","property_t":"Industrial","allotted_p":"Yes","plotsizesq":802,"plot_size":"802 SQMT","plot_no":"008","sector":"10","block":"C","mplanduse":"B","ppt_type":"IND","ppt_full":"Industrial","authority":"NOIDA","category":"industrial","execution_stage":"allotted"}},{"type":"Feature","geometry":{"type":"Polygon","coordinates":[[[77.334091,28.588964],[77.333822,28.589247],[77.333665,28.589132],[77.333934,28.588848],[77.334091,28.588964]]]},"properties":{"objectid":26371,"plotmapid":"10C009IND","property_t":"Industrial","allotted_p":"Yes","plotsizesq":820,"plot_size":"820 SQMT","plot_no":"009","sector":"10","block":"C","mplanduse":"B","ppt_type":"IND","ppt_full":"Industrial","authority":"NOIDA","category":"industrial","execution_stage":"allotted"}},{"type":"Feature","geometry":{"type":"Polygon","coordinates":[[[77.334249,28.58908],[77.333979,28.589363],[77.333822,28.589247],[77.334091,28.588964],[77.334249,28.58908]]]},"properties":{"objectid":26372,"plotmapid":"10C010IND","property_t":"Industrial","allotted_p":"Yes","plotsizesq":820,"plot_size":"820 SQMT","plot_no":"010","sector":"10","block":"C","mplanduse":"B","ppt_type":"IND","ppt_full":"Industrial","authority":"NOIDA","category":"industrial","execution_stage":"allotted"}},{"type":"Feature","geometry":{"type":"Polygon","coordinates":[[[77.334469,28.589242],[77.334199,28.589526],[77.333979,28.589363],[77.334249,28.58908],[77.334469,28.589242]]]},"properties":{"objectid":26373,"plotmapid":"10C011IND","property_t":"Industrial","allotted_p":"Yes","plotsizesq":1148,"plot_size":"1148 SQMT","plot_no":"011","sector":"10","block":"C","mplanduse":"B","ppt_type":"IND","ppt_full":"Industrial","authority":"NOIDA","category":"industrial","execution_stage":"allotted"}},{"type":"Feature","geometry":{"type":"Polygon","coordinates":[[[77.334787,28.589469],[77.334511,28.589753],[77.334339,28.589626],[77.334615,28.589341],[77.334787,28.589469]]]},"properties":{"objectid":26374,"plotmapid":"10D001IND","property_t":"Industrial","allotted_p":"Yes","plotsizesq":992,"plot_size":"992 SQMT","plot_no":"001","sector":"10","block":"D","mplanduse":"B","ppt_type":"IND","ppt_full":"Industrial","authority":"NOIDA","category":"industrial","execution_stage":"allotted"}},{"type":"Feature","geometry":{"type":"Polygon","coordinates":[[[77.334943,28.589585],[77.334667,28.589869],[77.334511,28.589753],[77.334787,28.589469],[77.334943,28.589585]]]},"properties":{"objectid":26375,"plotmapid":"10D002IND","property_t":"Industrial","allotted_p":"Yes","plotsizesq":820,"plot_size":"820 SQMT","plot_no":"002","sector":"10","block":"D","mplanduse":"B","ppt_type":"IND","ppt_full":"Industrial","authority":"NOIDA","category":"industrial","execution_stage":"allotted"}},{"type":"Feature","geometry":{"type":"Polygon","coordinates":[[[77.332564,28.58832],[77.332588,28.588338],[77.332467,28.588472],[77.332418,28.588436],[77.332543,28.588304],[77.332564,28.58832]]]},"properties":{"objectid":26406,"plotmapid":"10C044IND","property_t":"Industrial","allotted_p":"Yes","plotsizesq":114,"plot_size":"114 SQMT","plot_no":"044","sector":"10","block":"C","mplanduse":"B","ppt_type":"IND","ppt_full":"Industrial","authority":"NOIDA","category":"industrial","execution_stage":"allotted"}},{"type":"Feature","geometry":{"type":"Polygon","coordinates":[[[77.332635,28.588372],[77.332512,28.588505],[77.332467,28.588472],[77.332588,28.588338],[77.332635,28.588372]]]},"properties":{"objectid":26407,"plotmapid":"10C043IND","property_t":"Industrial","allotted_p":"Yes","plotsizesq":114,"plot_size":"114 SQMT","plot_no":"043","sector":"10","block":"C","mplanduse":"B","ppt_type":"IND","ppt_full":"Industrial","authority":"NOIDA","category":"industrial","execution_stage":"allotted"}},{"type":"Feature","geometry":{"type":"Polygon","coordinates":[[[77.332637,28.588374],[77.332682,28.588407],[77.332557,28.588538],[77.332512,28.588505],[77.332637,28.588374]]]},"properties":{"objectid":26408,"plotmapid":"10C042IND","property_t":"Industrial","allotted_p":"Yes","plotsizesq":114,"plot_size":"114 SQMT","plot_no":"042","sector":"10","block":"C","mplanduse":"B","ppt_type":"IND","ppt_full":"Industrial","authority":"NOIDA","category":"industrial","execution_stage":"allotted"}},{"type":"Feature","geometry":{"type":"Polygon","coordinates":[[[77.332725,28.588439],[77.332601,28.588571],[77.332557,28.588538],[77.332682,28.588407],[77.332725,28.588439]]]},"properties":{"objectid":26409,"plotmapid":"10C041IND","property_t":"Industrial","allotted_p":"Yes","plotsizesq":114,"plot_size":"114 SQMT","plot_no":"041","sector":"10","block":"C","mplanduse":"B","ppt_type":"IND","ppt_full":"Industrial","authority":"NOIDA","category":"industrial","execution_stage":"allotted"}},{"type":"Feature","geometry":{"type":"Polygon","coordinates":[[[77.332779,28.588479],[77.332655,28.58861],[77.332601,28.588571],[77.332725,28.588439],[77.332779,28.588479]]]},"properties":{"objectid":26410,"plotmapid":"10C040IND","property_t":"Industrial","allotted_p":"Yes","plotsizesq":114,"plot_size":"114 SQMT","plot_no":"040","sector":"10","block":"C","mplanduse":"B","ppt_type":"IND","ppt_full":"Industrial","authority":"NOIDA","category":"industrial","execution_stage":"allotted"}},{"type":"Feature","geometry":{"type":"Polygon","coordinates":[[[77.332826,28.588513],[77.332702,28.588645],[77.332655,28.58861],[77.332779,28.588479],[77.332826,28.588513]]]},"properties":{"objectid":26411,"plotmapid":"10C039IND","property_t":"Industrial","allotted_p":"Yes","plotsizesq":114,"plot_size":"114 SQMT","plot_no":"039","sector":"10","block":"C","mplanduse":"B","ppt_type":"IND","ppt_full":"Industrial","authority":"NOIDA","category":"industrial","execution_stage":"allotted"}},{"type":"Feature","geometry":{"type":"Polygon","coordinates":[[[77.332871,28.588546],[77.33275,28.588681],[77.332702,28.588645],[77.332826,28.588513],[77.332871,28.588546]]]},"properties":{"objectid":26412,"plotmapid":"10C038IND","property_t":"Industrial","allotted_p":"Yes","plotsizesq":114,"plot_size":"114 SQMT","plot_no":"038","sector":"10","block":"C","mplanduse":"B","ppt_type":"IND","ppt_full":"Industrial","authority":"NOIDA","category":"industrial","execution_stage":"allotted"}},{"type":"Feature","geometry":{"type":"Polygon","coordinates":[[[77.332879,28.588552],[77.332918,28.588581],[77.332796,28.588714],[77.33275,28.588681],[77.332879,28.588552]]]},"properties":{"objectid":26413,"plotmapid":"10C037IND","property_t":"Industrial","allotted_p":"Yes","plotsizesq":114,"plot_size":"114 SQMT","plot_no":"037","sector":"10","block":"C","mplanduse":"B","ppt_type":"IND","ppt_full":"Industrial","authority":"NOIDA","category":"industrial","execution_stage":"allotted"}},{"type":"Feature","geometry":{"type":"Polygon","coordinates":[[[77.332918,28.588581],[77.332965,28.588616],[77.33284,28.588747],[77.332796,28.588714],[77.332918,28.588581]]]},"properties":{"objectid":26414,"plotmapid":"10C036IND","property_t":"Industrial","allotted_p":"Yes","plotsizesq":114,"plot_size":"114 SQMT","plot_no":"036","sector":"10","block":"C","mplanduse":"B","ppt_type":"IND","ppt_full":"Industrial","authority":"NOIDA","category":"industrial","execution_stage":"allotted"}},{"type":"Feature","geometry":{"type":"Polygon","coordinates":[[[77.333012,28.58865],[77.332891,28.588785],[77.33284,28.588747],[77.332965,28.588616],[77.333012,28.58865]]]},"properties":{"objectid":26415,"plotmapid":"10C035IND","property_t":"Industrial","allotted_p":"Yes","plotsizesq":114,"plot_size":"114 SQMT","plot_no":"035","sector":"10","block":"C","mplanduse":"B","ppt_type":"IND","ppt_full":"Industrial","authority":"NOIDA","category":"industrial","execution_stage":"allotted"}},{"type":"Feature","geometry":{"type":"Polygon","coordinates":[[[77.333036,28.588668],[77.333063,28.588688],[77.332934,28.588817],[77.332891,28.588785],[77.333012,28.58865],[77.333036,28.588668]]]},"properties":{"objectid":26416,"plotmapid":"10C34IND","property_t":"Industrial","allotted_p":"Yes","plotsizesq":114,"plot_size":"114 SQMT","plot_no":"34","sector":"10","block":"C","mplanduse":"B","ppt_type":"IND","ppt_full":"Industrial","authority":"NOIDA","category":"industrial","execution_stage":"allotted"}},{"type":"Feature","geometry":{"type":"Polygon","coordinates":[[[77.333107,28.58872],[77.332987,28.588855],[77.332934,28.588817],[77.333063,28.588688],[77.333107,28.58872]]]},"properties":{"objectid":26417,"plotmapid":"10C033IND","property_t":"Industrial","allotted_p":"Yes","plotsizesq":114,"plot_size":"114 SQMT","plot_no":"033","sector":"10","block":"C","mplanduse":"B","ppt_type":"IND","ppt_full":"Industrial","authority":"NOIDA","category":"industrial","execution_stage":"allotted"}},{"type":"Feature","geometry":{"type":"Polygon","coordinates":[[[77.333154,28.588755],[77.333032,28.588889],[77.332987,28.588855],[77.333112,28.588724],[77.333154,28.588755]]]},"properties":{"objectid":26418,"plotmapid":"10C032IND","property_t":"Industrial","allotted_p":"Yes","plotsizesq":114,"plot_size":"114 SQMT","plot_no":"032","sector":"10","block":"C","mplanduse":"B","ppt_type":"IND","ppt_full":"Industrial","authority":"NOIDA","category":"industrial","execution_stage":"allotted"}},{"type":"Feature","geometry":{"type":"Polygon","coordinates":[[[77.333157,28.588757],[77.333201,28.58879],[77.333076,28.588921],[77.333032,28.588889],[77.333157,28.588757]]]},"properties":{"objectid":26419,"plotmapid":"10C031IND","property_t":"Industrial","allotted_p":"Yes","plotsizesq":114,"plot_size":"114 SQMT","plot_no":"031","sector":"10","block":"C","mplanduse":"B","ppt_type":"IND","ppt_full":"Industrial","authority":"NOIDA","category":"industrial","execution_stage":"allotted"}},{"type":"Feature","geometry":{"type":"Polygon","coordinates":[[[77.333342,28.588894],[77.333217,28.589025],[77.333076,28.588921],[77.333201,28.58879],[77.333342,28.588894]]]},"properties":{"objectid":26420,"plotmapid":"10C030IND","property_t":"Industrial","allotted_p":"Yes","plotsizesq":342,"plot_size":"342 SQMT","plot_no":"030","sector":"10","block":"C","mplanduse":"B","ppt_type":"IND","ppt_full":"Industrial","authority":"NOIDA","category":"industrial","execution_stage":"allotted"}},{"type":"Feature","geometry":{"type":"Polygon","coordinates":[[[77.33339,28.588929],[77.333265,28.58906],[77.333217,28.589025],[77.333342,28.588894],[77.33339,28.588929]]]},"properties":{"objectid":26421,"plotmapid":"10C029IND","property_t":"Industrial","allotted_p":"Yes","plotsizesq":114,"plot_size":"114 SQMT","plot_no":"029","sector":"10","block":"C","mplanduse":"B","ppt_type":"IND","ppt_full":"Industrial","authority":"NOIDA","category":"industrial","execution_stage":"allotted"}},{"type":"Feature","geometry":{"type":"Polygon","coordinates":[[[77.333437,28.588963],[77.333312,28.589095],[77.333265,28.58906],[77.33339,28.588929],[77.333437,28.588963]]]},"properties":{"objectid":26422,"plotmapid":"10C028IND","property_t":"Industrial","allotted_p":"Yes","plotsizesq":114,"plot_size":"114 SQMT","plot_no":"028","sector":"10","block":"C","mplanduse":"B","ppt_type":"IND","ppt_full":"Industrial","authority":"NOIDA","category":"industrial","execution_stage":"allotted"}},{"type":"Feature","geometry":{"type":"Polygon","coordinates":[[[77.333484,28.588998],[77.333359,28.58913],[77.333312,28.589095],[77.333437,28.588963],[77.333484,28.588998]]]},"properties":{"objectid":26423,"plotmapid":"10C027IND","property_t":"Industrial","allotted_p":"Yes","plotsizesq":114,"plot_size":"114 SQMT","plot_no":"027","sector":"10","block":"C","mplanduse":"B","ppt_type":"IND","ppt_full":"Industrial","authority":"NOIDA","category":"industrial","execution_stage":"allotted"}},{"type":"Feature","geometry":{"type":"Polygon","coordinates":[[[77.333531,28.589033],[77.333406,28.589164],[77.333359,28.58913],[77.333484,28.588998],[77.333531,28.589033]]]},"properties":{"objectid":26424,"plotmapid":"10C026IND","property_t":"Industrial","allotted_p":"Yes","plotsizesq":114,"plot_size":"114 SQMT","plot_no":"026","sector":"10","block":"C","mplanduse":"B","ppt_type":"IND","ppt_full":"Industrial","authority":"NOIDA","category":"industrial","execution_stage":"allotted"}},{"type":"Feature","geometry":{"type":"Polygon","coordinates":[[[77.333578,28.589068],[77.333453,28.589199],[77.333406,28.589164],[77.333531,28.589033],[77.333578,28.589068]]]},"properties":{"objectid":26425,"plotmapid":"10C025IND","property_t":"Industrial","allotted_p":"Yes","plotsizesq":114,"plot_size":"114 SQMT","plot_no":"025","sector":"10","block":"C","mplanduse":"B","ppt_type":"IND","ppt_full":"Industrial","authority":"NOIDA","category":"industrial","execution_stage":"allotted"}},{"type":"Feature","geometry":{"type":"Polygon","coordinates":[[[77.333625,28.589103],[77.3335,28.589234],[77.333453,28.589199],[77.333578,28.589068],[77.333625,28.589103]]]},"properties":{"objectid":26426,"plotmapid":"10C024IND","property_t":"Industrial","allotted_p":"Yes","plotsizesq":114,"plot_size":"114 SQMT","plot_no":"024","sector":"10","block":"C","mplanduse":"B","ppt_type":"IND","ppt_full":"Industrial","authority":"NOIDA","category":"industrial","execution_stage":"allotted"}},{"type":"Feature","geometry":{"type":"Polygon","coordinates":[[[77.333672,28.589137],[77.333547,28.589269],[77.3335,28.589234],[77.333625,28.589103],[77.333672,28.589137]]]},"properties":{"objectid":26427,"plotmapid":"10C023IND","property_t":"Industrial","allotted_p":"Yes","plotsizesq":114,"plot_size":"114 SQMT","plot_no":"023","sector":"10","block":"C","mplanduse":"B","ppt_type":"IND","ppt_full":"Industrial","authority":"NOIDA","category":"industrial","execution_stage":"allotted"}},{"type":"Feature","geometry":{"type":"Polygon","coordinates":[[[77.33372,28.589172],[77.333595,28.589303],[77.333547,28.589269],[77.333672,28.589137],[77.33372,28.589172]]]},"properties":{"objectid":26428,"plotmapid":"10C022IND","property_t":"Industrial","allotted_p":"Yes","plotsizesq":114,"plot_size":"114 SQMT","plot_no":"022","sector":"10","block":"C","mplanduse":"B","ppt_type":"IND","ppt_full":"Industrial","authority":"NOIDA","category":"industrial","execution_stage":"allotted"}},{"type":"Feature","geometry":{"type":"Polygon","coordinates":[[[77.333767,28.589207],[77.333642,28.589338],[77.333595,28.589303],[77.33372,28.589172],[77.333767,28.589207]]]},"properties":{"objectid":26429,"plotmapid":"10C021IND","property_t":"Industrial","allotted_p":"Yes","plotsizesq":114,"plot_size":"114 SQMT","plot_no":"021","sector":"10","block":"C","mplanduse":"B","ppt_type":"IND","ppt_full":"Industrial","authority":"NOIDA","category":"industrial","execution_stage":"allotted"}},{"type":"Feature","geometry":{"type":"Polygon","coordinates":[[[77.333814,28.589242],[77.333689,28.589373],[77.333642,28.589338],[77.333767,28.589207],[77.333814,28.589242]]]},"properties":{"objectid":26430,"plotmapid":"10C020IND","property_t":"Industrial","allotted_p":"Yes","plotsizesq":114,"plot_size":"114 SQMT","plot_no":"020","sector":"10","block":"C","mplanduse":"B","ppt_type":"IND","ppt_full":"Industrial","authority":"NOIDA","category":"industrial","execution_stage":"allotted"}},{"type":"Feature","geometry":{"type":"Polygon","coordinates":[[[77.333861,28.589276],[77.333736,28.589408],[77.333689,28.589373],[77.333814,28.589242],[77.333861,28.589276]]]},"properties":{"objectid":26431,"plotmapid":"10C019IND","property_t":"Industrial","allotted_p":"Yes","plotsizesq":114,"plot_size":"114 SQMT","plot_no":"019","sector":"10","block":"C","mplanduse":"B","ppt_type":"IND","ppt_full":"Industrial","authority":"NOIDA","category":"industrial","execution_stage":"allotted"}},{"type":"Feature","geometry":{"type":"Polygon","coordinates":[[[77.333908,28.589311],[77.333783,28.589442],[77.333736,28.589408],[77.333861,28.589276],[77.333908,28.589311]]]},"properties":{"objectid":26432,"plotmapid":"10C018IND","property_t":"Industrial","allotted_p":"Yes","plotsizesq":114,"plot_size":"114 SQMT","plot_no":"018","sector":"10","block":"C","mplanduse":"B","ppt_type":"IND","ppt_full":"Industrial","authority":"NOIDA","category":"industrial","execution_stage":"allotted"}},{"type":"Feature","geometry":{"type":"Polygon","coordinates":[[[77.333955,28.589346],[77.33383,28.589477],[77.333783,28.589442],[77.333908,28.589311],[77.333955,28.589346]]]},"properties":{"objectid":26433,"plotmapid":"10C017IND","property_t":"Industrial","allotted_p":"Yes","plotsizesq":114,"plot_size":"114 SQMT","plot_no":"017","sector":"10","block":"C","mplanduse":"B","ppt_type":"IND","ppt_full":"Industrial","authority":"NOIDA","category":"industrial","execution_stage":"allotted"}},{"type":"Feature","geometry":{"type":"Polygon","coordinates":[[[77.334002,28.589381],[77.333878,28.589512],[77.33383,28.589477],[77.333955,28.589346],[77.334002,28.589381]]]},"properties":{"objectid":26434,"plotmapid":"10C016IND","property_t":"Industrial","allotted_p":"Yes","plotsizesq":114,"plot_size":"114 SQMT","plot_no":"016","sector":"10","block":"C","mplanduse":"B","ppt_type":"IND","ppt_full":"Industrial","authority":"NOIDA","category":"industrial","execution_stage":"allotted"}},{"type":"Feature","geometry":{"type":"Polygon","coordinates":[[[77.33405,28.589415],[77.333925,28.589547],[77.333878,28.589512],[77.334002,28.589381],[77.33405,28.589415]]]},"properties":{"objectid":26435,"plotmapid":"10C015IND","property_t":"Industrial","allotted_p":"Yes","plotsizesq":114,"plot_size":"114 SQMT","plot_no":"015","sector":"10","block":"C","mplanduse":"B","ppt_type":"IND","ppt_full":"Industrial","authority":"NOIDA","category":"industrial","execution_stage":"allotted"}},{"type":"Feature","geometry":{"type":"Polygon","coordinates":[[[77.334097,28.58945],[77.333972,28.589582],[77.333925,28.589547],[77.33405,28.589415],[77.334097,28.58945]]]},"properties":{"objectid":26436,"plotmapid":"10C014IND","property_t":"Industrial","allotted_p":"Yes","plotsizesq":114,"plot_size":"114 SQMT","plot_no":"014","sector":"10","block":"C","mplanduse":"B","ppt_type":"IND","ppt_full":"Industrial","authority":"NOIDA","category":"industrial","execution_stage":"allotted"}},{"type":"Feature","geometry":{"type":"Polygon","coordinates":[[[77.334144,28.589485],[77.334019,28.589616],[77.333972,28.589582],[77.334097,28.58945],[77.334144,28.589485]]]},"properties":{"objectid":26437,"plotmapid":"10C013IND","property_t":"Industrial","allotted_p":"Yes","plotsizesq":114,"plot_size":"114 SQMT","plot_no":"013","sector":"10","block":"C","mplanduse":"B","ppt_type":"IND","ppt_full":"Industrial","authority":"NOIDA","category":"industrial","execution_stage":"allotted"}},{"type":"Feature","geometry":{"type":"Polygon","coordinates":[[[77.334199,28.589526],[77.334074,28.589657],[77.334019,28.589616],[77.334144,28.589485],[77.334199,28.589526]]]},"properties":{"objectid":26438,"plotmapid":"10C012IND","property_t":"Industrial","allotted_p":"Yes","plotsizesq":133,"plot_size":"133 SQMT","plot_no":"012","sector":"10","block":"C","mplanduse":"B","ppt_type":"IND","ppt_full":"Industrial","authority":"NOIDA","category":"industrial","execution_stage":"allotted"}},{"type":"Feature","geometry":{"type":"Polygon","coordinates":[[[77.334399,28.58967],[77.334274,28.589805],[77.334211,28.589758],[77.334339,28.589626],[77.334399,28.58967]]]},"properties":{"objectid":26439,"plotmapid":"10D038IND","property_t":"Industrial","allotted_p":"Yes","plotsizesq":146.3,"plot_size":"146.3 SQMT","plot_no":"038","sector":"10","block":"D","mplanduse":"B","ppt_type":"IND","ppt_full":"Industrial","authority":"NOIDA","category":"industrial","execution_stage":"allotted"}},{"type":"Feature","geometry":{"type":"Polygon","coordinates":[[[77.334399,28.58967],[77.334446,28.589705],[77.334318,28.589837],[77.334274,28.589805],[77.334399,28.58967]]]},"properties":{"objectid":26440,"plotmapid":"10D037IND","property_t":"Industrial","allotted_p":"Yes","plotsizesq":114,"plot_size":"114 SQMT","plot_no":"037","sector":"10","block":"D","mplanduse":"B","ppt_type":"IND","ppt_full":"Industrial","authority":"NOIDA","category":"industrial","execution_stage":"allotted"}},{"type":"Feature","geometry":{"type":"Polygon","coordinates":[[[77.334493,28.58974],[77.334368,28.589874],[77.334318,28.589837],[77.334446,28.589705],[77.334493,28.58974]]]},"properties":{"objectid":26441,"plotmapid":"10D036IND","property_t":"Industrial","allotted_p":"Yes","plotsizesq":114,"plot_size":"114 SQMT","plot_no":"036","sector":"10","block":"D","mplanduse":"B","ppt_type":"IND","ppt_full":"Industrial","authority":"NOIDA","category":"industrial","execution_stage":"allotted"}},{"type":"Feature","geometry":{"type":"Polygon","coordinates":[[[77.334511,28.589753],[77.334542,28.589777],[77.334414,28.589908],[77.334368,28.589874],[77.334493,28.58974],[77.334511,28.589753]]]},"properties":{"objectid":26442,"plotmapid":"10D035IND","property_t":"Industrial","allotted_p":"Yes","plotsizesq":114,"plot_size":"114 SQMT","plot_no":"035","sector":"10","block":"D","mplanduse":"B","ppt_type":"IND","ppt_full":"Industrial","authority":"NOIDA","category":"industrial","execution_stage":"allotted"}},{"type":"Feature","geometry":{"type":"Polygon","coordinates":[[[77.334586,28.589809],[77.334462,28.589944],[77.334414,28.589908],[77.334542,28.589777],[77.334586,28.589809]]]},"properties":{"objectid":26443,"plotmapid":"10D034IND","property_t":"Industrial","allotted_p":"Yes","plotsizesq":114,"plot_size":"114 SQMT","plot_no":"034","sector":"10","block":"D","mplanduse":"B","ppt_type":"IND","ppt_full":"Industrial","authority":"NOIDA","category":"industrial","execution_stage":"allotted"}},{"type":"Feature","geometry":{"type":"Polygon","coordinates":[[[77.33264,28.588796],[77.332467,28.58898],[77.332404,28.588933],[77.332577,28.58875],[77.33264,28.588796]]]},"properties":{"objectid":26492,"plotmapid":"10C056IND","property_t":"Industrial","allotted_p":"Yes","plotsizesq":208,"plot_size":"208 SQMT","plot_no":"056","sector":"10","block":"C","mplanduse":"B","ppt_type":"IND","ppt_full":"Industrial","authority":"NOIDA","category":"industrial","execution_stage":"allotted"}},{"type":"Feature","geometry":{"type":"Polygon","coordinates":[[[77.332768,28.588903],[77.332813,28.588936],[77.332641,28.589117],[77.33258,28.589072],[77.332742,28.588884],[77.332768,28.588903]]]},"properties":{"objectid":26493,"plotmapid":"10C058IND","property_t":"Industrial","allotted_p":"Yes","plotsizesq":208,"plot_size":"208 SQMT","plot_no":"058","sector":"10","block":"C","mplanduse":"B","ppt_type":"IND","ppt_full":"Industrial","authority":"NOIDA","category":"industrial","execution_stage":"allotted"}},{"type":"Feature","geometry":{"type":"Polygon","coordinates":[[[77.332876,28.588983],[77.332703,28.589164],[77.332641,28.589117],[77.332813,28.588936],[77.332876,28.588983]]]},"properties":{"objectid":26494,"plotmapid":"10C059IND","property_t":"Industrial","allotted_p":"Yes","plotsizesq":208,"plot_size":"208 SQMT","plot_no":"059","sector":"10","block":"C","mplanduse":"B","ppt_type":"IND","ppt_full":"Industrial","authority":"NOIDA","category":"industrial","execution_stage":"allotted"}},{"type":"Feature","geometry":{"type":"Polygon","coordinates":[[[77.332938,28.58903],[77.332766,28.589211],[77.332703,28.589164],[77.332876,28.588983],[77.332938,28.58903]]]},"properties":{"objectid":26495,"plotmapid":"10C060IND","property_t":"Industrial","allotted_p":"Yes","plotsizesq":208,"plot_size":"208 SQMT","plot_no":"060","sector":"10","block":"C","mplanduse":"B","ppt_type":"IND","ppt_full":"Industrial","authority":"NOIDA","category":"industrial","execution_stage":"allotted"}},{"type":"Feature","geometry":{"type":"Polygon","coordinates":[[[77.333001,28.589077],[77.332828,28.589258],[77.332766,28.589211],[77.332938,28.58903],[77.333001,28.589077]]]},"properties":{"objectid":26496,"plotmapid":"10C061IND","property_t":"Industrial","allotted_p":"Yes","plotsizesq":208,"plot_size":"208 SQMT","plot_no":"061","sector":"10","block":"C","mplanduse":"B","ppt_type":"IND","ppt_full":"Industrial","authority":"NOIDA","category":"industrial","execution_stage":"allotted"}},{"type":"Feature","geometry":{"type":"Polygon","coordinates":[[[77.333063,28.589124],[77.332891,28.589305],[77.332828,28.589258],[77.333001,28.589077],[77.333063,28.589124]]]},"properties":{"objectid":26497,"plotmapid":"10C062IND","property_t":"Industrial","allotted_p":"Yes","plotsizesq":208,"plot_size":"208 SQMT","plot_no":"062","sector":"10","block":"C","mplanduse":"B","ppt_type":"IND","ppt_full":"Industrial","authority":"NOIDA","category":"industrial","execution_stage":"allotted"}},{"type":"Feature","geometry":{"type":"Polygon","coordinates":[[[77.333126,28.589171],[77.332953,28.589352],[77.332891,28.589305],[77.333063,28.589124],[77.333126,28.589171]]]},"properties":{"objectid":26498,"plotmapid":"10C063IND","property_t":"Industrial","allotted_p":"Yes","plotsizesq":208,"plot_size":"208 SQMT","plot_no":"063","sector":"10","block":"C","mplanduse":"B","ppt_type":"IND","ppt_full":"Industrial","authority":"NOIDA","category":"industrial","execution_stage":"allotted"}},{"type":"Feature","geometry":{"type":"Polygon","coordinates":[[[77.333188,28.589218],[77.333016,28.589399],[77.332953,28.589352],[77.333126,28.589171],[77.333188,28.589218]]]},"properties":{"objectid":26499,"plotmapid":"10C064IND","property_t":"Industrial","allotted_p":"Yes","plotsizesq":210,"plot_size":"210 SQMT","plot_no":"064","sector":"10","block":"C","mplanduse":"B","ppt_type":"IND","ppt_full":"Industrial","authority":"NOIDA","category":"industrial","execution_stage":"allotted"}},{"type":"Feature","geometry":{"type":"Polygon","coordinates":[[[77.333251,28.589264],[77.333078,28.589446],[77.333016,28.589399],[77.333188,28.589218],[77.333251,28.589264]]]},"properties":{"objectid":26500,"plotmapid":"10C065IND","property_t":"Industrial","allotted_p":"Yes","plotsizesq":208,"plot_size":"208 SQMT","plot_no":"065","sector":"10","block":"C","mplanduse":"B","ppt_type":"IND","ppt_full":"Industrial","authority":"NOIDA","category":"industrial","execution_stage":"allotted"}},{"type":"Feature","geometry":{"type":"Polygon","coordinates":[[[77.333562,28.589495],[77.333394,28.589673],[77.333331,28.589627],[77.333498,28.589449],[77.333562,28.589495]]]},"properties":{"objectid":26501,"plotmapid":"10C068IND","property_t":"Industrial","allotted_p":"Yes","plotsizesq":208,"plot_size":"208 SQMT","plot_no":"068","sector":"10","block":"C","mplanduse":"B","ppt_type":"IND","ppt_full":"Industrial","authority":"NOIDA","category":"industrial","execution_stage":"allotted"}},{"type":"Feature","geometry":{"type":"Polygon","coordinates":[[[77.333626,28.58954],[77.333457,28.589719],[77.333394,28.589673],[77.333562,28.589495],[77.333626,28.58954]]]},"properties":{"objectid":26502,"plotmapid":"10C069IND","property_t":"Industrial","allotted_p":"Yes","plotsizesq":208,"plot_size":"208 SQMT","plot_no":"069","sector":"10","block":"C","mplanduse":"B","ppt_type":"IND","ppt_full":"Industrial","authority":"NOIDA","category":"industrial","execution_stage":"allotted"}},{"type":"Feature","geometry":{"type":"Polygon","coordinates":[[[77.333689,28.589586],[77.333521,28.589765],[77.333457,28.589719],[77.333626,28.58954],[77.333689,28.589586]]]},"properties":{"objectid":26503,"plotmapid":"10C070IND","property_t":"Industrial","allotted_p":"Yes","plotsizesq":208,"plot_size":"208 SQMT","plot_no":"070","sector":"10","block":"C","mplanduse":"B","ppt_type":"IND","ppt_full":"Industrial","authority":"NOIDA","category":"industrial","execution_stage":"allotted"}},{"type":"Feature","geometry":{"type":"Polygon","coordinates":[[[77.333753,28.589632],[77.333584,28.589811],[77.333521,28.589765],[77.333689,28.589586],[77.333753,28.589632]]]},"properties":{"objectid":26504,"plotmapid":"10C071IND","property_t":"Industrial","allotted_p":"Yes","plotsizesq":208,"plot_size":"208 SQMT","plot_no":"071","sector":"10","block":"C","mplanduse":"B","ppt_type":"IND","ppt_full":"Industrial","authority":"NOIDA","category":"industrial","execution_stage":"allotted"}},{"type":"Feature","geometry":{"type":"Polygon","coordinates":[[[77.333816,28.589678],[77.333647,28.589857],[77.333584,28.589811],[77.333753,28.589632],[77.333816,28.589678]]]},"properties":{"objectid":26505,"plotmapid":"10C072IND","property_t":"Industrial","allotted_p":"Yes","plotsizesq":208,"plot_size":"208 SQMT","plot_no":"072","sector":"10","block":"C","mplanduse":"B","ppt_type":"IND","ppt_full":"Industrial","authority":"NOIDA","category":"industrial","execution_stage":"allotted"}},{"type":"Feature","geometry":{"type":"Polygon","coordinates":[[[77.33388,28.589723],[77.333711,28.589903],[77.333647,28.589857],[77.333816,28.589678],[77.33388,28.589723]]]},"properties":{"objectid":26506,"plotmapid":"10C073IND","property_t":"Industrial","allotted_p":"Yes","plotsizesq":208,"plot_size":"208 SQMT","plot_no":"073","sector":"10","block":"C","mplanduse":"B","ppt_type":"IND","ppt_full":"Industrial","authority":"NOIDA","category":"industrial","execution_stage":"allotted"}},{"type":"Feature","geometry":{"type":"Polygon","coordinates":[[[77.33396,28.589781],[77.33379,28.589961],[77.333711,28.589903],[77.33388,28.589723],[77.33396,28.589781]]]},"properties":{"objectid":26507,"plotmapid":"10C074IND","property_t":"Industrial","allotted_p":"Yes","plotsizesq":260,"plot_size":"260 SQMT","plot_no":"074","sector":"10","block":"C","mplanduse":"B","ppt_type":"IND","ppt_full":"Industrial","authority":"NOIDA","category":"industrial","execution_stage":"allotted"}},{"type":"Feature","geometry":{"type":"Polygon","coordinates":[[[77.332593,28.589082],[77.332641,28.589117],[77.332468,28.589299],[77.332411,28.589256],[77.33258,28.589072],[77.332593,28.589082]]]},"properties":{"objectid":26549,"plotmapid":"10C090IND","property_t":"Industrial","allotted_p":"Yes","plotsizesq":208,"plot_size":"208 SQMT","plot_no":"090","sector":"10","block":"C","mplanduse":"B","ppt_type":"IND","ppt_full":"Industrial","authority":"NOIDA","category":"industrial","execution_stage":"allotted"}},{"type":"Feature","geometry":{"type":"Polygon","coordinates":[[[77.332703,28.589164],[77.332531,28.589345],[77.332468,28.589299],[77.332641,28.589117],[77.332703,28.589164]]]},"properties":{"objectid":26550,"plotmapid":"10C089IND","property_t":"Industrial","allotted_p":"Yes","plotsizesq":208,"plot_size":"208 SQMT","plot_no":"089","sector":"10","block":"C","mplanduse":"B","ppt_type":"IND","ppt_full":"Industrial","authority":"NOIDA","category":"industrial","execution_stage":"allotted"}},{"type":"Feature","geometry":{"type":"Polygon","coordinates":[[[77.332766,28.589211],[77.332593,28.589392],[77.332531,28.589345],[77.332703,28.589164],[77.332766,28.589211]]]},"properties":{"objectid":26551,"plotmapid":"10C088IND","property_t":"Industrial","allotted_p":"Yes","plotsizesq":208,"plot_size":"208 SQMT","plot_no":"088","sector":"10","block":"C","mplanduse":"B","ppt_type":"IND","ppt_full":"Industrial","authority":"NOIDA","category":"industrial","execution_stage":"allotted"}},{"type":"Feature","geometry":{"type":"Polygon","coordinates":[[[77.332828,28.589258],[77.332656,28.589439],[77.332593,28.589392],[77.332766,28.589211],[77.332828,28.589258]]]},"properties":{"objectid":26552,"plotmapid":"10C087IND","property_t":"Industrial","allotted_p":"Yes","plotsizesq":208,"plot_size":"208 SQMT","plot_no":"087","sector":"10","block":"C","mplanduse":"B","ppt_type":"IND","ppt_full":"Industrial","authority":"NOIDA","category":"industrial","execution_stage":"allotted"}},{"type":"Feature","geometry":{"type":"Polygon","coordinates":[[[77.332891,28.589305],[77.332718,28.589486],[77.332656,28.589439],[77.332828,28.589258],[77.332891,28.589305]]]},"properties":{"objectid":26553,"plotmapid":"10C086IND","property_t":"Industrial","allotted_p":"Yes","plotsizesq":208,"plot_size":"208 SQMT","plot_no":"086","sector":"10","block":"C","mplanduse":"B","ppt_type":"IND","ppt_full":"Industrial","authority":"NOIDA","category":"industrial","execution_stage":"allotted"}},{"type":"Feature","geometry":{"type":"Polygon","coordinates":[[[77.332953,28.589352],[77.332781,28.589533],[77.332718,28.589486],[77.332891,28.589305],[77.332953,28.589352]]]},"properties":{"objectid":26554,"plotmapid":"10C085IND","property_t":"Industrial","allotted_p":"Yes","plotsizesq":208,"plot_size":"208 SQMT","plot_no":"085","sector":"10","block":"C","mplanduse":"B","ppt_type":"IND","ppt_full":"Industrial","authority":"NOIDA","category":"industrial","execution_stage":"allotted"}},{"type":"Feature","geometry":{"type":"Polygon","coordinates":[[[77.333016,28.589399],[77.332843,28.58958],[77.332781,28.589533],[77.332953,28.589352],[77.333016,28.589399]]]},"properties":{"objectid":26555,"plotmapid":"10C084IND","property_t":"Industrial","allotted_p":"Yes","plotsizesq":208,"plot_size":"208 SQMT","plot_no":"084","sector":"10","block":"C","mplanduse":"B","ppt_type":"IND","ppt_full":"Industrial","authority":"NOIDA","category":"industrial","execution_stage":"allotted"}},{"type":"Feature","geometry":{"type":"Polygon","coordinates":[[[77.333078,28.589446],[77.332906,28.589627],[77.332843,28.58958],[77.333016,28.589399],[77.333078,28.589446]]]},"properties":{"objectid":26556,"plotmapid":"10C083IND","property_t":"Industrial","allotted_p":"Yes","plotsizesq":208,"plot_size":"208 SQMT","plot_no":"083","sector":"10","block":"C","mplanduse":"B","ppt_type":"IND","ppt_full":"Industrial","authority":"NOIDA","category":"industrial","execution_stage":"allotted"}},{"type":"Feature","geometry":{"type":"Polygon","coordinates":[[[77.333331,28.589627],[77.333157,28.589811],[77.333093,28.589765],[77.333267,28.589581],[77.333331,28.589627]]]},"properties":{"objectid":26557,"plotmapid":"10C082IND","property_t":"Industrial","allotted_p":"Yes","plotsizesq":208,"plot_size":"208 SQMT","plot_no":"082","sector":"10","block":"C","mplanduse":"B","ppt_type":"IND","ppt_full":"Industrial","authority":"NOIDA","category":"industrial","execution_stage":"allotted"}},{"type":"Feature","geometry":{"type":"Polygon","coordinates":[[[77.333394,28.589673],[77.33322,28.589857],[77.333157,28.589811],[77.333331,28.589627],[77.333394,28.589673]]]},"properties":{"objectid":26558,"plotmapid":"10C081IND","property_t":"Industrial","allotted_p":"Yes","plotsizesq":208,"plot_size":"208 SQMT","plot_no":"081","sector":"10","block":"C","mplanduse":"B","ppt_type":"IND","ppt_full":"Industrial","authority":"NOIDA","category":"industrial","execution_stage":"allotted"}},{"type":"Feature","geometry":{"type":"Polygon","coordinates":[[[77.333457,28.589719],[77.333283,28.589903],[77.33322,28.589857],[77.333394,28.589673],[77.333457,28.589719]]]},"properties":{"objectid":26559,"plotmapid":"10C080IND","property_t":"Industrial","allotted_p":"Yes","plotsizesq":208,"plot_size":"208 SQMT","plot_no":"080","sector":"10","block":"C","mplanduse":"B","ppt_type":"IND","ppt_full":"Industrial","authority":"NOIDA","category":"industrial","execution_stage":"allotted"}},{"type":"Feature","geometry":{"type":"Polygon","coordinates":[[[77.333521,28.589765],[77.333347,28.589949],[77.333283,28.589903],[77.333457,28.589719],[77.333521,28.589765]]]},"properties":{"objectid":26560,"plotmapid":"10C079IND","property_t":"Industrial","allotted_p":"Yes","plotsizesq":208,"plot_size":"208 SQMT","plot_no":"079","sector":"10","block":"C","mplanduse":"B","ppt_type":"IND","ppt_full":"Industrial","authority":"NOIDA","category":"industrial","execution_stage":"allotted"}},{"type":"Feature","geometry":{"type":"Polygon","coordinates":[[[77.333584,28.589811],[77.33341,28.589995],[77.333347,28.589949],[77.333521,28.589765],[77.333584,28.589811]]]},"properties":{"objectid":26561,"plotmapid":"10C078IND","property_t":"Industrial","allotted_p":"Yes","plotsizesq":208,"plot_size":"208 SQMT","plot_no":"078","sector":"10","block":"C","mplanduse":"B","ppt_type":"IND","ppt_full":"Industrial","authority":"NOIDA","category":"industrial","execution_stage":"allotted"}},{"type":"Feature","geometry":{"type":"Polygon","coordinates":[[[77.332609,28.58961],[77.332485,28.589739],[77.332439,28.589704],[77.332565,28.589576],[77.332609,28.58961]]]},"properties":{"objectid":26635,"plotmapid":"10C116IND","property_t":"Industrial","allotted_p":"Yes","plotsizesq":105,"plot_size":"105 SQMT","plot_no":"116","sector":"10","block":"C","mplanduse":"B","ppt_type":"IND","ppt_full":"Industrial","authority":"NOIDA","category":"industrial","execution_stage":"allotted"}},{"type":"Feature","geometry":{"type":"Polygon","coordinates":[[[77.332609,28.58961],[77.332654,28.589643],[77.332532,28.589774],[77.332485,28.589739],[77.332609,28.58961]]]},"properties":{"objectid":26636,"plotmapid":"10C117IND","property_t":"Industrial","allotted_p":"Yes","plotsizesq":114,"plot_size":"114 SQMT","plot_no":"117","sector":"10","block":"C","mplanduse":"B","ppt_type":"IND","ppt_full":"Industrial","authority":"NOIDA","category":"industrial","execution_stage":"allotted"}},{"type":"Feature","geometry":{"type":"Polygon","coordinates":[[[77.332701,28.589679],[77.332579,28.589808],[77.332532,28.589774],[77.332654,28.589643],[77.332701,28.589679]]]},"properties":{"objectid":26637,"plotmapid":"10C118IND","property_t":"Industrial","allotted_p":"Yes","plotsizesq":114,"plot_size":"114 SQMT","plot_no":"118","sector":"10","block":"C","mplanduse":"B","ppt_type":"IND","ppt_full":"Industrial","authority":"NOIDA","category":"industrial","execution_stage":"allotted"}},{"type":"Feature","geometry":{"type":"Polygon","coordinates":[[[77.33275,28.589715],[77.332627,28.589844],[77.332579,28.589808],[77.332701,28.589679],[77.33275,28.589715]]]},"properties":{"objectid":26638,"plotmapid":"10C119IND","property_t":"Industrial","allotted_p":"Yes","plotsizesq":114,"plot_size":"114 SQMT","plot_no":"119","sector":"10","block":"C","mplanduse":"B","ppt_type":"IND","ppt_full":"Industrial","authority":"NOIDA","category":"industrial","execution_stage":"allotted"}},{"type":"Feature","geometry":{"type":"Polygon","coordinates":[[[77.332794,28.589748],[77.332672,28.589877],[77.332627,28.589844],[77.33275,28.589715],[77.332794,28.589748]]]},"properties":{"objectid":26639,"plotmapid":"10C120IND","property_t":"Industrial","allotted_p":"Yes","plotsizesq":114,"plot_size":"114 SQMT","plot_no":"120","sector":"10","block":"C","mplanduse":"B","ppt_type":"IND","ppt_full":"Industrial","authority":"NOIDA","category":"industrial","execution_stage":"allotted"}},{"type":"Feature","geometry":{"type":"Polygon","coordinates":[[[77.332832,28.589777],[77.33271,28.589905],[77.332672,28.589877],[77.332794,28.589748],[77.332832,28.589777]]]},"properties":{"objectid":26640,"plotmapid":"10C121IND","property_t":"Industrial","allotted_p":"Yes","plotsizesq":114,"plot_size":"114 SQMT","plot_no":"121","sector":"10","block":"C","mplanduse":"B","ppt_type":"IND","ppt_full":"Industrial","authority":"NOIDA","category":"industrial","execution_stage":"allotted"}}]}
