{"type":"FeatureCollection","features":[{"type":"Feature","geometry":{"type":"Polygon","coordinates":[[[77.525218,28.438904],[77.526023,28.439687],[77.52429,28.441466],[77.523575,28.440383],[77.525129,28.438807],[77.525218,28.438904]]]},"properties":{"objectid":8049,"plotmapid":"PHI-04NULLGHI-IGHS","plotsizesq":504.63,"plot_size":"504.63 SQMT","plot_no":"GHI-I","sector":"PHI-04","block":"NULL","phase":"Phase 1","ppt_type":"GHS","ppt_full":"Group Housing","authority":"GNIDA","category":"group-housing","execution_stage":"unknown"}},{"type":"Feature","geometry":{"type":"Polygon","coordinates":[[[77.526389,28.445246],[77.524712,28.44682],[77.523255,28.445558],[77.525069,28.443855],[77.525603,28.444475],[77.525986,28.444869],[77.526389,28.445246]]]},"properties":{"objectid":8348,"plotmapid":"PHI-03NULLGH06GHS","allot_id":"GHS090002","property_t":"Group Housing","plotsizesq":48835,"plot_size":"48835","plot_no":"GH06","sector":"PHI-03","block":"NULL","phase":"Phase 1","mplanduse":"Residential","ppt_type":"GHS","ppt_full":"Group Housing","authority":"GNIDA","category":"group-housing","execution_stage":"unknown"}},{"type":"Feature","geometry":{"type":"Polygon","coordinates":[[[77.498536,28.450137],[77.499353,28.450736],[77.498652,28.451492],[77.497849,28.450897],[77.498536,28.450137]]]},"properties":{"objectid":8597,"plotmapid":"PSI-IINULL05GHS","allot_id":"NA","allotted_p":"Yes","plotsizesq":0,"plot_size":"0","plot_no":"05","sector":"PSI-II","block":"NULL","phase":"Phase 1","ppt_type":"GHS","ppt_full":"Group Housing","authority":"GNIDA","category":"group-housing","execution_stage":"allotted"}},{"type":"Feature","geometry":{"type":"Polygon","coordinates":[[[77.500425,28.45154],[77.499714,28.452281],[77.498652,28.451492],[77.499353,28.450736],[77.500425,28.45154]]]},"properties":{"objectid":8598,"plotmapid":"PSI-IIP-706GHS","allot_id":"B-55","property_t":"Group Housing","allotted_p":"Yes","plotsizesq":16188,"plot_size":"16188.00","plot_no":"06","sector":"PSI-II","block":"P-7","phase":"Phase 1","ppt_type":"GHS","ppt_full":"Group Housing","authority":"GNIDA","category":"group-housing","execution_stage":"allotted"}},{"type":"Feature","geometry":{"type":"Polygon","coordinates":[[[77.50006,28.448495],[77.501974,28.449854],[77.500425,28.45154],[77.498536,28.450137],[77.50006,28.448495]]]},"properties":{"objectid":8603,"plotmapid":"PSI-IINULL04GHS","allot_id":"NA","allotted_p":"Yes","plotsizesq":0,"plot_size":"0","plot_no":"04","sector":"PSI-II","block":"NULL","phase":"Phase 1","ppt_type":"GHS","ppt_full":"Group Housing","authority":"GNIDA","category":"group-housing","execution_stage":"allotted"}},{"type":"Feature","geometry":{"type":"Polygon","coordinates":[[[77.498652,28.451492],[77.499714,28.452281],[77.498217,28.453872],[77.496315,28.452532],[77.497849,28.450897],[77.498652,28.451492]]]},"properties":{"objectid":8604,"plotmapid":"PSI-IINULL07GHS","allot_id":"NA","allotted_p":"Yes","plotsizesq":0,"plot_size":"0","plot_no":"07","sector":"PSI-II","block":"NULL","phase":"Phase 1","ppt_type":"GHS","ppt_full":"Group Housing","authority":"GNIDA","category":"group-housing","execution_stage":"allotted"}},{"type":"Feature","geometry":{"type":"Polygon","coordinates":[[[77.500376,28.452096],[77.50344,28.454328],[77.501533,28.456384],[77.498885,28.454473],[77.498464,28.454152],[77.500376,28.452096]]]},"properties":{"objectid":8605,"plotmapid":"PSI-IINULL01GHS","allot_id":"NA","allotted_p":"Yes","plotsizesq":0,"plot_size":"0","plot_no":"01","sector":"PSI-II","block":"NULL","phase":"Phase 1","ppt_type":"GHS","ppt_full":"Group Housing","authority":"GNIDA","category":"group-housing","execution_stage":"allotted"}},{"type":"Feature","geometry":{"type":"Polygon","coordinates":[[[77.505318,28.452298],[77.50344,28.454328],[77.501882,28.453182],[77.503756,28.451154],[77.505318,28.452298]]]},"properties":{"objectid":8606,"plotmapid":"PSI-IIP-702GHS","allot_id":"B-49","property_t":"Group Housing","allotted_p":"Yes","plotsizesq":60705,"plot_size":"60705","plot_no":"02","sector":"PSI-II","block":"P-7","phase":"Phase 1","ppt_type":"GHS","ppt_full":"Group Housing","authority":"GNIDA","category":"group-housing","execution_stage":"allotted"}},{"type":"Feature","geometry":{"type":"Polygon","coordinates":[[[77.506922,28.446465],[77.506672,28.446553],[77.50612,28.446794],[77.505313,28.447231],[77.502226,28.445],[77.503258,28.443832],[77.504159,28.442949],[77.505204,28.442051],[77.505916,28.441485],[77.506363,28.441198],[77.506394,28.44121],[77.506426,28.442439],[77.506588,28.4454],[77.506922,28.446465]]]},"properties":{"objectid":8609,"plotmapid":"CHI-INULL3GHS","allot_id":"B-63","property_t":"Group Housing","allotted_p":"Yes","plotsizesq":162592.06,"plot_size":"162592.06","plot_no":"3","sector":"CHI-I","block":"NULL","phase":"Phase 1","ppt_type":"GHS","ppt_full":"Group Housing","authority":"GNIDA","category":"group-housing","execution_stage":"allotted"}},{"type":"Feature","geometry":{"type":"Polygon","coordinates":[[[77.505313,28.447243],[77.505018,28.447412],[77.504609,28.447678],[77.503872,28.448231],[77.503046,28.448948],[77.502283,28.449701],[77.500271,28.448248],[77.500371,28.448139],[77.502307,28.445067],[77.505313,28.447243]]]},"properties":{"objectid":8610,"plotmapid":"CHI-INULL2GHS","allot_id":"B-60","property_t":"Group Housing","allotted_p":"Yes","plotsizesq":115339.5,"plot_size":"115339.50","plot_no":"2","sector":"CHI-I","block":"NULL","phase":"Phase 1","ppt_type":"GHS","ppt_full":"Group Housing","authority":"GNIDA","category":"group-housing","execution_stage":"allotted"}},{"type":"Feature","geometry":{"type":"Polygon","coordinates":[[[77.516338,28.458665],[77.516116,28.458966],[77.514681,28.458556],[77.514155,28.458216],[77.514852,28.457306],[77.515027,28.457176],[77.516338,28.458665]]]},"properties":{"objectid":9005,"plotmapid":"OMEGA-INULLBRS-6GHS","allot_id":"GHS050001","property_t":"Group Housing","allotted_p":"Yes","plotsizesq":20189.35,"plot_size":"20189.35","plot_no":"BRS-6","sector":"OMEGA-I","block":"NULL","phase":"Phase 1","ppt_type":"GHS","ppt_full":"Group Housing","authority":"GNIDA","category":"group-housing","execution_stage":"allotted"}},{"type":"Feature","geometry":{"type":"Polygon","coordinates":[[[77.514005,28.452133],[77.514555,28.452402],[77.515043,28.452697],[77.513735,28.454249],[77.512618,28.453514],[77.513843,28.452071],[77.514005,28.452133]]]},"properties":{"objectid":9013,"plotmapid":"OMEGA-INULL11GHS","allot_id":"B-73","property_t":"Group Housing","allotted_p":"Yes","plotsizesq":29177,"plot_size":"29177","plot_no":"11","sector":"OMEGA-I","block":"NULL","phase":"Phase 1","ppt_type":"GHS","ppt_full":"Group Housing","authority":"GNIDA","category":"group-housing","execution_stage":"allotted"}},{"type":"Feature","geometry":{"type":"Polygon","coordinates":[[[77.513843,28.452071],[77.512618,28.453514],[77.511839,28.452985],[77.512159,28.452163],[77.512403,28.452001],[77.51253,28.451895],[77.512736,28.451673],[77.513843,28.452071]]]},"properties":{"objectid":9014,"plotmapid":"OMEGA-INULL12GHS","allot_id":"GHS050009","property_t":"Group Housing","allotted_p":"Yes","plotsizesq":22258.5,"plot_size":"22258.5","plot_no":"12","sector":"OMEGA-I","block":"NULL","phase":"Phase 1","ppt_type":"GHS","ppt_full":"Group Housing","authority":"GNIDA","category":"group-housing","execution_stage":"allotted"}},{"type":"Feature","geometry":{"type":"Polygon","coordinates":[[[77.510817,28.454647],[77.508684,28.456995],[77.506863,28.455619],[77.507481,28.454935],[77.508224,28.45546],[77.509334,28.454244],[77.510211,28.45426],[77.510817,28.454647]]]},"properties":{"objectid":9024,"plotmapid":"OMEGA-INULL2GHS","allot_id":"GHS050006","property_t":"Group Housing","allotted_p":"Yes","plotsizesq":53846,"plot_size":"53846.00","plot_no":"2","sector":"OMEGA-I","block":"NULL","phase":"Phase 1","ppt_type":"GHS","ppt_full":"Group Housing","authority":"GNIDA","category":"group-housing","execution_stage":"allotted"}},{"type":"Feature","geometry":{"type":"Polygon","coordinates":[[[77.509334,28.454244],[77.508224,28.45546],[77.507481,28.454935],[77.508592,28.453716],[77.509334,28.454244]]]},"properties":{"objectid":9025,"plotmapid":"OMEGA-INULL1GHS","allot_id":"NA","allotted_p":"Yes","plotsizesq":0,"plot_size":"0","plot_no":"1","sector":"OMEGA-I","block":"NULL","phase":"Phase 1","ppt_type":"GHS","ppt_full":"Group Housing","authority":"GNIDA","category":"group-housing","execution_stage":"allotted"}},{"type":"Feature","geometry":{"type":"Polygon","coordinates":[[[77.514035,28.456732],[77.513305,28.457635],[77.511873,28.456671],[77.512599,28.455816],[77.514035,28.456732]]]},"properties":{"objectid":9026,"plotmapid":"OMEGA-INULLBRS-4GHS","allot_id":"GHS050003","property_t":"Group Housing","allotted_p":"Yes","plotsizesq":20235,"plot_size":"20235","plot_no":"BRS-4","sector":"OMEGA-I","block":"NULL","phase":"Phase 1","ppt_type":"GHS","ppt_full":"Group Housing","authority":"GNIDA","category":"group-housing","execution_stage":"allotted"}},{"type":"Feature","geometry":{"type":"Polygon","coordinates":[[[77.512618,28.453514],[77.513735,28.454249],[77.512645,28.455528],[77.511404,28.454711],[77.511677,28.453427],[77.511839,28.452985],[77.512618,28.453514]]]},"properties":{"objectid":9027,"plotmapid":"OMEGA-INULL14&15GHS","allot_id":"NA","property_t":"Group Housing","allotted_p":"Yes","plotsizesq":0,"plot_size":"0","plot_no":"14&15","sector":"OMEGA-I","block":"NULL","phase":"Phase 1","ppt_type":"GHS","ppt_full":"Group Housing","authority":"GNIDA","category":"group-housing","execution_stage":"allotted"}},{"type":"Feature","geometry":{"type":"Polygon","coordinates":[[[77.517328,28.459156],[77.517085,28.459242],[77.51687,28.459269],[77.516362,28.459263],[77.516401,28.459221],[77.516266,28.459048],[77.516466,28.458776],[77.516787,28.458547],[77.517328,28.459156]]]},"properties":{"objectid":9040,"plotmapid":"OMEGA-INULLGHS","allot_id":"NA","allotted_p":"Yes","plotsizesq":0,"plot_size":"0","plot_no":"Informal","sector":"OMEGA-I","block":"NULL","phase":"Phase 1","ppt_type":"GHS","ppt_full":"Group Housing","authority":"GNIDA","category":"group-housing","execution_stage":"allotted"}},{"type":"Feature","geometry":{"type":"Polygon","coordinates":[[[77.518651,28.457662],[77.51879,28.457814],[77.518814,28.457863],[77.51884,28.45804],[77.518804,28.458325],[77.518756,28.458393],[77.518338,28.458687],[77.517782,28.458867],[77.517328,28.459156],[77.516787,28.458547],[77.518392,28.457403],[77.518651,28.457662]]]},"properties":{"objectid":9042,"plotmapid":"OMEGA-IP-210 INFOMAL SECTORGHS","allot_id":"B-22/A","property_t":"Group Housing","allotted_p":"Yes","plotsizesq":17730,"plot_size":"17730.00","plot_no":"10 INFOMAL SECTOR","sector":"OMEGA-I","block":"P-2","phase":"Phase 1","ppt_type":"GHS","ppt_full":"Group Housing","authority":"GNIDA","category":"group-housing","execution_stage":"allotted"}},{"type":"Feature","geometry":{"type":"Polygon","coordinates":[[[77.518458,28.456586],[77.518303,28.456619],[77.518233,28.456654],[77.518177,28.456722],[77.518145,28.456811],[77.518136,28.456889],[77.518152,28.457001],[77.518263,28.457234],[77.518326,28.457335],[77.518392,28.457403],[77.5182,28.457541],[77.517484,28.456707],[77.5183,28.456151],[77.518682,28.456604],[77.518597,28.45658],[77.518458,28.456586]]]},"properties":{"objectid":9045,"plotmapid":"OMEGA-INULLPLOT FOR INFORMALGHS","allot_id":"NA","allotted_p":"Yes","plotsizesq":0,"plot_size":"0","plot_no":"PLOT FOR INFORMAL","sector":"OMEGA-I","block":"NULL","phase":"Phase 1","mplanduse":"Commercial","ppt_type":"GHS","ppt_full":"Group Housing","authority":"GNIDA","category":"group-housing","execution_stage":"allotted"}},{"type":"Feature","geometry":{"type":"Polygon","coordinates":[[[77.515281,28.452858],[77.515518,28.45302],[77.515772,28.453228],[77.516033,28.453486],[77.516971,28.454589],[77.517501,28.455257],[77.514894,28.457022],[77.512645,28.455528],[77.515043,28.452697],[77.515281,28.452858]]]},"properties":{"objectid":9046,"plotmapid":"OMEGA-INULL10GHS","allot_id":"B-58","property_t":"Group Housing","allotted_p":"Yes","plotsizesq":121410,"plot_size":"121410","plot_no":"10","sector":"OMEGA-I","block":"NULL","phase":"Phase 1","ppt_type":"GHS","ppt_full":"Group Housing","authority":"GNIDA","category":"group-housing","execution_stage":"allotted"}},{"type":"Feature","geometry":{"type":"Polygon","coordinates":[[[77.501532,28.478895],[77.500938,28.478555],[77.500913,28.478407],[77.502412,28.476679],[77.502941,28.476998],[77.501532,28.478895]]]},"properties":{"objectid":22721,"plotmapid":"BETA-01NULLGH-03GHS","allot_id":"B-42","allotted_p":"Yes","plotsizesq":0,"plot_size":"0","plot_no":"GH-03","sector":"BETA-01","block":"NULL","phase":"Phase 1","mplanduse":"Residential","ppt_type":"GHS","ppt_full":"Group Housing","authority":"GNIDA","category":"group-housing","execution_stage":"allotted"}},{"type":"Feature","geometry":{"type":"Polygon","coordinates":[[[77.503807,28.475826],[77.503072,28.476809],[77.502571,28.476508],[77.503398,28.475594],[77.503807,28.475826]]]},"properties":{"objectid":23930,"plotmapid":"BETA-01NULLGH-02GHS","allot_id":"NA","allotted_p":"Yes","plotsizesq":0,"plot_size":"0","plot_no":"GH-02","sector":"BETA-01","block":"NULL","phase":"Phase 1","mplanduse":"Residential","ppt_type":"GHS","ppt_full":"Group Housing","authority":"GNIDA","category":"group-housing","execution_stage":"allotted"}},{"type":"Feature","geometry":{"type":"Polygon","coordinates":[[[77.505828,28.473506],[77.505679,28.473721],[77.505095,28.473379],[77.50525,28.473168],[77.505828,28.473506]]]},"properties":{"objectid":27969,"plotmapid":"ALPHA-01NULLGH-05GHS","allot_id":"B-43/A","property_t":"Group Housing","used":"Residential","allotted_p":"Yes","plotsizesq":2000,"plot_size":"0","plot_no":"GH-05","sector":"ALPHA-01","block":"NULL","phase":"Phase 1","scheme_cod":"B-43/A","ppt_type":"GHS","ppt_full":"Group Housing","authority":"GNIDA","category":"group-housing","execution_stage":"allotted"}},{"type":"Feature","geometry":{"type":"Polygon","coordinates":[[[77.505679,28.473721],[77.505367,28.474169],[77.504769,28.473822],[77.505095,28.473379],[77.505679,28.473721]]]},"properties":{"objectid":27970,"plotmapid":"ALPHA-01NULLGH-06GHS","allot_id":"B-41","property_t":"Group Housing","used":"Residential","allotted_p":"Yes","plotsizesq":4000,"plot_size":"4000","plot_no":"GH-06","sector":"ALPHA-01","block":"NULL","phase":"Phase 1","scheme_cod":"B-41","ppt_type":"GHS","ppt_full":"Group Housing","authority":"GNIDA","category":"group-housing","execution_stage":"allotted"}},{"type":"Feature","geometry":{"type":"Polygon","coordinates":[[[77.50525,28.473168],[77.505578,28.472723],[77.506149,28.473055],[77.505828,28.473506],[77.50525,28.473168]]]},"properties":{"objectid":27971,"plotmapid":"ALPHA-01NULLGH-04GHS","allot_id":"B-32","property_t":"Group Housing","used":"Residential","allotted_p":"Yes","plotsizesq":4200,"plot_size":"0","plot_no":"GH-04","sector":"ALPHA-01","block":"NULL","phase":"Phase 1","scheme_cod":"B-32","ppt_type":"GHS","ppt_full":"Group Housing","authority":"GNIDA","category":"group-housing","execution_stage":"allotted"}},{"type":"Feature","geometry":{"type":"Polygon","coordinates":[[[77.507733,28.470934],[77.506939,28.472003],[77.506357,28.471664],[77.507139,28.470602],[77.507733,28.470934]]]},"properties":{"objectid":28063,"plotmapid":"ALPHA-01NULLGH-02GHS","allot_id":"B-25","property_t":"Group Housing","used":"Residential","allotted_p":"Yes","plotsizesq":10000,"plot_size":"0","plot_no":"GH-02","sector":"ALPHA-01","block":"NULL","phase":"Phase 1","scheme_cod":"B-25","ppt_type":"GHS","ppt_full":"Group Housing","authority":"GNIDA","category":"group-housing","execution_stage":"allotted"}},{"type":"Feature","geometry":{"type":"Polygon","coordinates":[[[77.514572,28.475057],[77.512959,28.477252],[77.512397,28.476921],[77.514006,28.474728],[77.514572,28.475057]]]},"properties":{"objectid":28185,"plotmapid":"ALPHA-01NULLGH-09GHS","allot_id":"B-9","property_t":"Group Housing","used":"Residential","allotted_p":"Yes","plotsizesq":20230,"plot_size":"20230","plot_no":"GH-09","sector":"ALPHA-01","block":"NULL","phase":"Phase 1","scheme_cod":"B-9","ppt_type":"GHS","ppt_full":"Group Housing","authority":"GNIDA","category":"group-housing","execution_stage":"allotted"}},{"type":"Feature","geometry":{"type":"Polygon","coordinates":[[[77.508413,28.469987],[77.507733,28.470934],[77.507139,28.470602],[77.507839,28.469652],[77.508413,28.469987]]]},"properties":{"objectid":28417,"plotmapid":"ALPHA-01NULLGH-01GHS","allot_id":"B-27","property_t":"Group Housing","used":"Residential","allotted_p":"Yes","plotsizesq":8500,"plot_size":"0","plot_no":"GH-01","sector":"ALPHA-01","block":"NULL","phase":"Phase 1","scheme_cod":"B-27","ppt_type":"GHS","ppt_full":"Group Housing","authority":"GNIDA","category":"group-housing","execution_stage":"allotted"}},{"type":"Feature","geometry":{"type":"Polygon","coordinates":[[[77.515436,28.47383],[77.51507,28.47432],[77.514513,28.473994],[77.51488,28.47351],[77.515436,28.47383]]]},"properties":{"objectid":28613,"plotmapid":"ALPHA-01NULLGH-07GHS","allot_id":"B-28","property_t":"Group Housing","used":"Residential","allotted_p":"Yes","plotsizesq":5000,"plot_size":"5000","plot_no":"GH-07","sector":"ALPHA-01","block":"NULL","phase":"Phase 1","scheme_cod":"B-28","ppt_type":"GHS","ppt_full":"Group Housing","authority":"GNIDA","category":"group-housing","execution_stage":"allotted"}},{"type":"Feature","geometry":{"type":"Polygon","coordinates":[[[77.562241,28.450061],[77.561281,28.451349],[77.559831,28.450516],[77.560611,28.449468],[77.562241,28.450061]]]},"properties":{"objectid":30787,"plotmapid":"SIGMA-04NULL75GHS","allot_id":"GHS070002","property_t":"Group Housing","allotted_p":"Yes","plotsizesq":26539.28,"plot_size":"26539.28","plot_no":"75","sector":"SIGMA-04","block":"NULL","phase":"Phase 1","scheme_cod":"GHS070002","mplanduse":"Residential","ppt_type":"GHS","ppt_full":"Group Housing","authority":"GNIDA","category":"group-housing","execution_stage":"allotted"}},{"type":"Feature","geometry":{"type":"Polygon","coordinates":[[[77.560307,28.449347],[77.559544,28.450364],[77.558323,28.44966],[77.558933,28.448847],[77.560307,28.449347]]]},"properties":{"objectid":30788,"plotmapid":"SIGMA-04NULL74GHS","allot_id":"GHS070001","property_t":"Group Housing","allotted_p":"Yes","plotsizesq":17500,"plot_size":"17500","plot_no":"74","sector":"SIGMA-04","block":"NULL","phase":"Phase 1","scheme_cod":"GHS070001","mplanduse":"Residential","ppt_type":"GHS","ppt_full":"Group Housing","authority":"GNIDA","category":"group-housing","execution_stage":"allotted"}},{"type":"Feature","geometry":{"type":"Polygon","coordinates":[[[77.558933,28.448847],[77.558323,28.44966],[77.556678,28.448707],[77.557075,28.448173],[77.558933,28.448847]]]},"properties":{"objectid":30790,"plotmapid":"SIGMA-04NULL73GHS","allot_id":"GHS070004","property_t":"Group Housing","allotted_p":"Yes","plotsizesq":17500,"plot_size":"17500","plot_no":"73","sector":"SIGMA-04","block":"NULL","phase":"Phase 1","scheme_cod":"GHS070004","mplanduse":"Residential","ppt_type":"GHS","ppt_full":"Group Housing","authority":"GNIDA","category":"group-housing","execution_stage":"allotted"}},{"type":"Feature","geometry":{"type":"Polygon","coordinates":[[[77.561281,28.451349],[77.560411,28.452516],[77.558965,28.451687],[77.559831,28.450516],[77.561281,28.451349]]]},"properties":{"objectid":30805,"plotmapid":"SIGMA-04NULL76GHS","allot_id":"GHS070005","property_t":"Group Housing","allotted_p":"Yes","plotsizesq":26560.68,"plot_size":"26560.68","plot_no":"76","sector":"SIGMA-04","block":"NULL","phase":"Phase 1","scheme_cod":"GHS070005","mplanduse":"Residential","ppt_type":"GHS","ppt_full":"Group Housing","authority":"GNIDA","category":"group-housing","execution_stage":"allotted"}},{"type":"Feature","geometry":{"type":"Polygon","coordinates":[[[77.551135,28.476983],[77.55278,28.477943],[77.552071,28.478893],[77.551145,28.478352],[77.551007,28.477297],[77.550928,28.476862],[77.551135,28.476983]]]},"properties":{"objectid":32671,"plotmapid":"OMICRON-03NULL7AGHS","allot_id":"GHS1020001","property_t":"Group Housing","plotsizesq":20365,"plot_size":"20365","plot_no":"7A","sector":"OMICRON-03","block":"NULL","phase":"Phase 1","scheme_cod":"GHS1020001","ppt_type":"GHS","ppt_full":"Group Housing","authority":"GNIDA","category":"group-housing","execution_stage":"unknown"}},{"type":"Feature","geometry":{"type":"Polygon","coordinates":[[[77.552071,28.478893],[77.55129,28.479939],[77.550981,28.479758],[77.551117,28.479235],[77.551157,28.478936],[77.551168,28.478665],[77.551145,28.478352],[77.552071,28.478893]]]},"properties":{"objectid":33640,"plotmapid":"OMICRON-03NULLGH06GHS","allot_id":"GHS00010","property_t":"Group Housing","plotsizesq":20365,"plot_size":"20365","plot_no":"GH06","sector":"OMICRON-03","block":"NULL","phase":"Phase 1","scheme_cod":"GHS00010","ppt_type":"GHS","ppt_full":"Group Housing","authority":"GNIDA","category":"group-housing","execution_stage":"unknown"}},{"type":"Feature","geometry":{"type":"Polygon","coordinates":[[[77.514279,28.485254],[77.514021,28.4856],[77.513217,28.485127],[77.513474,28.484791],[77.514279,28.485254]]]},"properties":{"objectid":36530,"plotmapid":"BETA-02NULLGH-03GHS","allot_id":"NA","allotted_p":"Yes","plotsizesq":0,"plot_size":"0","plot_no":"GH-03","sector":"BETA-02","block":"NULL","phase":"Phase 1","mplanduse":"Residential","ppt_type":"GHS","ppt_full":"Group Housing","authority":"GNIDA","category":"group-housing","execution_stage":"allotted"}},{"type":"Feature","geometry":{"type":"Polygon","coordinates":[[[77.511382,28.483787],[77.511096,28.484164],[77.511247,28.48425],[77.511047,28.48449],[77.510726,28.484656],[77.510476,28.484982],[77.5102,28.484819],[77.511154,28.483528],[77.511382,28.483787]]]},"properties":{"objectid":37728,"plotmapid":"BETA-02NULLGH-02GHS","allot_id":"NA","property_t":"Group Housing","allotted_p":"Yes","plotsizesq":0,"plot_size":"0","plot_no":"GH-02","sector":"BETA-02","block":"NULL","phase":"Phase 1","mplanduse":"Residential","ppt_type":"GHS","ppt_full":"Group Housing","authority":"GNIDA","category":"group-housing","execution_stage":"allotted"}},{"type":"Feature","geometry":{"type":"Polygon","coordinates":[[[77.514078,28.476703],[77.514408,28.476269],[77.51501,28.476617],[77.514677,28.47705],[77.514078,28.476703]]]},"properties":{"objectid":49764,"plotmapid":"ALPHA-02NULLGH-04GHS","allot_id":"B-38","property_t":"Group Housing","allotted_p":"Yes","plotsizesq":4000,"plot_size":"4000","plot_no":"GH-04","sector":"ALPHA-02","block":"NULL","phase":"Phase 1","scheme_cod":"B-38","ppt_type":"GHS","ppt_full":"Group Housing","authority":"GNIDA","category":"group-housing","execution_stage":"allotted"}},{"type":"Feature","geometry":{"type":"Polygon","coordinates":[[[77.516024,28.474084],[77.516629,28.474429],[77.515821,28.47552],[77.51522,28.475163],[77.516024,28.474084]]]},"properties":{"objectid":50456,"plotmapid":"ALPHA-02NULLGH-01GHS","allot_id":"B-36","property_t":"Group Housing","allotted_p":"Yes","plotsizesq":10000,"plot_size":"10000","plot_no":"GH-01","sector":"ALPHA-02","block":"NULL","phase":"Phase 1","scheme_cod":"B-36","mplanduse":"Residential","ppt_type":"GHS","ppt_full":"Group Housing","authority":"GNIDA","category":"group-housing","execution_stage":"allotted"}},{"type":"Feature","geometry":{"type":"Polygon","coordinates":[[[77.514735,28.475813],[77.515336,28.476158],[77.5151,28.476475],[77.514499,28.47613],[77.514735,28.475813]]]},"properties":{"objectid":50463,"plotmapid":"ALPHA-02NULLGH-03GHS","allot_id":"B-53","property_t":"Group Housing","allotted_p":"Yes","plotsizesq":3000,"plot_size":"3000","plot_no":"GH-03","sector":"ALPHA-02","block":"NULL","phase":"Phase 1","scheme_cod":"B-53","ppt_type":"GHS","ppt_full":"Group Housing","authority":"GNIDA","category":"group-housing","execution_stage":"allotted"}},{"type":"Feature","geometry":{"type":"Polygon","coordinates":[[[77.513149,28.44401],[77.512012,28.450525],[77.511106,28.450262],[77.510296,28.450098],[77.509757,28.450046],[77.508455,28.450093],[77.507451,28.446883],[77.507184,28.44592],[77.506992,28.445356],[77.506973,28.445147],[77.506912,28.443336],[77.506857,28.442537],[77.507004,28.442532],[77.509513,28.442724],[77.50942,28.443321],[77.513149,28.44401]]]},"properties":{"objectid":59746,"plotmapid":"CHI-IINULLP-5GHS","allot_id":"NA","allotted_p":"Yes","plotsizesq":0,"plot_size":"0","plot_no":"P-5","sector":"CHI-II","block":"NULL","phase":"Phase 1","ppt_type":"GHS","ppt_full":"Group Housing","authority":"GNIDA","category":"group-housing","execution_stage":"allotted"}},{"type":"Feature","geometry":{"type":"Polygon","coordinates":[[[77.50253,28.449763],[77.503108,28.449195],[77.503598,28.448763],[77.50429,28.448195],[77.504774,28.447845],[77.505235,28.447549],[77.506097,28.447075],[77.506483,28.446892],[77.506975,28.446689],[77.508125,28.450428],[77.5075,28.450606],[77.50722,28.450707],[77.507032,28.450787],[77.506627,28.451005],[77.506277,28.451288],[77.505592,28.452005],[77.50253,28.449763]]]},"properties":{"objectid":59747,"plotmapid":"CHI-INULL1GHS","allot_id":"NA","allotted_p":"Yes","plotsizesq":0,"plot_size":"0","plot_no":"1","sector":"CHI-I","block":"NULL","phase":"Phase 1","ppt_type":"GHS","ppt_full":"Group Housing","authority":"GNIDA","category":"group-housing","execution_stage":"allotted"}},{"type":"Feature","geometry":{"type":"Polygon","coordinates":[[[77.538081,28.476776],[77.537323,28.477807],[77.536332,28.477237],[77.537067,28.476184],[77.538081,28.476776]]]},"properties":{"objectid":59756,"plotmapid":"PI-1&2NULL9GHS","allot_id":"NA","allotted_p":"Yes","plotsizesq":0,"plot_size":"16200 sq.m","plot_no":"9","sector":"PI-1&2","block":"NULL","phase":"Phase-1","ppt_type":"GHS","ppt_full":"Group Housing","authority":"GNIDA","category":"group-housing","execution_stage":"allotted"}},{"type":"Feature","geometry":{"type":"Polygon","coordinates":[[[77.536069,28.475613],[77.537067,28.476184],[77.536332,28.477237],[77.535303,28.476648],[77.536069,28.475613]]]},"properties":{"objectid":59757,"plotmapid":"PI-1&2NULL4GHS","allot_id":"NA","allotted_p":"Yes","plotsizesq":0,"plot_size":"16200 sq.m","plot_no":"4","sector":"PI-1&2","block":"NULL","phase":"Phase-1","ppt_type":"GHS","ppt_full":"Group Housing","authority":"GNIDA","category":"group-housing","execution_stage":"allotted"}},{"type":"Feature","geometry":{"type":"Polygon","coordinates":[[[77.537323,28.477807],[77.536868,28.478426],[77.535874,28.477856],[77.536332,28.477237],[77.537323,28.477807]]]},"properties":{"objectid":59781,"plotmapid":"PI-1&2NULL08GHS","allot_id":"NA","allotted_p":"Yes","plotsizesq":0,"plot_size":"10000 sq.m","plot_no":"08","sector":"PI-1&2","block":"NULL","phase":"Phase-1","ppt_type":"GHS","ppt_full":"Group Housing","authority":"GNIDA","category":"group-housing","execution_stage":"allotted"}},{"type":"Feature","geometry":{"type":"Polygon","coordinates":[[[77.535303,28.476648],[77.536332,28.477237],[77.535874,28.477856],[77.534849,28.477262],[77.535303,28.476648]]]},"properties":{"objectid":59784,"plotmapid":"PI-1&2NULL5GHS","allot_id":"NA","allotted_p":"Yes","plotsizesq":0,"plot_size":"10000 sq.m","plot_no":"5","sector":"PI-1&2","block":"NULL","phase":"Phase-1","ppt_type":"GHS","ppt_full":"Group Housing","authority":"GNIDA","category":"group-housing","execution_stage":"allotted"}},{"type":"Feature","geometry":{"type":"Polygon","coordinates":[[[77.535401,28.478474],[77.535874,28.477856],[77.536868,28.478426],[77.536402,28.479054],[77.535401,28.478474]]]},"properties":{"objectid":59785,"plotmapid":"PI-1&2NULL7GHS","allot_id":"NA","allotted_p":"Yes","plotsizesq":0,"plot_size":"10000 sq.m","plot_no":"7","sector":"PI-1&2","block":"NULL","phase":"Phase-1","ppt_type":"GHS","ppt_full":"Group Housing","authority":"GNIDA","category":"group-housing","execution_stage":"allotted"}},{"type":"Feature","geometry":{"type":"Polygon","coordinates":[[[77.539093,28.475406],[77.538218,28.476585],[77.536186,28.475417],[77.537082,28.474252],[77.539093,28.475406]]]},"properties":{"objectid":59786,"plotmapid":"PI-1&2NULL03GHS","allot_id":"NA","allotted_p":"Yes","plotsizesq":0,"plot_size":"8 acre","plot_no":"03","sector":"PI-1&2","block":"NULL","phase":"Phase-1","ppt_type":"GHS","ppt_full":"Group Housing","authority":"GNIDA","category":"group-housing","execution_stage":"allotted"}},{"type":"Feature","geometry":{"type":"Polygon","coordinates":[[[77.539275,28.470766],[77.540032,28.473741],[77.5375,28.473584],[77.537728,28.473241],[77.537817,28.47299],[77.537886,28.472444],[77.53796,28.472134],[77.538047,28.471905],[77.538271,28.471537],[77.538314,28.471505],[77.538898,28.470769],[77.539204,28.470469],[77.539275,28.470766]]]},"properties":{"objectid":59796,"plotmapid":"PI-1&2NULL17GHS","allot_id":"NA","allotted_p":"Yes","plotsizesq":0,"plot_no":"17","sector":"PI-1&2","block":"NULL","phase":"Phase-1","ppt_type":"GHS","ppt_full":"Group Housing","authority":"GNIDA","category":"group-housing","execution_stage":"allotted"}},{"type":"Feature","geometry":{"type":"Polygon","coordinates":[[[77.539323,28.475117],[77.539093,28.475406],[77.537082,28.474252],[77.537394,28.473792],[77.539323,28.475117]]]},"properties":{"objectid":59798,"plotmapid":"PI-1&2NULL1&2GHS","allot_id":"NA","allotted_p":"Yes","plotsizesq":0,"plot_size":"3.88 acre","plot_no":"1&2","sector":"PI-1&2","block":"NULL","phase":"Phase-1","ppt_type":"GHS","ppt_full":"Group Housing","authority":"GNIDA","category":"group-housing","execution_stage":"allotted"}},{"type":"Feature","geometry":{"type":"Polygon","coordinates":[[[77.539155,28.462161],[77.538871,28.462561],[77.538056,28.462112],[77.538364,28.461701],[77.539155,28.462161]]]},"properties":{"objectid":59803,"plotmapid":"PI-1&2CHOROSIA ESTATE02GHS","allot_id":"NA","allotted_p":"Yes","plotsizesq":0,"plot_size":"5000 sq.m","plot_no":"02","sector":"PI-1&2","block":"CHOROSIA ESTATE","phase":"Phase-1","ppt_type":"GHS","ppt_full":"Group Housing","authority":"GNIDA","category":"group-housing","execution_stage":"allotted"}},{"type":"Feature","geometry":{"type":"Polygon","coordinates":[[[77.538221,28.462396],[77.537778,28.462987],[77.537258,28.462681],[77.537689,28.462088],[77.538221,28.462396]]]},"properties":{"objectid":59805,"plotmapid":"PI-1&2CHOROSIA ESTATE04GHS","allot_id":"NA","allotted_p":"Yes","plotsizesq":0,"plot_size":"5000 sq.m","plot_no":"04","sector":"PI-1&2","block":"CHOROSIA ESTATE","phase":"Phase-1","ppt_type":"GHS","ppt_full":"Group Housing","authority":"GNIDA","category":"group-housing","execution_stage":"allotted"}},{"type":"Feature","geometry":{"type":"Polygon","coordinates":[[[77.538774,28.462685],[77.53833,28.463294],[77.537778,28.462987],[77.538221,28.462396],[77.538774,28.462685]]]},"properties":{"objectid":59806,"plotmapid":"PI-1&2CHOROSIA ESTATE03GHS","allot_id":"NA","allotted_p":"Yes","plotsizesq":0,"plot_size":"5000 sq.m","plot_no":"03","sector":"PI-1&2","block":"CHOROSIA ESTATE","phase":"Phase-1","ppt_type":"GHS","ppt_full":"Group Housing","authority":"GNIDA","category":"group-housing","execution_stage":"allotted"}},{"type":"Feature","geometry":{"type":"Polygon","coordinates":[[[77.54684,28.470132],[77.544858,28.472846],[77.54483,28.472246],[77.544778,28.471918],[77.544721,28.471702],[77.54456,28.471282],[77.544391,28.470992],[77.544171,28.470686],[77.544796,28.470317],[77.545494,28.46936],[77.54684,28.470132]]]},"properties":{"objectid":59864,"plotmapid":"PI-1&2ALISTONIA ESTATE2GHS","allot_id":"NA","allotted_p":"Yes","plotsizesq":0,"plot_size":"40818 sq.m","plot_no":"2","sector":"PI-1&2","block":"ALISTONIA ESTATE","phase":"Phase-1","ppt_type":"GHS","ppt_full":"Group Housing","authority":"GNIDA","category":"group-housing","execution_stage":"allotted"}},{"type":"Feature","geometry":{"type":"Polygon","coordinates":[[[77.542369,28.469401],[77.542422,28.469201],[77.542452,28.468904],[77.542426,28.468539],[77.542392,28.468382],[77.542334,28.468231],[77.542201,28.46802],[77.542498,28.467855],[77.542916,28.467562],[77.543042,28.467452],[77.543269,28.467214],[77.543557,28.466839],[77.545544,28.467982],[77.5455,28.46816],[77.545503,28.468288],[77.545534,28.468414],[77.545588,28.468526],[77.544488,28.470047],[77.544414,28.470111],[77.543897,28.470404],[77.543547,28.470101],[77.543155,28.469842],[77.542727,28.469634],[77.542416,28.469522],[77.542369,28.469401]]]},"properties":{"objectid":59882,"plotmapid":"PI-1&2NULLPOCKET-EGHS","allot_id":"NA","allotted_p":"Yes","plotsizesq":0,"plot_size":"7.4 Ha","plot_no":"POCKET-E","sector":"PI-1&2","block":"NULL","phase":"Phase-1","ppt_type":"GHS","ppt_full":"Group Housing","authority":"GNIDA","category":"group-housing","execution_stage":"allotted"}},{"type":"Feature","geometry":{"type":"Polygon","coordinates":[[[77.538364,28.461701],[77.538056,28.462112],[77.537253,28.461643],[77.537554,28.461244],[77.538364,28.461701]]]},"properties":{"objectid":59898,"plotmapid":"PI-1&2CHOROSIA ESTATE01GHS","allot_id":"NA","allotted_p":"Yes","plotsizesq":0,"plot_size":"5000 sq.m","plot_no":"01","sector":"PI-1&2","block":"CHOROSIA ESTATE","phase":"Phase-1","ppt_type":"GHS","ppt_full":"Group Housing","authority":"GNIDA","category":"group-housing","execution_stage":"allotted"}},{"type":"Feature","geometry":{"type":"Polygon","coordinates":[[[77.546798,28.472244],[77.546636,28.472881],[77.546578,28.473458],[77.546318,28.47389],[77.545769,28.473078],[77.545018,28.472634],[77.545743,28.471643],[77.546798,28.472244]]]},"properties":{"objectid":59977,"plotmapid":"PI-1&2ALISTONIA ESTATE4GHS","allot_id":"NA","allotted_p":"Yes","plotsizesq":0,"plot_no":"4","sector":"PI-1&2","block":"ALISTONIA ESTATE","phase":"Phase-1","ppt_type":"GHS","ppt_full":"Group Housing","authority":"GNIDA","category":"group-housing","execution_stage":"allotted"}},{"type":"Feature","geometry":{"type":"Polygon","coordinates":[[[77.54744,28.470865],[77.547063,28.4714],[77.546798,28.472244],[77.545743,28.471643],[77.546644,28.470407],[77.54744,28.470865]]]},"properties":{"objectid":60000,"plotmapid":"PI-1&2ALISTONIA ESTATE3GHS","allot_id":"NA","allotted_p":"Yes","plotsizesq":0,"plot_size":"1.66 Ha","plot_no":"3","sector":"PI-1&2","block":"ALISTONIA ESTATE","phase":"Phase-1","ppt_type":"GHS","ppt_full":"Group Housing","authority":"GNIDA","category":"group-housing","execution_stage":"allotted"}},{"type":"Feature","geometry":{"type":"Polygon","coordinates":[[[77.546716,28.468723],[77.546934,28.468976],[77.54704,28.469127],[77.547246,28.469601],[77.54684,28.470132],[77.545494,28.46936],[77.546044,28.468612],[77.546153,28.468632],[77.546265,28.468629],[77.546424,28.468581],[77.546515,28.468523],[77.546716,28.468723]]]},"properties":{"objectid":60009,"plotmapid":"PI-1&2ALISTONIA ESTATE1GHS","allot_id":"NA","allotted_p":"Yes","plotsizesq":0,"plot_size":"17500 sq.m","plot_no":"1","sector":"PI-1&2","block":"ALISTONIA ESTATE","phase":"Phase-1","ppt_type":"GHS","ppt_full":"Group Housing","authority":"GNIDA","category":"group-housing","execution_stage":"allotted"}},{"type":"Feature","geometry":{"type":"Polygon","coordinates":[[[77.534736,28.466274],[77.533924,28.467278],[77.533353,28.4669],[77.534132,28.465897],[77.534736,28.466274]]]},"properties":{"objectid":60019,"plotmapid":"PI-1&2CHOROSIA ESTATE16GHS","allot_id":"NA","allotted_p":"Yes","plotsizesq":0,"plot_size":"10000 sq.m","plot_no":"16","sector":"PI-1&2","block":"CHOROSIA ESTATE","phase":"Phase-1","ppt_type":"GHS","ppt_full":"Group Housing","authority":"GNIDA","category":"group-housing","execution_stage":"allotted"}},{"type":"Feature","geometry":{"type":"Polygon","coordinates":[[[77.535494,28.466742],[77.534668,28.467752],[77.533924,28.467278],[77.534736,28.466274],[77.535494,28.466742]]]},"properties":{"objectid":60020,"plotmapid":"PI-1&2CHOROSIA ESTATE15GHS","allot_id":"NA","allotted_p":"Yes","plotsizesq":0,"plot_no":"15","sector":"PI-1&2","block":"CHOROSIA ESTATE","phase":"Phase-1","ppt_type":"GHS","ppt_full":"Group Housing","remark":"12500 sq.m","authority":"GNIDA","category":"group-housing","execution_stage":"allotted"}},{"type":"Feature","geometry":{"type":"Polygon","coordinates":[[[77.536199,28.467178],[77.535581,28.468008],[77.535354,28.468179],[77.534668,28.467752],[77.535494,28.466742],[77.536199,28.467178]]]},"properties":{"objectid":60021,"plotmapid":"PI-1&2CHOROSIA ESTATE14GHS","allot_id":"NA","allotted_p":"Yes","plotsizesq":0,"plot_size":"12500 sq.m","plot_no":"14","sector":"PI-1&2","block":"CHOROSIA ESTATE","phase":"Phase-1","ppt_type":"GHS","ppt_full":"Group Housing","authority":"GNIDA","category":"group-housing","execution_stage":"allotted"}},{"type":"Feature","geometry":{"type":"Polygon","coordinates":[[[77.535947,28.463647],[77.536313,28.463914],[77.535593,28.464863],[77.535112,28.464557],[77.535842,28.463563],[77.535947,28.463647]]]},"properties":{"objectid":60032,"plotmapid":"PI-1&2CHOROSIA ESTATE11GHS","allot_id":"NA","allotted_p":"Yes","plotsizesq":0,"plot_size":"7500 sq.m","plot_no":"11","sector":"PI-1&2","block":"CHOROSIA ESTATE","phase":"Phase-1","ppt_type":"GHS","ppt_full":"Group Housing","authority":"GNIDA","category":"group-housing","execution_stage":"allotted"}},{"type":"Feature","geometry":{"type":"Polygon","coordinates":[[[77.537785,28.464053],[77.537511,28.463999],[77.537117,28.463871],[77.537778,28.462987],[77.53833,28.463294],[77.538081,28.463617],[77.537785,28.464053]]]},"properties":{"objectid":60034,"plotmapid":"PI-1&2CHOROSIA ESTATE08GHS","allot_id":"NA","allotted_p":"Yes","plotsizesq":0,"plot_size":"7500 sq.m","plot_no":"08","sector":"PI-1&2","block":"CHOROSIA ESTATE","phase":"Phase-1","ppt_type":"GHS","ppt_full":"Group Housing","authority":"GNIDA","category":"group-housing","execution_stage":"allotted"}},{"type":"Feature","geometry":{"type":"Polygon","coordinates":[[[77.536568,28.463592],[77.536276,28.463364],[77.536101,28.463193],[77.536707,28.462364],[77.537258,28.462681],[77.536568,28.463592]]]},"properties":{"objectid":60035,"plotmapid":"PI-1&2CHOROSIA ESTATE06GHS","allot_id":"NA","allotted_p":"Yes","plotsizesq":0,"plot_size":"7500 sq.m","plot_no":"06","sector":"PI-1&2","block":"CHOROSIA ESTATE","phase":"Phase-1","ppt_type":"GHS","ppt_full":"Group Housing","authority":"GNIDA","category":"group-housing","execution_stage":"allotted"}},{"type":"Feature","geometry":{"type":"Polygon","coordinates":[[[77.537117,28.463871],[77.536776,28.46372],[77.536568,28.463592],[77.537258,28.462681],[77.537778,28.462987],[77.537117,28.463871]]]},"properties":{"objectid":60036,"plotmapid":"PI-1&2CHOROSIA ESTATE07GHS","allot_id":"NA","allotted_p":"Yes","plotsizesq":0,"plot_size":"7500 sq.m","plot_no":"07","sector":"PI-1&2","block":"CHOROSIA ESTATE","phase":"Phase-1","ppt_type":"GHS","ppt_full":"Group Housing","authority":"GNIDA","category":"group-housing","execution_stage":"allotted"}},{"type":"Feature","geometry":{"type":"Polygon","coordinates":[[[77.537129,28.464295],[77.537558,28.46442],[77.537312,28.464763],[77.536965,28.465311],[77.536879,28.465666],[77.536076,28.465174],[77.536859,28.464205],[77.537129,28.464295]]]},"properties":{"objectid":60041,"plotmapid":"PI-1&2CHOROSIA ESTATE09GHS","allot_id":"NA","allotted_p":"Yes","plotsizesq":0,"plot_size":"7500 sq.m","plot_no":"09","sector":"PI-1&2","block":"CHOROSIA ESTATE","phase":"Phase-1","ppt_type":"GHS","ppt_full":"Group Housing","authority":"GNIDA","category":"group-housing","execution_stage":"allotted"}},{"type":"Feature","geometry":{"type":"Polygon","coordinates":[[[77.53644,28.463989],[77.536859,28.464205],[77.536076,28.465174],[77.535593,28.464863],[77.536313,28.463914],[77.53644,28.463989]]]},"properties":{"objectid":60042,"plotmapid":"PI-1&2CHOROSIA ESTATE10GHS","allot_id":"NA","allotted_p":"Yes","plotsizesq":0,"plot_size":"7500 sq.m","plot_no":"10","sector":"PI-1&2","block":"CHOROSIA ESTATE","phase":"Phase-1","ppt_type":"GHS","ppt_full":"Group Housing","authority":"GNIDA","category":"group-housing","execution_stage":"allotted"}},{"type":"Feature","geometry":{"type":"Polygon","coordinates":[[[77.516491,28.448958],[77.516217,28.449388],[77.515317,28.448918],[77.515794,28.448032],[77.516765,28.448527],[77.516491,28.448958]]]},"properties":{"objectid":60326,"plotmapid":"PHI-INULL05GHS","allot_id":"B-62","property_t":"Group Housing","allotted_p":"Yes","plotsizesq":11571.13,"plot_size":"11571.13","plot_no":"05","sector":"PHI-I","block":"NULL","phase":"Phase 1","ppt_type":"GHS","ppt_full":"Group Housing","authority":"GNIDA","category":"group-housing","execution_stage":"allotted"}},{"type":"Feature","geometry":{"type":"Polygon","coordinates":[[[77.516491,28.448958],[77.516765,28.448527],[77.517153,28.448772],[77.516873,28.449146],[77.516491,28.448958]]]},"properties":{"objectid":60328,"plotmapid":"PHI-INULL5A/1GHS","allot_id":"NA","allotted_p":"Yes","plotsizesq":0,"plot_size":"0","plot_no":"5A/1","sector":"PHI-I","block":"NULL","phase":"Phase 1","mplanduse":"V","ppt_type":"GHS","ppt_full":"Group Housing","authority":"GNIDA","category":"group-housing","execution_stage":"allotted"}},{"type":"Feature","geometry":{"type":"Polygon","coordinates":[[[77.516209,28.450019],[77.515941,28.450433],[77.514758,28.449997],[77.515054,28.449424],[77.516209,28.450019]]]},"properties":{"objectid":60334,"plotmapid":"PHI-INULL03GHS","allot_id":"NA","allotted_p":"Yes","plotsizesq":0,"plot_size":"0","plot_no":"03","sector":"PHI-I","block":"NULL","phase":"Phase 1","mplanduse":"Institutional","ppt_type":"GHS","ppt_full":"Group Housing","authority":"GNIDA","category":"group-housing","execution_stage":"allotted"}},{"type":"Feature","geometry":{"type":"Polygon","coordinates":[[[77.522221,28.445592],[77.519205,28.44863],[77.5184,28.448058],[77.518643,28.44782],[77.516943,28.446818],[77.518733,28.443289],[77.520152,28.444047],[77.521188,28.444708],[77.521533,28.444944],[77.522221,28.445592]]]},"properties":{"objectid":60336,"plotmapid":"PHI-INULL07GHS","allot_id":"NA","allotted_p":"Yes","plotsizesq":0,"plot_size":"0","plot_no":"07","sector":"PHI-I","block":"NULL","phase":"Phase 1","ppt_type":"GHS","ppt_full":"Group Housing","authority":"GNIDA","category":"group-housing","execution_stage":"allotted"}},{"type":"Feature","geometry":{"type":"Polygon","coordinates":[[[77.512818,28.449317],[77.514758,28.449997],[77.515941,28.450433],[77.516034,28.45094],[77.515098,28.452051],[77.514415,28.451702],[77.513895,28.45149],[77.51326,28.45126],[77.512537,28.45103],[77.512818,28.449317]]]},"properties":{"objectid":60337,"plotmapid":"PHI-INULL02GHS​​","allot_id":"NA","allotted_p":"Yes","plotsizesq":0,"plot_size":"0","plot_no":"02","sector":"PHI-I","block":"NULL","phase":"Phase 1","ppt_type":"GHS","ppt_full":"Group Housing","authority":"GNIDA","category":"group-housing","execution_stage":"allotted"}},{"type":"Feature","geometry":{"type":"Polygon","coordinates":[[[77.514965,28.447662],[77.515794,28.448032],[77.514758,28.449997],[77.512818,28.449317],[77.513161,28.447237],[77.514965,28.447662]]]},"properties":{"objectid":60338,"plotmapid":"PHI-INULL06GHS","allot_id":"B-64","property_t":"Group Housing","allotted_p":"Yes","plotsizesq":60705,"plot_size":"60705.00","plot_no":"06","sector":"PHI-I","block":"NULL","phase":"Phase 1","ppt_type":"GHS","ppt_full":"Group Housing","authority":"GNIDA","category":"group-housing","execution_stage":"allotted"}},{"type":"Feature","geometry":{"type":"Polygon","coordinates":[[[77.516217,28.449388],[77.516557,28.449566],[77.516209,28.450019],[77.515054,28.449424],[77.515317,28.448918],[77.516217,28.449388]]]},"properties":{"objectid":60342,"plotmapid":"PHI-INULL04GHS","allot_id":"NA","allotted_p":"Yes","plotsizesq":0,"plot_size":"0","plot_no":"04","sector":"PHI-I","block":"NULL","phase":"Phase 1","mplanduse":"Residential","ppt_type":"GHS","ppt_full":"Group Housing","authority":"GNIDA","category":"group-housing","execution_stage":"allotted"}},{"type":"Feature","geometry":{"type":"Polygon","coordinates":[[[77.515473,28.443513],[77.513844,28.4433],[77.51417,28.441338],[77.51574,28.441908],[77.515473,28.443513]]]},"properties":{"objectid":60355,"plotmapid":"PHI-INULL10GHS","allot_id":"B-34","property_t":"Group Housing","allotted_p":"Yes","plotsizesq":31598.07,"plot_size":"31598.07","plot_no":"10","sector":"PHI-I","block":"NULL","phase":"Phase 1","ppt_type":"GHS","ppt_full":"Group Housing","authority":"GNIDA","category":"group-housing","execution_stage":"allotted"}},{"type":"Feature","geometry":{"type":"Polygon","coordinates":[[[77.516943,28.446818],[77.51634,28.447919],[77.515433,28.44748],[77.515198,28.447394],[77.514106,28.447117],[77.513247,28.446943],[77.513625,28.44461],[77.516723,28.445032],[77.517767,28.445194],[77.516943,28.446818]]]},"properties":{"objectid":60526,"plotmapid":"PHI-INULL8GHS","allot_id":"B-45","property_t":"Group Housing","allotted_p":"Yes","plotsizesq":109269,"plot_size":"109269.00","plot_no":"8","sector":"PHI-I","block":"NULL","phase":"Phase 1","ppt_type":"GHS","ppt_full":"Group Housing","authority":"GNIDA","category":"group-housing","execution_stage":"allotted"}},{"type":"Feature","geometry":{"type":"Polygon","coordinates":[[[77.515247,28.444835],[77.513625,28.44461],[77.513844,28.4433],[77.515473,28.443513],[77.515247,28.444835]]]},"properties":{"objectid":60547,"plotmapid":"PHI-INULLP-11GHS","allot_id":"GHS030001","property_t":"Group Housing","allotted_p":"Yes","plotsizesq":24282,"plot_size":"24282.00","plot_no":"P-11","sector":"PHI-I","block":"NULL","phase":"Phase 1","ppt_type":"GHS","ppt_full":"Group Housing","authority":"GNIDA","category":"group-housing","execution_stage":"allotted"}},{"type":"Feature","geometry":{"type":"Polygon","coordinates":[[[77.516873,28.449146],[77.516557,28.449566],[77.516217,28.449388],[77.516491,28.448958],[77.516873,28.449146]]]},"properties":{"objectid":60556,"plotmapid":"PHI-INULL5A/2GHS","allot_id":"NA","allotted_p":"Yes","plotsizesq":0,"plot_size":"0","plot_no":"5A/2","sector":"PHI-I","block":"NULL","phase":"Phase 1","ppt_type":"GHS","ppt_full":"Group Housing","authority":"GNIDA","category":"group-housing","execution_stage":"allotted"}},{"type":"Feature","geometry":{"type":"Polygon","coordinates":[[[77.520269,28.45594],[77.520196,28.456183],[77.520071,28.456322],[77.519654,28.456539],[77.519546,28.456572],[77.519093,28.456018],[77.519603,28.455595],[77.520269,28.45594]]]},"properties":{"objectid":60617,"plotmapid":"PHI-IINULL2GHS","allot_id":"B-51A","property_t":"Group Housing","allotted_p":"Yes","plotsizesq":6284.35,"plot_size":"6284.35","plot_no":"2","sector":"PHI-II","block":"NULL","phase":"Phase 1","mplanduse":"Commercial","ppt_type":"GHS","ppt_full":"Group Housing","authority":"GNIDA","category":"group-housing","execution_stage":"allotted"}},{"type":"Feature","geometry":{"type":"Polygon","coordinates":[[[77.521588,28.453135],[77.521849,28.452914],[77.52213,28.453231],[77.521848,28.453427],[77.521588,28.453135]]]},"properties":{"objectid":62078,"plotmapid":"PHI-IIP-74BGHS","allot_id":"NA","allotted_p":"Yes","plotsizesq":0,"plot_size":"0","plot_no":"4B","sector":"PHI-II","block":"P-7","phase":"Phase 1","mplanduse":"Commercial","ppt_type":"GHS","ppt_full":"Group Housing","authority":"GNIDA","category":"group-housing","execution_stage":"allotted"}},{"type":"Feature","geometry":{"type":"Polygon","coordinates":[[[77.521209,28.453454],[77.521384,28.453307],[77.521629,28.453584],[77.521432,28.453705],[77.521209,28.453454]]]},"properties":{"objectid":62079,"plotmapid":"PHI-IINULL4GHS","allot_id":"NA","allotted_p":"Yes","plotsizesq":0,"plot_size":"0","plot_no":"4","sector":"PHI-II","block":"NULL","phase":"Phase 1","mplanduse":"Commercial","ppt_type":"GHS","ppt_full":"Group Housing","authority":"GNIDA","category":"group-housing","execution_stage":"allotted"}},{"type":"Feature","geometry":{"type":"Polygon","coordinates":[[[77.522914,28.45287],[77.522436,28.453072],[77.521892,28.452459],[77.522296,28.452131],[77.522914,28.45287]]]},"properties":{"objectid":62095,"plotmapid":"PHI-IINULL5GHS","allot_id":"NA","allotted_p":"Yes","plotsizesq":0,"plot_size":"0","plot_no":"5","sector":"PHI-II","block":"NULL","phase":"Phase 1","mplanduse":"Commercial","ppt_type":"GHS","ppt_full":"Group Housing","authority":"GNIDA","category":"group-housing","execution_stage":"allotted"}},{"type":"Feature","geometry":{"type":"Polygon","coordinates":[[[77.522296,28.452131],[77.522584,28.451894],[77.523147,28.452591],[77.523058,28.452757],[77.522981,28.452835],[77.522914,28.45287],[77.522296,28.452131]]]},"properties":{"objectid":62096,"plotmapid":"PHI-IINULL6GHS","allot_id":"NA","allotted_p":"Yes","plotsizesq":0,"plot_size":"0","plot_no":"6","sector":"PHI-II","block":"NULL","phase":"Phase 1","mplanduse":"Commercial","ppt_type":"GHS","ppt_full":"Group Housing","authority":"GNIDA","category":"group-housing","execution_stage":"allotted"}},{"type":"Feature","geometry":{"type":"Polygon","coordinates":[[[77.523377,28.452259],[77.523284,28.452348],[77.523147,28.452591],[77.522584,28.451894],[77.522864,28.451665],[77.523377,28.452259]]]},"properties":{"objectid":62097,"plotmapid":"PHI-IINULL7GHS","allot_id":"B-64A","property_t":"Group Housing","allotted_p":"Yes","plotsizesq":2686.53,"plot_size":"2686.53","plot_no":"7","sector":"PHI-II","block":"NULL","phase":"Phase 1","mplanduse":"Commercial","ppt_type":"GHS","ppt_full":"Group Housing","authority":"GNIDA","category":"group-housing","execution_stage":"allotted"}},{"type":"Feature","geometry":{"type":"Polygon","coordinates":[[[77.523833,28.452172],[77.523502,28.452191],[77.523447,28.452209],[77.523377,28.452259],[77.522864,28.451665],[77.523172,28.45141],[77.523833,28.452172]]]},"properties":{"objectid":62098,"plotmapid":"PHI-IINULL8GHS","allot_id":"NA","allotted_p":"Yes","plotsizesq":0,"plot_size":"0","plot_no":"8","sector":"PHI-II","block":"NULL","phase":"Phase 1","mplanduse":"Commercial","ppt_type":"GHS","ppt_full":"Group Housing","authority":"GNIDA","category":"group-housing","execution_stage":"allotted"}},{"type":"Feature","geometry":{"type":"Polygon","coordinates":[[[77.523736,28.450941],[77.524306,28.450489],[77.524403,28.450589],[77.524312,28.45069],[77.524219,28.450898],[77.524155,28.451203],[77.524157,28.451453],[77.523736,28.450941]]]},"properties":{"objectid":62100,"plotmapid":"PHI-IINULL9AGHS","allot_id":"NA","allotted_p":"Yes","plotsizesq":0,"plot_size":"0","plot_no":"9A","sector":"PHI-II","block":"NULL","phase":"Phase 1","mplanduse":"Commercial","ppt_type":"GHS","ppt_full":"Group Housing","authority":"GNIDA","category":"group-housing","execution_stage":"allotted"}},{"type":"Feature","geometry":{"type":"Polygon","coordinates":[[[77.520437,28.455467],[77.520421,28.45552],[77.520296,28.455702],[77.520269,28.45594],[77.519603,28.455595],[77.519251,28.455105],[77.519621,28.454793],[77.520437,28.455467]]]},"properties":{"objectid":70574,"plotmapid":"PHI-IINULL3GHS","allot_id":"NA","allotted_p":"Yes","plotsizesq":0,"plot_size":"0","plot_no":"3","sector":"PHI-II","block":"NULL","phase":"Phase 1","mplanduse":"Commercial","ppt_type":"GHS","ppt_full":"Group Housing","authority":"GNIDA","category":"group-housing","execution_stage":"allotted"}},{"type":"Feature","geometry":{"type":"Polygon","coordinates":[[[77.518346,28.439736],[77.517441,28.441587],[77.515926,28.441034],[77.516844,28.439187],[77.518346,28.439736]]]},"properties":{"objectid":70587,"plotmapid":"CHI-03NULLGH-04GHS","plotsizesq":36307.8085938,"plot_size":"36307.8085938 SQMT","plot_no":"GH-04","sector":"CHI-03","block":"NULL","phase":"Phase 1","mplanduse":"Residential","ppt_type":"GHS","ppt_full":"Group Housing","authority":"GNIDA","category":"group-housing","execution_stage":"unknown"}},{"type":"Feature","geometry":{"type":"Polygon","coordinates":[[[77.524157,28.451453],[77.524168,28.451523],[77.524157,28.451656],[77.524123,28.451795],[77.524121,28.451864],[77.524076,28.452001],[77.523964,28.45212],[77.523833,28.452172],[77.523172,28.45141],[77.523736,28.450941],[77.524157,28.451453]]]},"properties":{"objectid":70588,"plotmapid":"PHI-IINULL9GHS","allot_id":"NA","allotted_p":"Yes","plotsizesq":0,"plot_size":"0","plot_no":"9","sector":"PHI-II","block":"NULL","phase":"Phase 1","mplanduse":"Commercial","ppt_type":"GHS","ppt_full":"Group Housing","authority":"GNIDA","category":"group-housing","execution_stage":"allotted"}},{"type":"Feature","geometry":{"type":"Polygon","coordinates":[[[77.541991,28.503272],[77.539582,28.504412],[77.538433,28.503543],[77.537521,28.502935],[77.538628,28.501432],[77.541991,28.503272]]]},"properties":{"objectid":70589,"plotmapid":"ETA-02NULLGH-05 (ENCROACHMENT-UNDER CONSTRUCTION)GHS","allot_id":"NA","plotsizesq":0,"plot_size":"0","plot_no":"GH-05 (ENCROACHMENT-UNDER CONSTRUCTION)","sector":"ETA-02","block":"NULL","phase":"Phase 1","scheme_cod":"NA","ppt_type":"GHS","ppt_full":"Group Housing","authority":"GNIDA","category":"group-housing","execution_stage":"unknown"}},{"type":"Feature","geometry":{"type":"Polygon","coordinates":[[[77.545389,28.500306],[77.544416,28.501153],[77.541695,28.499599],[77.543343,28.49736],[77.546247,28.499018],[77.545389,28.500306]]]},"properties":{"objectid":70590,"plotmapid":"ETA-02NULLGH-02 (ENCROACHMENT-UNDER CONSTRUCTION)GHS","allot_id":"NA","plotsizesq":0,"plot_size":"0","plot_no":"GH-02 (ENCROACHMENT-UNDER CONSTRUCTION)","sector":"ETA-02","block":"NULL","phase":"Phase 1","scheme_cod":"NA","ppt_type":"GHS","ppt_full":"Group Housing","authority":"GNIDA","category":"group-housing","execution_stage":"unknown"}},{"type":"Feature","geometry":{"type":"Polygon","coordinates":[[[77.541101,28.500598],[77.543473,28.501953],[77.542339,28.502963],[77.538896,28.501068],[77.539792,28.499851],[77.541101,28.500598]]]},"properties":{"objectid":70591,"plotmapid":"ETA-02NULLGH-04 (ENCROACHMENT-UNDER CONSTRUCTION)GHS","allot_id":"NA","plotsizesq":0,"plot_size":"0","plot_no":"GH-04 (ENCROACHMENT-UNDER CONSTRUCTION)","sector":"ETA-02","block":"NULL","phase":"Phase 1","scheme_cod":"NA","ppt_type":"GHS","ppt_full":"Group Housing","authority":"GNIDA","category":"group-housing","execution_stage":"unknown"}},{"type":"Feature","geometry":{"type":"Polygon","coordinates":[[[77.522436,28.453072],[77.52213,28.453231],[77.521849,28.452914],[77.522105,28.452699],[77.522436,28.453072]]]},"properties":{"objectid":70592,"plotmapid":"PHI-IINULL4CGHS","allot_id":"NA","allotted_p":"Yes","plotsizesq":0,"plot_size":"0","plot_no":"4C","sector":"PHI-II","block":"NULL","phase":"Phase 1","mplanduse":"Commercial","ppt_type":"GHS","ppt_full":"Group Housing","authority":"GNIDA","category":"group-housing","execution_stage":"allotted"}},{"type":"Feature","geometry":{"type":"Polygon","coordinates":[[[77.521384,28.453307],[77.521588,28.453135],[77.521848,28.453427],[77.521629,28.453584],[77.521384,28.453307]]]},"properties":{"objectid":70593,"plotmapid":"PHI-IINULL4AGHS","allot_id":"NA","allotted_p":"Yes","plotsizesq":0,"plot_size":"0","plot_no":"4A","sector":"PHI-II","block":"NULL","phase":"Phase 1","mplanduse":"Commercial","ppt_type":"GHS","ppt_full":"Group Housing","authority":"GNIDA","category":"group-housing","execution_stage":"allotted"}},{"type":"Feature","geometry":{"type":"Polygon","coordinates":[[[77.519603,28.455595],[77.519093,28.456018],[77.518715,28.455556],[77.519251,28.455105],[77.519603,28.455595]]]},"properties":{"objectid":70594,"plotmapid":"PHI-IINULL1GHS","allot_id":"NA","allotted_p":"Yes","plotsizesq":0,"plot_size":"0","plot_no":"1","sector":"PHI-II","block":"NULL","phase":"Phase 1","mplanduse":"Commercial","ppt_type":"GHS","ppt_full":"Group Housing","authority":"GNIDA","category":"group-housing","execution_stage":"allotted"}}]}
