{"type":"FeatureCollection","features":[{"type":"Feature","geometry":{"type":"Polygon","coordinates":[[[77.417026,28.525045],[77.416242,28.525822],[77.415562,28.52541],[77.416374,28.524968],[77.416639,28.524706],[77.417026,28.525045]]]},"properties":{"objectid":60507,"plotmapid":"87ACOMM","used":"COMM.","plotsizesq":0,"sector":"87","block":"A","mplanduse":"ISSUE","ppt_type":"COMM","ppt_full":"Commercial","authority":"NOIDA","category":"commercial","execution_stage":"unknown"}},{"type":"Feature","geometry":{"type":"Polygon","coordinates":[[[77.42124,28.537877],[77.421047,28.536495],[77.421608,28.536464],[77.421638,28.536477],[77.422176,28.536459],[77.42124,28.537877]]]},"properties":{"objectid":60846,"plotmapid":"PHASE-IIC062COMM","plotsizesq":0,"plot_size":"13132 SQM.","plot_no":"062","sector":"PHASE-II","block":"C","mplanduse":"V","ppt_type":"COMM","ppt_full":"Commercial","authority":"NOIDA","category":"commercial","execution_stage":"unknown"}},{"type":"Feature","geometry":{"type":"Polygon","coordinates":[[[77.42124,28.537877],[77.421117,28.538061],[77.421051,28.536526],[77.42124,28.537877]]]},"properties":{"objectid":60847,"plotmapid":"PHASE-IIA001COMM","plotsizesq":0,"plot_no":"001","sector":"PHASE-II","block":"A","mplanduse":"V","ppt_type":"COMM","ppt_full":"Commercial","authority":"NOIDA","category":"commercial","execution_stage":"unknown"}},{"type":"Feature","geometry":{"type":"Polygon","coordinates":[[[77.420868,28.537293],[77.420974,28.536498],[77.421047,28.536495],[77.421117,28.538061],[77.420953,28.538312],[77.420667,28.538224],[77.420741,28.538022],[77.420868,28.537293]]]},"properties":{"objectid":60857,"plotmapid":"PHASE-IINACOMM","plotsizesq":0,"sector":"PHASE-II","block":"NA","mplanduse":"V","ppt_type":"COMM","ppt_full":"Commercial","authority":"NOIDA","category":"commercial","execution_stage":"unknown"}},{"type":"Feature","geometry":{"type":"Polygon","coordinates":[[[77.412587,28.540025],[77.412703,28.53913],[77.413514,28.539189],[77.413393,28.540099],[77.412587,28.540025]]]},"properties":{"objectid":60858,"plotmapid":"PHASE-IINACOMM","plotsizesq":0,"sector":"PHASE-II","block":"NA","mplanduse":"B","ppt_type":"COMM","ppt_full":"Commercial","authority":"NOIDA","category":"commercial","execution_stage":"unknown"}},{"type":"Feature","geometry":{"type":"Polygon","coordinates":[[[77.41319,28.5417],[77.413162,28.54192],[77.412897,28.541893],[77.412925,28.541675],[77.41319,28.5417]]]},"properties":{"objectid":60860,"plotmapid":"PHASE-IINACOMM","plotsizesq":0,"sector":"PHASE-II","block":"NA","mplanduse":"V","ppt_type":"COMM","ppt_full":"Commercial","authority":"NOIDA","category":"commercial","execution_stage":"unknown"}},{"type":"Feature","geometry":{"type":"Polygon","coordinates":[[[77.408519,28.537093],[77.408472,28.53748],[77.407758,28.537394],[77.407773,28.537029],[77.408519,28.537093]]]},"properties":{"objectid":60862,"plotmapid":"PHASE-IINACOMM","property_t":"SITEOFFICE","plotsizesq":0,"sector":"PHASE-II","block":"NA","mplanduse":"V","ppt_type":"COMM","ppt_full":"Commercial","authority":"NOIDA","category":"commercial","execution_stage":"unknown"}},{"type":"Feature","geometry":{"type":"Polygon","coordinates":[[[77.408602,28.537278],[77.408579,28.537494],[77.408472,28.53748],[77.408497,28.53727],[77.408602,28.537278]]]},"properties":{"objectid":60863,"plotmapid":"PHASE-IINACOMM","property_t":"ProposedDhaba","plotsizesq":0,"sector":"PHASE-II","block":"NA","mplanduse":"B","ppt_type":"COMM","ppt_full":"Commercial","authority":"NOIDA","category":"commercial","execution_stage":"unknown"}},{"type":"Feature","geometry":{"type":"Polygon","coordinates":[[[77.412902,28.541855],[77.412897,28.541893],[77.411111,28.541712],[77.411305,28.540337],[77.413345,28.5405],[77.41319,28.5417],[77.412925,28.541675],[77.412902,28.541855]]]},"properties":{"objectid":61004,"plotmapid":"PHASE-IIB187COMM","plotsizesq":0,"plot_size":"30000 SQM.","plot_no":"187","sector":"PHASE-II","block":"B","mplanduse":"B","ppt_type":"COMM","ppt_full":"Commercial","authority":"NOIDA","category":"commercial","execution_stage":"unknown"}},{"type":"Feature","geometry":{"type":"Polygon","coordinates":[[[77.404716,28.558014],[77.405362,28.557782],[77.405644,28.557704],[77.405573,28.558109],[77.404716,28.558014]]]},"properties":{"objectid":61282,"plotmapid":"80D220COMM","property_t":"Commercial","used":"COMM.","plotsizesq":0,"plot_size":"NA","plot_no":"220","sector":"80","block":"D","mplanduse":"V","ppt_type":"COMM","ppt_full":"Commercial","authority":"NOIDA","category":"commercial","execution_stage":"unknown"}},{"type":"Feature","geometry":{"type":"Polygon","coordinates":[[[77.410006,28.559602],[77.411006,28.559708],[77.411029,28.559796],[77.410831,28.559869],[77.410683,28.559891],[77.409975,28.559812],[77.410006,28.559602]]]},"properties":{"objectid":61329,"plotmapid":"80D057COMM","property_t":"Commercial","used":"COMM.","plotsizesq":0,"plot_size":"NA","plot_no":"057","sector":"80","block":"D","mplanduse":"V","ppt_type":"COMM","ppt_full":"Commercial","authority":"NOIDA","category":"commercial","execution_stage":"unknown"}},{"type":"Feature","geometry":{"type":"Polygon","coordinates":[[[77.406867,28.555278],[77.407171,28.556169],[77.407155,28.556323],[77.406589,28.556417],[77.406643,28.556261],[77.406649,28.556182],[77.40632,28.555235],[77.406806,28.555102],[77.406867,28.555278]]]},"properties":{"objectid":61349,"plotmapid":"80B055COMM","property_t":"Commercial","used":"COMMERCIAL","plotsizesq":6900,"plot_size":"6900 SQMT","plot_no":"055","sector":"80","block":"B","mplanduse":"V","ppt_type":"COMM","ppt_full":"Commercial","authority":"NOIDA","category":"commercial","execution_stage":"unknown"}},{"type":"Feature","geometry":{"type":"Polygon","coordinates":[[[77.412826,28.529365],[77.412716,28.530265],[77.411847,28.530183],[77.411982,28.529286],[77.412826,28.529365]]]},"properties":{"objectid":61359,"plotmapid":"84ACOMM","property_t":"Commercial","used":"COMM.","plotsizesq":0,"sector":"84","block":"A","mplanduse":"V","ppt_type":"COMM","ppt_full":"Commercial","authority":"NOIDA","category":"commercial","execution_stage":"unknown"}},{"type":"Feature","geometry":{"type":"Polygon","coordinates":[[[77.42444,28.534685],[77.424432,28.534759],[77.424298,28.534749],[77.424306,28.534673],[77.42444,28.534685]]]},"properties":{"objectid":61394,"plotmapid":"88NACOMM","property_t":"Commercial","used":"SHOPS/OFFICE PLOTS","plotsizesq":125,"plot_size":"125 SQMT","sector":"88","block":"NA","mplanduse":"V","ppt_type":"COMM","ppt_full":"Commercial","authority":"NOIDA","category":"commercial","execution_stage":"unknown"}},{"type":"Feature","geometry":{"type":"Polygon","coordinates":[[[77.424562,28.534695],[77.424553,28.534768],[77.424432,28.534759],[77.42444,28.534685],[77.424562,28.534695]]]},"properties":{"objectid":61395,"plotmapid":"88NACOMM","property_t":"Commercial","used":"SHOPS/OFFICE PLOTS","plotsizesq":125,"plot_size":"125 SQMT","sector":"88","block":"NA","mplanduse":"V","ppt_type":"COMM","ppt_full":"Commercial","authority":"NOIDA","category":"commercial","execution_stage":"unknown"}},{"type":"Feature","geometry":{"type":"Polygon","coordinates":[[[77.424432,28.534759],[77.424421,28.534857],[77.424288,28.534847],[77.424298,28.534749],[77.424432,28.534759]]]},"properties":{"objectid":61396,"plotmapid":"88NACOMM","property_t":"Commercial","used":"SHOPS/OFFICE PLOTS","plotsizesq":125,"plot_size":"125 SQMT","sector":"88","block":"NA","mplanduse":"V","ppt_type":"COMM","ppt_full":"Commercial","authority":"NOIDA","category":"commercial","execution_stage":"unknown"}},{"type":"Feature","geometry":{"type":"Polygon","coordinates":[[[77.426647,28.533295],[77.423648,28.533049],[77.423807,28.531516],[77.426891,28.531235],[77.426647,28.533295]]]},"properties":{"objectid":61397,"plotmapid":"88A005COMM","property_t":"Commercial","used":"SITE FOR FUTURE USE (COMMERCIAL)","plotsizesq":59700,"plot_size":"59700 SQMT","plot_no":"005","sector":"88","block":"A","mplanduse":"V","ppt_type":"COMM","ppt_full":"Commercial","authority":"NOIDA","category":"commercial","execution_stage":"unknown"}},{"type":"Feature","geometry":{"type":"Polygon","coordinates":[[[77.424553,28.534768],[77.424543,28.534866],[77.424421,28.534857],[77.424432,28.534759],[77.424553,28.534768]]]},"properties":{"objectid":61398,"plotmapid":"88NACOMM","property_t":"Commercial","used":"SHOPS/OFFICE PLOTS","plotsizesq":125,"plot_size":"125 SQMT","sector":"88","block":"NA","mplanduse":"V","ppt_type":"COMM","ppt_full":"Commercial","authority":"NOIDA","category":"commercial","execution_stage":"unknown"}},{"type":"Feature","geometry":{"type":"Polygon","coordinates":[[[77.424421,28.534857],[77.42441,28.534955],[77.424278,28.534945],[77.424288,28.534847],[77.424421,28.534857]]]},"properties":{"objectid":61399,"plotmapid":"88NACOMM","property_t":"Commercial","used":"SHOPS/OFFICE PLOTS","plotsizesq":125,"plot_size":"125 SQMT","sector":"88","block":"NA","mplanduse":"V","ppt_type":"COMM","ppt_full":"Commercial","authority":"NOIDA","category":"commercial","execution_stage":"unknown"}},{"type":"Feature","geometry":{"type":"Polygon","coordinates":[[[77.423508,28.535307],[77.422967,28.535357],[77.423166,28.533154],[77.423629,28.533176],[77.423642,28.533049],[77.424235,28.533096],[77.423994,28.53526],[77.423508,28.535307]]]},"properties":{"objectid":61400,"plotmapid":"88A002COMM","property_t":"Commercial","used":"SITE FOR FLOWER MANDI","plotsizesq":30360,"plot_size":"30360 SQMT","plot_no":"002","sector":"88","block":"A","mplanduse":"V","ppt_type":"COMM","ppt_full":"Commercial","authority":"NOIDA","category":"commercial","execution_stage":"unknown"}},{"type":"Feature","geometry":{"type":"Polygon","coordinates":[[[77.42441,28.534955],[77.424399,28.535053],[77.424268,28.535043],[77.424278,28.534945],[77.42441,28.534955]]]},"properties":{"objectid":61401,"plotmapid":"88NACOMM","property_t":"Commercial","used":"SHOPS/OFFICE PLOTS","plotsizesq":125,"plot_size":"125 SQMT","sector":"88","block":"NA","mplanduse":"V","ppt_type":"COMM","ppt_full":"Commercial","authority":"NOIDA","category":"commercial","execution_stage":"unknown"}},{"type":"Feature","geometry":{"type":"Polygon","coordinates":[[[77.424543,28.534866],[77.424532,28.534964],[77.42441,28.534955],[77.424421,28.534857],[77.424543,28.534866]]]},"properties":{"objectid":61402,"plotmapid":"88NACOMM","property_t":"Commercial","used":"SHOPS/OFFICE PLOTS","plotsizesq":125,"plot_size":"125 SQMT","sector":"88","block":"NA","mplanduse":"V","ppt_type":"COMM","ppt_full":"Commercial","authority":"NOIDA","category":"commercial","execution_stage":"unknown"}},{"type":"Feature","geometry":{"type":"Polygon","coordinates":[[[77.424744,28.534698],[77.424737,28.534805],[77.424644,28.534797],[77.424654,28.53469],[77.424744,28.534698]]]},"properties":{"objectid":61403,"plotmapid":"88NACOMM","property_t":"Commercial","used":"SHOPS/OFFICE PLOTS","plotsizesq":125,"plot_size":"125 SQMT","sector":"88","block":"NA","mplanduse":"V","ppt_type":"COMM","ppt_full":"Commercial","authority":"NOIDA","category":"commercial","execution_stage":"unknown"}},{"type":"Feature","geometry":{"type":"Polygon","coordinates":[[[77.424399,28.535053],[77.424388,28.535151],[77.424258,28.535141],[77.424268,28.535043],[77.424399,28.535053]]]},"properties":{"objectid":61404,"plotmapid":"88NACOMM","property_t":"Commercial","used":"SHOPS/OFFICE PLOTS","plotsizesq":125,"plot_size":"125 SQMT","sector":"88","block":"NA","mplanduse":"V","ppt_type":"COMM","ppt_full":"Commercial","authority":"NOIDA","category":"commercial","execution_stage":"unknown"}},{"type":"Feature","geometry":{"type":"Polygon","coordinates":[[[77.424532,28.534964],[77.424521,28.535062],[77.424399,28.535053],[77.42441,28.534955],[77.424532,28.534964]]]},"properties":{"objectid":61405,"plotmapid":"88NACOMM","property_t":"Commercial","used":"SHOPS/OFFICE PLOTS","plotsizesq":125,"plot_size":"125 SQMT","sector":"88","block":"NA","mplanduse":"V","ppt_type":"COMM","ppt_full":"Commercial","authority":"NOIDA","category":"commercial","execution_stage":"unknown"}},{"type":"Feature","geometry":{"type":"Polygon","coordinates":[[[77.42485,28.534708],[77.424843,28.534815],[77.424737,28.534805],[77.424744,28.534698],[77.42485,28.534708]]]},"properties":{"objectid":61406,"plotmapid":"88NACOMM","property_t":"Commercial","used":"SHOPS/OFFICE PLOTS","plotsizesq":125,"plot_size":"125 SQMT","sector":"88","block":"NA","mplanduse":"V","ppt_type":"COMM","ppt_full":"Commercial","authority":"NOIDA","category":"commercial","execution_stage":"unknown"}},{"type":"Feature","geometry":{"type":"Polygon","coordinates":[[[77.424647,28.534797],[77.424737,28.534805],[77.424728,28.534934],[77.42463,28.534926],[77.424647,28.534797]]]},"properties":{"objectid":61407,"plotmapid":"88NACOMM","property_t":"Commercial","used":"SHOPS/OFFICE PLOTS","plotsizesq":125,"plot_size":"125 SQMT","sector":"88","block":"NA","mplanduse":"V","ppt_type":"COMM","ppt_full":"Commercial","authority":"NOIDA","category":"commercial","execution_stage":"unknown"}},{"type":"Feature","geometry":{"type":"Polygon","coordinates":[[[77.429564,28.531377],[77.429105,28.531691],[77.428846,28.531581],[77.428996,28.530942],[77.429564,28.531377]]]},"properties":{"objectid":61408,"plotmapid":"88-TNA007/2COMM","property_t":"Transport","used":"TRANSPORT  NAGAR","plotsizesq":5740,"plot_size":"5740 SQMT","plot_no":"007/2","sector":"88-TN","block":"A","mplanduse":"V","ppt_type":"COMM","ppt_full":"Commercial","authority":"NOIDA","category":"commercial","execution_stage":"unknown"}},{"type":"Feature","geometry":{"type":"Polygon","coordinates":[[[77.424388,28.535151],[77.424377,28.535249],[77.424248,28.535239],[77.424258,28.535141],[77.424388,28.535151]]]},"properties":{"objectid":61409,"plotmapid":"88NACOMM","property_t":"Commercial","used":"SHOPS/OFFICE PLOTS","plotsizesq":125,"plot_size":"125 SQMT","sector":"88","block":"NA","mplanduse":"V","ppt_type":"COMM","ppt_full":"Commercial","authority":"NOIDA","category":"commercial","execution_stage":"unknown"}},{"type":"Feature","geometry":{"type":"Polygon","coordinates":[[[77.424521,28.535062],[77.42451,28.53516],[77.424388,28.535151],[77.424399,28.535053],[77.424521,28.535062]]]},"properties":{"objectid":61410,"plotmapid":"88NACOMM","property_t":"Commercial","used":"SHOPS/OFFICE PLOTS","plotsizesq":125,"plot_size":"125 SQMT","sector":"88","block":"NA","mplanduse":"V","ppt_type":"COMM","ppt_full":"Commercial","authority":"NOIDA","category":"commercial","execution_stage":"unknown"}},{"type":"Feature","geometry":{"type":"Polygon","coordinates":[[[77.424956,28.534718],[77.424949,28.534825],[77.424843,28.534815],[77.42485,28.534708],[77.424956,28.534718]]]},"properties":{"objectid":61411,"plotmapid":"88NACOMM","property_t":"Commercial","used":"SHOPS/OFFICE PLOTS","plotsizesq":125,"plot_size":"125 SQMT","sector":"88","block":"NA","mplanduse":"V","ppt_type":"COMM","ppt_full":"Commercial","authority":"NOIDA","category":"commercial","execution_stage":"unknown"}},{"type":"Feature","geometry":{"type":"Polygon","coordinates":[[[77.424843,28.534815],[77.424834,28.534942],[77.424728,28.534934],[77.424737,28.534805],[77.424843,28.534815]]]},"properties":{"objectid":61412,"plotmapid":"88NACOMM","property_t":"Commercial","used":"SHOPS/OFFICE PLOTS","plotsizesq":125,"plot_size":"125 SQMT","sector":"88","block":"NA","mplanduse":"V","ppt_type":"COMM","ppt_full":"Commercial","authority":"NOIDA","category":"commercial","execution_stage":"unknown"}},{"type":"Feature","geometry":{"type":"Polygon","coordinates":[[[77.424377,28.535249],[77.424366,28.535347],[77.424238,28.535337],[77.424248,28.535239],[77.424377,28.535249]]]},"properties":{"objectid":61413,"plotmapid":"88NACOMM","property_t":"Commercial","used":"SHOPS/OFFICE PLOTS","plotsizesq":125,"plot_size":"125 SQMT","sector":"88","block":"NA","mplanduse":"V","ppt_type":"COMM","ppt_full":"Commercial","authority":"NOIDA","category":"commercial","execution_stage":"unknown"}},{"type":"Feature","geometry":{"type":"Polygon","coordinates":[[[77.42451,28.53516],[77.424499,28.535258],[77.424377,28.535249],[77.424388,28.535151],[77.42451,28.53516]]]},"properties":{"objectid":61414,"plotmapid":"88NACOMM","property_t":"Commercial","used":"SHOPS/OFFICE PLOTS","plotsizesq":125,"plot_size":"125 SQMT","sector":"88","block":"NA","mplanduse":"V","ppt_type":"COMM","ppt_full":"Commercial","authority":"NOIDA","category":"commercial","execution_stage":"unknown"}},{"type":"Feature","geometry":{"type":"Polygon","coordinates":[[[77.425062,28.534727],[77.425055,28.534834],[77.424949,28.534825],[77.424956,28.534718],[77.425062,28.534727]]]},"properties":{"objectid":61415,"plotmapid":"88NACOMM","property_t":"Commercial","used":"SHOPS/OFFICE PLOTS","plotsizesq":125,"plot_size":"125 SQMT","sector":"88","block":"NA","mplanduse":"V","ppt_type":"COMM","ppt_full":"Commercial","authority":"NOIDA","category":"commercial","execution_stage":"unknown"}},{"type":"Feature","geometry":{"type":"Polygon","coordinates":[[[77.424949,28.534825],[77.424941,28.534951],[77.424834,28.534942],[77.424843,28.534815],[77.424949,28.534825]]]},"properties":{"objectid":61416,"plotmapid":"88NACOMM","property_t":"Commercial","used":"SHOPS/OFFICE PLOTS","plotsizesq":125,"plot_size":"125 SQMT","sector":"88","block":"NA","mplanduse":"V","ppt_type":"COMM","ppt_full":"Commercial","authority":"NOIDA","category":"commercial","execution_stage":"unknown"}},{"type":"Feature","geometry":{"type":"Polygon","coordinates":[[[77.424499,28.535258],[77.424488,28.535356],[77.424366,28.535347],[77.424377,28.535249],[77.424499,28.535258]]]},"properties":{"objectid":61417,"plotmapid":"88NACOMM","property_t":"Commercial","used":"SHOPS/OFFICE PLOTS","plotsizesq":125,"plot_size":"125 SQMT","sector":"88","block":"NA","mplanduse":"V","ppt_type":"COMM","ppt_full":"Commercial","authority":"NOIDA","category":"commercial","execution_stage":"unknown"}},{"type":"Feature","geometry":{"type":"Polygon","coordinates":[[[77.424366,28.535347],[77.424354,28.535457],[77.424223,28.535481],[77.424238,28.535337],[77.424366,28.535347]]]},"properties":{"objectid":61418,"plotmapid":"88NACOMM","property_t":"Commercial","used":"SHOPS/OFFICE PLOTS","plotsizesq":0,"sector":"88","block":"NA","mplanduse":"V","ppt_type":"COMM","ppt_full":"Commercial","authority":"NOIDA","category":"commercial","execution_stage":"unknown"}},{"type":"Feature","geometry":{"type":"Polygon","coordinates":[[[77.425168,28.534737],[77.425161,28.534844],[77.425055,28.534834],[77.425062,28.534727],[77.425168,28.534737]]]},"properties":{"objectid":61419,"plotmapid":"88NACOMM","property_t":"Commercial","used":"SHOPS/OFFICE PLOTS","plotsizesq":125,"plot_size":"125 SQMT","sector":"88","block":"NA","mplanduse":"V","ppt_type":"COMM","ppt_full":"Commercial","authority":"NOIDA","category":"commercial","execution_stage":"unknown"}},{"type":"Feature","geometry":{"type":"Polygon","coordinates":[[[77.425055,28.534834],[77.425047,28.534959],[77.424941,28.534951],[77.424949,28.534825],[77.425055,28.534834]]]},"properties":{"objectid":61420,"plotmapid":"88NACOMM","property_t":"Commercial","used":"SHOPS/OFFICE PLOTS","plotsizesq":125,"plot_size":"125 SQMT","sector":"88","block":"NA","mplanduse":"V","ppt_type":"COMM","ppt_full":"Commercial","authority":"NOIDA","category":"commercial","execution_stage":"unknown"}},{"type":"Feature","geometry":{"type":"Polygon","coordinates":[[[77.424488,28.535356],[77.424479,28.535436],[77.424354,28.535457],[77.424366,28.535347],[77.424488,28.535356]]]},"properties":{"objectid":61421,"plotmapid":"88NACOMM","property_t":"Commercial","used":"SHOPS/OFFICE PLOTS","plotsizesq":0,"sector":"88","block":"NA","mplanduse":"V","ppt_type":"COMM","ppt_full":"Commercial","authority":"NOIDA","category":"commercial","execution_stage":"unknown"}},{"type":"Feature","geometry":{"type":"Polygon","coordinates":[[[77.425274,28.534747],[77.425267,28.534854],[77.425161,28.534844],[77.425168,28.534737],[77.425274,28.534747]]]},"properties":{"objectid":61422,"plotmapid":"88NACOMM","property_t":"Commercial","used":"SHOPS/OFFICE PLOTS","plotsizesq":125,"plot_size":"125 SQMT","sector":"88","block":"NA","mplanduse":"V","ppt_type":"COMM","ppt_full":"Commercial","authority":"NOIDA","category":"commercial","execution_stage":"unknown"}},{"type":"Feature","geometry":{"type":"Polygon","coordinates":[[[77.425161,28.534844],[77.425153,28.534968],[77.425047,28.534959],[77.425055,28.534834],[77.425161,28.534844]]]},"properties":{"objectid":61423,"plotmapid":"88NACOMM","property_t":"Commercial","used":"SHOPS/OFFICE PLOTS","plotsizesq":125,"plot_size":"125 SQMT","sector":"88","block":"NA","mplanduse":"V","ppt_type":"COMM","ppt_full":"Commercial","authority":"NOIDA","category":"commercial","execution_stage":"unknown"}},{"type":"Feature","geometry":{"type":"Polygon","coordinates":[[[77.42538,28.534756],[77.425373,28.534863],[77.425267,28.534854],[77.425274,28.534747],[77.42538,28.534756]]]},"properties":{"objectid":61424,"plotmapid":"88NACOMM","property_t":"Commercial","used":"SHOPS/OFFICE PLOTS","plotsizesq":125,"plot_size":"125 SQMT","sector":"88","block":"NA","mplanduse":"V","ppt_type":"COMM","ppt_full":"Commercial","authority":"NOIDA","category":"commercial","execution_stage":"unknown"}},{"type":"Feature","geometry":{"type":"Polygon","coordinates":[[[77.425267,28.534854],[77.425259,28.534976],[77.425153,28.534968],[77.425161,28.534844],[77.425267,28.534854]]]},"properties":{"objectid":61425,"plotmapid":"88NACOMM","property_t":"Commercial","used":"SHOPS/OFFICE PLOTS","plotsizesq":125,"plot_size":"125 SQMT","sector":"88","block":"NA","mplanduse":"V","ppt_type":"COMM","ppt_full":"Commercial","authority":"NOIDA","category":"commercial","execution_stage":"unknown"}},{"type":"Feature","geometry":{"type":"Polygon","coordinates":[[[77.425486,28.534766],[77.425479,28.534873],[77.425373,28.534863],[77.42538,28.534756],[77.425486,28.534766]]]},"properties":{"objectid":61426,"plotmapid":"88NACOMM","property_t":"Commercial","used":"SHOPS/OFFICE PLOTS","plotsizesq":125,"plot_size":"125 SQMT","sector":"88","block":"NA","mplanduse":"V","ppt_type":"COMM","ppt_full":"Commercial","authority":"NOIDA","category":"commercial","execution_stage":"unknown"}},{"type":"Feature","geometry":{"type":"Polygon","coordinates":[[[77.425373,28.534863],[77.425365,28.534985],[77.425259,28.534976],[77.425267,28.534854],[77.425373,28.534863]]]},"properties":{"objectid":61427,"plotmapid":"88NACOMM","property_t":"Commercial","used":"SHOPS/OFFICE PLOTS","plotsizesq":125,"plot_size":"125 SQMT","sector":"88","block":"NA","mplanduse":"V","ppt_type":"COMM","ppt_full":"Commercial","authority":"NOIDA","category":"commercial","execution_stage":"unknown"}},{"type":"Feature","geometry":{"type":"Polygon","coordinates":[[[77.425593,28.534775],[77.425586,28.534882],[77.425479,28.534873],[77.425486,28.534766],[77.425593,28.534775]]]},"properties":{"objectid":61428,"plotmapid":"88NACOMM","property_t":"Commercial","used":"SHOPS/OFFICE PLOTS","plotsizesq":125,"plot_size":"125 SQMT","sector":"88","block":"NA","mplanduse":"V","ppt_type":"COMM","ppt_full":"Commercial","authority":"NOIDA","category":"commercial","execution_stage":"unknown"}},{"type":"Feature","geometry":{"type":"Polygon","coordinates":[[[77.425479,28.534873],[77.425471,28.534994],[77.425365,28.534985],[77.425373,28.534863],[77.425479,28.534873]]]},"properties":{"objectid":61429,"plotmapid":"88NACOMM","property_t":"Commercial","used":"SHOPS/OFFICE PLOTS","plotsizesq":125,"plot_size":"125 SQMT","sector":"88","block":"NA","mplanduse":"V","ppt_type":"COMM","ppt_full":"Commercial","authority":"NOIDA","category":"commercial","execution_stage":"unknown"}},{"type":"Feature","geometry":{"type":"Polygon","coordinates":[[[77.425682,28.534784],[77.425675,28.534891],[77.425586,28.534882],[77.425593,28.534775],[77.425682,28.534784]]]},"properties":{"objectid":61430,"plotmapid":"88NACOMM","property_t":"Commercial","used":"SHOPS/OFFICE PLOTS","plotsizesq":125,"plot_size":"125 SQMT","sector":"88","block":"NA","mplanduse":"V","ppt_type":"COMM","ppt_full":"Commercial","authority":"NOIDA","category":"commercial","execution_stage":"unknown"}},{"type":"Feature","geometry":{"type":"Polygon","coordinates":[[[77.425586,28.534882],[77.425578,28.535004],[77.425471,28.534994],[77.425479,28.534873],[77.425586,28.534882]]]},"properties":{"objectid":61431,"plotmapid":"88NACOMM","property_t":"Commercial","used":"SHOPS/OFFICE PLOTS","plotsizesq":125,"plot_size":"125 SQMT","sector":"88","block":"NA","mplanduse":"V","ppt_type":"COMM","ppt_full":"Commercial","authority":"NOIDA","category":"commercial","execution_stage":"unknown"}},{"type":"Feature","geometry":{"type":"Polygon","coordinates":[[[77.425675,28.534891],[77.425667,28.535012],[77.425578,28.535004],[77.425586,28.534882],[77.425675,28.534891]]]},"properties":{"objectid":61432,"plotmapid":"88NACOMM","property_t":"Commercial","used":"SHOPS/OFFICE PLOTS","plotsizesq":125,"plot_size":"125 SQMT","sector":"88","block":"NA","mplanduse":"V","ppt_type":"COMM","ppt_full":"Commercial","authority":"NOIDA","category":"commercial","execution_stage":"unknown"}},{"type":"Feature","geometry":{"type":"Polygon","coordinates":[[[77.425921,28.534804],[77.425899,28.535001],[77.425756,28.53499],[77.425778,28.534793],[77.425921,28.534804]]]},"properties":{"objectid":61433,"plotmapid":"88NACOMM","property_t":"Commercial","used":"BANK","plotsizesq":0,"sector":"88","block":"NA","mplanduse":"V","ppt_type":"COMM","ppt_full":"Commercial","authority":"NOIDA","category":"commercial","execution_stage":"unknown"}},{"type":"Feature","geometry":{"type":"Polygon","coordinates":[[[77.426042,28.535012],[77.426011,28.535286],[77.42572,28.535318],[77.425756,28.53499],[77.426042,28.535012]]]},"properties":{"objectid":61434,"plotmapid":"88NACOMM","property_t":"Commercial","used":"DHARAM KANTA","plotsizesq":472,"plot_size":"472 SQMT","sector":"88","block":"NA","mplanduse":"V","ppt_type":"COMM","ppt_full":"Commercial","authority":"NOIDA","category":"commercial","execution_stage":"unknown"}},{"type":"Feature","geometry":{"type":"Polygon","coordinates":[[[77.426308,28.535239],[77.426011,28.535286],[77.426064,28.534815],[77.426472,28.534846],[77.426427,28.535212],[77.426308,28.535239]]]},"properties":{"objectid":61435,"plotmapid":"88NACOMM","property_t":"Commercial","used":"PETROL PUMP","plotsizesq":0,"sector":"88","block":"NA","mplanduse":"B","ppt_type":"COMM","ppt_full":"Commercial","authority":"NOIDA","category":"commercial","execution_stage":"unknown"}},{"type":"Feature","geometry":{"type":"Polygon","coordinates":[[[77.411894,28.552893],[77.411558,28.552906],[77.411266,28.552942],[77.411117,28.552659],[77.41157,28.552543],[77.411928,28.552591],[77.411894,28.552893]]]},"properties":{"objectid":61470,"plotmapid":"80A005Q/1COMM","property_t":"Commercial","used":"SHOP/DHABA&PARKING","plotsizesq":4500,"plot_size":"4500 SQMT","plot_no":"005Q/1","sector":"80","block":"A","mplanduse":"B","ppt_type":"COMM","ppt_full":"Commercial","authority":"NOIDA","category":"commercial","execution_stage":"unknown"}},{"type":"Feature","geometry":{"type":"Polygon","coordinates":[[[77.420929,28.535551],[77.420143,28.535619],[77.42054,28.531812],[77.423807,28.531516],[77.423629,28.533176],[77.423166,28.533154],[77.422967,28.535357],[77.421346,28.535527],[77.421335,28.535366],[77.421156,28.535338],[77.421,28.535345],[77.420929,28.535551]]]},"properties":{"objectid":61968,"plotmapid":"88A001COMM","property_t":"Commercial","used":"SITE FOR MANDI","plotsizesq":122560,"plot_size":"122560 SQMT","plot_no":"001","sector":"88","block":"A","mplanduse":"B","ppt_type":"COMM","ppt_full":"Commercial","authority":"NOIDA","category":"commercial","execution_stage":"unknown"}},{"type":"Feature","geometry":{"type":"Polygon","coordinates":[[[77.404566,28.545812],[77.404996,28.546692],[77.40432,28.546631],[77.404057,28.54588],[77.404388,28.545802],[77.404566,28.545812]]]},"properties":{"objectid":61992,"plotmapid":"81A009COMM","property_t":"Commercial","used":"COMM.","plotsizesq":0,"plot_size":"NA","plot_no":"009","sector":"81","block":"A","mplanduse":"V","ppt_type":"COMM","ppt_full":"Commercial","authority":"NOIDA","category":"commercial","execution_stage":"unknown"}},{"type":"Feature","geometry":{"type":"Polygon","coordinates":[[[77.418952,28.524882],[77.41821,28.52555],[77.417264,28.524777],[77.417971,28.524147],[77.418952,28.524882]]]},"properties":{"objectid":62355,"plotmapid":"89C001COMM","property_t":"Commercial","used":"COMM.","plotsizesq":0,"plot_no":"001","sector":"89","block":"C","mplanduse":"ISSUE","ppt_type":"COMM","ppt_full":"Commercial","authority":"NOIDA","category":"commercial","execution_stage":"unknown"}},{"type":"Feature","geometry":{"type":"Polygon","coordinates":[[[77.406538,28.56498],[77.405311,28.564938],[77.405344,28.564018],[77.406571,28.564063],[77.406538,28.56498]]]},"properties":{"objectid":62360,"plotmapid":"113NACOMM","used":"COMMERCIAL","plotsizesq":0,"sector":"113","block":"NA","mplanduse":"V","ppt_type":"COMM","ppt_full":"Commercial","authority":"NOIDA","category":"commercial","execution_stage":"unknown"}},{"type":"Feature","geometry":{"type":"Polygon","coordinates":[[[77.408772,28.567483],[77.406947,28.567441],[77.406959,28.566901],[77.408785,28.566942],[77.408772,28.567483]]]},"properties":{"objectid":62363,"plotmapid":"115NACOMM","used":"COMMERCIAL","plotsizesq":10700,"plot_size":"10700 SQMT","sector":"115","block":"NA","mplanduse":"V","ppt_type":"COMM","ppt_full":"Commercial","authority":"NOIDA","category":"commercial","execution_stage":"unknown"}},{"type":"Feature","geometry":{"type":"Polygon","coordinates":[[[77.40454,28.56491],[77.40386,28.564887],[77.403893,28.563965],[77.405344,28.564018],[77.405322,28.564654],[77.40455,28.564633],[77.40454,28.56491]]]},"properties":{"objectid":62364,"plotmapid":"113NACOMM","used":"FACILITIES","plotsizesq":0,"sector":"113","block":"NA","mplanduse":"V","ppt_type":"COMM","ppt_full":"Commercial","authority":"NOIDA","category":"commercial","execution_stage":"unknown"}},{"type":"Feature","geometry":{"type":"Polygon","coordinates":[[[77.417619,28.53455],[77.417696,28.533936],[77.417929,28.533955],[77.417856,28.53457],[77.417619,28.53455]]]},"properties":{"objectid":62367,"plotmapid":"HCD121ACOMM","used":"SHOPS","plotsizesq":0,"plot_size":"NA","plot_no":"121A","sector":"HC","block":"D","mplanduse":"V","ppt_type":"COMM","ppt_full":"Commercial","authority":"NOIDA","category":"commercial","execution_stage":"unknown"}},{"type":"Feature","geometry":{"type":"Polygon","coordinates":[[[77.417913,28.532404],[77.418134,28.532425],[77.418064,28.533053],[77.417863,28.533032],[77.417913,28.532404]]]},"properties":{"objectid":62370,"plotmapid":"HCD134ACOMM","used":"SHOPS","plotsizesq":0,"plot_size":"NA","plot_no":"134A","sector":"HC","block":"D","mplanduse":"V","ppt_type":"COMM","ppt_full":"Commercial","authority":"NOIDA","category":"commercial","execution_stage":"unknown"}},{"type":"Feature","geometry":{"type":"Polygon","coordinates":[[[77.414877,28.532102],[77.415673,28.532166],[77.41565,28.532368],[77.414854,28.532304],[77.414877,28.532102]]]},"properties":{"objectid":62373,"plotmapid":"HCD048ACOMM","used":"SHOPS","plotsizesq":0,"plot_size":"NA","plot_no":"048A","sector":"HC","block":"D","mplanduse":"V","ppt_type":"COMM","ppt_full":"Commercial","authority":"NOIDA","category":"commercial","execution_stage":"unknown"}},{"type":"Feature","geometry":{"type":"Polygon","coordinates":[[[77.408727,28.532497],[77.409152,28.53254],[77.409061,28.533266],[77.408261,28.533182],[77.40834,28.532458],[77.408727,28.532497]]]},"properties":{"objectid":62382,"plotmapid":"HCC029COMM","used":"SECTOR SHOPPING","plotsizesq":0,"plot_size":"NA","plot_no":"029","sector":"HC","block":"C","mplanduse":"V","ppt_type":"COMM","ppt_full":"Commercial","authority":"NOIDA","category":"commercial","execution_stage":"unknown"}},{"type":"Feature","geometry":{"type":"Polygon","coordinates":[[[77.404682,28.530259],[77.404662,28.530435],[77.404037,28.530376],[77.404061,28.530191],[77.404682,28.530259]]]},"properties":{"objectid":62728,"plotmapid":"HCB027COMM","used":"SHOPS","plotsizesq":0,"plot_size":"NA","plot_no":"027","sector":"HC","block":"B","mplanduse":"B","ppt_type":"COMM","ppt_full":"Commercial","authority":"NOIDA","category":"commercial","execution_stage":"unknown"}},{"type":"Feature","geometry":{"type":"Polygon","coordinates":[[[77.402101,28.58377],[77.402601,28.583886],[77.402332,28.584757],[77.401082,28.584467],[77.401346,28.583594],[77.402101,28.58377]]]},"properties":{"objectid":62796,"plotmapid":"118NACOMM","used":"COMMERCIAL","plotsizesq":20000,"plot_size":"20000 SQMT","sector":"118","block":"NA","mplanduse":"ISSUE","ppt_type":"COMM","ppt_full":"Commercial","authority":"NOIDA","category":"commercial","execution_stage":"unknown"}},{"type":"Feature","geometry":{"type":"Polygon","coordinates":[[[77.401825,28.603293],[77.402475,28.603455],[77.402319,28.603975],[77.401669,28.603813],[77.401825,28.603293]]]},"properties":{"objectid":62800,"plotmapid":"121NACOMM","property_t":"Commercial","used":"COMMERCIAL","plotsizesq":6000,"plot_size":"6000 SQMT","sector":"121","block":"NA","mplanduse":"ISSUE","ppt_type":"COMM","ppt_full":"Commercial","authority":"NOIDA","category":"commercial","execution_stage":"unknown"}},{"type":"Feature","geometry":{"type":"Polygon","coordinates":[[[77.4031,28.585358],[77.403145,28.585368],[77.402896,28.586186],[77.402209,28.586023],[77.402456,28.585207],[77.4031,28.585358]]]},"properties":{"objectid":62838,"plotmapid":"119NACOMM","property_t":"Commercial","used":"COMMERCIAL","plotsizesq":6545,"plot_size":"6545 SQMT","sector":"119","block":"NA","mplanduse":"G","ppt_type":"COMM","ppt_full":"Commercial","authority":"NOIDA","category":"commercial","execution_stage":"unknown"}},{"type":"Feature","geometry":{"type":"Polygon","coordinates":[[[77.40285,28.586175],[77.402896,28.586186],[77.402756,28.586633],[77.40208,28.586451],[77.402209,28.586023],[77.40285,28.586175]]]},"properties":{"objectid":62839,"plotmapid":"119NACOMM","property_t":"Commercial","used":"COMMUNITY CENTRE","plotsizesq":3500,"plot_size":"3500 SQMT","sector":"119","block":"NA","mplanduse":"B","ppt_type":"COMM","ppt_full":"Commercial","authority":"NOIDA","category":"commercial","execution_stage":"unknown"}},{"type":"Feature","geometry":{"type":"Polygon","coordinates":[[[77.409091,28.562496],[77.409067,28.562656],[77.408783,28.562623],[77.408807,28.562462],[77.409091,28.562496]]]},"properties":{"objectid":63383,"plotmapid":"112NACOMM","plotsizesq":0,"sector":"112","block":"NA","mplanduse":"V","ppt_type":"COMM","ppt_full":"Commercial","authority":"NOIDA","category":"commercial","execution_stage":"unknown"}},{"type":"Feature","geometry":{"type":"Polygon","coordinates":[[[77.410176,28.563262],[77.41015,28.563441],[77.40999,28.563422],[77.410016,28.563243],[77.410176,28.563262]]]},"properties":{"objectid":63386,"plotmapid":"112NACOMM","plotsizesq":0,"sector":"112","block":"NA","mplanduse":"B","ppt_type":"COMM","ppt_full":"Commercial","authority":"NOIDA","category":"commercial","execution_stage":"unknown"}},{"type":"Feature","geometry":{"type":"Polygon","coordinates":[[[77.403177,28.597883],[77.402235,28.597651],[77.402182,28.597165],[77.404184,28.597661],[77.404129,28.597833],[77.403272,28.597621],[77.403177,28.597883]]]},"properties":{"objectid":63803,"plotmapid":"122NACOMM","property_t":"Not Known","plotsizesq":0,"sector":"122","block":"NA","mplanduse":"V","ppt_type":"COMM","ppt_full":"Commercial","authority":"NOIDA","category":"commercial","execution_stage":"unknown"}},{"type":"Feature","geometry":{"type":"Polygon","coordinates":[[[77.404087,28.597823],[77.404129,28.597833],[77.404043,28.5981],[77.403181,28.597884],[77.403272,28.597621],[77.404087,28.597823]]]},"properties":{"objectid":63804,"plotmapid":"122NAPP-001COMM","property_t":"Not Known","used":"Petrol Pump","plotsizesq":0,"plot_no":"PP-001","sector":"122","block":"NA","mplanduse":"V","ppt_type":"COMM","ppt_full":"Commercial","authority":"NOIDA","category":"commercial","execution_stage":"unknown"}},{"type":"Feature","geometry":{"type":"Polygon","coordinates":[[[77.404473,28.597732],[77.404335,28.598163],[77.404046,28.598092],[77.404184,28.597661],[77.404473,28.597732]]]},"properties":{"objectid":63805,"plotmapid":"122NACOMM","property_t":"Utility","used":"C.N.G","plotsizesq":1500,"plot_size":"1500 SQMT","sector":"122","block":"NA","mplanduse":"B","ppt_type":"COMM","ppt_full":"Commercial","authority":"NOIDA","category":"commercial","execution_stage":"unknown"}},{"type":"Feature","geometry":{"type":"Polygon","coordinates":[[[77.402026,28.595297],[77.402094,28.595388],[77.402081,28.595394],[77.402094,28.595416],[77.40205,28.59544],[77.401978,28.595318],[77.402026,28.595297]]]},"properties":{"objectid":64005,"plotmapid":"122NA301ACOMM","property_t":"Commercial","plotsizesq":0,"plot_no":"301A","sector":"122","block":"NA","mplanduse":"ISSUE","ppt_type":"COMM","ppt_full":"Commercial","authority":"NOIDA","category":"commercial","execution_stage":"unknown"}},{"type":"Feature","geometry":{"type":"Polygon","coordinates":[[[77.410125,28.57108],[77.409896,28.570501],[77.410295,28.570412],[77.410175,28.57119],[77.410125,28.57108]]]},"properties":{"objectid":65488,"plotmapid":"118NACOMM","used":"COMMERCIAL","plotsizesq":0,"sector":"118","block":"NA","mplanduse":"V","ppt_type":"COMM","ppt_full":"Commercial","authority":"NOIDA","category":"commercial","execution_stage":"unknown"}},{"type":"Feature","geometry":{"type":"Polygon","coordinates":[[[77.405322,28.564654],[77.405311,28.564938],[77.40454,28.56491],[77.40455,28.564633],[77.405322,28.564654]]]},"properties":{"objectid":66706,"plotmapid":"113NACOMM","used":"FACILITIES","plotsizesq":3060,"plot_size":"3060 SQKM","sector":"113","block":"NA","mplanduse":"V","ppt_type":"COMM","ppt_full":"Commercial","authority":"NOIDA","category":"commercial","execution_stage":"unknown"}},{"type":"Feature","geometry":{"type":"Polygon","coordinates":[[[77.427945,28.532654],[77.426912,28.533177],[77.426964,28.532734],[77.427787,28.532304],[77.427945,28.532654]]]},"properties":{"objectid":67361,"plotmapid":"88-TN NACOMM","property_t":"Commercial","used":"NA","plotsizesq":0,"plot_no":"NA","sector":"88-TN","ppt_type":"COMM","ppt_full":"Commercial","authority":"NOIDA","category":"commercial","execution_stage":"unknown"}},{"type":"Feature","geometry":{"type":"Polygon","coordinates":[[[77.427415,28.534009],[77.42746,28.534012],[77.42745,28.534096],[77.427406,28.534092],[77.427415,28.534009]]]},"properties":{"objectid":67363,"plotmapid":"88-TNC006COMM","property_t":"Commercial","used":"NA","plotsizesq":0,"plot_no":"006","sector":"88-TN","block":"C","ppt_type":"COMM","ppt_full":"Commercial","authority":"NOIDA","category":"commercial","execution_stage":"unknown"}},{"type":"Feature","geometry":{"type":"Polygon","coordinates":[[[77.427787,28.532304],[77.42808,28.532151],[77.428066,28.532594],[77.427945,28.532654],[77.427787,28.532304]]]},"properties":{"objectid":67399,"plotmapid":"88-TN NACOMM","property_t":"Commercial","used":"NA","plotsizesq":0,"plot_no":"NA","sector":"88-TN","ppt_type":"COMM","ppt_full":"Commercial","authority":"NOIDA","category":"commercial","execution_stage":"unknown"}},{"type":"Feature","geometry":{"type":"Polygon","coordinates":[[[77.427557,28.530946],[77.428542,28.530839],[77.428436,28.531314],[77.427549,28.531282],[77.427557,28.530946]]]},"properties":{"objectid":67400,"plotmapid":"88-TN NACOMM","property_t":"Commercial","used":"NA","plotsizesq":0,"plot_no":"NA","sector":"88-TN","ppt_type":"COMM","ppt_full":"Commercial","authority":"NOIDA","category":"commercial","execution_stage":"unknown"}},{"type":"Feature","geometry":{"type":"Polygon","coordinates":[[[77.427459,28.530957],[77.427466,28.531012],[77.427391,28.53102],[77.427383,28.530965],[77.427459,28.530957]]]},"properties":{"objectid":67402,"plotmapid":"88-TN NACOMM","property_t":"Commercial","used":"NA","plotsizesq":0,"plot_no":"NA","sector":"88-TN","ppt_type":"COMM","ppt_full":"Commercial","authority":"NOIDA","category":"commercial","execution_stage":"unknown"}},{"type":"Feature","geometry":{"type":"Polygon","coordinates":[[[77.427503,28.530984],[77.427556,28.530983],[77.427555,28.531017],[77.427502,28.531017],[77.427503,28.530984]]]},"properties":{"objectid":67403,"plotmapid":"88-TN NACOMM","property_t":"Commercial","used":"NA","plotsizesq":0,"plot_no":"NA","sector":"88-TN","ppt_type":"COMM","ppt_full":"Commercial","authority":"NOIDA","category":"commercial","execution_stage":"unknown"}},{"type":"Feature","geometry":{"type":"Polygon","coordinates":[[[77.427552,28.531163],[77.427551,28.531184],[77.427485,28.531184],[77.427485,28.531163],[77.427552,28.531163]]]},"properties":{"objectid":67404,"plotmapid":"88-TN NACOMM","property_t":"Commercial","used":"NA","plotsizesq":0,"plot_no":"NA","sector":"88-TN","ppt_type":"COMM","ppt_full":"Commercial","authority":"NOIDA","category":"commercial","execution_stage":"unknown"}},{"type":"Feature","geometry":{"type":"Polygon","coordinates":[[[77.427552,28.531142],[77.427552,28.531163],[77.427485,28.531163],[77.427485,28.531142],[77.427552,28.531142]]]},"properties":{"objectid":67405,"plotmapid":"88-TN NACOMM","property_t":"Commercial","used":"NA","plotsizesq":0,"plot_no":"NA","sector":"88-TN","ppt_type":"COMM","ppt_full":"Commercial","authority":"NOIDA","category":"commercial","execution_stage":"unknown"}},{"type":"Feature","geometry":{"type":"Polygon","coordinates":[[[77.427553,28.531115],[77.427552,28.531142],[77.427485,28.531142],[77.427486,28.531115],[77.427553,28.531115]]]},"properties":{"objectid":67406,"plotmapid":"88-TN NACOMM","property_t":"Commercial","used":"NA","plotsizesq":0,"plot_no":"NA","sector":"88-TN","ppt_type":"COMM","ppt_full":"Commercial","authority":"NOIDA","category":"commercial","execution_stage":"unknown"}},{"type":"Feature","geometry":{"type":"Polygon","coordinates":[[[77.427554,28.531094],[77.427553,28.531115],[77.427486,28.531115],[77.427486,28.531094],[77.427554,28.531094]]]},"properties":{"objectid":67407,"plotmapid":"88-TN NACOMM","property_t":"Commercial","used":"NA","plotsizesq":0,"plot_no":"NA","sector":"88-TN","ppt_type":"COMM","ppt_full":"Commercial","authority":"NOIDA","category":"commercial","execution_stage":"unknown"}},{"type":"Feature","geometry":{"type":"Polygon","coordinates":[[[77.427554,28.531072],[77.427554,28.531094],[77.427486,28.531094],[77.427486,28.531072],[77.427554,28.531072]]]},"properties":{"objectid":67408,"plotmapid":"88-TN NACOMM","property_t":"Commercial","used":"NA","plotsizesq":0,"plot_no":"NA","sector":"88-TN","ppt_type":"COMM","ppt_full":"Commercial","authority":"NOIDA","category":"commercial","execution_stage":"unknown"}},{"type":"Feature","geometry":{"type":"Polygon","coordinates":[[[77.427555,28.531048],[77.427554,28.531072],[77.427486,28.531072],[77.427486,28.531048],[77.427555,28.531048]]]},"properties":{"objectid":67409,"plotmapid":"88-TN NACOMM","property_t":"Commercial","used":"NA","plotsizesq":0,"plot_no":"NA","sector":"88-TN","ppt_type":"COMM","ppt_full":"Commercial","authority":"NOIDA","category":"commercial","execution_stage":"unknown"}},{"type":"Feature","geometry":{"type":"Polygon","coordinates":[[[77.427555,28.531017],[77.427555,28.531048],[77.427486,28.531048],[77.427487,28.531017],[77.427555,28.531017]]]},"properties":{"objectid":67410,"plotmapid":"88-TN NACOMM","property_t":"Commercial","used":"NA","plotsizesq":0,"plot_no":"NA","sector":"88-TN","ppt_type":"COMM","ppt_full":"Commercial","authority":"NOIDA","category":"commercial","execution_stage":"unknown"}},{"type":"Feature","geometry":{"type":"Polygon","coordinates":[[[77.429105,28.531691],[77.429167,28.531748],[77.428946,28.531973],[77.428667,28.532331],[77.428846,28.531581],[77.429105,28.531691]]]},"properties":{"objectid":67411,"plotmapid":"88-TNA007COMM","property_t":"Transport","used":"TRANSPORT  NAGAR","plotsizesq":5740,"plot_size":"5740 SQMT","plot_no":"007","sector":"88-TN","block":"A","mplanduse":"V","ppt_type":"COMM","ppt_full":"Commercial","authority":"NOIDA","category":"commercial","execution_stage":"unknown"}},{"type":"Feature","geometry":{"type":"Polygon","coordinates":[[[77.428996,28.530942],[77.42905,28.530719],[77.429217,28.530691],[77.429853,28.531181],[77.429564,28.531377],[77.428996,28.530942]]]},"properties":{"objectid":67412,"plotmapid":"88-TNA007/1COMM","property_t":"Transport","used":"TRANSPORT  NAGAR","plotsizesq":5740,"plot_size":"5740 SQMT","plot_no":"007/1","sector":"88-TN","block":"A","mplanduse":"V","ppt_type":"COMM","ppt_full":"Commercial","authority":"NOIDA","category":"commercial","execution_stage":"unknown"}},{"type":"Feature","geometry":{"type":"Polygon","coordinates":[[[77.427464,28.53397],[77.427613,28.533981],[77.42762,28.534012],[77.427456,28.534232],[77.427435,28.53423],[77.427464,28.53397]]]},"properties":{"objectid":67414,"plotmapid":"88-TN NACOMM","property_t":"Commercial","used":"NA","plotsizesq":0,"plot_no":"NA","sector":"88-TN","ppt_type":"COMM","ppt_full":"Commercial","authority":"NOIDA","category":"commercial","execution_stage":"unknown"}},{"type":"Feature","geometry":{"type":"Polygon","coordinates":[[[77.427406,28.534092],[77.42745,28.534096],[77.427442,28.534169],[77.427398,28.534166],[77.427406,28.534092]]]},"properties":{"objectid":67415,"plotmapid":"88-TNC007COMM","property_t":"Commercial","used":"NA","plotsizesq":0,"plot_no":"007","sector":"88-TN","block":"C","ppt_type":"COMM","ppt_full":"Commercial","authority":"NOIDA","category":"commercial","execution_stage":"unknown"}},{"type":"Feature","geometry":{"type":"Polygon","coordinates":[[[77.427243,28.533996],[77.427233,28.534077],[77.427185,28.534073],[77.427194,28.533992],[77.427243,28.533996]]]},"properties":{"objectid":67416,"plotmapid":"88-TNC001COMM","property_t":"Commercial","used":"NA","plotsizesq":0,"plot_no":"001","sector":"88-TN","block":"C","ppt_type":"COMM","ppt_full":"Commercial","authority":"NOIDA","category":"commercial","execution_stage":"unknown"}},{"type":"Feature","geometry":{"type":"Polygon","coordinates":[[[77.427233,28.534077],[77.427225,28.53415],[77.427177,28.534146],[77.427185,28.534073],[77.427233,28.534077]]]},"properties":{"objectid":67417,"plotmapid":"88-TNC012COMM","property_t":"Commercial","used":"NA","plotsizesq":0,"plot_no":"012","sector":"88-TN","block":"C","ppt_type":"COMM","ppt_full":"Commercial","authority":"NOIDA","category":"commercial","execution_stage":"unknown"}},{"type":"Feature","geometry":{"type":"Polygon","coordinates":[[[77.427287,28.533999],[77.427278,28.534081],[77.427233,28.534077],[77.427243,28.533996],[77.427287,28.533999]]]},"properties":{"objectid":67418,"plotmapid":"88-TNC002COMM","property_t":"Commercial","used":"NA","plotsizesq":0,"plot_no":"002","sector":"88-TN","block":"C","ppt_type":"COMM","ppt_full":"Commercial","authority":"NOIDA","category":"commercial","execution_stage":"unknown"}},{"type":"Feature","geometry":{"type":"Polygon","coordinates":[[[77.427278,28.534081],[77.427269,28.534154],[77.427225,28.53415],[77.427233,28.534077],[77.427278,28.534081]]]},"properties":{"objectid":67419,"plotmapid":"88-TNC011COMM","property_t":"Commercial","used":"NA","plotsizesq":0,"plot_no":"011","sector":"88-TN","block":"C","ppt_type":"COMM","ppt_full":"Commercial","authority":"NOIDA","category":"commercial","execution_stage":"unknown"}},{"type":"Feature","geometry":{"type":"Polygon","coordinates":[[[77.427329,28.534002],[77.42732,28.534084],[77.427278,28.534081],[77.427287,28.533999],[77.427329,28.534002]]]},"properties":{"objectid":67420,"plotmapid":"88-TNC003COMM","property_t":"Commercial","used":"NA","plotsizesq":0,"plot_no":"003","sector":"88-TN","block":"C","ppt_type":"COMM","ppt_full":"Commercial","authority":"NOIDA","category":"commercial","execution_stage":"unknown"}},{"type":"Feature","geometry":{"type":"Polygon","coordinates":[[[77.42732,28.534084],[77.427311,28.534158],[77.427269,28.534154],[77.427278,28.534081],[77.42732,28.534084]]]},"properties":{"objectid":67421,"plotmapid":"88-TNC010COMM","property_t":"Commercial","used":"NA","plotsizesq":0,"plot_no":"010","sector":"88-TN","block":"C","ppt_type":"COMM","ppt_full":"Commercial","authority":"NOIDA","category":"commercial","execution_stage":"unknown"}},{"type":"Feature","geometry":{"type":"Polygon","coordinates":[[[77.427376,28.534006],[77.427366,28.534089],[77.42732,28.534084],[77.427329,28.534002],[77.427376,28.534006]]]},"properties":{"objectid":67422,"plotmapid":"88-TNC004COMM","property_t":"Commercial","used":"NA","plotsizesq":0,"plot_no":"004","sector":"88-TN","block":"C","ppt_type":"COMM","ppt_full":"Commercial","authority":"NOIDA","category":"commercial","execution_stage":"unknown"}},{"type":"Feature","geometry":{"type":"Polygon","coordinates":[[[77.427366,28.534089],[77.427358,28.534162],[77.427311,28.534158],[77.42732,28.534084],[77.427366,28.534089]]]},"properties":{"objectid":67423,"plotmapid":"88-TNC009COMM","property_t":"Commercial","used":"NA","plotsizesq":0,"plot_no":"009","sector":"88-TN","block":"C","ppt_type":"COMM","ppt_full":"Commercial","authority":"NOIDA","category":"commercial","execution_stage":"unknown"}},{"type":"Feature","geometry":{"type":"Polygon","coordinates":[[[77.427415,28.534009],[77.427406,28.534092],[77.427366,28.534089],[77.427376,28.534006],[77.427415,28.534009]]]},"properties":{"objectid":67424,"plotmapid":"88-TNC005COMM","property_t":"Commercial","used":"NA","plotsizesq":0,"plot_no":"005","sector":"88-TN","block":"C","ppt_type":"COMM","ppt_full":"Commercial","authority":"NOIDA","category":"commercial","execution_stage":"unknown"}},{"type":"Feature","geometry":{"type":"Polygon","coordinates":[[[77.427406,28.534092],[77.427398,28.534166],[77.427358,28.534162],[77.427366,28.534089],[77.427406,28.534092]]]},"properties":{"objectid":67425,"plotmapid":"88-TNC008COMM","property_t":"Commercial","used":"NA","plotsizesq":0,"plot_no":"008","sector":"88-TN","block":"C","ppt_type":"COMM","ppt_full":"Commercial","authority":"NOIDA","category":"commercial","execution_stage":"unknown"}}]}
