{"type":"FeatureCollection","features":[{"type":"Feature","geometry":{"type":"Polygon","coordinates":[[[77.390028,28.50929],[77.391155,28.510419],[77.390324,28.51095],[77.389418,28.509828],[77.389692,28.509535],[77.389988,28.509257],[77.390028,28.50929]]]},"properties":{"objectid":158,"plotmapid":"93BCOMM3COMM","used":"COMMERCIAL","plotsizesq":11746,"plot_size":"11746 SQMT","plot_no":"3","sector":"93B","block":"COMM","mplanduse":"V","ppt_type":"COMM","ppt_full":"Commercial","authority":"NOIDA","category":"commercial","execution_stage":"unknown"}},{"type":"Feature","geometry":{"type":"Polygon","coordinates":[[[77.390791,28.513507],[77.390986,28.513745],[77.3905,28.514068],[77.390305,28.51383],[77.390791,28.513507]]]},"properties":{"objectid":163,"plotmapid":"93BCOMM02BCOMM","used":"COMMERCIAL","plotsizesq":6090,"plot_size":"6090 SQMT","plot_no":"02B","sector":"93B","block":"COMM","mplanduse":"V","ppt_type":"COMM","ppt_full":"Commercial","authority":"NOIDA","category":"commercial","execution_stage":"unknown"}},{"type":"Feature","geometry":{"type":"Polygon","coordinates":[[[77.394709,28.506576],[77.397002,28.509925],[77.394059,28.512744],[77.393193,28.511857],[77.39496,28.510549],[77.392294,28.507663],[77.394691,28.506553],[77.394709,28.506576]]]},"properties":{"objectid":170,"plotmapid":"91C001COMM","used":"COMMERCIAL AREA","plotsizesq":150100,"plot_size":"150100 SQMT","plot_no":"001","sector":"91","block":"C","mplanduse":"V","ppt_type":"COMM","ppt_full":"Commercial","authority":"NOIDA","category":"commercial","execution_stage":"unknown"}},{"type":"Feature","geometry":{"type":"Polygon","coordinates":[[[77.389034,28.511752],[77.388521,28.512073],[77.387973,28.511394],[77.388388,28.510953],[77.389034,28.511752]]]},"properties":{"objectid":752,"plotmapid":"93BFC003COMM","used":"NA","plotsizesq":5000,"plot_size":"5000 SQMT","plot_no":"003","sector":"93B","block":"FC","mplanduse":"B","ppt_type":"COMM","ppt_full":"Commercial","authority":"NOIDA","category":"commercial","execution_stage":"unknown"}},{"type":"Feature","geometry":{"type":"Polygon","coordinates":[[[77.38761,28.511818],[77.387902,28.51218],[77.386835,28.512873],[77.386719,28.512729],[77.38761,28.511818]]]},"properties":{"objectid":913,"plotmapid":"93BNA001COMM","used":"COMMERCIAL","plotsizesq":4927.24,"plot_size":"4927.24 SQMT","plot_no":"001","sector":"93B","block":"NA","mplanduse":"V","ppt_type":"COMM","ppt_full":"Commercial","authority":"NOIDA","category":"commercial","execution_stage":"unknown"}},{"type":"Feature","geometry":{"type":"Polygon","coordinates":[[[77.396386,28.521319],[77.396141,28.521086],[77.393243,28.522953],[77.393093,28.522779],[77.393076,28.522631],[77.393103,28.522546],[77.393142,28.522491],[77.393187,28.522547],[77.393236,28.522473],[77.397525,28.519742],[77.397645,28.519823],[77.397478,28.520144],[77.397388,28.520278],[77.397106,28.520623],[77.396386,28.521319]]]},"properties":{"objectid":977,"plotmapid":"83NACOMM","used":"MASTER COMMERCIAL","plotsizesq":0,"plot_size":"NA","sector":"83","block":"NA","mplanduse":"V","ppt_type":"COMM","ppt_full":"Commercial","authority":"NOIDA","category":"commercial","execution_stage":"unknown"}},{"type":"Feature","geometry":{"type":"Polygon","coordinates":[[[77.38466,28.520435],[77.384599,28.520474],[77.38455,28.520406],[77.384607,28.52037],[77.38466,28.520435]]]},"properties":{"objectid":1273,"plotmapid":"93NACOMM","used":"MILKBOOTH","plotsizesq":25,"plot_size":"25SQMT","sector":"93","block":"NA","mplanduse":"B","ppt_type":"COMM","ppt_full":"Commercial","authority":"NOIDA","category":"commercial","execution_stage":"unknown"}},{"type":"Feature","geometry":{"type":"Polygon","coordinates":[[[77.381456,28.523602],[77.382056,28.523489],[77.381758,28.523963],[77.381456,28.523602]]]},"properties":{"objectid":1275,"plotmapid":"93NACOMM","used":"MILKBOOTH","plotsizesq":25,"plot_size":"25SQMT","sector":"93","block":"NA","mplanduse":"ISSUE","ppt_type":"COMM","ppt_full":"Commercial","authority":"NOIDA","category":"commercial","execution_stage":"unknown"}},{"type":"Feature","geometry":{"type":"Polygon","coordinates":[[[77.387493,28.521549],[77.387464,28.521566],[77.387033,28.521043],[77.387244,28.520906],[77.387672,28.521436],[77.387493,28.521549]]]},"properties":{"objectid":1276,"plotmapid":"93NACOMM","used":"MILKBOOTH","plotsizesq":25,"plot_size":"25SQMT","sector":"93","block":"NA","mplanduse":"B","ppt_type":"COMM","ppt_full":"Commercial","authority":"NOIDA","category":"commercial","execution_stage":"unknown"}},{"type":"Feature","geometry":{"type":"Polygon","coordinates":[[[77.387922,28.521864],[77.387881,28.521815],[77.387954,28.521769],[77.387992,28.52182],[77.387922,28.521864]]]},"properties":{"objectid":1277,"plotmapid":"93NACOMM","used":"MILKBOOTH","plotsizesq":25,"plot_size":"25SQMT","sector":"93","block":"NA","mplanduse":"V","ppt_type":"COMM","ppt_full":"Commercial","authority":"NOIDA","category":"commercial","execution_stage":"unknown"}},{"type":"Feature","geometry":{"type":"Polygon","coordinates":[[[77.388021,28.521856],[77.387951,28.5219],[77.387922,28.521864],[77.387992,28.52182],[77.388021,28.521856]]]},"properties":{"objectid":1278,"plotmapid":"93NACOMM","used":"MILKBOOTH","plotsizesq":25,"plot_size":"25SQMT","sector":"93","block":"NA","mplanduse":"B","ppt_type":"COMM","ppt_full":"Commercial","authority":"NOIDA","category":"commercial","execution_stage":"unknown"}},{"type":"Feature","geometry":{"type":"Polygon","coordinates":[[[77.387186,28.522406],[77.386896,28.522594],[77.386858,28.522543],[77.386885,28.522528],[77.386676,28.522188],[77.3869,28.522061],[77.387186,28.522406]]]},"properties":{"objectid":1279,"plotmapid":"93NACOMM","used":"MILKBOOTH","plotsizesq":25,"plot_size":"25SQMT","sector":"93","block":"NA","mplanduse":"ISSUE","ppt_type":"COMM","ppt_full":"Commercial","authority":"NOIDA","category":"commercial","execution_stage":"unknown"}},{"type":"Feature","geometry":{"type":"Polygon","coordinates":[[[77.384607,28.52037],[77.385385,28.519893],[77.385484,28.519998],[77.384119,28.52088],[77.384014,28.520749],[77.38455,28.520406],[77.384599,28.520474],[77.384613,28.520467],[77.38466,28.520435],[77.384607,28.52037]]]},"properties":{"objectid":1283,"plotmapid":"93NACOMM","used":"MILKBOOTH","plotsizesq":25,"plot_size":"25SQMT","sector":"93","block":"NA","mplanduse":"ISSUE","ppt_type":"COMM","ppt_full":"Commercial","authority":"NOIDA","category":"commercial","execution_stage":"unknown"}},{"type":"Feature","geometry":{"type":"Polygon","coordinates":[[[77.389491,28.521597],[77.389081,28.521853],[77.388939,28.521678],[77.389349,28.521422],[77.389491,28.521597]]]},"properties":{"objectid":1290,"plotmapid":"93NACOMM","used":"MILKBOOTH","plotsizesq":25,"plot_size":"25SQMT","sector":"93","block":"NA","mplanduse":"V","ppt_type":"COMM","ppt_full":"Commercial","authority":"NOIDA","category":"commercial","execution_stage":"unknown"}},{"type":"Feature","geometry":{"type":"Polygon","coordinates":[[[77.389729,28.521889],[77.389318,28.522145],[77.389081,28.521853],[77.389491,28.521597],[77.389729,28.521889]]]},"properties":{"objectid":1291,"plotmapid":"93NACOMM","used":"MILKBOOTH","plotsizesq":25,"plot_size":"25SQMT","sector":"93","block":"NA","mplanduse":"V","ppt_type":"COMM","ppt_full":"Commercial","authority":"NOIDA","category":"commercial","execution_stage":"unknown"}},{"type":"Feature","geometry":{"type":"Polygon","coordinates":[[[77.389081,28.521853],[77.389459,28.522321],[77.388962,28.522638],[77.388434,28.521992],[77.388939,28.521678],[77.389081,28.521853]]]},"properties":{"objectid":1292,"plotmapid":"93NACOMM","used":"MILKBOOTH","plotsizesq":25,"plot_size":"25SQMT","sector":"93","block":"NA","mplanduse":"V","ppt_type":"COMM","ppt_full":"Commercial","authority":"NOIDA","category":"commercial","execution_stage":"unknown"}},{"type":"Feature","geometry":{"type":"Polygon","coordinates":[[[77.389871,28.522064],[77.389459,28.522321],[77.389318,28.522145],[77.389729,28.521889],[77.389871,28.522064]]]},"properties":{"objectid":1293,"plotmapid":"93NACOMM","used":"MILKBOOTH","plotsizesq":25,"plot_size":"25SQMT","sector":"93","block":"NA","mplanduse":"V","ppt_type":"COMM","ppt_full":"Commercial","authority":"NOIDA","category":"commercial","execution_stage":"unknown"}},{"type":"Feature","geometry":{"type":"Polygon","coordinates":[[[77.3905,28.514068],[77.390014,28.514391],[77.389407,28.513653],[77.389893,28.51333],[77.3905,28.514068]]]},"properties":{"objectid":1677,"plotmapid":"93BCC001COMM","used":"COMMUNITY CENTRE","plotsizesq":6100,"plot_size":"6100 SQMT","plot_no":"001","sector":"93B","block":"CC","mplanduse":"B","ppt_type":"COMM","ppt_full":"Commercial","authority":"NOIDA","category":"commercial","execution_stage":"unknown"}},{"type":"Feature","geometry":{"type":"Polygon","coordinates":[[[77.39566,28.516625],[77.395906,28.51647],[77.396221,28.516849],[77.395966,28.517003],[77.39566,28.516625]]]},"properties":{"objectid":1684,"plotmapid":"92B278ACOMM","used":"COMM.","plotsizesq":1563,"plot_size":"1563.0 SQMT","plot_no":"278A","sector":"92","block":"B","mplanduse":"V","ppt_type":"COMM","ppt_full":"Commercial","authority":"NOIDA","category":"commercial","execution_stage":"unknown"}},{"type":"Feature","geometry":{"type":"Polygon","coordinates":[[[77.394296,28.519458],[77.394744,28.519171],[77.394962,28.519425],[77.394405,28.51978],[77.394249,28.519596],[77.394248,28.519582],[77.394342,28.519518],[77.394296,28.519458]]]},"properties":{"objectid":1686,"plotmapid":"92A138CCOMM","used":"COMM.","plotsizesq":2280,"plot_size":"2280.0 SQMT","plot_no":"138C","sector":"92","block":"A","mplanduse":"V","ppt_type":"COMM","ppt_full":"Commercial","authority":"NOIDA","category":"commercial","execution_stage":"unknown"}},{"type":"Feature","geometry":{"type":"Polygon","coordinates":[[[77.3927,28.521317],[77.392524,28.521123],[77.393058,28.520781],[77.393364,28.521141],[77.392834,28.521482],[77.3927,28.521317]]]},"properties":{"objectid":1692,"plotmapid":"92A094ACOMM","used":"COMM.","plotsizesq":2432,"plot_size":"2432.0 SQMT","plot_no":"094A","sector":"92","block":"A","mplanduse":"V","ppt_type":"COMM","ppt_full":"Commercial","authority":"NOIDA","category":"commercial","execution_stage":"unknown"}},{"type":"Feature","geometry":{"type":"Polygon","coordinates":[[[77.392068,28.519139],[77.392061,28.519132],[77.39239,28.51892],[77.392661,28.51876],[77.392955,28.519115],[77.392862,28.519311],[77.392228,28.519332],[77.392068,28.519139]]]},"properties":{"objectid":1697,"plotmapid":"92B150ACOMM","used":"COMM.","plotsizesq":3472.2,"plot_size":"3472.20 SQMT","plot_no":"150A","sector":"92","block":"B","mplanduse":"V","ppt_type":"COMM","ppt_full":"Commercial","authority":"NOIDA","category":"commercial","execution_stage":"unknown"}},{"type":"Feature","geometry":{"type":"Polygon","coordinates":[[[77.394097,28.517673],[77.39396,28.517767],[77.393667,28.517414],[77.394186,28.517092],[77.394463,28.517429],[77.394097,28.517673]]]},"properties":{"objectid":1701,"plotmapid":"92B202BCOMM","used":"COMM.","plotsizesq":0,"plot_no":"202B","sector":"92","block":"B","mplanduse":"V","ppt_type":"COMM","ppt_full":"Commercial","authority":"NOIDA","category":"commercial","execution_stage":"unknown"}},{"type":"Feature","geometry":{"type":"Polygon","coordinates":[[[77.388109,28.521973],[77.387936,28.522084],[77.387493,28.521549],[77.387672,28.521436],[77.387805,28.521576],[77.387954,28.521769],[77.387881,28.521815],[77.387951,28.5219],[77.388021,28.521856],[77.388109,28.521973]],[[77.387992,28.52196],[77.387965,28.521926],[77.387927,28.52195],[77.387955,28.521983],[77.387992,28.52196]]]},"properties":{"objectid":2348,"plotmapid":"93NACOMM","used":"MILKBOOTH","plotsizesq":25,"plot_size":"25SQMT","sector":"93","block":"NA","mplanduse":"B","ppt_type":"COMM","ppt_full":"Commercial","authority":"NOIDA","category":"commercial","execution_stage":"unknown"}},{"type":"Feature","geometry":{"type":"Polygon","coordinates":[[[77.40033,28.498103],[77.400305,28.49762],[77.400941,28.497651],[77.400919,28.497931],[77.400961,28.498048],[77.400984,28.498066],[77.401099,28.498303],[77.400512,28.498534],[77.40033,28.498103]]]},"properties":{"objectid":12791,"plotmapid":"135NA001COMM","used":"COMM","plotsizesq":5500,"plot_size":"5500 SQMT","plot_no":"001","sector":"135","block":"NA","mplanduse":"V","ppt_type":"COMM","ppt_full":"Commercial","authority":"NOIDA","category":"commercial","execution_stage":"unknown"}},{"type":"Feature","geometry":{"type":"Polygon","coordinates":[[[77.399614,28.498893],[77.399164,28.499072],[77.399202,28.498154],[77.399713,28.498173],[77.399625,28.498888],[77.399614,28.498893]]]},"properties":{"objectid":12793,"plotmapid":"135NACOMM","used":"SITE FOR COMMUNITY CENTER","plotsizesq":0,"plot_size":"NA","sector":"135","block":"NA","mplanduse":"B","ppt_type":"COMM","ppt_full":"Commercial","authority":"NOIDA","category":"commercial","execution_stage":"unknown"}},{"type":"Feature","geometry":{"type":"Polygon","coordinates":[[[77.398445,28.502551],[77.397075,28.503096],[77.396305,28.501709],[77.397772,28.501233],[77.398445,28.502551]]]},"properties":{"objectid":12804,"plotmapid":"135H-1COMM","used":"PROPOSED SITE FOR 5 STAR HOTEL","plotsizesq":24000,"plot_size":"24000 SQMT","plot_no":"1","sector":"135","block":"H","mplanduse":"V","ppt_type":"COMM","ppt_full":"Commercial","authority":"NOIDA","category":"commercial","execution_stage":"unknown"}},{"type":"Feature","geometry":{"type":"Polygon","coordinates":[[[77.397053,28.503056],[77.397075,28.503096],[77.395842,28.503586],[77.395818,28.503584],[77.395699,28.503476],[77.395631,28.503383],[77.395188,28.502711],[77.395116,28.502536],[77.395013,28.502129],[77.396305,28.501709],[77.397053,28.503056]]]},"properties":{"objectid":12805,"plotmapid":"135H-2COMM","used":"PROPOSED SITE FOR 5 STAR HOTEL","plotsizesq":24000,"plot_size":"24000 SQMT","plot_no":"2","sector":"135","block":"H","mplanduse":"V","ppt_type":"COMM","ppt_full":"Commercial","authority":"NOIDA","category":"commercial","execution_stage":"unknown"}},{"type":"Feature","geometry":{"type":"Polygon","coordinates":[[[77.371888,28.51153],[77.370646,28.512345],[77.3697,28.511192],[77.371068,28.510511],[77.371888,28.51153]]]},"properties":{"objectid":12810,"plotmapid":"132COMM001COMM","used":"COMMERCIAL","plotsizesq":21500,"plot_size":"21500 SQMT","plot_no":"001","sector":"132","block":"COMM","mplanduse":"V","ppt_type":"COMM","ppt_full":"Commercial","authority":"NOIDA","category":"commercial","execution_stage":"unknown"}},{"type":"Feature","geometry":{"type":"Polygon","coordinates":[[[77.373456,28.523713],[77.373728,28.524044],[77.373458,28.524219],[77.373162,28.52386],[77.373456,28.523713]]]},"properties":{"objectid":14646,"plotmapid":"108PP-001COMM","used":"PETROL PUMP","plotsizesq":0,"plot_size":"NA","plot_no":"PP-001","sector":"108","mplanduse":"V","ppt_type":"COMM","ppt_full":"Commercial","authority":"NOIDA","category":"commercial","execution_stage":"unknown"}},{"type":"Feature","geometry":{"type":"Polygon","coordinates":[[[77.370272,28.522874],[77.370233,28.522903],[77.370124,28.522786],[77.370202,28.522744],[77.370278,28.52281],[77.370239,28.522838],[77.370272,28.522874]]]},"properties":{"objectid":66751,"plotmapid":"128 COMM","plotsizesq":0,"sector":"128","mplanduse":"V","ppt_type":"COMM","ppt_full":"Commercial","authority":"NOIDA","category":"commercial","execution_stage":"unknown"}},{"type":"Feature","geometry":{"type":"Polygon","coordinates":[[[77.368888,28.523594],[77.369014,28.523789],[77.368296,28.52424],[77.368285,28.524226],[77.368175,28.524286],[77.368042,28.524081],[77.368278,28.523954],[77.368268,28.523939],[77.368888,28.523594]]]},"properties":{"objectid":66796,"plotmapid":"128 COMM","plotsizesq":0,"sector":"128","mplanduse":"B","ppt_type":"COMM","ppt_full":"Commercial","authority":"NOIDA","category":"commercial","execution_stage":"unknown"}},{"type":"Feature","geometry":{"type":"Polygon","coordinates":[[[77.390588,28.513261],[77.390102,28.513584],[77.389893,28.51333],[77.39038,28.513007],[77.390588,28.513261]]]},"properties":{"objectid":67433,"plotmapid":"93BCOMM002COMM","used":"COMMERCIAL","plotsizesq":2000,"plot_size":"6090 SQMT","plot_no":"002","sector":"93B","block":"COMM","mplanduse":"V","ppt_type":"COMM","ppt_full":"Commercial","authority":"NOIDA","category":"commercial","execution_stage":"unknown"}},{"type":"Feature","geometry":{"type":"Polygon","coordinates":[[[77.390597,28.513272],[77.390791,28.513507],[77.390305,28.51383],[77.390102,28.513584],[77.390588,28.513261],[77.390597,28.513272]]]},"properties":{"objectid":67434,"plotmapid":"93BCOMM02ACOMM","used":"COMMERCIAL","plotsizesq":6090,"plot_size":"2000 SQMT","plot_no":"02A","sector":"93B","block":"COMM","mplanduse":"V","ppt_type":"COMM","ppt_full":"Commercial","authority":"NOIDA","category":"commercial","execution_stage":"unknown"}}]}
