{"type":"FeatureCollection","features":[{"type":"Feature","geometry":{"type":"Polygon","coordinates":[[[77.405765,28.516491],[77.405367,28.5167],[77.404722,28.515672],[77.405958,28.515087],[77.40599,28.515146],[77.406017,28.515159],[77.406526,28.515174],[77.407588,28.51558],[77.406562,28.516076],[77.405765,28.516491]]]},"properties":{"objectid":1583,"plotmapid":"85C001COMM","property_t":"Commercial","used":"COMM.","plotsizesq":0,"plot_no":"001","sector":"85","block":"C","mplanduse":"V","ppt_type":"COMM","ppt_full":"Commercial","authority":"NOIDA","category":"commercial","execution_stage":"unknown"}},{"type":"Feature","geometry":{"type":"Polygon","coordinates":[[[77.414722,28.512727],[77.414116,28.513003],[77.41347,28.511938],[77.414092,28.511631],[77.414722,28.512727]]]},"properties":{"objectid":1601,"plotmapid":"90NA007BCOMM","property_t":"Commercial","used":"COMM.","plotsizesq":0,"plot_no":"007B","sector":"90","block":"NA","mplanduse":"V","ppt_type":"COMM","ppt_full":"Commercial","authority":"NOIDA","category":"commercial","execution_stage":"unknown"}},{"type":"Feature","geometry":{"type":"Polygon","coordinates":[[[77.419507,28.498141],[77.419535,28.498169],[77.419305,28.49834],[77.418804,28.497812],[77.419046,28.497664],[77.419507,28.498141]]]},"properties":{"objectid":12691,"plotmapid":"143BPPPP-001COMM","used":"NA","plotsizesq":1980,"plot_size":"1980 SQMT","plot_no":"PP-001","sector":"143B","block":"PP","mplanduse":"V","ppt_type":"COMM","ppt_full":"Commercial","authority":"NOIDA","category":"commercial","execution_stage":"unknown"}},{"type":"Feature","geometry":{"type":"Polygon","coordinates":[[[77.418025,28.49699],[77.419962,28.496088],[77.420482,28.495828],[77.420833,28.496246],[77.42148,28.495823],[77.422003,28.496345],[77.419535,28.498169],[77.419046,28.497664],[77.418804,28.497812],[77.418025,28.49699]]]},"properties":{"objectid":12692,"plotmapid":"143BNACOMM","used":"COMMERCIAL","plotsizesq":0,"plot_size":"NA","sector":"143B","block":"NA","mplanduse":"V","ppt_type":"COMM","ppt_full":"Commercial","authority":"NOIDA","category":"commercial","execution_stage":"unknown"}},{"type":"Feature","geometry":{"type":"Polygon","coordinates":[[[77.432881,28.486649],[77.43574,28.48991],[77.434846,28.490509],[77.431977,28.487253],[77.432881,28.486649]]]},"properties":{"objectid":12697,"plotmapid":"144NACOMM","used":"COMMERCIAL","plotsizesq":0,"plot_size":"NA","sector":"144","block":"NA","mplanduse":"V","ppt_type":"COMM","ppt_full":"Commercial","authority":"NOIDA","category":"commercial","execution_stage":"unknown"}},{"type":"Feature","geometry":{"type":"Polygon","coordinates":[[[77.424527,28.497974],[77.424864,28.49833],[77.42418,28.498779],[77.423614,28.498178],[77.424293,28.497729],[77.424527,28.497974]]]},"properties":{"objectid":12704,"plotmapid":"143BNACOMM","used":"COMMERCIAL","plotsizesq":0,"plot_size":"NA","sector":"143B","block":"NA","mplanduse":"V","ppt_type":"COMM","ppt_full":"Commercial","authority":"NOIDA","category":"commercial","execution_stage":"unknown"}},{"type":"Feature","geometry":{"type":"Polygon","coordinates":[[[77.40907,28.505001],[77.409104,28.505019],[77.409078,28.505058],[77.409013,28.505023],[77.409038,28.504985],[77.40907,28.505001]]]},"properties":{"objectid":12718,"plotmapid":"137NACOMM","used":"PROPOSED MILK BOOTH","plotsizesq":25,"plot_size":"25 SQMT","sector":"137","block":"NA","mplanduse":"V","ppt_type":"COMM","ppt_full":"Commercial","authority":"NOIDA","category":"commercial","execution_stage":"unknown"}},{"type":"Feature","geometry":{"type":"Polygon","coordinates":[[[77.410961,28.504035],[77.411044,28.504116],[77.410664,28.504428],[77.41094,28.504692],[77.410571,28.504996],[77.409974,28.504427],[77.410734,28.503818],[77.410961,28.504035]]]},"properties":{"objectid":12720,"plotmapid":"137NACOMM","used":"COMMERCIAL","plotsizesq":0.8400000000000001,"plot_size":"0.84 HEC","sector":"137","block":"NA","mplanduse":"V","ppt_type":"COMM","ppt_full":"Commercial","authority":"NOIDA","category":"commercial","execution_stage":"unknown"}},{"type":"Feature","geometry":{"type":"Polygon","coordinates":[[[77.410264,28.511452],[77.410791,28.512324],[77.41023,28.512591],[77.409514,28.511409],[77.410075,28.511142],[77.410264,28.511452]]]},"properties":{"objectid":12724,"plotmapid":"137NACOMM","used":"COMMERCIAL","plotsizesq":0,"plot_size":"NA","sector":"137","block":"NA","mplanduse":"V","ppt_type":"COMM","ppt_full":"Commercial","authority":"NOIDA","category":"commercial","execution_stage":"unknown"}},{"type":"Feature","geometry":{"type":"Polygon","coordinates":[[[77.411115,28.504185],[77.411319,28.504378],[77.41094,28.504692],[77.410664,28.504428],[77.411044,28.504116],[77.411115,28.504185]]]},"properties":{"objectid":12726,"plotmapid":"137PP-001COMM","used":"PETROL PUMP","plotsizesq":0,"plot_size":"NA","plot_no":"PP-001","sector":"137","mplanduse":"V","ppt_type":"COMM","ppt_full":"Commercial","authority":"NOIDA","category":"commercial","execution_stage":"unknown"}},{"type":"Feature","geometry":{"type":"Polygon","coordinates":[[[77.409873,28.508407],[77.410269,28.508238],[77.410766,28.509033],[77.410368,28.509223],[77.409873,28.508407]]]},"properties":{"objectid":12728,"plotmapid":"137NACOMM","used":"COMMERCIAL","plotsizesq":0,"plot_size":"NA","sector":"137","block":"NA","mplanduse":"V","ppt_type":"COMM","ppt_full":"Commercial","authority":"NOIDA","category":"commercial","execution_stage":"unknown"}},{"type":"Feature","geometry":{"type":"Polygon","coordinates":[[[77.411837,28.500756],[77.411463,28.501072],[77.411336,28.500902],[77.411165,28.500624],[77.411944,28.500137],[77.41223,28.500423],[77.411837,28.500756]]]},"properties":{"objectid":12732,"plotmapid":"142NA011CCOMM","used":"COMMERCIAL","plotsizesq":5200,"plot_size":"5200","plot_no":"011C","sector":"142","block":"NA","mplanduse":"B","ppt_type":"COMM","ppt_full":"Commercial","authority":"NOIDA","category":"commercial","execution_stage":"unknown"}},{"type":"Feature","geometry":{"type":"Polygon","coordinates":[[[77.411944,28.500137],[77.411165,28.500624],[77.410865,28.500034],[77.411722,28.499673],[77.411944,28.500137]]]},"properties":{"objectid":12733,"plotmapid":"142NA011BCOMM","used":"NA","plotsizesq":5200,"plot_size":"5200","plot_no":"011B","sector":"142","block":"NA","mplanduse":"V","ppt_type":"COMM","ppt_full":"Commercial","authority":"NOIDA","category":"commercial","execution_stage":"unknown"}},{"type":"Feature","geometry":{"type":"Polygon","coordinates":[[[77.414748,28.49904],[77.414892,28.4992],[77.414349,28.499648],[77.413837,28.499164],[77.413683,28.498846],[77.414479,28.49851],[77.414748,28.49904]]]},"properties":{"objectid":12736,"plotmapid":"142NA014COMM","used":"HOTEL","plotsizesq":0,"plot_size":"NA","plot_no":"014","sector":"142","block":"NA","mplanduse":"V","ppt_type":"COMM","ppt_full":"Commercial","authority":"NOIDA","category":"commercial","execution_stage":"unknown"}},{"type":"Feature","geometry":{"type":"Polygon","coordinates":[[[77.402843,28.500808],[77.401908,28.501171],[77.401569,28.500516],[77.402499,28.500133],[77.402843,28.500808]]]},"properties":{"objectid":12800,"plotmapid":"135COMM001COMM","used":"COMM","plotsizesq":8000,"plot_size":"8000 SQMT","plot_no":"001","sector":"135","block":"COMM","mplanduse":"V","ppt_type":"COMM","ppt_full":"Commercial","authority":"NOIDA","category":"commercial","execution_stage":"unknown"}},{"type":"Feature","geometry":{"type":"Polygon","coordinates":[[[77.453371,28.451044],[77.453685,28.451345],[77.453447,28.451557],[77.453132,28.451256],[77.453371,28.451044]]]},"properties":{"objectid":12858,"plotmapid":"155PP-002COMM","used":"PETROL PUMP","plotsizesq":0,"plot_size":"NA","plot_no":"PP-002","sector":"155","mplanduse":"V","ppt_type":"COMM","ppt_full":"Commercial","authority":"NOIDA","category":"commercial","execution_stage":"unknown"}},{"type":"Feature","geometry":{"type":"Polygon","coordinates":[[[77.454135,28.452729],[77.454414,28.452994],[77.454115,28.45324],[77.453837,28.452975],[77.454135,28.452729]]]},"properties":{"objectid":12891,"plotmapid":"155C006COMM","used":"SITE FOR KIOSKS","plotsizesq":0,"plot_size":"NA","plot_no":"006","sector":"155","block":"C","mplanduse":"V","ppt_type":"COMM","ppt_full":"Commercial","authority":"NOIDA","category":"commercial","execution_stage":"unknown"}},{"type":"Feature","geometry":{"type":"Polygon","coordinates":[[[77.456687,28.452493],[77.456761,28.452432],[77.45704,28.452697],[77.456741,28.452943],[77.456463,28.452678],[77.456687,28.452493]]]},"properties":{"objectid":12923,"plotmapid":"155C005COMM","used":"SITE FOR KIOSKS","plotsizesq":0,"plot_size":"NA","plot_no":"005","sector":"155","block":"C","mplanduse":"V","ppt_type":"COMM","ppt_full":"Commercial","authority":"NOIDA","category":"commercial","execution_stage":"unknown"}},{"type":"Feature","geometry":{"type":"Polygon","coordinates":[[[77.455526,28.454972],[77.45578,28.455213],[77.455413,28.455515],[77.45516,28.455275],[77.455526,28.454972]]]},"properties":{"objectid":12956,"plotmapid":"155C004COMM","used":"NA","plotsizesq":5150,"plot_size":"5150 SQMT","plot_no":"004","sector":"155","block":"C","mplanduse":"V","ppt_type":"COMM","ppt_full":"Commercial","authority":"NOIDA","category":"commercial","execution_stage":"unknown"}},{"type":"Feature","geometry":{"type":"Polygon","coordinates":[[[77.45578,28.455213],[77.456017,28.455438],[77.455651,28.45574],[77.455413,28.455515],[77.45578,28.455213]]]},"properties":{"objectid":12961,"plotmapid":"155C003COMM","used":"NA","plotsizesq":5150,"plot_size":"5150 SQMT","plot_no":"003","sector":"155","block":"C","mplanduse":"V","ppt_type":"COMM","ppt_full":"Commercial","authority":"NOIDA","category":"commercial","execution_stage":"unknown"}},{"type":"Feature","geometry":{"type":"Polygon","coordinates":[[[77.455309,28.455719],[77.455716,28.456105],[77.455456,28.45631],[77.455054,28.455929],[77.455309,28.455719]]]},"properties":{"objectid":12964,"plotmapid":"155PP-001COMM","used":"PETROL PUMP","plotsizesq":0,"plot_size":"NA","plot_no":"PP-001","sector":"155","mplanduse":"V","ppt_type":"COMM","ppt_full":"Commercial","authority":"NOIDA","category":"commercial","execution_stage":"unknown"}},{"type":"Feature","geometry":{"type":"Polygon","coordinates":[[[77.456017,28.455438],[77.456263,28.455671],[77.455888,28.455965],[77.455651,28.45574],[77.456017,28.455438]]]},"properties":{"objectid":12965,"plotmapid":"155C002COMM","used":"NA","plotsizesq":5150,"plot_size":"5150 SQMT","plot_no":"002","sector":"155","block":"C","mplanduse":"V","ppt_type":"COMM","ppt_full":"Commercial","authority":"NOIDA","category":"commercial","execution_stage":"unknown"}},{"type":"Feature","geometry":{"type":"Polygon","coordinates":[[[77.456735,28.455301],[77.456263,28.455671],[77.455526,28.454972],[77.455981,28.454597],[77.456735,28.455301]]]},"properties":{"objectid":12966,"plotmapid":"155C001COMM","used":"COMM","plotsizesq":4200,"plot_size":"4200 SQMT","plot_no":"001","sector":"155","block":"C","mplanduse":"V","ppt_type":"COMM","ppt_full":"Commercial","authority":"NOIDA","category":"commercial","execution_stage":"unknown"}},{"type":"Feature","geometry":{"type":"Polygon","coordinates":[[[77.446462,28.459886],[77.446223,28.460112],[77.445998,28.459925],[77.446237,28.459699],[77.446462,28.459886]]]},"properties":{"objectid":12980,"plotmapid":"158NA001COMM","used":"COMM.","plotsizesq":1039,"plot_size":"1039 SQMT","plot_no":"001","sector":"158","block":"NA","mplanduse":"V","ppt_type":"COMM","ppt_full":"Commercial","authority":"NOIDA","category":"commercial","execution_stage":"unknown"}},{"type":"Feature","geometry":{"type":"Polygon","coordinates":[[[77.446507,28.462323],[77.446182,28.462626],[77.445667,28.462223],[77.446019,28.461894],[77.446507,28.462323]]]},"properties":{"objectid":12988,"plotmapid":"158NA002COMM","used":"COMM.","plotsizesq":0,"plot_size":"NA","plot_no":"002","sector":"158","block":"NA","mplanduse":"V","ppt_type":"COMM","ppt_full":"Commercial","authority":"NOIDA","category":"commercial","execution_stage":"unknown"}},{"type":"Feature","geometry":{"type":"Polygon","coordinates":[[[77.44963,28.455352],[77.448941,28.455932],[77.448235,28.455377],[77.448205,28.455341],[77.448196,28.455298],[77.448217,28.455256],[77.448832,28.454728],[77.44963,28.455352]]]},"properties":{"objectid":13001,"plotmapid":"156C001COMM","used":"COMMERCIAL","plotsizesq":11425,"plot_size":"11425 SQMT","plot_no":"001","sector":"156","block":"C","mplanduse":"V","ppt_type":"COMM","ppt_full":"Commercial","authority":"NOIDA","category":"commercial","execution_stage":"unknown"}},{"type":"Feature","geometry":{"type":"Polygon","coordinates":[[[77.458601,28.463396],[77.458074,28.462935],[77.459362,28.461759],[77.459808,28.462142],[77.459169,28.462769],[77.458601,28.463396]]]},"properties":{"objectid":13018,"plotmapid":"157NA001COMM","used":"COMM-01","plotsizesq":12424,"plot_size":"12424 SQMT","plot_no":"001","sector":"157","block":"NA","mplanduse":"V","ppt_type":"COMM","ppt_full":"Commercial","authority":"NOIDA","category":"commercial","execution_stage":"unknown"}},{"type":"Feature","geometry":{"type":"Polygon","coordinates":[[[77.454849,28.464615],[77.453998,28.46535],[77.453614,28.465025],[77.454088,28.464532],[77.454333,28.464738],[77.454631,28.46443],[77.454849,28.464615]]]},"properties":{"objectid":13023,"plotmapid":"159NACOMM","used":"COMM.","plotsizesq":6870,"plot_size":"6870 SQMT","sector":"159","block":"NA","mplanduse":"V","ppt_type":"COMM","ppt_full":"Commercial","authority":"NOIDA","category":"commercial","execution_stage":"unknown"}},{"type":"Feature","geometry":{"type":"Polygon","coordinates":[[[77.454631,28.46443],[77.454333,28.464738],[77.454088,28.464532],[77.454387,28.464223],[77.454631,28.46443]]]},"properties":{"objectid":13030,"plotmapid":"159PP-002COMM","used":"PETROL PUMP","plotsizesq":1485,"plot_size":"1485 SQMT","plot_no":"PP-002","sector":"159","mplanduse":"V","ppt_type":"COMM","ppt_full":"Commercial","authority":"NOIDA","category":"commercial","execution_stage":"unknown"}},{"type":"Feature","geometry":{"type":"Polygon","coordinates":[[[77.414775,28.494891],[77.415546,28.495694],[77.413884,28.496422],[77.41251,28.496974],[77.412172,28.497096],[77.4114,28.495615],[77.414353,28.494471],[77.414775,28.494891]]]},"properties":{"objectid":13067,"plotmapid":"168COMMCOMM","used":"COMM.","plotsizesq":64000,"plot_size":"64000 SQMT","plot_no":"COMM","sector":"168","block":"COMM","mplanduse":"V","ppt_type":"COMM","ppt_full":"Commercial","authority":"NOIDA","category":"commercial","execution_stage":"unknown"}},{"type":"Feature","geometry":{"type":"Polygon","coordinates":[[[77.466633,28.44807],[77.467346,28.448727],[77.466589,28.44936],[77.465883,28.448657],[77.466633,28.44807]]]},"properties":{"objectid":13101,"plotmapid":"153B002COMM","used":"NA","plotsizesq":10000,"plot_size":"10000 SQMT","plot_no":"002","sector":"153","block":"B","mplanduse":"V","ppt_type":"COMM","ppt_full":"Commercial","authority":"NOIDA","category":"commercial","execution_stage":"unknown"}},{"type":"Feature","geometry":{"type":"Polygon","coordinates":[[[77.412355,28.499627],[77.41259,28.500101],[77.412216,28.500408],[77.411944,28.500137],[77.411722,28.499673],[77.412264,28.499444],[77.412355,28.499627]]]},"properties":{"objectid":13246,"plotmapid":"142NA011ACOMM","used":"NA","plotsizesq":5200,"plot_size":"5200","plot_no":"011A","sector":"142","block":"NA","mplanduse":"B","ppt_type":"COMM","ppt_full":"Commercial","authority":"NOIDA","category":"commercial","execution_stage":"unknown"}},{"type":"Feature","geometry":{"type":"Polygon","coordinates":[[[77.453996,28.450444],[77.454148,28.450589],[77.45402,28.450694],[77.453881,28.450562],[77.453996,28.450444]]]},"properties":{"objectid":13667,"plotmapid":"155NACOMM","used":"PROPOSED TEMPORARY SITE OFFICE","plotsizesq":0,"plot_size":"NA","sector":"155","block":"NA","mplanduse":"B","ppt_type":"COMM","ppt_full":"Commercial","authority":"NOIDA","category":"commercial","execution_stage":"unknown"}},{"type":"Feature","geometry":{"type":"Polygon","coordinates":[[[77.464612,28.454856],[77.464307,28.454642],[77.465047,28.454054],[77.465492,28.454493],[77.464831,28.455014],[77.464612,28.454856]]]},"properties":{"objectid":13821,"plotmapid":"153A001COMM","used":"NA","plotsizesq":0,"plot_size":"NA","plot_no":"001","sector":"153","block":"A","mplanduse":"V","ppt_type":"COMM","ppt_full":"Commercial","authority":"NOIDA","category":"commercial","execution_stage":"unknown"}},{"type":"Feature","geometry":{"type":"Polygon","coordinates":[[[77.405242,28.505964],[77.40465,28.506761],[77.404088,28.506239],[77.405036,28.505865],[77.405242,28.505964]]]},"properties":{"objectid":13874,"plotmapid":"136A082COMM","used":"COMM.","plotsizesq":4840,"plot_size":"4840 SQMT","plot_no":"082","sector":"136","block":"A","mplanduse":"V","ppt_type":"COMM","ppt_full":"Commercial","authority":"NOIDA","category":"commercial","execution_stage":"unknown"}},{"type":"Feature","geometry":{"type":"Polygon","coordinates":[[[77.441284,28.494182],[77.441169,28.494257],[77.441096,28.49417],[77.44121,28.494095],[77.441284,28.494182]]]},"properties":{"objectid":14386,"plotmapid":"144NACOMM","plotsizesq":0,"sector":"144","block":"NA","mplanduse":"V","ppt_type":"COMM","ppt_full":"Commercial","authority":"NOIDA","category":"commercial","execution_stage":"unknown"}},{"type":"Feature","geometry":{"type":"Polygon","coordinates":[[[77.437574,28.494293],[77.43767,28.494229],[77.437838,28.494421],[77.437739,28.494487],[77.437574,28.494293]]]},"properties":{"objectid":14523,"plotmapid":"144NACOMM","plotsizesq":0,"sector":"144","block":"NA","mplanduse":"V","ppt_type":"COMM","ppt_full":"Commercial","authority":"NOIDA","category":"commercial","execution_stage":"unknown"}},{"type":"Feature","geometry":{"type":"Polygon","coordinates":[[[77.441284,28.494182],[77.441358,28.494268],[77.441243,28.494344],[77.441169,28.494257],[77.441284,28.494182]]]},"properties":{"objectid":14530,"plotmapid":"144NACOMM","plotsizesq":0,"sector":"144","block":"NA","mplanduse":"V","ppt_type":"COMM","ppt_full":"Commercial","authority":"NOIDA","category":"commercial","execution_stage":"unknown"}},{"type":"Feature","geometry":{"type":"Polygon","coordinates":[[[77.438703,28.49592],[77.438782,28.496013],[77.438668,28.496089],[77.438588,28.495995],[77.438703,28.49592]]]},"properties":{"objectid":14540,"plotmapid":"144NACOMM","plotsizesq":0,"sector":"144","block":"NA","mplanduse":"V","ppt_type":"COMM","ppt_full":"Commercial","authority":"NOIDA","category":"commercial","execution_stage":"unknown"}},{"type":"Feature","geometry":{"type":"Polygon","coordinates":[[[77.478516,28.443729],[77.478213,28.443856],[77.477622,28.444171],[77.47715,28.444472],[77.476734,28.444778],[77.476548,28.444553],[77.476321,28.444332],[77.476667,28.444066],[77.47701,28.443836],[77.477312,28.443653],[77.478082,28.443259],[77.478516,28.443729]]]},"properties":{"objectid":15637,"plotmapid":"152NACOMM","used":"COMM AREA","plotsizesq":2,"plot_size":"2 HAC","sector":"152","block":"NA","mplanduse":"B","ppt_type":"COMM","ppt_full":"Commercial","authority":"NOIDA","category":"commercial","execution_stage":"unknown"}},{"type":"Feature","geometry":{"type":"Polygon","coordinates":[[[77.460854,28.460055],[77.461737,28.459619],[77.462092,28.460228],[77.461292,28.460886],[77.460506,28.460226],[77.460854,28.460055]]]},"properties":{"objectid":15685,"plotmapid":"154NACOMM","plotsizesq":0,"plot_size":"42731.38sqm","sector":"154","block":"NA","mplanduse":"V","ppt_type":"COMM","ppt_full":"Commercial","authority":"NOIDA","category":"commercial","execution_stage":"unknown"}},{"type":"Feature","geometry":{"type":"Polygon","coordinates":[[[77.421346,28.47502],[77.421233,28.475121],[77.420723,28.474768],[77.420822,28.474694],[77.421096,28.474554],[77.42135,28.474349],[77.42233,28.473782],[77.422534,28.473954],[77.421346,28.47502]]]},"properties":{"objectid":17081,"plotmapid":"167BNACOMM","used":"COMM","plotsizesq":0,"sector":"167B","block":"NA","mplanduse":"V","ppt_type":"COMM","ppt_full":"Commercial","authority":"NOIDA","category":"commercial","execution_stage":"unknown"}},{"type":"Feature","geometry":{"type":"Polygon","coordinates":[[[77.425274,28.471466],[77.424764,28.471718],[77.424513,28.471353],[77.424532,28.471034],[77.425919,28.470219],[77.426361,28.470814],[77.425274,28.471466]]]},"properties":{"objectid":17182,"plotmapid":"167BNACOMM","plotsizesq":0,"sector":"167B","block":"NA","mplanduse":"B","ppt_type":"COMM","ppt_full":"Commercial","authority":"NOIDA","category":"commercial","execution_stage":"unknown"}},{"type":"Feature","geometry":{"type":"Polygon","coordinates":[[[77.433823,28.467708],[77.434147,28.46805],[77.433421,28.468583],[77.433136,28.46832],[77.433823,28.467708]]]},"properties":{"objectid":17337,"plotmapid":"162NACOMM","used":"COMM","plotsizesq":0,"sector":"162","block":"NA","mplanduse":"ISSUE","ppt_type":"COMM","ppt_full":"Commercial","authority":"NOIDA","category":"commercial","execution_stage":"unknown"}},{"type":"Feature","geometry":{"type":"Polygon","coordinates":[[[77.432625,28.479129],[77.432952,28.479498],[77.432419,28.479863],[77.431988,28.479439],[77.43249,28.478977],[77.432625,28.479129]]]},"properties":{"objectid":17346,"plotmapid":"163C11COMM","used":"COMMERCIAL","plotsizesq":0,"plot_no":"11","sector":"163","block":"C","mplanduse":"ISSUE","ppt_type":"COMM","ppt_full":"Commercial","authority":"NOIDA","category":"commercial","execution_stage":"unknown"}},{"type":"Feature","geometry":{"type":"Polygon","coordinates":[[[77.432419,28.479863],[77.432597,28.480038],[77.431519,28.480777],[77.431047,28.480305],[77.431988,28.479439],[77.432419,28.479863]]]},"properties":{"objectid":17348,"plotmapid":"163C10COMM","used":"COMMERCIAL","plotsizesq":0,"plot_no":"10","sector":"163","block":"C","mplanduse":"ISSUE","ppt_type":"COMM","ppt_full":"Commercial","authority":"NOIDA","category":"commercial","execution_stage":"unknown"}},{"type":"Feature","geometry":{"type":"Polygon","coordinates":[[[77.432988,28.480424],[77.431909,28.481164],[77.431519,28.480777],[77.432597,28.480038],[77.432988,28.480424]]]},"properties":{"objectid":17350,"plotmapid":"163C09COMM","used":"COMMERCIAL","plotsizesq":0,"plot_no":"09","sector":"163","block":"C","mplanduse":"ISSUE","ppt_type":"COMM","ppt_full":"Commercial","authority":"NOIDA","category":"commercial","execution_stage":"unknown"}},{"type":"Feature","geometry":{"type":"Polygon","coordinates":[[[77.43338,28.48081],[77.432299,28.48155],[77.431909,28.481164],[77.432988,28.480424],[77.43338,28.48081]]]},"properties":{"objectid":17353,"plotmapid":"163C08COMM","used":"COMMERCIAL","plotsizesq":0,"plot_no":"08","sector":"163","block":"C","mplanduse":"ISSUE","ppt_type":"COMM","ppt_full":"Commercial","authority":"NOIDA","category":"commercial","execution_stage":"unknown"}},{"type":"Feature","geometry":{"type":"Polygon","coordinates":[[[77.433499,28.480927],[77.433772,28.481196],[77.43269,28.481937],[77.432299,28.48155],[77.43338,28.48081],[77.433499,28.480927]]]},"properties":{"objectid":17354,"plotmapid":"163C07COMM","used":"COMMERCIAL","plotsizesq":0,"plot_no":"07","sector":"163","block":"C","mplanduse":"ISSUE","ppt_type":"COMM","ppt_full":"Commercial","authority":"NOIDA","category":"commercial","execution_stage":"unknown"}},{"type":"Feature","geometry":{"type":"Polygon","coordinates":[[[77.434164,28.481581],[77.43308,28.482324],[77.43269,28.481937],[77.433772,28.481196],[77.434164,28.481581]]]},"properties":{"objectid":17357,"plotmapid":"163C06COMM","used":"COMMERCIAL","plotsizesq":0,"plot_no":"06","sector":"163","block":"C","mplanduse":"ISSUE","ppt_type":"COMM","ppt_full":"Commercial","authority":"NOIDA","category":"commercial","execution_stage":"unknown"}},{"type":"Feature","geometry":{"type":"Polygon","coordinates":[[[77.434555,28.481967],[77.433471,28.482711],[77.43308,28.482324],[77.434164,28.481581],[77.434555,28.481967]]]},"properties":{"objectid":17360,"plotmapid":"163C05COMM","used":"COMMERCIAL","plotsizesq":0,"plot_no":"05","sector":"163","block":"C","mplanduse":"ISSUE","ppt_type":"COMM","ppt_full":"Commercial","authority":"NOIDA","category":"commercial","execution_stage":"unknown"}},{"type":"Feature","geometry":{"type":"Polygon","coordinates":[[[77.43719,28.480533],[77.437281,28.480636],[77.436313,28.481386],[77.436092,28.481137],[77.43706,28.480387],[77.43719,28.480533]]]},"properties":{"objectid":17361,"plotmapid":"163C01COMM","used":"COMMERCIAL","plotsizesq":0,"plot_no":"01","sector":"163","block":"C","mplanduse":"ISSUE","ppt_type":"COMM","ppt_full":"Commercial","authority":"NOIDA","category":"commercial","execution_stage":"unknown"}},{"type":"Feature","geometry":{"type":"Polygon","coordinates":[[[77.434807,28.482215],[77.434963,28.482369],[77.434349,28.482763],[77.433864,28.4831],[77.433471,28.482711],[77.434555,28.481967],[77.434807,28.482215]]]},"properties":{"objectid":17364,"plotmapid":"163C04COMM","used":"COMMERCIAL","plotsizesq":0,"plot_no":"04","sector":"163","block":"C","mplanduse":"ISSUE","ppt_type":"COMM","ppt_full":"Commercial","authority":"NOIDA","category":"commercial","execution_stage":"unknown"}},{"type":"Feature","geometry":{"type":"Polygon","coordinates":[[[77.435131,28.48225],[77.434688,28.481812],[77.435453,28.481288],[77.435844,28.481729],[77.435131,28.48225]]]},"properties":{"objectid":17365,"plotmapid":"163C03COMM","used":"COMMERCIAL","plotsizesq":0,"plot_no":"03","sector":"163","block":"C","mplanduse":"ISSUE","ppt_type":"COMM","ppt_full":"Commercial","authority":"NOIDA","category":"commercial","execution_stage":"unknown"}},{"type":"Feature","geometry":{"type":"Polygon","coordinates":[[[77.436092,28.481137],[77.436313,28.481386],[77.435844,28.481729],[77.435453,28.481288],[77.435934,28.480958],[77.436092,28.481137]]]},"properties":{"objectid":17384,"plotmapid":"163C02COMM","used":"COMMERCIAL","plotsizesq":0,"plot_no":"02","sector":"163","block":"C","mplanduse":"ISSUE","ppt_type":"COMM","ppt_full":"Commercial","authority":"NOIDA","category":"commercial","execution_stage":"unknown"}},{"type":"Feature","geometry":{"type":"Polygon","coordinates":[[[77.417829,28.514345],[77.418421,28.5153],[77.417453,28.51576],[77.416861,28.514805],[77.417829,28.514345]]]},"properties":{"objectid":17395,"plotmapid":"138NA005ACOMM","used":"NA","plotsizesq":0,"plot_no":"005A","sector":"138","block":"NA","mplanduse":"V","ppt_type":"COMM","ppt_full":"Commercial","authority":"NOIDA","category":"commercial","execution_stage":"unknown"}},{"type":"Feature","geometry":{"type":"Polygon","coordinates":[[[77.422913,28.516687],[77.422877,28.517952],[77.422745,28.517957],[77.421988,28.516732],[77.422919,28.516325],[77.422913,28.516687]]]},"properties":{"objectid":17491,"plotmapid":"140NA034ACOMM","used":"COMMERCIAL","plotsizesq":0,"plot_size":"NA","plot_no":"034A","sector":"140","block":"NA","mplanduse":"V","ppt_type":"COMM","ppt_full":"Commercial","authority":"NOIDA","category":"commercial","execution_stage":"unknown"}},{"type":"Feature","geometry":{"type":"Polygon","coordinates":[[[77.425634,28.506984],[77.424733,28.507403],[77.424113,28.506419],[77.425012,28.505987],[77.425634,28.506984]]]},"properties":{"objectid":17517,"plotmapid":"140ANA004COMM","used":"COMMERCIAL","plotsizesq":0,"plot_size":"NA","plot_no":"004","sector":"140A","block":"NA","mplanduse":"V","ppt_type":"COMM","ppt_full":"Commercial","authority":"NOIDA","category":"commercial","execution_stage":"unknown"}},{"type":"Feature","geometry":{"type":"Polygon","coordinates":[[[77.483106,28.420343],[77.484438,28.421422],[77.482783,28.423431],[77.481357,28.425232],[77.479182,28.423959],[77.482771,28.420073],[77.483106,28.420343]]]},"properties":{"objectid":17566,"plotmapid":"150 COMM","property_t":"Commercial","used":"Sport Complex","plotsizesq":0,"sector":"150","mplanduse":"V","ppt_type":"COMM","ppt_full":"Commercial","authority":"NOIDA","category":"commercial","execution_stage":"unknown"}},{"type":"Feature","geometry":{"type":"Polygon","coordinates":[[[77.487425,28.43839],[77.487396,28.43841],[77.487366,28.438403],[77.48455,28.435704],[77.486588,28.434149],[77.48722,28.433462],[77.487524,28.433225],[77.487767,28.433059],[77.488041,28.432912],[77.488448,28.432722],[77.48866,28.432678],[77.488294,28.433806],[77.48856,28.43397],[77.488422,28.434678],[77.487783,28.437098],[77.487425,28.43839]]]},"properties":{"objectid":17568,"plotmapid":"150 COMM","property_t":"Commercial","used":"Sport Complex","plotsizesq":0,"sector":"150","mplanduse":"V","ppt_type":"COMM","ppt_full":"Commercial","authority":"NOIDA","category":"commercial","execution_stage":"unknown"}},{"type":"Feature","geometry":{"type":"Polygon","coordinates":[[[77.485997,28.427233],[77.485267,28.427822],[77.483822,28.426422],[77.483088,28.427193],[77.482689,28.426799],[77.481766,28.42594],[77.481453,28.425741],[77.481761,28.425435],[77.482128,28.425676],[77.482869,28.426291],[77.483878,28.425259],[77.482362,28.424136],[77.483418,28.422845],[77.48395,28.423227],[77.484092,28.423061],[77.485163,28.423907],[77.484948,28.424103],[77.485292,28.424375],[77.485511,28.424173],[77.485819,28.424407],[77.48627,28.424789],[77.486551,28.425004],[77.486836,28.425193],[77.487605,28.425846],[77.487592,28.426215],[77.487427,28.426083],[77.487167,28.4263],[77.486689,28.426657],[77.485997,28.427233]]]},"properties":{"objectid":17572,"plotmapid":"150SC-01SC-01/C-A2,A4,A6,A11&A12COMM","property_t":"Commercial","used":"Sport Complex","plotsizesq":129701.81,"plot_size":"129701.81 SQMT","plot_no":"SC-01/C-A2,A4,A6,A11&A12","sector":"150","block":"SC-01","mplanduse":"B","ppt_type":"COMM","ppt_full":"Commercial","authority":"NOIDA","category":"commercial","execution_stage":"unknown"}},{"type":"Feature","geometry":{"type":"Polygon","coordinates":[[[77.483464,28.439699],[77.48349,28.439725],[77.484231,28.441905],[77.483246,28.442141],[77.482326,28.439367],[77.482749,28.43901],[77.483464,28.439699]]]},"properties":{"objectid":17573,"plotmapid":"150SC-01A-6COMM","property_t":"Commercial","used":"Sport Complex","plotsizesq":34814.3,"plot_size":"34814.3 SQMT","plot_no":"A-6","sector":"150","block":"SC-01","mplanduse":"V","ppt_type":"COMM","ppt_full":"Commercial","authority":"NOIDA","category":"commercial","execution_stage":"unknown"}},{"type":"Feature","geometry":{"type":"Polygon","coordinates":[[[77.485407,28.417198],[77.487356,28.418837],[77.487355,28.419034],[77.483899,28.420622],[77.482955,28.419852],[77.485407,28.417198]]]},"properties":{"objectid":17575,"plotmapid":"150SC-02A-1COMM","property_t":"Commercial","used":"Sport Complex","plotsizesq":83970,"plot_size":"83970 SQMT","plot_no":"A-1","sector":"150","block":"SC-02","mplanduse":"B","ppt_type":"COMM","ppt_full":"Commercial","authority":"NOIDA","category":"commercial","execution_stage":"unknown"}},{"type":"Feature","geometry":{"type":"Polygon","coordinates":[[[77.486962,28.415524],[77.489803,28.417909],[77.487987,28.418747],[77.487944,28.418746],[77.487862,28.418701],[77.487779,28.418677],[77.487691,28.418673],[77.487556,28.418694],[77.487445,28.418613],[77.485563,28.417029],[77.486962,28.415524]]]},"properties":{"objectid":17576,"plotmapid":"150SC-02A-9COMM","property_t":"Commercial","used":"Sport Complex","plotsizesq":80857,"plot_size":"80857 SQMT","plot_no":"A-9","sector":"150","block":"SC-02","mplanduse":"B","ppt_type":"COMM","ppt_full":"Commercial","authority":"NOIDA","category":"commercial","execution_stage":"unknown"}},{"type":"Feature","geometry":{"type":"Polygon","coordinates":[[[77.492839,28.418111],[77.49162,28.419245],[77.489209,28.417225],[77.49051,28.416006],[77.490818,28.416152],[77.492687,28.417156],[77.493362,28.417617],[77.492839,28.418111]]]},"properties":{"objectid":17577,"plotmapid":"150SC-02/J&KCOMM","property_t":"Commercial","used":"Sport Complex","plotsizesq":72000,"plot_size":"72000 SQMT","plot_no":"SC-02/J&K","sector":"150","mplanduse":"B","ppt_type":"COMM","ppt_full":"Commercial","authority":"NOIDA","category":"commercial","execution_stage":"unknown"}},{"type":"Feature","geometry":{"type":"Polygon","coordinates":[[[77.49051,28.416006],[77.489209,28.417225],[77.487061,28.415427],[77.487305,28.415259],[77.487542,28.415157],[77.487832,28.415115],[77.487989,28.415124],[77.488808,28.415299],[77.489223,28.41541],[77.49051,28.416006]]]},"properties":{"objectid":17578,"plotmapid":"150SC-02/LCOMM","property_t":"Commercial","used":"Sport Complex","plotsizesq":42658,"plot_size":"42658 SQMT","plot_no":"SC-02/L","sector":"150","mplanduse":"V","ppt_type":"COMM","ppt_full":"Commercial","authority":"NOIDA","category":"commercial","execution_stage":"unknown"}},{"type":"Feature","geometry":{"type":"Polygon","coordinates":[[[77.493722,28.417864],[77.494114,28.418145],[77.494411,28.418392],[77.494631,28.418672],[77.495025,28.419243],[77.495409,28.419761],[77.494825,28.420171],[77.493717,28.420999],[77.49162,28.419245],[77.493362,28.417617],[77.493722,28.417864]]]},"properties":{"objectid":17579,"plotmapid":"150SC-02/H&ICOMM","property_t":"Commercial","used":"Sport Complex","plotsizesq":72000,"plot_size":"72000 SQMT","plot_no":"SC-02/H&I","sector":"150","mplanduse":"B","ppt_type":"COMM","ppt_full":"Commercial","authority":"NOIDA","category":"commercial","execution_stage":"unknown"}},{"type":"Feature","geometry":{"type":"Polygon","coordinates":[[[77.495882,28.419909],[77.496772,28.420941],[77.497135,28.421475],[77.497628,28.422305],[77.497906,28.422682],[77.497828,28.422993],[77.496857,28.423593],[77.494254,28.420952],[77.495798,28.419822],[77.495882,28.419909]]]},"properties":{"objectid":17580,"plotmapid":"150NACOMM","property_t":"Commercial","used":"Sport Complex","plotsizesq":0,"plot_no":"NA","sector":"150","mplanduse":"V","ppt_type":"COMM","ppt_full":"Commercial","authority":"NOIDA","category":"commercial","execution_stage":"unknown"}},{"type":"Feature","geometry":{"type":"Polygon","coordinates":[[[77.495873,28.423],[77.4952,28.423588],[77.494537,28.422966],[77.495243,28.422361],[77.495873,28.423]]]},"properties":{"objectid":17581,"plotmapid":"150SC-02/ACOMM","property_t":"Commercial","used":"Sport Complex","plotsizesq":0,"plot_no":"SC-02/A","sector":"150","mplanduse":"B","ppt_type":"COMM","ppt_full":"Commercial","authority":"NOIDA","category":"commercial","execution_stage":"unknown"}},{"type":"Feature","geometry":{"type":"Polygon","coordinates":[[[77.495873,28.423],[77.496411,28.423542],[77.495642,28.424007],[77.4952,28.423588],[77.495873,28.423]]]},"properties":{"objectid":17582,"plotmapid":"150SC-02/A5COMM","property_t":"Commercial","used":"Sport Complex","plotsizesq":8080,"plot_size":"8080 SQMT","plot_no":"SC-02/A5","sector":"150","mplanduse":"V","ppt_type":"COMM","ppt_full":"Commercial","authority":"NOIDA","category":"commercial","execution_stage":"unknown"}},{"type":"Feature","geometry":{"type":"Polygon","coordinates":[[[77.494493,28.424711],[77.493912,28.425077],[77.493134,28.42563],[77.490784,28.424884],[77.492602,28.423414],[77.493246,28.424026],[77.493535,28.423792],[77.494493,28.424711]]]},"properties":{"objectid":17583,"plotmapid":"150SC-02/A4COMM","property_t":"Commercial","used":"Sport Complex","plotsizesq":46846,"plot_size":"46846 SQMT","plot_no":"SC-02/A4","sector":"150","mplanduse":"V","ppt_type":"COMM","ppt_full":"Commercial","authority":"NOIDA","category":"commercial","execution_stage":"unknown"}},{"type":"Feature","geometry":{"type":"Polygon","coordinates":[[[77.490805,28.421233],[77.493283,28.421275],[77.493316,28.421288],[77.493328,28.421318],[77.493316,28.421342],[77.491749,28.422633],[77.491731,28.422663],[77.491727,28.422714],[77.49175,28.42276],[77.492363,28.423345],[77.492381,28.423389],[77.492364,28.423434],[77.490605,28.424839],[77.49012,28.424674],[77.489085,28.424357],[77.488968,28.424291],[77.488887,28.424192],[77.488277,28.422859],[77.489187,28.422536],[77.490805,28.421233]]]},"properties":{"objectid":17584,"plotmapid":"150SC-02ACOMM","property_t":"Commercial","used":"Sport Complex","plotsizesq":120600,"plot_size":"120600 SQMT","plot_no":"A","sector":"150","block":"SC-02","mplanduse":"V","ppt_type":"COMM","ppt_full":"Commercial","authority":"NOIDA","category":"commercial","execution_stage":"unknown"}},{"type":"Feature","geometry":{"type":"Polygon","coordinates":[[[77.493476,28.42098],[77.4935,28.421016],[77.493495,28.421072],[77.493465,28.421105],[77.493404,28.421122],[77.490356,28.421043],[77.490296,28.421014],[77.489445,28.420293],[77.489931,28.419838],[77.491172,28.419677],[77.491527,28.419349],[77.493476,28.42098]]]},"properties":{"objectid":17585,"plotmapid":"150SC-02A-7COMM","property_t":"Commercial","used":"Sport Complex","plotsizesq":50790,"plot_size":"50790 SQMT","plot_no":"A-7","sector":"150","block":"SC-02","mplanduse":"B","ppt_type":"COMM","ppt_full":"Commercial","authority":"NOIDA","category":"commercial","execution_stage":"unknown"}},{"type":"Feature","geometry":{"type":"Polygon","coordinates":[[[77.489458,28.42028],[77.489445,28.420293],[77.488014,28.419088],[77.488049,28.418929],[77.488075,28.418891],[77.488189,28.418835],[77.489908,28.418045],[77.489954,28.418042],[77.491527,28.419349],[77.491172,28.419677],[77.489931,28.419838],[77.489458,28.42028]]]},"properties":{"objectid":17586,"plotmapid":"150SC-02A-8COMM","property_t":"Commercial","used":"Sport Complex","plotsizesq":50560,"plot_size":"50560 SQMT","plot_no":"A-8","sector":"150","block":"SC-02","mplanduse":"V","ppt_type":"COMM","ppt_full":"Commercial","authority":"NOIDA","category":"commercial","execution_stage":"unknown"}},{"type":"Feature","geometry":{"type":"Polygon","coordinates":[[[77.484705,28.420625],[77.487481,28.421528],[77.488615,28.423941],[77.488704,28.424174],[77.488719,28.424265],[77.4887,28.424315],[77.488591,28.42442],[77.484332,28.420973],[77.484705,28.420625]]]},"properties":{"objectid":17587,"plotmapid":"150SC-02A-2COMM","property_t":"Commercial","used":"Sport Complex","plotsizesq":65331,"plot_size":"65331 SQMT","plot_no":"A-2","sector":"150","block":"SC-02","mplanduse":"B","ppt_type":"COMM","ppt_full":"Commercial","authority":"NOIDA","category":"commercial","execution_stage":"unknown"}},{"type":"Feature","geometry":{"type":"Polygon","coordinates":[[[77.494537,28.422966],[77.493846,28.423539],[77.492466,28.422216],[77.493922,28.421027],[77.495243,28.422361],[77.494537,28.422966]]]},"properties":{"objectid":17588,"plotmapid":"150SC-02A-6COMM","property_t":"Commercial","used":"Sport Complex","plotsizesq":37915,"plot_size":"37915 SQMT","plot_no":"A-6","sector":"150","block":"SC-02","mplanduse":"V","ppt_type":"COMM","ppt_full":"Commercial","authority":"NOIDA","category":"commercial","execution_stage":"unknown"}},{"type":"Feature","geometry":{"type":"Polygon","coordinates":[[[77.493535,28.423792],[77.493246,28.424026],[77.492602,28.423414],[77.491891,28.422688],[77.492466,28.422216],[77.493846,28.423539],[77.493535,28.423792]]]},"properties":{"objectid":17589,"plotmapid":"150SC-02/PCOMM","property_t":"Commercial","used":"Sport Complex","plotsizesq":17344,"plot_size":"17344 SQMT","plot_no":"SC-02/P","sector":"150","mplanduse":"V","ppt_type":"COMM","ppt_full":"Commercial","authority":"NOIDA","category":"commercial","execution_stage":"unknown"}},{"type":"Feature","geometry":{"type":"Polygon","coordinates":[[[77.495642,28.424007],[77.494493,28.424711],[77.493535,28.423792],[77.494537,28.422966],[77.495642,28.424007]]]},"properties":{"objectid":17590,"plotmapid":"150SC-02/NCOMM","property_t":"Commercial","used":"Sport Complex","plotsizesq":20863,"plot_size":"20863 SQMT","plot_no":"SC-02/N","sector":"150","mplanduse":"V","ppt_type":"COMM","ppt_full":"Commercial","authority":"NOIDA","category":"commercial","execution_stage":"unknown"}},{"type":"Feature","geometry":{"type":"Polygon","coordinates":[[[77.490805,28.421233],[77.489187,28.422536],[77.488277,28.422859],[77.487653,28.421485],[77.487591,28.421412],[77.487533,28.421379],[77.48477,28.420486],[77.484744,28.42044],[77.484765,28.420401],[77.487435,28.419173],[77.487501,28.41917],[77.487605,28.419222],[77.487695,28.41924],[77.487786,28.419236],[77.487873,28.419209],[77.490224,28.421168],[77.490394,28.421224],[77.490805,28.421233]]]},"properties":{"objectid":17591,"plotmapid":"150SC-02A-10COMM","property_t":"Commercial","used":"Sport Complex","plotsizesq":94293,"plot_size":"94293 SQMT","plot_no":"A-10","sector":"150","block":"SC-02","mplanduse":"V","ppt_type":"COMM","ppt_full":"Commercial","authority":"NOIDA","category":"commercial","execution_stage":"unknown"}},{"type":"Feature","geometry":{"type":"Polygon","coordinates":[[[77.488077,28.427778],[77.487406,28.428321],[77.486145,28.427102],[77.486839,28.426548],[77.488077,28.427778]]]},"properties":{"objectid":17592,"plotmapid":"150SC-01SC-01/C-A5COMM","property_t":"Commercial","used":"Sport Complex","plotsizesq":20000,"plot_size":"20000 SQMT","plot_no":"SC-01/C-A5","sector":"150","block":"SC-01","mplanduse":"V","ppt_type":"COMM","ppt_full":"Commercial","authority":"NOIDA","category":"commercial","execution_stage":"unknown"}},{"type":"Feature","geometry":{"type":"Polygon","coordinates":[[[77.482038,28.429952],[77.48255,28.429514],[77.484066,28.428323],[77.485604,28.429796],[77.483579,28.43143],[77.482038,28.429952]]]},"properties":{"objectid":17593,"plotmapid":"150SC002/GCOMM","property_t":"Commercial","used":"Sport Complex","plotsizesq":60000.54,"plot_size":"60000.54 SQMT","plot_no":"002/G","sector":"150","block":"SC","mplanduse":"V","ppt_type":"COMM","ppt_full":"Commercial","authority":"NOIDA","category":"commercial","execution_stage":"unknown"}},{"type":"Feature","geometry":{"type":"Polygon","coordinates":[[[77.485702,28.422441],[77.486201,28.422848],[77.485433,28.423579],[77.485484,28.423623],[77.485165,28.423907],[77.484525,28.423398],[77.485589,28.422351],[77.485702,28.422441]]]},"properties":{"objectid":17594,"plotmapid":"150SC-01SC-01/C-ACOMM","property_t":"Commercial","used":"Sport Complex","plotsizesq":13000,"plot_size":"13000 SQMT","plot_no":"SC-01/C-A","sector":"150","block":"SC-01","mplanduse":"V","ppt_type":"COMM","ppt_full":"Commercial","authority":"NOIDA","category":"commercial","execution_stage":"unknown"}},{"type":"Feature","geometry":{"type":"Polygon","coordinates":[[[77.485499,28.422279],[77.485589,28.422351],[77.484525,28.423398],[77.484092,28.423061],[77.485135,28.421987],[77.485499,28.422279]]]},"properties":{"objectid":17595,"plotmapid":"150SC-01SC-01/C-ACOMM","property_t":"Commercial","used":"Sport Complex","plotsizesq":12000,"plot_size":"12000 SQMT","plot_no":"SC-01/C-A","sector":"150","block":"SC-01","mplanduse":"B","ppt_type":"COMM","ppt_full":"Commercial","authority":"NOIDA","category":"commercial","execution_stage":"unknown"}},{"type":"Feature","geometry":{"type":"Polygon","coordinates":[[[77.483277,28.424814],[77.48231,28.425827],[77.482128,28.425676],[77.481484,28.425254],[77.482362,28.424136],[77.483277,28.424814]]]},"properties":{"objectid":17596,"plotmapid":"150 COMM","property_t":"Commercial","used":"Sport Complex","plotsizesq":0,"sector":"150","mplanduse":"B","ppt_type":"COMM","ppt_full":"Commercial","authority":"NOIDA","category":"commercial","execution_stage":"unknown"}},{"type":"Feature","geometry":{"type":"Polygon","coordinates":[[[77.483878,28.425259],[77.482869,28.426291],[77.48231,28.425827],[77.483277,28.424814],[77.483878,28.425259]]]},"properties":{"objectid":17597,"plotmapid":"150 COMM","property_t":"Commercial","used":"Sport Complex","plotsizesq":0,"sector":"150","mplanduse":"V","ppt_type":"COMM","ppt_full":"Commercial","authority":"NOIDA","category":"commercial","execution_stage":"unknown"}},{"type":"Feature","geometry":{"type":"Polygon","coordinates":[[[77.48334,28.427456],[77.484085,28.428048],[77.482289,28.429523],[77.481346,28.428624],[77.483088,28.427193],[77.48334,28.427456]]]},"properties":{"objectid":17598,"plotmapid":"150SC-01B-1COMM","property_t":"Commercial","used":"Sport Complex","plotsizesq":0,"plot_size":"13355.61 SQMT","plot_no":"B-1","sector":"150","block":"SC-01","mplanduse":"B","ppt_type":"COMM","ppt_full":"Commercial","authority":"NOIDA","category":"commercial","execution_stage":"unknown"}},{"type":"Feature","geometry":{"type":"Polygon","coordinates":[[[77.484239,28.42817],[77.48334,28.427456],[77.483088,28.427193],[77.483822,28.426422],[77.485044,28.427599],[77.484506,28.428037],[77.484449,28.427985],[77.484239,28.42817]]]},"properties":{"objectid":17599,"plotmapid":"150SC-01B-6COMM","property_t":"Commercial","used":"Sport Complex","plotsizesq":17600,"plot_size":"17600 SQMT","plot_no":"B-6","sector":"150","block":"SC-01","mplanduse":"V","ppt_type":"COMM","ppt_full":"Commercial","authority":"NOIDA","category":"commercial","execution_stage":"unknown"}},{"type":"Feature","geometry":{"type":"Polygon","coordinates":[[[77.487252,28.428445],[77.4857,28.429716],[77.484159,28.428241],[77.484449,28.427985],[77.484506,28.428037],[77.485044,28.427599],[77.485267,28.427822],[77.485997,28.427233],[77.487252,28.428445]]]},"properties":{"objectid":17600,"plotmapid":"150SC-01SC-01/C-A9COMM","property_t":"Commercial","used":"Sport Complex","plotsizesq":44515.42,"plot_size":"44515.42 SQMT","plot_no":"SC-01/C-A9","sector":"150","block":"SC-01","mplanduse":"V","ppt_type":"COMM","ppt_full":"Commercial","authority":"NOIDA","category":"commercial","execution_stage":"unknown"}},{"type":"Feature","geometry":{"type":"Polygon","coordinates":[[[77.483199,28.431741],[77.481936,28.432771],[77.481794,28.43261],[77.480626,28.431131],[77.481653,28.430266],[77.483199,28.431741]]]},"properties":{"objectid":17601,"plotmapid":"150SC-01SC-01/B8COMM","property_t":"Commercial","used":"Sport Complex","plotsizesq":12000,"plot_size":"12000 SQMT","plot_no":"SC-01/B8","sector":"150","block":"SC-01","mplanduse":"B","ppt_type":"COMM","ppt_full":"Commercial","authority":"NOIDA","category":"commercial","execution_stage":"unknown"}},{"type":"Feature","geometry":{"type":"Polygon","coordinates":[[[77.482289,28.429523],[77.480514,28.430991],[77.479683,28.429945],[77.481346,28.428624],[77.482289,28.429523]]]},"properties":{"objectid":17602,"plotmapid":"150SC001BCOMM","property_t":"Commercial","used":"Sport Complex","plotsizesq":40880.51,"plot_size":"40880.51 SQMT","plot_no":"001B","sector":"150","block":"SC","mplanduse":"V","ppt_type":"COMM","ppt_full":"Commercial","authority":"NOIDA","category":"commercial","execution_stage":"unknown"}},{"type":"Feature","geometry":{"type":"Polygon","coordinates":[[[77.48249,28.427684],[77.481346,28.428624],[77.479683,28.429945],[77.47907,28.429162],[77.478793,28.428832],[77.478306,28.428352],[77.480933,28.42622],[77.48249,28.427684]]]},"properties":{"objectid":17603,"plotmapid":"150SC-01B-2COMM","property_t":"Commercial","used":"Sport Complex","plotsizesq":80932.2,"plot_size":"80932.20 SQMT","plot_no":"B-2","sector":"150","block":"SC-01","mplanduse":"B","ppt_type":"COMM","ppt_full":"Commercial","authority":"NOIDA","category":"commercial","execution_stage":"unknown"}},{"type":"Feature","geometry":{"type":"Polygon","coordinates":[[[77.479441,28.427433],[77.478306,28.428352],[77.477645,28.427701],[77.477711,28.42708],[77.477781,28.426904],[77.47801,28.426473],[77.478341,28.42678],[77.478476,28.426515],[77.479441,28.427433]]]},"properties":{"objectid":17604,"plotmapid":"150SCB-7COMM","property_t":"Commercial","used":"Sport Complex","plotsizesq":17600,"plot_size":"17600 SQMT","plot_no":"B-7","sector":"150","block":"SC","mplanduse":"V","ppt_type":"COMM","ppt_full":"Commercial","authority":"NOIDA","category":"commercial","execution_stage":"unknown"}},{"type":"Feature","geometry":{"type":"Polygon","coordinates":[[[77.477784,28.4269],[77.477711,28.42708],[77.477645,28.427701],[77.476436,28.426523],[77.479101,28.424035],[77.479533,28.42429],[77.479322,28.424642],[77.479173,28.425146],[77.479013,28.425497],[77.478852,28.42578],[77.478341,28.42678],[77.47801,28.426473],[77.477784,28.4269]]]},"properties":{"objectid":17605,"plotmapid":"150 COMM","property_t":"Commercial","used":"Sport Complex","plotsizesq":0,"sector":"150","mplanduse":"V","ppt_type":"COMM","ppt_full":"Commercial","authority":"NOIDA","category":"commercial","execution_stage":"unknown"}},{"type":"Feature","geometry":{"type":"Polygon","coordinates":[[[77.492559,28.426049],[77.491816,28.426602],[77.491609,28.426774],[77.491127,28.427251],[77.490938,28.427485],[77.490868,28.427608],[77.490457,28.428531],[77.489433,28.430878],[77.487358,28.42891],[77.491642,28.425408],[77.491876,28.425495],[77.492559,28.426049]]]},"properties":{"objectid":17606,"plotmapid":"150SC-02BCOMM","property_t":"Commercial","used":"Sport Complex","plotsizesq":100000,"plot_size":"100000 SQMT","plot_no":"B","sector":"150","block":"SC-02","mplanduse":"V","ppt_type":"COMM","ppt_full":"Commercial","authority":"NOIDA","category":"commercial","execution_stage":"unknown"}},{"type":"Feature","geometry":{"type":"Polygon","coordinates":[[[77.489433,28.430878],[77.488931,28.43203],[77.487825,28.430755],[77.486846,28.431551],[77.485589,28.430348],[77.487358,28.42891],[77.489433,28.430878]]]},"properties":{"objectid":17607,"plotmapid":"150SC-02CCOMM","property_t":"Commercial","used":"Sport Complex","plotsizesq":60000,"plot_size":"60000 SQMT","plot_no":"C","sector":"150","block":"SC-02","mplanduse":"B","ppt_type":"COMM","ppt_full":"Commercial","authority":"NOIDA","category":"commercial","execution_stage":"unknown"}},{"type":"Feature","geometry":{"type":"Polygon","coordinates":[[[77.485511,28.433212],[77.483592,28.434787],[77.482013,28.433277],[77.483918,28.431717],[77.48519,28.432938],[77.485511,28.433212]]]},"properties":{"objectid":17608,"plotmapid":"150SC-02FCOMM","property_t":"Commercial","used":"Sport Complex","plotsizesq":58064.71,"plot_size":"58064.71 SQMT","plot_no":"F","sector":"150","block":"SC-02","mplanduse":"B","ppt_type":"COMM","ppt_full":"Commercial","authority":"NOIDA","category":"commercial","execution_stage":"unknown"}},{"type":"Feature","geometry":{"type":"Polygon","coordinates":[[[77.486087,28.437562],[77.487286,28.438705],[77.487317,28.438759],[77.487254,28.439031],[77.487135,28.439391],[77.487019,28.439629],[77.486581,28.440403],[77.484292,28.4382],[77.485659,28.437155],[77.486087,28.437562]]]},"properties":{"objectid":17609,"plotmapid":"150SC-01SC-01COMM","property_t":"Commercial","used":"Sport Complex","plotsizesq":48790,"plot_size":"48790 SQMT","plot_no":"SC-01","sector":"150","block":"SC-01","mplanduse":"V","ppt_type":"COMM","ppt_full":"Commercial","authority":"NOIDA","category":"commercial","execution_stage":"unknown"}},{"type":"Feature","geometry":{"type":"Polygon","coordinates":[[[77.48546,28.442334],[77.48439,28.442375],[77.48349,28.439725],[77.482749,28.43901],[77.484041,28.43796],[77.486581,28.440403],[77.48546,28.442334]]]},"properties":{"objectid":17610,"plotmapid":"150SC-01A-1COMM","property_t":"Commercial","used":"Sport Complex","plotsizesq":0,"plot_no":"A-1","sector":"150","block":"SC-01","mplanduse":"B","ppt_type":"COMM","ppt_full":"Commercial","authority":"NOIDA","category":"commercial","execution_stage":"unknown"}},{"type":"Feature","geometry":{"type":"Polygon","coordinates":[[[77.482127,28.433786],[77.48362,28.435204],[77.481515,28.43692],[77.480637,28.434282],[77.481335,28.433822],[77.481787,28.433462],[77.482127,28.433786]]]},"properties":{"objectid":17612,"plotmapid":"150SC-01A-4COMM","property_t":"Commercial","used":"Sport Complex","plotsizesq":0,"plot_no":"A-4","sector":"150","block":"SC-01","mplanduse":"B","ppt_type":"COMM","ppt_full":"Commercial","authority":"NOIDA","category":"commercial","execution_stage":"unknown"}},{"type":"Feature","geometry":{"type":"Polygon","coordinates":[[[77.485659,28.437155],[77.485386,28.437363],[77.483348,28.435417],[77.48362,28.435204],[77.485659,28.437155]]]},"properties":{"objectid":17613,"plotmapid":"150 COMM","property_t":"Commercial","used":"Sport Complex","plotsizesq":0,"sector":"150","mplanduse":"V","ppt_type":"COMM","ppt_full":"Commercial","authority":"NOIDA","category":"commercial","execution_stage":"unknown"}},{"type":"Feature","geometry":{"type":"Polygon","coordinates":[[[77.485386,28.437363],[77.484292,28.4382],[77.482902,28.436885],[77.483966,28.436008],[77.485386,28.437363]]]},"properties":{"objectid":17614,"plotmapid":"150SC-01SC-01/A2COMM","property_t":"Commercial","used":"Sport Complex","plotsizesq":0,"plot_no":"SC-01/A2","sector":"150","block":"SC-01","mplanduse":"B","ppt_type":"COMM","ppt_full":"Commercial","authority":"NOIDA","category":"commercial","execution_stage":"unknown"}},{"type":"Feature","geometry":{"type":"Polygon","coordinates":[[[77.483464,28.435529],[77.483966,28.436008],[77.482902,28.436885],[77.483093,28.437067],[77.481888,28.438047],[77.481515,28.43692],[77.483348,28.435417],[77.483464,28.435529]]]},"properties":{"objectid":17615,"plotmapid":"150SC-01A-3COMM","property_t":"Commercial","used":"Sport Complex","plotsizesq":0,"plot_no":"A-3","sector":"150","block":"SC-01","mplanduse":"B","ppt_type":"COMM","ppt_full":"Commercial","authority":"NOIDA","category":"commercial","execution_stage":"unknown"}},{"type":"Feature","geometry":{"type":"Polygon","coordinates":[[[77.483935,28.437859],[77.482274,28.439211],[77.481888,28.438047],[77.483098,28.437062],[77.483935,28.437859]]]},"properties":{"objectid":17616,"plotmapid":"150SC-01A-5COMM","property_t":"Commercial","used":"Sport Complex","plotsizesq":269800,"plot_size":"269800 SQMT","plot_no":"A-5","sector":"150","block":"SC-01","mplanduse":"B","ppt_type":"COMM","ppt_full":"Commercial","authority":"NOIDA","category":"commercial","execution_stage":"unknown"}},{"type":"Feature","geometry":{"type":"Polygon","coordinates":[[[77.486846,28.431551],[77.485161,28.43291],[77.483918,28.431717],[77.485589,28.430348],[77.486846,28.431551]]]},"properties":{"objectid":17617,"plotmapid":"150SC-02SC-02/DCOMM","property_t":"Commercial","used":"Sport Complex","plotsizesq":40186.45,"plot_size":"40186.45 SQMT","plot_no":"SC-02/D","sector":"150","block":"SC-02","mplanduse":"B","ppt_type":"COMM","ppt_full":"Commercial","authority":"NOIDA","category":"commercial","execution_stage":"unknown"}},{"type":"Feature","geometry":{"type":"Polygon","coordinates":[[[77.486846,28.431551],[77.488082,28.432738],[77.487803,28.432864],[77.487444,28.433101],[77.487233,28.433266],[77.487031,28.433441],[77.486458,28.434032],[77.485161,28.43291],[77.486846,28.431551]]]},"properties":{"objectid":17618,"plotmapid":"150SC-02/MCOMM","property_t":"Commercial","used":"Sport Complex","plotsizesq":37231,"plot_size":"37231 SQMT","plot_no":"SC-02/M","sector":"150","mplanduse":"V","ppt_type":"COMM","ppt_full":"Commercial","authority":"NOIDA","category":"commercial","execution_stage":"unknown"}},{"type":"Feature","geometry":{"type":"Polygon","coordinates":[[[77.488512,28.431547],[77.488931,28.43203],[77.488729,28.432509],[77.488385,28.432608],[77.488082,28.432738],[77.486846,28.431551],[77.487825,28.430755],[77.488512,28.431547]]]},"properties":{"objectid":17619,"plotmapid":"150SC-02/C1COMM","property_t":"Commercial","used":"Sport Complex","plotsizesq":22769,"plot_size":"22769 SQMT","plot_no":"SC-02/C1","sector":"150","mplanduse":"V","ppt_type":"COMM","ppt_full":"Commercial","authority":"NOIDA","category":"commercial","execution_stage":"unknown"}},{"type":"Feature","geometry":{"type":"Polygon","coordinates":[[[77.485163,28.423907],[77.485484,28.423623],[77.485433,28.423579],[77.486201,28.422848],[77.490164,28.426065],[77.488801,28.427182],[77.487592,28.426215],[77.487605,28.425846],[77.486836,28.425193],[77.486551,28.425004],[77.48627,28.424789],[77.485819,28.424407],[77.485511,28.424173],[77.485292,28.424375],[77.484948,28.424103],[77.485163,28.423907]]]},"properties":{"objectid":17620,"plotmapid":"150SC-01SC-01/C-ACOMM","property_t":"Commercial","used":"Sport Complex","plotsizesq":80937.13,"plot_size":"80937.13 SQMT","plot_no":"SC-01/C-A","sector":"150","block":"SC-01","mplanduse":"B","ppt_type":"COMM","ppt_full":"Commercial","authority":"NOIDA","category":"commercial","execution_stage":"unknown"}},{"type":"Feature","geometry":{"type":"Polygon","coordinates":[[[77.484705,28.420625],[77.484332,28.420973],[77.48405,28.420736],[77.484063,28.420712],[77.484426,28.420555],[77.484487,28.420554],[77.484705,28.420625]]]},"properties":{"objectid":17621,"plotmapid":"150NACOMM","property_t":"Commercial","used":"Sport Complex","plotsizesq":0,"plot_no":"NA","sector":"150","mplanduse":"B","ppt_type":"COMM","ppt_full":"Commercial","authority":"NOIDA","category":"commercial","execution_stage":"unknown"}},{"type":"Feature","geometry":{"type":"Polygon","coordinates":[[[77.481761,28.425435],[77.481453,28.425741],[77.481492,28.425765],[77.480623,28.426472],[77.479208,28.425038],[77.479322,28.424642],[77.479533,28.42429],[77.481386,28.425378],[77.481484,28.425254],[77.481761,28.425435]]]},"properties":{"objectid":17622,"plotmapid":"150SC-01B-5COMM","property_t":"Commercial","used":"Sport Complex","plotsizesq":24279.7,"plot_size":"24279.70 SQMT","plot_no":"B-5","sector":"150","block":"SC-01","mplanduse":"V","ppt_type":"COMM","ppt_full":"Commercial","authority":"NOIDA","category":"commercial","execution_stage":"unknown"}},{"type":"Feature","geometry":{"type":"Polygon","coordinates":[[[77.492559,28.426049],[77.491876,28.425495],[77.491642,28.425408],[77.490725,28.426152],[77.488919,28.424684],[77.488919,28.424662],[77.489067,28.424515],[77.489094,28.424513],[77.492974,28.425742],[77.492559,28.426049]]]},"properties":{"objectid":17623,"plotmapid":"150SC-02/A3COMM","property_t":"Commercial","used":"Sport Complex","plotsizesq":27185,"plot_size":"532200 SQMT","plot_no":"SC-02/A3","sector":"150","mplanduse":"B","ppt_type":"COMM","ppt_full":"Commercial","authority":"NOIDA","category":"commercial","execution_stage":"unknown"}},{"type":"Feature","geometry":{"type":"Polygon","coordinates":[[[77.485511,28.433212],[77.486458,28.434032],[77.484427,28.435587],[77.483592,28.434787],[77.485511,28.433212]]]},"properties":{"objectid":17624,"plotmapid":"150SC-02/ECOMM","property_t":"Commercial","used":"Sport Complex","plotsizesq":32519.22,"plot_size":"32519.22 SQMT","plot_no":"SC-02/E","sector":"150","mplanduse":"B","ppt_type":"COMM","ppt_full":"Commercial","authority":"NOIDA","category":"commercial","execution_stage":"unknown"}},{"type":"Feature","geometry":{"type":"Polygon","coordinates":[[[77.48439,28.442375],[77.483403,28.442585],[77.48337,28.44253],[77.483246,28.442141],[77.484231,28.441905],[77.48439,28.442375]]]},"properties":{"objectid":17625,"plotmapid":"150SC-01SC-01/ACOMM","property_t":"Commercial","used":"Sport Complex","plotsizesq":5188.6,"plot_size":"5188.6 SQMT","plot_no":"SC-01/A","sector":"150","block":"SC-01","mplanduse":"B","ppt_type":"COMM","ppt_full":"Commercial","authority":"NOIDA","category":"commercial","execution_stage":"unknown"}},{"type":"Feature","geometry":{"type":"Polygon","coordinates":[[[77.476794,28.430238],[77.476974,28.430418],[77.47643,28.430867],[77.476378,28.430838],[77.475434,28.430587],[77.475431,28.430319],[77.476318,28.430197],[77.476313,28.429757],[77.476794,28.430238]]]},"properties":{"objectid":17626,"plotmapid":"150 COMM","property_t":"Commercial","used":"NA","plotsizesq":5000,"plot_size":"5000 SQMT","sector":"150","mplanduse":"V","ppt_type":"COMM","ppt_full":"Commercial","authority":"NOIDA","category":"commercial","execution_stage":"unknown"}},{"type":"Feature","geometry":{"type":"Polygon","coordinates":[[[77.484092,28.423061],[77.48395,28.423227],[77.483418,28.422845],[77.48453,28.421498],[77.485135,28.421987],[77.484092,28.423061]]]},"properties":{"objectid":17630,"plotmapid":"150SC-01SC-01/C-A3COMM","property_t":"Commercial","used":"Sport Complex","plotsizesq":13355.61,"plot_size":"13355.61 SQMT","plot_no":"SC-01/C-A3","sector":"150","block":"SC-01","mplanduse":"V","ppt_type":"COMM","ppt_full":"Commercial","authority":"NOIDA","category":"commercial","execution_stage":"unknown"}},{"type":"Feature","geometry":{"type":"Polygon","coordinates":[[[77.479441,28.427433],[77.478476,28.426515],[77.479013,28.425497],[77.479173,28.425146],[77.479208,28.425038],[77.480623,28.426472],[77.479441,28.427433]]]},"properties":{"objectid":17631,"plotmapid":"150SC-01B-4COMM","property_t":"Commercial","used":"Sport Complex","plotsizesq":29545.8,"plot_size":"29545.80 SQMT","plot_no":"B-4","sector":"150","block":"SC-01","mplanduse":"B","ppt_type":"COMM","ppt_full":"Commercial","authority":"NOIDA","category":"commercial","execution_stage":"unknown"}},{"type":"Feature","geometry":{"type":"Polygon","coordinates":[[[77.481766,28.42594],[77.482689,28.426799],[77.483088,28.427193],[77.48249,28.427684],[77.480933,28.42622],[77.481492,28.425765],[77.481766,28.42594]]]},"properties":{"objectid":17632,"plotmapid":"150SC-01B-3COMM","property_t":"Commercial","used":"Sport Complex","plotsizesq":20233.1,"plot_size":"20233.10 SQMT","plot_no":"B-3","sector":"150","block":"SC-01","mplanduse":"B","ppt_type":"COMM","ppt_full":"Commercial","authority":"NOIDA","category":"commercial","execution_stage":"unknown"}},{"type":"Feature","geometry":{"type":"Polygon","coordinates":[[[77.488801,28.427182],[77.488518,28.427431],[77.488077,28.427778],[77.486839,28.426548],[77.487427,28.426083],[77.488801,28.427182]]]},"properties":{"objectid":17633,"plotmapid":"150SC-01SC-01/C-A10COMM","property_t":"Commercial","used":"Sport Complex","plotsizesq":16000,"plot_size":"16000 SQMT","plot_no":"SC-01/C-A10","sector":"150","block":"SC-01","mplanduse":"V","ppt_type":"COMM","ppt_full":"Commercial","authority":"NOIDA","category":"commercial","execution_stage":"unknown"}},{"type":"Feature","geometry":{"type":"Polygon","coordinates":[[[77.481653,28.430266],[77.482038,28.429952],[77.483579,28.43143],[77.483199,28.431741],[77.481653,28.430266]]]},"properties":{"objectid":17634,"plotmapid":"150SC-01SC-01/B8COMM","property_t":"Commercial","used":"Sport Complex","plotsizesq":12000,"plot_size":"12000 SQMT","plot_no":"SC-01/B8","sector":"150","block":"SC-01","mplanduse":"B","ppt_type":"COMM","ppt_full":"Commercial","authority":"NOIDA","category":"commercial","execution_stage":"unknown"}},{"type":"Feature","geometry":{"type":"Polygon","coordinates":[[[77.459909,28.446655],[77.460221,28.446949],[77.460071,28.447071],[77.459759,28.446777],[77.459909,28.446655]]]},"properties":{"objectid":17723,"plotmapid":"151NAC-02COMM","property_t":"Commercial","used":"PLOT","plotsizesq":0,"plot_no":"C-02","sector":"151","block":"NA","mplanduse":"V","ppt_type":"COMM","ppt_full":"Commercial","authority":"NOIDA","category":"commercial","execution_stage":"unknown"}},{"type":"Feature","geometry":{"type":"Polygon","coordinates":[[[77.464127,28.448735],[77.464577,28.449158],[77.4635,28.449999],[77.463075,28.449598],[77.464127,28.448735]]]},"properties":{"objectid":17932,"plotmapid":"151NAC-01COMM","property_t":"Commercial","used":"PLOT","plotsizesq":0,"plot_no":"C-01","sector":"151","block":"NA","mplanduse":"V","ppt_type":"COMM","ppt_full":"Commercial","authority":"NOIDA","category":"commercial","execution_stage":"unknown"}},{"type":"Feature","geometry":{"type":"Polygon","coordinates":[[[77.459361,28.448386],[77.459101,28.4486],[77.45892,28.44843],[77.45918,28.448216],[77.459361,28.448386]]]},"properties":{"objectid":17936,"plotmapid":"151NAC-01COMM","property_t":"Commercial","used":"PLOT","plotsizesq":0,"plot_no":"C-01","sector":"151","block":"NA","mplanduse":"V","ppt_type":"COMM","ppt_full":"Commercial","authority":"NOIDA","category":"commercial","execution_stage":"unknown"}},{"type":"Feature","geometry":{"type":"Polygon","coordinates":[[[77.471557,28.438715],[77.471747,28.438896],[77.471475,28.439117],[77.471391,28.439037],[77.471456,28.438928],[77.471547,28.438705],[77.471557,28.438715]]]},"properties":{"objectid":17992,"plotmapid":"151BC-3COMM","property_t":"Commercial","used":"NA","plotsizesq":162,"plot_size":"162 SQMT","plot_no":"C-3","sector":"151","block":"B","mplanduse":"V","ppt_type":"COMM","ppt_full":"Commercial","authority":"NOIDA","category":"commercial","execution_stage":"unknown"}},{"type":"Feature","geometry":{"type":"Polygon","coordinates":[[[77.472975,28.440626],[77.473104,28.440747],[77.472901,28.440914],[77.472773,28.440794],[77.472975,28.440626]]]},"properties":{"objectid":18475,"plotmapid":"151BC-2COMM","property_t":"Commercial","used":"NA","plotsizesq":162,"plot_size":"162 SQMT","plot_no":"C-2","sector":"151","block":"B","mplanduse":"V","ppt_type":"COMM","ppt_full":"Commercial","authority":"NOIDA","category":"commercial","execution_stage":"unknown"}},{"type":"Feature","geometry":{"type":"Polygon","coordinates":[[[77.474408,28.441216],[77.474691,28.440982],[77.474966,28.441277],[77.474519,28.441466],[77.47437,28.441547],[77.474233,28.44136],[77.474408,28.441216]]]},"properties":{"objectid":18693,"plotmapid":"151BC-1COMM","property_t":"Commercial","used":"NA","plotsizesq":162,"plot_size":"162 SQMT","plot_no":"C-1","sector":"151","block":"B","mplanduse":"V","ppt_type":"COMM","ppt_full":"Commercial","authority":"NOIDA","category":"commercial","execution_stage":"unknown"}},{"type":"Feature","geometry":{"type":"Polygon","coordinates":[[[77.427866,28.476011],[77.426646,28.476911],[77.426203,28.476499],[77.427416,28.475605],[77.427866,28.476011]]]},"properties":{"objectid":21125,"plotmapid":"164COMM-01COMM","plotsizesq":0,"plot_size":"10000SQM","plot_no":"COMM-01","sector":"164","mplanduse":"V","ppt_type":"COMM","ppt_full":"Commercial","authority":"NOIDA","category":"commercial","execution_stage":"unknown"}},{"type":"Feature","geometry":{"type":"Polygon","coordinates":[[[77.429319,28.474939],[77.429294,28.474914],[77.429183,28.474676],[77.42969,28.47418],[77.429828,28.474564],[77.429319,28.474939]]]},"properties":{"objectid":21126,"plotmapid":"164COMM-03COMM","plotsizesq":0,"plot_size":"2550SQM","plot_no":"COMM-03","sector":"164","mplanduse":"V","ppt_type":"COMM","ppt_full":"Commercial","authority":"NOIDA","category":"commercial","execution_stage":"unknown"}},{"type":"Feature","geometry":{"type":"Polygon","coordinates":[[[77.429294,28.474914],[77.429319,28.474939],[77.427866,28.476011],[77.427815,28.475966],[77.428756,28.475099],[77.42878,28.475134],[77.429294,28.474914]]]},"properties":{"objectid":21129,"plotmapid":"164COMM-02COMM","plotsizesq":0,"plot_size":"2550SQM","plot_no":"COMM-02","sector":"164","mplanduse":"V","ppt_type":"COMM","ppt_full":"Commercial","authority":"NOIDA","category":"commercial","execution_stage":"unknown"}},{"type":"Feature","geometry":{"type":"Polygon","coordinates":[[[77.452533,28.463296],[77.452514,28.463279],[77.452481,28.463313],[77.452426,28.463266],[77.45257,28.463131],[77.452643,28.463197],[77.452533,28.463296]]]},"properties":{"objectid":21159,"plotmapid":"159JHCOMM","used":"NA","plotsizesq":0,"plot_size":"NA","sector":"159","block":"JH","mplanduse":"V","ppt_type":"COMM","ppt_full":"Commercial","authority":"NOIDA","category":"commercial","execution_stage":"unknown"}},{"type":"Feature","geometry":{"type":"Polygon","coordinates":[[[77.445261,28.472632],[77.445687,28.473108],[77.445265,28.473542],[77.444768,28.473052],[77.445261,28.472632]]]},"properties":{"objectid":21172,"plotmapid":"161NACOMM-1COMM","plotsizesq":0,"plot_no":"COMM-1","sector":"161","block":"NA","mplanduse":"V","ppt_type":"COMM","ppt_full":"Commercial","authority":"NOIDA","category":"commercial","execution_stage":"unknown"}},{"type":"Feature","geometry":{"type":"Polygon","coordinates":[[[77.449533,28.491614],[77.449767,28.491965],[77.449414,28.492147],[77.44918,28.491795],[77.449533,28.491614]]]},"properties":{"objectid":57262,"plotmapid":"145C001COMM","used":"COMM","plotsizesq":1800,"plot_size":"1800 SQMT","plot_no":"001","sector":"145","block":"C","mplanduse":"V","ppt_type":"COMM","ppt_full":"Commercial","authority":"NOIDA","category":"commercial","execution_stage":"unknown"}},{"type":"Feature","geometry":{"type":"Polygon","coordinates":[[[77.448814,28.491667],[77.44923,28.492292],[77.4487,28.492564],[77.448284,28.491939],[77.448814,28.491667]]]},"properties":{"objectid":57263,"plotmapid":"145CC001COMM","used":"COMMUNITY CENTRE","plotsizesq":4800,"plot_size":"4800 SQMT","plot_no":"001","sector":"145","block":"CC","mplanduse":"V","ppt_type":"COMM","ppt_full":"Commercial","authority":"NOIDA","category":"commercial","execution_stage":"unknown"}},{"type":"Feature","geometry":{"type":"Polygon","coordinates":[[[77.440549,28.481009],[77.440636,28.480933],[77.441715,28.481919],[77.441091,28.482213],[77.440919,28.481872],[77.440671,28.481265],[77.440549,28.481009]]]},"properties":{"objectid":57264,"plotmapid":"145NACOMM","used":"COMMERCIAL","plotsizesq":0,"plot_size":"NA","sector":"145","block":"NA","mplanduse":"V","ppt_type":"COMM","ppt_full":"Commercial","authority":"NOIDA","category":"commercial","execution_stage":"unknown"}},{"type":"Feature","geometry":{"type":"Polygon","coordinates":[[[77.439271,28.483726],[77.438764,28.484052],[77.438732,28.484091],[77.438724,28.484164],[77.438269,28.484486],[77.438405,28.484648],[77.438087,28.484855],[77.437025,28.483637],[77.437816,28.483087],[77.438718,28.482413],[77.439271,28.483726]]]},"properties":{"objectid":57265,"plotmapid":"145NACOMM","used":"COMMERICAL","plotsizesq":0,"plot_size":"NA","sector":"145","block":"NA","mplanduse":"V","ppt_type":"COMM","ppt_full":"Commercial","authority":"NOIDA","category":"commercial","execution_stage":"unknown"}},{"type":"Feature","geometry":{"type":"Polygon","coordinates":[[[77.442779,28.479498],[77.44414,28.480779],[77.442827,28.481385],[77.442586,28.481172],[77.442111,28.48048],[77.442347,28.480336],[77.441938,28.479763],[77.442068,28.479644],[77.442204,28.47957],[77.44254,28.479273],[77.442779,28.479498]]]},"properties":{"objectid":57287,"plotmapid":"145NACOMM","used":"COMMERCIAL","plotsizesq":24000,"plot_size":"24000 SQMT","sector":"145","block":"NA","mplanduse":"V","ppt_type":"COMM","ppt_full":"Commercial","authority":"NOIDA","category":"commercial","execution_stage":"unknown"}},{"type":"Feature","geometry":{"type":"Polygon","coordinates":[[[77.444771,28.487746],[77.445109,28.488259],[77.440272,28.491057],[77.435134,28.484993],[77.435818,28.484462],[77.437025,28.483637],[77.438087,28.484855],[77.437316,28.485357],[77.437613,28.485611],[77.438133,28.485307],[77.438296,28.48548],[77.438516,28.485371],[77.439441,28.486658],[77.439548,28.486593],[77.439937,28.486902],[77.440936,28.486365],[77.440697,28.486105],[77.441443,28.485704],[77.441363,28.485589],[77.442456,28.484986],[77.444771,28.487746]]]},"properties":{"objectid":59602,"plotmapid":"145NACOMM","used":"RESERVED FOR NRMC","plotsizesq":34,"plot_size":"34 HECT","sector":"145","block":"NA","mplanduse":"V","ppt_type":"COMM","ppt_full":"Commercial","authority":"NOIDA","category":"commercial","execution_stage":"unknown"}},{"type":"Feature","geometry":{"type":"Polygon","coordinates":[[[77.438703,28.49592],[77.438588,28.495995],[77.438515,28.495908],[77.438629,28.495833],[77.438703,28.49592]]]},"properties":{"objectid":59630,"plotmapid":"144NACOMM","plotsizesq":0,"sector":"144","block":"NA","mplanduse":"V","ppt_type":"COMM","ppt_full":"Commercial","authority":"NOIDA","category":"commercial","execution_stage":"unknown"}},{"type":"Feature","geometry":{"type":"Polygon","coordinates":[[[77.450779,28.458006],[77.451016,28.457811],[77.451441,28.458142],[77.451185,28.458348],[77.450779,28.458006]]]},"properties":{"objectid":67179,"plotmapid":"156NACOMM","used":"Proposed Site for 33/11KV","plotsizesq":9443,"plot_size":"9443 SQMT","sector":"156","block":"NA","mplanduse":"V","ppt_type":"COMM","ppt_full":"Commercial","authority":"NOIDA","category":"commercial","execution_stage":"unknown"}},{"type":"Feature","geometry":{"type":"Polygon","coordinates":[[[77.473411,28.436786],[77.473636,28.437044],[77.472802,28.437702],[77.472565,28.437451],[77.473411,28.436786]],[[77.47357,28.437056],[77.473455,28.436939],[77.473232,28.437116],[77.473345,28.437232],[77.47357,28.437056]]]},"properties":{"objectid":67180,"plotmapid":"149 COMM","plotsizesq":0,"sector":"149","mplanduse":"B","ppt_type":"COMM","ppt_full":"Commercial","authority":"NOIDA","category":"commercial","execution_stage":"unknown"}},{"type":"Feature","geometry":{"type":"Polygon","coordinates":[[[77.47357,28.437056],[77.473345,28.437232],[77.473232,28.437116],[77.473455,28.436939],[77.47357,28.437056]]]},"properties":{"objectid":67210,"plotmapid":"149 COMM","plotsizesq":0,"sector":"149","mplanduse":"B","ppt_type":"COMM","ppt_full":"Commercial","authority":"NOIDA","category":"commercial","execution_stage":"unknown"}}]}
