{"type":"FeatureCollection","features":[{"type":"Feature","geometry":{"type":"Polygon","coordinates":[[[77.364261,28.544783],[77.363672,28.545138],[77.363448,28.544897],[77.363952,28.544608],[77.364086,28.544777],[77.364336,28.54462],[77.364454,28.544768],[77.364261,28.544783]]]},"properties":{"objectid":5,"plotmapid":"100NACOMM","used":"COMMERCIAL","plotsizesq":2500,"plot_size":"2500 SQMT","sector":"100","block":"NA","mplanduse":"ISSUE","ppt_type":"COMM","ppt_full":"Commercial","authority":"NOIDA","category":"commercial","execution_stage":"unknown"}},{"type":"Feature","geometry":{"type":"Polygon","coordinates":[[[77.359874,28.541532],[77.35991,28.541564],[77.359846,28.541619],[77.3598,28.541575],[77.359874,28.541532]]]},"properties":{"objectid":7,"plotmapid":"100NACOMM","used":"MB","plotsizesq":0,"plot_size":"NA","sector":"100","block":"NA","mplanduse":"V","ppt_type":"COMM","ppt_full":"Commercial","authority":"NOIDA","category":"commercial","execution_stage":"unknown"}},{"type":"Feature","geometry":{"type":"Polygon","coordinates":[[[77.359916,28.541569],[77.359957,28.541605],[77.359892,28.541662],[77.359846,28.541619],[77.359916,28.541569]]]},"properties":{"objectid":8,"plotmapid":"100NACOMM","used":"FV","plotsizesq":0,"plot_size":"NA","sector":"100","block":"NA","mplanduse":"V","ppt_type":"COMM","ppt_full":"Commercial","authority":"NOIDA","category":"commercial","execution_stage":"unknown"}},{"type":"Feature","geometry":{"type":"Polygon","coordinates":[[[77.365958,28.541611],[77.365747,28.541739],[77.365681,28.541656],[77.365893,28.541526],[77.365958,28.541611]]]},"properties":{"objectid":120,"plotmapid":"100C002CCOMM","used":"COMMERCIAL","plotsizesq":0,"plot_size":"NA","plot_no":"002C","sector":"100","block":"C","mplanduse":"V","ppt_type":"COMM","ppt_full":"Commercial","authority":"NOIDA","category":"commercial","execution_stage":"unknown"}},{"type":"Feature","geometry":{"type":"Polygon","coordinates":[[[77.366014,28.541684],[77.365806,28.541813],[77.365747,28.541739],[77.365958,28.541611],[77.366014,28.541684]]]},"properties":{"objectid":128,"plotmapid":"100C002BCOMM","used":"COMMERCIAL","plotsizesq":0,"plot_size":"NA","plot_no":"002B","sector":"100","block":"C","mplanduse":"V","ppt_type":"COMM","ppt_full":"Commercial","authority":"NOIDA","category":"commercial","execution_stage":"unknown"}},{"type":"Feature","geometry":{"type":"Polygon","coordinates":[[[77.366645,28.541084],[77.36683,28.541317],[77.366086,28.541778],[77.365893,28.541526],[77.366626,28.541065],[77.366645,28.541084]]]},"properties":{"objectid":137,"plotmapid":"100NACOMM","used":"COMMERCIAL","plotsizesq":5371,"plot_size":"5371 SQMT","sector":"100","block":"NA","mplanduse":"G","ppt_type":"COMM","ppt_full":"Commercial","authority":"NOIDA","category":"commercial","execution_stage":"unknown"}},{"type":"Feature","geometry":{"type":"Polygon","coordinates":[[[77.356655,28.534625],[77.357437,28.535609],[77.355869,28.536587],[77.355138,28.535651],[77.356655,28.534625]]]},"properties":{"objectid":146,"plotmapid":"98H007COMM","used":"HOTEL","plotsizesq":24000,"plot_size":"24000 SQMT","plot_no":"007","sector":"98","block":"H","mplanduse":"V","ppt_type":"COMM","ppt_full":"Commercial","authority":"NOIDA","category":"commercial","execution_stage":"unknown"}},{"type":"Feature","geometry":{"type":"Polygon","coordinates":[[[77.360233,28.533855],[77.359592,28.534263],[77.358743,28.53322],[77.359388,28.53279],[77.360233,28.533855]]]},"properties":{"objectid":147,"plotmapid":"98C001BCOMM","used":"COMMERCIAL","plotsizesq":11068.45,"plot_size":"11068.45 SQMT","plot_no":"001B","sector":"98","block":"C","mplanduse":"V","ppt_type":"COMM","ppt_full":"Commercial","authority":"NOIDA","category":"commercial","execution_stage":"unknown"}},{"type":"Feature","geometry":{"type":"Polygon","coordinates":[[[77.361623,28.532979],[77.360233,28.533855],[77.359388,28.53279],[77.360754,28.531904],[77.361623,28.532979]]]},"properties":{"objectid":148,"plotmapid":"98H009COMM","used":"HOTEL","plotsizesq":24000,"plot_size":"24000 SQMT","plot_no":"009","sector":"98","block":"H","mplanduse":"V","ppt_type":"COMM","ppt_full":"Commercial","authority":"NOIDA","category":"commercial","execution_stage":"unknown"}},{"type":"Feature","geometry":{"type":"Polygon","coordinates":[[[77.355159,28.536411],[77.355481,28.536828],[77.35367,28.537955],[77.352981,28.537078],[77.35477,28.535917],[77.355159,28.536411]]]},"properties":{"objectid":154,"plotmapid":"97H006COMM","used":"HOTEL","plotsizesq":23570.92,"plot_size":"23570.92 SQMT","plot_no":"006","sector":"97","block":"H","mplanduse":"V","ppt_type":"COMM","ppt_full":"Commercial","authority":"NOIDA","category":"commercial","execution_stage":"unknown"}},{"type":"Feature","geometry":{"type":"Polygon","coordinates":[[[77.358925,28.534684],[77.357437,28.535609],[77.356655,28.534625],[77.358103,28.533646],[77.358925,28.534684]]]},"properties":{"objectid":155,"plotmapid":"98H008COMM","used":"HOTEL","plotsizesq":24000,"plot_size":"24000 SQMT","plot_no":"008","sector":"98","block":"H","mplanduse":"V","ppt_type":"COMM","ppt_full":"Commercial","authority":"NOIDA","category":"commercial","execution_stage":"unknown"}},{"type":"Feature","geometry":{"type":"Polygon","coordinates":[[[77.385554,28.534051],[77.385542,28.534013],[77.385623,28.533997],[77.385636,28.534035],[77.385554,28.534051]]]},"properties":{"objectid":222,"plotmapid":"110NACOMM","property_t":"Commercial","used":"MILK BOOTH","plotsizesq":0,"plot_size":"NA","sector":"110","block":"NA","mplanduse":"B","ppt_type":"COMM","ppt_full":"Commercial","authority":"NOIDA","category":"commercial","execution_stage":"unknown"}},{"type":"Feature","geometry":{"type":"Polygon","coordinates":[[[77.385652,28.534084],[77.385562,28.534102],[77.385551,28.534051],[77.385636,28.534035],[77.385652,28.534084]]]},"properties":{"objectid":227,"plotmapid":"110NACOMM","property_t":"Commercial","used":"F.V. BOOTH","plotsizesq":0,"plot_size":"NA","sector":"110","block":"NA","mplanduse":"B","ppt_type":"COMM","ppt_full":"Commercial","authority":"NOIDA","category":"commercial","execution_stage":"unknown"}},{"type":"Feature","geometry":{"type":"Polygon","coordinates":[[[77.386364,28.534732],[77.386385,28.534724],[77.386603,28.534998],[77.386551,28.535028],[77.385929,28.535192],[77.385805,28.534877],[77.386364,28.534732]]]},"properties":{"objectid":333,"plotmapid":"110NACOMM","property_t":"Commercial","used":"COMM.CENTRE","plotsizesq":0,"plot_size":"NA","sector":"110","block":"NA","mplanduse":"B","ppt_type":"COMM","ppt_full":"Commercial","authority":"NOIDA","category":"commercial","execution_stage":"unknown"}},{"type":"Feature","geometry":{"type":"Polygon","coordinates":[[[77.386359,28.532548],[77.386136,28.532691],[77.385816,28.532302],[77.385789,28.532232],[77.385431,28.531785],[77.385072,28.531368],[77.385528,28.531075],[77.388019,28.534094],[77.387522,28.5344],[77.387164,28.533964],[77.387472,28.533764],[77.386447,28.532492],[77.386359,28.532548]]]},"properties":{"objectid":344,"plotmapid":"110NACOMM","property_t":"Commercial","used":"COMMERCIAL","plotsizesq":0,"plot_size":"NA","sector":"110","block":"NA","mplanduse":"B","ppt_type":"COMM","ppt_full":"Commercial","authority":"NOIDA","category":"commercial","execution_stage":"unknown"}},{"type":"Feature","geometry":{"type":"Polygon","coordinates":[[[77.364186,28.544714],[77.364086,28.544777],[77.363952,28.544608],[77.364055,28.544549],[77.364186,28.544714]]]},"properties":{"objectid":418,"plotmapid":"100C001ACOMM","used":"COMMERCIAL","plotsizesq":0,"plot_size":"NA","plot_no":"001A","sector":"100","block":"C","mplanduse":"B","ppt_type":"COMM","ppt_full":"Commercial","authority":"NOIDA","category":"commercial","execution_stage":"unknown"}},{"type":"Feature","geometry":{"type":"Polygon","coordinates":[[[77.366086,28.541778],[77.365878,28.541904],[77.365806,28.541813],[77.366014,28.541684],[77.366086,28.541778]]]},"properties":{"objectid":715,"plotmapid":"100C002ACOMM","used":"COMMERCIAL","plotsizesq":0,"plot_size":"NA","plot_no":"002A","sector":"100","block":"C","mplanduse":"B","ppt_type":"COMM","ppt_full":"Commercial","authority":"NOIDA","category":"commercial","execution_stage":"unknown"}},{"type":"Feature","geometry":{"type":"Polygon","coordinates":[[[77.359592,28.534263],[77.358925,28.534684],[77.358103,28.533646],[77.358743,28.53322],[77.359592,28.534263]]]},"properties":{"objectid":748,"plotmapid":"98C001COMM","used":"COMMERCIAL","plotsizesq":11068.45,"plot_size":"11068.45 SQMT","plot_no":"001","sector":"98","block":"C","mplanduse":"B","ppt_type":"COMM","ppt_full":"Commercial","authority":"NOIDA","category":"commercial","execution_stage":"unknown"}},{"type":"Feature","geometry":{"type":"Polygon","coordinates":[[[77.362955,28.532144],[77.361623,28.532979],[77.360754,28.531904],[77.362101,28.531056],[77.362955,28.532144]]]},"properties":{"objectid":749,"plotmapid":"98H10COMM","used":"HOTEL","plotsizesq":24000,"plot_size":"24000 SQMT","plot_no":"10","sector":"98","block":"H","mplanduse":"B","ppt_type":"COMM","ppt_full":"Commercial","authority":"NOIDA","category":"commercial","execution_stage":"unknown"}},{"type":"Feature","geometry":{"type":"Polygon","coordinates":[[[77.387629,28.524254],[77.388122,28.52488],[77.387645,28.525193],[77.387587,28.525127],[77.387491,28.525155],[77.387241,28.524562],[77.387259,28.524496],[77.387298,28.524453],[77.387629,28.524254]]]},"properties":{"objectid":1282,"plotmapid":"93NACOMM","used":"MILKBOOTH","plotsizesq":25,"plot_size":"25SQMT","sector":"93","block":"NA","mplanduse":"ISSUE","ppt_type":"COMM","ppt_full":"Commercial","authority":"NOIDA","category":"commercial","execution_stage":"unknown"}},{"type":"Feature","geometry":{"type":"Polygon","coordinates":[[[77.39104,28.524201],[77.390972,28.524243],[77.39094,28.5242],[77.391006,28.524159],[77.39104,28.524201]]]},"properties":{"objectid":1509,"plotmapid":"82NACOMM","used":"NA","plotsizesq":0,"plot_size":"NA","sector":"82","block":"NA","mplanduse":"B","ppt_type":"COMM","ppt_full":"Commercial","authority":"NOIDA","category":"commercial","execution_stage":"unknown"}},{"type":"Feature","geometry":{"type":"Polygon","coordinates":[[[77.386377,28.528278],[77.386514,28.528443],[77.386224,28.52863],[77.386088,28.528466],[77.386377,28.528278]]]},"properties":{"objectid":1517,"plotmapid":"82NACOMM","used":"NA","plotsizesq":0,"plot_size":"NA","sector":"82","block":"NA","mplanduse":"V","ppt_type":"COMM","ppt_full":"Commercial","authority":"NOIDA","category":"commercial","execution_stage":"unknown"}},{"type":"Feature","geometry":{"type":"Polygon","coordinates":[[[77.387271,28.529354],[77.38738,28.529485],[77.38709,28.529671],[77.386981,28.52954],[77.387271,28.529354]]]},"properties":{"objectid":1531,"plotmapid":"82NACOMM","used":"NA","plotsizesq":0,"plot_size":"NA","sector":"82","block":"NA","mplanduse":"B","ppt_type":"COMM","ppt_full":"Commercial","authority":"NOIDA","category":"commercial","execution_stage":"unknown"}},{"type":"Feature","geometry":{"type":"Polygon","coordinates":[[[77.39187,28.5321],[77.391828,28.532129],[77.391795,28.532088],[77.391837,28.532061],[77.39187,28.5321]]]},"properties":{"objectid":1545,"plotmapid":"82NACOMM","used":"NA","plotsizesq":0,"plot_size":"NA","sector":"82","block":"NA","mplanduse":"B","ppt_type":"COMM","ppt_full":"Commercial","authority":"NOIDA","category":"commercial","execution_stage":"unknown"}},{"type":"Feature","geometry":{"type":"Polygon","coordinates":[[[77.391427,28.533923],[77.391686,28.533961],[77.391496,28.534282],[77.391197,28.534236],[77.391387,28.533918],[77.391427,28.533923]]]},"properties":{"objectid":1547,"plotmapid":"82NACOMM","used":"NA","plotsizesq":0,"plot_size":"NA","sector":"82","block":"NA","mplanduse":"B","ppt_type":"COMM","ppt_full":"Commercial","authority":"NOIDA","category":"commercial","execution_stage":"unknown"}},{"type":"Feature","geometry":{"type":"Polygon","coordinates":[[[77.391496,28.534282],[77.391288,28.534649],[77.390949,28.534599],[77.391154,28.534229],[77.391496,28.534282]]]},"properties":{"objectid":1548,"plotmapid":"82NACOMM","used":"NA","plotsizesq":0,"plot_size":"NA","sector":"82","block":"NA","mplanduse":"B","ppt_type":"COMM","ppt_full":"Commercial","authority":"NOIDA","category":"commercial","execution_stage":"unknown"}},{"type":"Feature","geometry":{"type":"Polygon","coordinates":[[[77.392367,28.526146],[77.392671,28.526197],[77.39274,28.52628],[77.392756,28.526329],[77.392706,28.526644],[77.392056,28.526432],[77.392097,28.526109],[77.392367,28.526146]]]},"properties":{"objectid":1570,"plotmapid":"82PP009ACOMM","used":"NA","plotsizesq":1485,"plot_size":"1485 SQMT","plot_no":"009A","sector":"82","block":"PP","mplanduse":"B","ppt_type":"COMM","ppt_full":"Commercial","authority":"NOIDA","category":"commercial","execution_stage":"unknown"}},{"type":"Feature","geometry":{"type":"Polygon","coordinates":[[[77.387154,28.527233],[77.386964,28.527354],[77.386528,28.52684],[77.386672,28.526744],[77.386903,28.52696],[77.386943,28.526981],[77.387154,28.527233]]]},"properties":{"objectid":1574,"plotmapid":"82NACOMM","used":"NA","plotsizesq":0,"plot_size":"NA","sector":"82","block":"NA","mplanduse":"B","ppt_type":"COMM","ppt_full":"Commercial","authority":"NOIDA","category":"commercial","execution_stage":"unknown"}},{"type":"Feature","geometry":{"type":"Polygon","coordinates":[[[77.354795,28.544945],[77.355213,28.544689],[77.355444,28.544985],[77.355029,28.545242],[77.354795,28.544945]]]},"properties":{"objectid":2425,"plotmapid":"99BCOMM","used":"COMMERCIAL","plotsizesq":2000,"plot_size":"2000SQMT","sector":"99","block":"B","mplanduse":"V","ppt_type":"COMM","ppt_full":"Commercial","authority":"NOIDA","category":"commercial","execution_stage":"unknown"}},{"type":"Feature","geometry":{"type":"Polygon","coordinates":[[[77.359361,28.544863],[77.358415,28.544907],[77.358289,28.544751],[77.358947,28.54435],[77.359361,28.544863]]]},"properties":{"objectid":2519,"plotmapid":"99NACOMM","used":"FV","plotsizesq":0,"plot_size":"NA","sector":"99","block":"NA","mplanduse":"B","ppt_type":"COMM","ppt_full":"Commercial","authority":"NOIDA","category":"commercial","execution_stage":"unknown"}},{"type":"Feature","geometry":{"type":"Polygon","coordinates":[[[77.357454,28.545667],[77.357458,28.545722],[77.356656,28.545764],[77.356628,28.545265],[77.357312,28.545233],[77.357317,28.545308],[77.35743,28.545303],[77.357454,28.545667]]]},"properties":{"objectid":2564,"plotmapid":"99C001COMM","used":"COMMUNITY CENTRE","plotsizesq":4000,"plot_size":"4000 SQMT","plot_no":"001","sector":"99","block":"C","mplanduse":"B","ppt_type":"COMM","ppt_full":"Commercial","authority":"NOIDA","category":"commercial","execution_stage":"unknown"}},{"type":"Feature","geometry":{"type":"Polygon","coordinates":[[[77.374243,28.524669],[77.374263,28.524694],[77.372376,28.525911],[77.371637,28.526364],[77.370831,28.525379],[77.371388,28.524943],[77.371938,28.524548],[77.372516,28.524201],[77.373162,28.52386],[77.373458,28.524219],[77.373728,28.524044],[77.374243,28.524669]]]},"properties":{"objectid":14647,"plotmapid":"108COMM001COMM","used":"MASTER COMMERCIAL","plotsizesq":5.07,"plot_size":"5.07 HECT.","plot_no":"001","sector":"108","block":"COMM","mplanduse":"V","ppt_type":"COMM","ppt_full":"Commercial","authority":"NOIDA","category":"commercial","execution_stage":"unknown"}},{"type":"Feature","geometry":{"type":"Polygon","coordinates":[[[77.377081,28.529452],[77.377044,28.529477],[77.376992,28.529413],[77.377034,28.529386],[77.377081,28.529452]]]},"properties":{"objectid":14703,"plotmapid":"108B154A\\M01COMM","used":"MILK BOOTH","plotsizesq":25,"plot_size":"25 SQMT","plot_no":"154A\\M01","sector":"108","block":"B","mplanduse":"V","ppt_type":"COMM","ppt_full":"Commercial","authority":"NOIDA","category":"commercial","execution_stage":"unknown"}},{"type":"Feature","geometry":{"type":"Polygon","coordinates":[[[77.377044,28.529477],[77.376762,28.529659],[77.376296,28.529086],[77.376667,28.528845],[77.377088,28.529351],[77.376992,28.529413],[77.377044,28.529477]]]},"properties":{"objectid":14750,"plotmapid":"108COMM154ACOMM","property_t":"Residential","used":"COMM.","allotted_p":"Yes","plotsizesq":387.5,"plot_size":"NA","plot_no":"154A","sector":"108","block":"COMM","mplanduse":"V","ppt_type":"COMM","ppt_full":"Commercial","authority":"NOIDA","category":"commercial","execution_stage":"allotted"}},{"type":"Feature","geometry":{"type":"Polygon","coordinates":[[[77.377107,28.529374],[77.37714,28.529413],[77.377081,28.529452],[77.377034,28.529386],[77.377088,28.529351],[77.377107,28.529374]]]},"properties":{"objectid":15333,"plotmapid":"108B154A\\F.V-01COMM","used":"F.V. BOOTH","plotsizesq":42.25,"plot_size":"42.25 SQMT","plot_no":"154A\\F.V-01","sector":"108","block":"B","mplanduse":"B","ppt_type":"COMM","ppt_full":"Commercial","authority":"NOIDA","category":"commercial","execution_stage":"unknown"}},{"type":"Feature","geometry":{"type":"Polygon","coordinates":[[[77.370306,28.526289],[77.370313,28.526297],[77.369523,28.526815],[77.366296,28.528881],[77.366136,28.528684],[77.367834,28.527671],[77.368285,28.527345],[77.37006,28.525992],[77.370306,28.526289]]]},"properties":{"objectid":18749,"plotmapid":"105NACOMM","used":"MASTER COMMERCIAL","plotsizesq":0,"plot_size":"NA","sector":"105","block":"NA","mplanduse":"V","ppt_type":"COMM","ppt_full":"Commercial","authority":"NOIDA","category":"commercial","execution_stage":"unknown"}},{"type":"Feature","geometry":{"type":"Polygon","coordinates":[[[77.365406,28.529115],[77.365399,28.529106],[77.365941,28.528805],[77.366686,28.529722],[77.366178,28.530047],[77.365406,28.529115]]]},"properties":{"objectid":18750,"plotmapid":"105SDCH002COMM","used":"EXIST. PLOT","plotsizesq":7500,"plot_size":"7500 SQMT","plot_no":"002","sector":"105","block":"SDCH","mplanduse":"V","ppt_type":"COMM","ppt_full":"Commercial","authority":"NOIDA","category":"commercial","execution_stage":"unknown"}},{"type":"Feature","geometry":{"type":"Polygon","coordinates":[[[77.363313,28.530314],[77.364258,28.531454],[77.363658,28.531838],[77.3627,28.530673],[77.363313,28.530314]]]},"properties":{"objectid":18751,"plotmapid":"105SC001COMM","used":"EXISTING PLOT","plotsizesq":4699.5,"plot_size":"4699.5 SQMT","plot_no":"001","sector":"105","block":"SC","mplanduse":"V","ppt_type":"COMM","ppt_full":"Commercial","authority":"NOIDA","category":"commercial","execution_stage":"unknown"}},{"type":"Feature","geometry":{"type":"Polygon","coordinates":[[[77.364971,28.529362],[77.365858,28.530431],[77.364258,28.531454],[77.363309,28.530307],[77.364965,28.529352],[77.364971,28.529362]]]},"properties":{"objectid":18752,"plotmapid":"105C003COMM","used":"MASTER COMMERCIAL PLOT","plotsizesq":28700,"plot_size":"28700 SQMT","plot_no":"003","sector":"105","block":"C","mplanduse":"V","ppt_type":"COMM","ppt_full":"Commercial","authority":"NOIDA","category":"commercial","execution_stage":"unknown"}},{"type":"Feature","geometry":{"type":"Polygon","coordinates":[[[77.365406,28.529115],[77.366275,28.530164],[77.365858,28.530431],[77.364965,28.529352],[77.365399,28.529106],[77.365406,28.529115]]]},"properties":{"objectid":18753,"plotmapid":"105C004COMM","used":"COMM. PLOT","plotsizesq":7500,"plot_size":"7500","plot_no":"004","sector":"105","block":"C","mplanduse":"V","ppt_type":"COMM","ppt_full":"Commercial","authority":"NOIDA","category":"commercial","execution_stage":"unknown"}},{"type":"Feature","geometry":{"type":"Polygon","coordinates":[[[77.364903,28.532587],[77.364388,28.532906],[77.36422,28.53294],[77.364178,28.532711],[77.364085,28.532398],[77.36396,28.532188],[77.363858,28.532051],[77.36408,28.531925],[77.366961,28.530038],[77.367622,28.530838],[77.364903,28.532587]]]},"properties":{"objectid":18755,"plotmapid":"105C002COMM","used":"COMMERCIAL PLOT","plotsizesq":44000,"plot_size":"44000 SQMT","plot_no":"002","sector":"105","block":"C","mplanduse":"V","ppt_type":"COMM","ppt_full":"Commercial","authority":"NOIDA","category":"commercial","execution_stage":"unknown"}},{"type":"Feature","geometry":{"type":"Polygon","coordinates":[[[77.36422,28.53294],[77.364388,28.532906],[77.364597,28.532772],[77.364679,28.533151],[77.364258,28.533236],[77.36422,28.53294]]]},"properties":{"objectid":18757,"plotmapid":"105PP-001COMM","used":"PETROL PUMP","plotsizesq":0,"plot_size":"NA","plot_no":"PP-001","sector":"105","mplanduse":"V","ppt_type":"COMM","ppt_full":"Commercial","authority":"NOIDA","category":"commercial","execution_stage":"unknown"}},{"type":"Feature","geometry":{"type":"Polygon","coordinates":[[[77.366378,28.534367],[77.364417,28.535615],[77.364376,28.534749],[77.364258,28.533236],[77.364679,28.533151],[77.364597,28.532772],[77.364903,28.532587],[77.366378,28.534367]]]},"properties":{"objectid":18758,"plotmapid":"105C001COMM","used":"COMMERCIAL PLOT","plotsizesq":24500,"plot_size":"24500 SQMT","plot_no":"001","sector":"105","block":"C","mplanduse":"V","ppt_type":"COMM","ppt_full":"Commercial","authority":"NOIDA","category":"commercial","execution_stage":"unknown"}},{"type":"Feature","geometry":{"type":"Polygon","coordinates":[[[77.37066,28.531156],[77.370909,28.53146],[77.37014,28.531948],[77.369747,28.531466],[77.370511,28.530973],[77.37066,28.531156]]]},"properties":{"objectid":18940,"plotmapid":"105D250ACOMM","property_t":"Residential","used":"COMM.","allotted_p":"Yes","plotsizesq":210,"plot_size":"NA","plot_no":"250A","sector":"105","block":"D","mplanduse":"V","ppt_type":"COMM","ppt_full":"Commercial","authority":"NOIDA","category":"commercial","execution_stage":"allotted"}},{"type":"Feature","geometry":{"type":"Polygon","coordinates":[[[77.370104,28.530617],[77.369416,28.531063],[77.369054,28.530623],[77.369825,28.530131],[77.370109,28.530476],[77.370033,28.530527],[77.370104,28.530617]]]},"properties":{"objectid":18942,"plotmapid":"105D250CCOMM","used":"COMM.","plotsizesq":0,"plot_size":"NA","plot_no":"250C","sector":"105","block":"D","mplanduse":"V","ppt_type":"COMM","ppt_full":"Commercial","authority":"NOIDA","category":"commercial","execution_stage":"unknown"}},{"type":"Feature","geometry":{"type":"Polygon","coordinates":[[[77.365305,28.537178],[77.365238,28.537256],[77.364917,28.537075],[77.364885,28.536601],[77.365574,28.536676],[77.365382,28.536911],[77.365598,28.537071],[77.365426,28.537226],[77.365317,28.537164],[77.365305,28.537178]]]},"properties":{"objectid":18945,"plotmapid":"105NACOMM","used":"COMM.FOR V.D.S","plotsizesq":0,"plot_size":"NA","sector":"105","block":"NA","mplanduse":"V","ppt_type":"COMM","ppt_full":"Commercial","authority":"NOIDA","category":"commercial","execution_stage":"unknown"}},{"type":"Feature","geometry":{"type":"Polygon","coordinates":[[[77.3726,28.528553],[77.37244,28.528655],[77.372339,28.528531],[77.372498,28.528429],[77.3726,28.528553]]]},"properties":{"objectid":18951,"plotmapid":"105NACOMM","used":"PROPOSESITE FOR PETROL PUMP","plotsizesq":340,"plot_size":"340 SQMT","sector":"105","block":"NA","mplanduse":"G","ppt_type":"COMM","ppt_full":"Commercial","authority":"NOIDA","category":"commercial","execution_stage":"unknown"}},{"type":"Feature","geometry":{"type":"Polygon","coordinates":[[[77.365167,28.536458],[77.365123,28.536518],[77.364888,28.536496],[77.36486,28.536121],[77.364881,28.536107],[77.365167,28.536458]]]},"properties":{"objectid":19861,"plotmapid":"105HACOMM","plotsizesq":0,"sector":"105","block":"HA","mplanduse":"B","ppt_type":"COMM","ppt_full":"Commercial","authority":"NOIDA","category":"commercial","execution_stage":"unknown"}},{"type":"Feature","geometry":{"type":"Polygon","coordinates":[[[77.367452,28.53538],[77.367233,28.53552],[77.367102,28.535362],[77.367323,28.535221],[77.367452,28.53538]]]},"properties":{"objectid":19867,"plotmapid":"105HACOMM","plotsizesq":0,"sector":"105","block":"HA","mplanduse":"V","ppt_type":"COMM","ppt_full":"Commercial","authority":"NOIDA","category":"commercial","execution_stage":"unknown"}},{"type":"Feature","geometry":{"type":"Polygon","coordinates":[[[77.366421,28.536424],[77.366416,28.536521],[77.3662,28.536504],[77.36618,28.536329],[77.366439,28.536168],[77.366421,28.536424]]]},"properties":{"objectid":19870,"plotmapid":"105NACOMM","plotsizesq":0,"sector":"105","block":"NA","mplanduse":"V","ppt_type":"COMM","ppt_full":"Commercial","authority":"NOIDA","category":"commercial","execution_stage":"unknown"}},{"type":"Feature","geometry":{"type":"Polygon","coordinates":[[[77.366793,28.536546],[77.366416,28.536521],[77.366439,28.536168],[77.366714,28.536003],[77.36689,28.536219],[77.366831,28.536246],[77.366793,28.536546]]]},"properties":{"objectid":19885,"plotmapid":"105NACOMM","plotsizesq":0,"sector":"105","block":"NA","mplanduse":"B","ppt_type":"COMM","ppt_full":"Commercial","authority":"NOIDA","category":"commercial","execution_stage":"unknown"}},{"type":"Feature","geometry":{"type":"Polygon","coordinates":[[[77.375941,28.551908],[77.376033,28.552204],[77.375554,28.552227],[77.375463,28.551932],[77.375941,28.551908]]]},"properties":{"objectid":38918,"plotmapid":"47NAPP-001COMM","used":"PETROL PUMP","plotsizesq":0,"plot_no":"PP-001","sector":"47","block":"NA","mplanduse":"G","ppt_type":"COMM","ppt_full":"Commercial","authority":"NOIDA","category":"commercial","execution_stage":"unknown"}},{"type":"Feature","geometry":{"type":"Polygon","coordinates":[[[77.375825,28.552601],[77.374563,28.553767],[77.373482,28.5529],[77.373874,28.552543],[77.373884,28.552495],[77.373849,28.552023],[77.373895,28.552021],[77.374505,28.552565],[77.375175,28.551946],[77.375463,28.551932],[77.375554,28.552227],[77.376033,28.552204],[77.376083,28.552363],[77.375825,28.552601]]]},"properties":{"objectid":38922,"plotmapid":"47MC001COMM","used":"COMMERCIAL","plotsizesq":20127,"plot_size":"20127 SQMT","plot_no":"001","sector":"47","block":"MC","mplanduse":"G","ppt_type":"COMM","ppt_full":"Commercial","authority":"NOIDA","category":"commercial","execution_stage":"unknown"}},{"type":"Feature","geometry":{"type":"Polygon","coordinates":[[[77.358181,28.577125],[77.358389,28.576913],[77.35913,28.577479],[77.358834,28.577628],[77.358181,28.577125]]]},"properties":{"objectid":39072,"plotmapid":"35NACOMM","plotsizesq":0,"sector":"35","block":"NA","mplanduse":"B","ppt_type":"COMM","ppt_full":"Commercial","authority":"NOIDA","category":"commercial","execution_stage":"unknown"}},{"type":"Feature","geometry":{"type":"Polygon","coordinates":[[[77.367957,28.557274],[77.367629,28.557476],[77.3675,28.557589],[77.36747,28.557568],[77.367423,28.557026],[77.367932,28.556993],[77.367957,28.557274]]]},"properties":{"objectid":39518,"plotmapid":"48C015ACOMM","used":"COMMUNITY CENTRE","plotsizesq":2000,"plot_size":"2000 SQMT","plot_no":"015A","sector":"48","block":"C","mplanduse":"ISSUE","ppt_type":"COMM","ppt_full":"Commercial","authority":"NOIDA","category":"commercial","execution_stage":"unknown"}},{"type":"Feature","geometry":{"type":"Polygon","coordinates":[[[77.367356,28.555999],[77.367328,28.555669],[77.368074,28.555621],[77.368103,28.555951],[77.367356,28.555999]]]},"properties":{"objectid":39519,"plotmapid":"48C116ACOMM","used":"COMMUNITY CENTRE","plotsizesq":2000,"plot_size":"2000 SQMT","plot_no":"116A","sector":"48","block":"C","mplanduse":"ISSUE","ppt_type":"COMM","ppt_full":"Commercial","authority":"NOIDA","category":"commercial","execution_stage":"unknown"}},{"type":"Feature","geometry":{"type":"Polygon","coordinates":[[[77.369558,28.5609],[77.369608,28.560946],[77.369127,28.56106],[77.369093,28.560818],[77.36911,28.560812],[77.369053,28.560661],[77.3691,28.560672],[77.36953,28.560557],[77.369806,28.560451],[77.37006,28.56033],[77.369558,28.5609]]]},"properties":{"objectid":39685,"plotmapid":"49D016COMM","used":"SHOP","plotsizesq":0,"plot_no":"016","sector":"49","block":"D","mplanduse":"ISSUE","ppt_type":"COMM","ppt_full":"Commercial","authority":"NOIDA","category":"commercial","execution_stage":"unknown"}},{"type":"Feature","geometry":{"type":"Polygon","coordinates":[[[77.355987,28.556497],[77.355532,28.556529],[77.355494,28.556133],[77.355777,28.555658],[77.355883,28.55565],[77.355987,28.556497]]]},"properties":{"objectid":39730,"plotmapid":"43NACOMM","plotsizesq":0,"sector":"43","block":"NA","mplanduse":"ISSUE","ppt_type":"COMM","ppt_full":"Commercial","authority":"NOIDA","category":"commercial","execution_stage":"unknown"}},{"type":"Feature","geometry":{"type":"Polygon","coordinates":[[[77.361736,28.561536],[77.361328,28.561561],[77.3613,28.561315],[77.361709,28.561299],[77.361736,28.561536]]]},"properties":{"objectid":39753,"plotmapid":"41J014BCOMM","plotsizesq":0,"plot_no":"014B","sector":"41","block":"J","mplanduse":"B","ppt_type":"COMM","ppt_full":"Commercial","authority":"NOIDA","category":"commercial","execution_stage":"unknown"}},{"type":"Feature","geometry":{"type":"Polygon","coordinates":[[[77.375425,28.550989],[77.375339,28.550993],[77.375337,28.550957],[77.375421,28.550953],[77.375425,28.550989]]]},"properties":{"objectid":40055,"plotmapid":"47NACOMM","used":"VEG. AND MILK BOOTH","plotsizesq":0,"sector":"47","block":"NA","mplanduse":"B","ppt_type":"COMM","ppt_full":"Commercial","authority":"NOIDA","category":"commercial","execution_stage":"unknown"}},{"type":"Feature","geometry":{"type":"Polygon","coordinates":[[[77.369852,28.548473],[77.371011,28.548391],[77.371045,28.548778],[77.370875,28.548735],[77.370697,28.548727],[77.369881,28.548784],[77.369852,28.548473]]]},"properties":{"objectid":40470,"plotmapid":"47C209BCOMM","used":"COMMUNITY CENTRE","plotsizesq":3000,"plot_size":"3000 SQMT","plot_no":"209B","sector":"47","block":"C","mplanduse":"B","ppt_type":"COMM","ppt_full":"Commercial","authority":"NOIDA","category":"commercial","execution_stage":"unknown"}},{"type":"Feature","geometry":{"type":"Polygon","coordinates":[[[77.370736,28.548884],[77.37076,28.54937],[77.369433,28.549436],[77.369387,28.548998],[77.370736,28.548884]]]},"properties":{"objectid":41162,"plotmapid":"47D209ACOMM","plotsizesq":0,"plot_no":"209A","sector":"47","block":"D","mplanduse":"G","ppt_type":"COMM","ppt_full":"Commercial","authority":"NOIDA","category":"commercial","execution_stage":"unknown"}},{"type":"Feature","geometry":{"type":"Polygon","coordinates":[[[77.362279,28.573587],[77.361902,28.574065],[77.361366,28.573652],[77.361588,28.573381],[77.361767,28.573515],[77.361875,28.573404],[77.36202,28.573512],[77.362083,28.573447],[77.362279,28.573587]]]},"properties":{"objectid":41222,"plotmapid":"51A098COMM","used":"COMMERCIAL","plotsizesq":4343,"plot_size":"4343 SQMT","plot_no":"098","sector":"51","block":"A","mplanduse":"V","ppt_type":"COMM","ppt_full":"Commercial","authority":"NOIDA","category":"commercial","execution_stage":"unknown"}},{"type":"Feature","geometry":{"type":"Polygon","coordinates":[[[77.362036,28.573413],[77.362083,28.573447],[77.36202,28.573512],[77.361973,28.573477],[77.362036,28.573413]]]},"properties":{"objectid":41223,"plotmapid":"51AMBCOMM","used":"Parag","plotsizesq":20,"plot_size":"20 SQMT","plot_no":"MB","sector":"51","block":"A","mplanduse":"V","ppt_type":"COMM","ppt_full":"Commercial","authority":"NOIDA","category":"commercial","execution_stage":"unknown"}},{"type":"Feature","geometry":{"type":"Polygon","coordinates":[[[77.361842,28.573274],[77.361676,28.573447],[77.361582,28.573377],[77.361746,28.573205],[77.361842,28.573274]]]},"properties":{"objectid":41501,"plotmapid":"51A098ACOMM","used":"NA","plotsizesq":300,"plot_size":"300 SQMT","plot_no":"098A","sector":"51","block":"A","mplanduse":"B","ppt_type":"COMM","ppt_full":"Commercial","authority":"NOIDA","category":"commercial","execution_stage":"unknown"}},{"type":"Feature","geometry":{"type":"Polygon","coordinates":[[[77.361875,28.573404],[77.361767,28.573515],[77.361676,28.573447],[77.361842,28.573274],[77.361936,28.573341],[77.361875,28.573404]]]},"properties":{"objectid":41502,"plotmapid":"51A98BCOMM","property_t":"Commercial","used":"NA","allotted_p":"Yes","plotsizesq":300,"plot_size":"300 SQMT","plot_no":"98B","sector":"51","block":"A","mplanduse":"B","ppt_type":"COMM","ppt_full":"Commercial","authority":"NOIDA","category":"commercial","execution_stage":"allotted"}},{"type":"Feature","geometry":{"type":"Polygon","coordinates":[[[77.360313,28.57715],[77.360592,28.576806],[77.362608,28.578285],[77.362394,28.578509],[77.36233,28.578461],[77.362182,28.578612],[77.360595,28.577413],[77.360624,28.577378],[77.360313,28.57715]]]},"properties":{"objectid":41661,"plotmapid":"51B001A&001BCOMM","used":"COMMERCIAL","plotsizesq":15644,"plot_size":"15644 SQMT","plot_no":"001A&001B","sector":"51","block":"B","mplanduse":"B","ppt_type":"COMM","ppt_full":"Commercial","authority":"NOIDA","category":"commercial","execution_stage":"unknown"}},{"type":"Feature","geometry":{"type":"Polygon","coordinates":[[[77.360537,28.548795],[77.359954,28.548837],[77.359932,28.548597],[77.360033,28.54859],[77.360014,28.548379],[77.360523,28.548345],[77.360566,28.548794],[77.360537,28.548795]]]},"properties":{"objectid":42798,"plotmapid":"46B096DCOMM","used":"COMM.","plotsizesq":0,"plot_no":"096D","sector":"46","block":"B","mplanduse":"V","ppt_type":"COMM","ppt_full":"Commercial","authority":"NOIDA","category":"commercial","execution_stage":"unknown"}},{"type":"Feature","geometry":{"type":"Polygon","coordinates":[[[77.359434,28.550312],[77.359439,28.550365],[77.359321,28.550373],[77.359311,28.550275],[77.35943,28.550274],[77.359434,28.550312]]]},"properties":{"objectid":42804,"plotmapid":"46NA001-MB&001-FV(A-264C)COMM","used":"MILK BOOTH","plotsizesq":25,"plot_size":"25 SQMT","plot_no":"001-MB&001-FV(A-264C)","sector":"46","block":"NA","mplanduse":"B","ppt_type":"COMM","ppt_full":"Commercial","authority":"NOIDA","category":"commercial","execution_stage":"unknown"}},{"type":"Feature","geometry":{"type":"Polygon","coordinates":[[[77.360841,28.55117],[77.360852,28.551316],[77.36049,28.551345],[77.360449,28.550893],[77.360841,28.55117]]]},"properties":{"objectid":42810,"plotmapid":"46A264C/03COMM","used":"COMM.","plotsizesq":0,"plot_no":"264C/03","sector":"46","block":"A","mplanduse":"V","ppt_type":"COMM","ppt_full":"Commercial","authority":"NOIDA","category":"commercial","execution_stage":"unknown"}},{"type":"Feature","geometry":{"type":"Polygon","coordinates":[[[77.360867,28.55157],[77.360517,28.551597],[77.36049,28.551345],[77.360852,28.551316],[77.360867,28.55157]]]},"properties":{"objectid":42811,"plotmapid":"46A264C/2COMM","used":"COMM.","plotsizesq":0,"plot_no":"264C/2","sector":"46","block":"A","mplanduse":"V","ppt_type":"COMM","ppt_full":"Commercial","authority":"NOIDA","category":"commercial","execution_stage":"unknown"}},{"type":"Feature","geometry":{"type":"Polygon","coordinates":[[[77.361232,28.551542],[77.361006,28.551559],[77.360992,28.551274],[77.361078,28.551331],[77.361224,28.55139],[77.361232,28.551542]]]},"properties":{"objectid":42812,"plotmapid":"46A264C/1ACOMM","used":"COMMERCIAL FOR FUTURE USE","plotsizesq":0,"plot_no":"264C/1A","sector":"46","block":"A","mplanduse":"V","ppt_type":"COMM","ppt_full":"Commercial","authority":"NOIDA","category":"commercial","execution_stage":"unknown"}},{"type":"Feature","geometry":{"type":"Polygon","coordinates":[[[77.361481,28.551523],[77.361232,28.551542],[77.361224,28.55139],[77.361373,28.551429],[77.361477,28.551435],[77.361481,28.551523]]]},"properties":{"objectid":42813,"plotmapid":"46A264C/1COMM","used":"FOR ALLAHBAD BANK","plotsizesq":300,"plot_size":"300 SQMT","plot_no":"264C/1","sector":"46","block":"A","mplanduse":"V","ppt_type":"COMM","ppt_full":"Commercial","authority":"NOIDA","category":"commercial","execution_stage":"unknown"}},{"type":"Feature","geometry":{"type":"Polygon","coordinates":[[[77.359543,28.552606],[77.36015,28.552567],[77.360198,28.553103],[77.359597,28.553141],[77.359543,28.552606]]]},"properties":{"objectid":42819,"plotmapid":"46A264ECOMM","used":"COMM.","plotsizesq":0,"plot_no":"264E","sector":"46","block":"A","mplanduse":"V","ppt_type":"COMM","ppt_full":"Commercial","authority":"NOIDA","category":"commercial","execution_stage":"unknown"}},{"type":"Feature","geometry":{"type":"Polygon","coordinates":[[[77.360186,28.554384],[77.360284,28.554377],[77.360344,28.555093],[77.356947,28.555324],[77.356874,28.554622],[77.360186,28.554384]]]},"properties":{"objectid":42827,"plotmapid":"46A548BCOMM","used":"MASTER PLAN COMMERCIAL","plotsizesq":0,"plot_no":"548B","sector":"46","block":"A","mplanduse":"V","ppt_type":"COMM","ppt_full":"Commercial","authority":"NOIDA","category":"commercial","execution_stage":"unknown"}},{"type":"Feature","geometry":{"type":"Polygon","coordinates":[[[77.360473,28.554367],[77.36245,28.554243],[77.362349,28.553026],[77.364611,28.552858],[77.364657,28.553293],[77.364394,28.553339],[77.36414,28.553467],[77.362872,28.554766],[77.362697,28.5549],[77.362602,28.554946],[77.362238,28.554983],[77.360535,28.555082],[77.360473,28.554367]]]},"properties":{"objectid":42828,"plotmapid":"46A548ACOMM","used":"MASTER PLAN COMMERCIAL","plotsizesq":0,"plot_no":"548A","sector":"46","block":"A","mplanduse":"V","ppt_type":"COMM","ppt_full":"Commercial","authority":"NOIDA","category":"commercial","execution_stage":"unknown"}},{"type":"Feature","geometry":{"type":"Polygon","coordinates":[[[77.360259,28.550761],[77.360285,28.551068],[77.359396,28.551143],[77.359321,28.550373],[77.359439,28.550365],[77.35943,28.550274],[77.359584,28.550317],[77.359909,28.550518],[77.360259,28.550761]]]},"properties":{"objectid":42835,"plotmapid":"46A264ACOMM","used":"COMM.","plotsizesq":0,"plot_no":"264A","sector":"46","block":"A","mplanduse":"V","ppt_type":"COMM","ppt_full":"Commercial","authority":"NOIDA","category":"commercial","execution_stage":"unknown"}},{"type":"Feature","geometry":{"type":"Polygon","coordinates":[[[77.363255,28.549428],[77.362943,28.549451],[77.362903,28.549063],[77.363219,28.54904],[77.363255,28.549428]]]},"properties":{"objectid":42955,"plotmapid":"46B156ACOMM","property_t":"Commercial","used":"COMM.","allotted_p":"Yes","plotsizesq":1302,"plot_size":"1302 SQMT","plot_no":"156A","sector":"46","block":"B","mplanduse":"B","ppt_type":"COMM","ppt_full":"Commercial","authority":"NOIDA","category":"commercial","execution_stage":"allotted"}},{"type":"Feature","geometry":{"type":"Polygon","coordinates":[[[77.36049,28.551345],[77.360517,28.551597],[77.360045,28.551634],[77.360011,28.551246],[77.360477,28.551209],[77.36049,28.551345]]]},"properties":{"objectid":43095,"plotmapid":"46A264B/1COMM","used":"COMMUNITY CENTER","plotsizesq":2000,"plot_size":"2000 SQMT","plot_no":"264B/1","sector":"46","block":"A","mplanduse":"B","ppt_type":"COMM","ppt_full":"Commercial","authority":"NOIDA","category":"commercial","execution_stage":"unknown"}},{"type":"Feature","geometry":{"type":"Polygon","coordinates":[[[77.359812,28.557391],[77.359828,28.557615],[77.35937,28.55765],[77.359354,28.557426],[77.359812,28.557391]]]},"properties":{"objectid":45103,"plotmapid":"42C001COMM","plotsizesq":0,"plot_no":"001","sector":"42","block":"C","mplanduse":"V","ppt_type":"COMM","ppt_full":"Commercial","remark":"As per Drone is vacant but Alloted","authority":"NOIDA","category":"commercial","execution_stage":"unknown"}},{"type":"Feature","geometry":{"type":"Polygon","coordinates":[[[77.362896,28.558553],[77.362916,28.558822],[77.362305,28.558869],[77.362285,28.5586],[77.362896,28.558553]]]},"properties":{"objectid":45105,"plotmapid":"42C043COMM","plotsizesq":0,"plot_no":"043","sector":"42","block":"C","mplanduse":"V","ppt_type":"COMM","ppt_full":"Commercial","remark":"As per Drone is vacant but Alloted","authority":"NOIDA","category":"commercial","execution_stage":"unknown"}},{"type":"Feature","geometry":{"type":"Polygon","coordinates":[[[77.362241,28.559954],[77.362189,28.559456],[77.362982,28.559402],[77.363035,28.5599],[77.362241,28.559954]]]},"properties":{"objectid":45106,"plotmapid":"42A051COMM","plotsizesq":0,"plot_no":"051","sector":"42","block":"A","mplanduse":"V","ppt_type":"COMM","ppt_full":"Commercial","authority":"NOIDA","category":"commercial","execution_stage":"unknown"}},{"type":"Feature","geometry":{"type":"Polygon","coordinates":[[[77.363119,28.560705],[77.362326,28.560763],[77.362274,28.560265],[77.363067,28.560211],[77.363119,28.560705]]]},"properties":{"objectid":45153,"plotmapid":"42A053COMM","plotsizesq":0,"plot_no":"053","sector":"42","block":"A","mplanduse":"V","ppt_type":"COMM","ppt_full":"Commercial","authority":"NOIDA","category":"commercial","execution_stage":"unknown"}},{"type":"Feature","geometry":{"type":"Polygon","coordinates":[[[77.367147,28.554807],[77.367065,28.554813],[77.36706,28.554754],[77.367142,28.554749],[77.367147,28.554807]]]},"properties":{"objectid":45178,"plotmapid":"48DCOMM","used":"VEG. AND MILK BOOTH","plotsizesq":0,"sector":"48","block":"D","mplanduse":"B","ppt_type":"COMM","ppt_full":"Commercial","remark":"As per Drone is vacant but Alloted","authority":"NOIDA","category":"commercial","execution_stage":"unknown"}},{"type":"Feature","geometry":{"type":"Polygon","coordinates":[[[77.367412,28.557694],[77.367389,28.557769],[77.367336,28.557758],[77.367358,28.557683],[77.367412,28.557694]]]},"properties":{"objectid":46088,"plotmapid":"48A182/1COMM","used":"MILK BOOTH","plotsizesq":0,"plot_no":"182/1","sector":"48","block":"A","mplanduse":"B","ppt_type":"COMM","ppt_full":"Commercial","authority":"NOIDA","category":"commercial","execution_stage":"unknown"}},{"type":"Feature","geometry":{"type":"Polygon","coordinates":[[[77.367234,28.572962],[77.367244,28.572969],[77.367086,28.573173],[77.366988,28.573106],[77.366975,28.572942],[77.367077,28.572854],[77.367234,28.572962]]]},"properties":{"objectid":47808,"plotmapid":"50E006BCOMM","used":"COMM.","plotsizesq":0,"plot_no":"006B","sector":"50","block":"E","mplanduse":"V","ppt_type":"COMM","ppt_full":"Commercial","authority":"NOIDA","category":"commercial","execution_stage":"unknown"}},{"type":"Feature","geometry":{"type":"Polygon","coordinates":[[[77.369469,28.577397],[77.369417,28.57756],[77.368517,28.577304],[77.369132,28.576972],[77.369469,28.577397]]]},"properties":{"objectid":47820,"plotmapid":"50F01BCOMM","used":"COMM.","plotsizesq":3000,"plot_size":"3000 SQMT","plot_no":"01B","sector":"50","block":"F","mplanduse":"V","ppt_type":"COMM","ppt_full":"Commercial","authority":"NOIDA","category":"commercial","execution_stage":"unknown"}},{"type":"Feature","geometry":{"type":"Polygon","coordinates":[[[77.377707,28.569372],[77.378162,28.569333],[77.378177,28.569574],[77.378557,28.569552],[77.378251,28.571785],[77.377981,28.571791],[77.377707,28.569372]]]},"properties":{"objectid":47824,"plotmapid":"50F014COMM","used":"COMMERCIAL","plotsizesq":18890,"plot_size":"18890 SQMT","plot_no":"014","sector":"50","block":"F","mplanduse":"V","ppt_type":"COMM","ppt_full":"Commercial","authority":"NOIDA","category":"commercial","execution_stage":"unknown"}},{"type":"Feature","geometry":{"type":"Polygon","coordinates":[[[77.378557,28.569552],[77.378177,28.569574],[77.378162,28.569333],[77.378579,28.569296],[77.378557,28.569552]]]},"properties":{"objectid":47826,"plotmapid":"50FPP-001COMM","used":"PETROL PUMP","plotsizesq":1925,"plot_size":"1485","plot_no":"PP-001","sector":"50","block":"F","mplanduse":"V","ppt_type":"COMM","ppt_full":"Commercial","authority":"NOIDA","category":"commercial","execution_stage":"unknown"}},{"type":"Feature","geometry":{"type":"Polygon","coordinates":[[[77.377299,28.576111],[77.3774,28.575258],[77.377881,28.575316],[77.37756,28.577208],[77.377131,28.577156],[77.377299,28.576111]]]},"properties":{"objectid":47896,"plotmapid":"50NACOMM","used":"COMM-5","plotsizesq":0,"sector":"50","block":"NA","mplanduse":"B","ppt_type":"COMM","ppt_full":"Commercial","authority":"NOIDA","category":"commercial","execution_stage":"unknown"}},{"type":"Feature","geometry":{"type":"Polygon","coordinates":[[[77.366668,28.570951],[77.36651,28.570967],[77.366265,28.570952],[77.366064,28.570903],[77.365884,28.570829],[77.36651,28.570039],[77.367332,28.570635],[77.36707,28.570819],[77.366895,28.570893],[77.366668,28.570951]]]},"properties":{"objectid":47911,"plotmapid":"50E003COMM","property_t":"Institutional","used":"COMMERCIAL","allotted_p":"Yes","plotsizesq":100,"plot_size":"100 SQMT","plot_no":"003","sector":"50","block":"E","mplanduse":"G","ppt_type":"COMM","ppt_full":"Commercial","authority":"NOIDA","category":"commercial","execution_stage":"allotted"}},{"type":"Feature","geometry":{"type":"Polygon","coordinates":[[[77.376887,28.578827],[77.377131,28.577156],[77.377556,28.577208],[77.37744,28.57814],[77.37743,28.578344],[77.377351,28.578882],[77.376887,28.578827]]]},"properties":{"objectid":47926,"plotmapid":"50NACOMM","used":"COMM-5","plotsizesq":0,"sector":"50","block":"NA","mplanduse":"B","ppt_type":"COMM","ppt_full":"Commercial","authority":"NOIDA","category":"commercial","execution_stage":"unknown"}},{"type":"Feature","geometry":{"type":"Polygon","coordinates":[[[77.362089,28.570991],[77.36157,28.570607],[77.362045,28.570035],[77.362255,28.569823],[77.362884,28.570272],[77.362193,28.571069],[77.362089,28.570991]]]},"properties":{"objectid":47941,"plotmapid":"50B001COMM","used":"COMMERCIAL","plotsizesq":10120,"plot_size":"10120 SQMT","plot_no":"001","sector":"50","block":"B","mplanduse":"B","ppt_type":"COMM","ppt_full":"Commercial","authority":"NOIDA","category":"commercial","execution_stage":"unknown"}},{"type":"Feature","geometry":{"type":"Polygon","coordinates":[[[77.367002,28.572929],[77.366975,28.572942],[77.36688,28.572223],[77.367277,28.572141],[77.367569,28.572375],[77.367002,28.572929]]]},"properties":{"objectid":47948,"plotmapid":"50E006COMM","used":"COMMUNTY CENTRE","plotsizesq":5161,"plot_size":"5161 SQMT","plot_no":"006","sector":"50","block":"E","mplanduse":"B","ppt_type":"COMM","ppt_full":"Commercial","authority":"NOIDA","category":"commercial","execution_stage":"unknown"}},{"type":"Feature","geometry":{"type":"Polygon","coordinates":[[[77.369216,28.571676],[77.369094,28.571806],[77.368884,28.571662],[77.369115,28.571402],[77.369333,28.571551],[77.369216,28.571676]]]},"properties":{"objectid":48505,"plotmapid":"50D037COMM","used":"COMM.","plotsizesq":0,"plot_no":"037","sector":"50","block":"D","mplanduse":"V","ppt_type":"COMM","ppt_full":"Commercial","authority":"NOIDA","category":"commercial","execution_stage":"unknown"}},{"type":"Feature","geometry":{"type":"Polygon","coordinates":[[[77.36922,28.571679],[77.369375,28.571787],[77.369259,28.571918],[77.369094,28.571806],[77.36922,28.571679]]]},"properties":{"objectid":48506,"plotmapid":"50D037/01COMM","plotsizesq":0,"plot_no":"037/01","sector":"50","block":"D","mplanduse":"B","ppt_type":"COMM","ppt_full":"Commercial","authority":"NOIDA","category":"commercial","execution_stage":"unknown"}},{"type":"Feature","geometry":{"type":"Polygon","coordinates":[[[77.369489,28.571659],[77.369375,28.571787],[77.369216,28.571676],[77.369333,28.571551],[77.369489,28.571659]]]},"properties":{"objectid":48507,"plotmapid":"50D037/2COMM","property_t":"Commercial","allotted_p":"Yes","plotsizesq":360,"plot_size":"360 SQMT","plot_no":"037/2","sector":"50","block":"D","mplanduse":"B","ppt_type":"COMM","ppt_full":"Commercial","authority":"NOIDA","category":"commercial","execution_stage":"allotted"}},{"type":"Feature","geometry":{"type":"Polygon","coordinates":[[[77.374403,28.577408],[77.373773,28.577284],[77.373939,28.57675],[77.374017,28.576569],[77.3741,28.576396],[77.375214,28.575683],[77.375005,28.577125],[77.374492,28.577016],[77.374403,28.577408]]]},"properties":{"objectid":48525,"plotmapid":"50F034ACOMM","used":"COMMUNITY FACILITIES","plotsizesq":13787,"plot_size":"13787","plot_no":"034A","sector":"50","block":"F","mplanduse":"B","ppt_type":"COMM","ppt_full":"Commercial","authority":"NOIDA","category":"commercial","execution_stage":"unknown"}},{"type":"Feature","geometry":{"type":"Polygon","coordinates":[[[77.36897,28.576766],[77.368749,28.576875],[77.368449,28.576505],[77.368656,28.57637],[77.36897,28.576766]]]},"properties":{"objectid":48720,"plotmapid":"50NACOMM","used":"COMM-5","plotsizesq":0,"sector":"50","block":"NA","mplanduse":"B","ppt_type":"COMM","ppt_full":"Commercial","authority":"NOIDA","category":"commercial","execution_stage":"unknown"}},{"type":"Feature","geometry":{"type":"Polygon","coordinates":[[[77.36615,28.563745],[77.366045,28.563874],[77.366011,28.563853],[77.366036,28.563673],[77.36615,28.563745]]]},"properties":{"objectid":49137,"plotmapid":"49B080COMM","property_t":"Commercial","allotted_p":"Yes","plotsizesq":157.83,"plot_size":"157.83 SQMT","plot_no":"080","sector":"49","block":"B","mplanduse":"B","ppt_type":"COMM","ppt_full":"Commercial","authority":"NOIDA","category":"commercial","execution_stage":"allotted"}},{"type":"Feature","geometry":{"type":"Polygon","coordinates":[[[77.365922,28.564329],[77.36595,28.564213],[77.366105,28.564248],[77.365995,28.564376],[77.365922,28.564329]]]},"properties":{"objectid":49153,"plotmapid":"49C039COMM","property_t":"Commercial","allotted_p":"Yes","plotsizesq":194.8,"plot_size":"194.8 SQMT","plot_no":"039","sector":"49","block":"C","mplanduse":"B","ppt_type":"COMM","ppt_full":"Commercial","authority":"NOIDA","category":"commercial","execution_stage":"allotted"}},{"type":"Feature","geometry":{"type":"Polygon","coordinates":[[[77.368072,28.564842],[77.367915,28.564755],[77.368351,28.564198],[77.368566,28.564247],[77.368852,28.564262],[77.368861,28.564282],[77.368811,28.56457],[77.368512,28.564533],[77.368484,28.564689],[77.368083,28.564649],[77.368072,28.564842]]]},"properties":{"objectid":49196,"plotmapid":"49D142COMM","used":"FACILITIES","plotsizesq":3600,"plot_size":"3600 SQMT","plot_no":"142","sector":"49","block":"D","mplanduse":"ISSUE","ppt_type":"COMM","ppt_full":"Commercial","authority":"NOIDA","category":"commercial","execution_stage":"unknown"}},{"type":"Feature","geometry":{"type":"Polygon","coordinates":[[[77.365995,28.564376],[77.365879,28.564503],[77.365922,28.564329],[77.365995,28.564376]]]},"properties":{"objectid":49359,"plotmapid":"49C038COMM","property_t":"Commercial","allotted_p":"Yes","plotsizesq":70,"plot_size":"70 SQMT","plot_no":"038","sector":"49","block":"C","mplanduse":"B","ppt_type":"COMM","ppt_full":"Commercial","authority":"NOIDA","category":"commercial","execution_stage":"allotted"}},{"type":"Feature","geometry":{"type":"Polygon","coordinates":[[[77.369469,28.577397],[77.369521,28.577463],[77.369489,28.577579],[77.369417,28.57756],[77.369469,28.577397]]]},"properties":{"objectid":49486,"plotmapid":"50NA001-MB&001-FV(F-1/B)COMM","used":"COMM.","plotsizesq":3000,"plot_size":"3000 SQMT","plot_no":"001-MB&001-FV(F-1/B)","sector":"50","block":"NA","mplanduse":"V","ppt_type":"COMM","ppt_full":"Commercial","authority":"NOIDA","category":"commercial","execution_stage":"unknown"}},{"type":"Feature","geometry":{"type":"Polygon","coordinates":[[[77.355919,28.565028],[77.356149,28.565198],[77.355993,28.565356],[77.355766,28.565183],[77.355919,28.565028]]]},"properties":{"objectid":49877,"plotmapid":"40F064D1COMM","plotsizesq":0,"plot_no":"064D1","sector":"40","block":"F","mplanduse":"B","ppt_type":"COMM","ppt_full":"Commercial","authority":"NOIDA","category":"commercial","execution_stage":"unknown"}},{"type":"Feature","geometry":{"type":"Polygon","coordinates":[[[77.356627,28.565534],[77.35658,28.565538],[77.356438,28.565682],[77.356087,28.565422],[77.356481,28.565009],[77.356938,28.56544],[77.356775,28.565637],[77.356627,28.565534]]]},"properties":{"objectid":49878,"plotmapid":"40F064DCOMM","plotsizesq":0,"plot_no":"064D","sector":"40","block":"F","mplanduse":"B","ppt_type":"COMM","ppt_full":"Commercial","authority":"NOIDA","category":"commercial","execution_stage":"unknown"}},{"type":"Feature","geometry":{"type":"Polygon","coordinates":[[[77.357466,28.566679],[77.357328,28.566823],[77.356932,28.566533],[77.357072,28.56639],[77.357466,28.566679]]]},"properties":{"objectid":49937,"plotmapid":"40D095ACOMM","plotsizesq":0,"plot_no":"095A","sector":"40","block":"D","mplanduse":"B","ppt_type":"COMM","ppt_full":"Commercial","authority":"NOIDA","category":"commercial","execution_stage":"unknown"}},{"type":"Feature","geometry":{"type":"Polygon","coordinates":[[[77.3556,28.559674],[77.355609,28.559782],[77.354561,28.559858],[77.354517,28.559318],[77.355565,28.559242],[77.3556,28.559674]]]},"properties":{"objectid":50704,"plotmapid":"43CCOMM","plotsizesq":0,"sector":"43","block":"C","mplanduse":"V","ppt_type":"COMM","ppt_full":"Commercial","remark":"As per Drone is vacant but Alloted","authority":"NOIDA","category":"commercial","execution_stage":"unknown"}},{"type":"Feature","geometry":{"type":"Polygon","coordinates":[[[77.357083,28.56023],[77.357145,28.560948],[77.356151,28.561013],[77.356088,28.560294],[77.357083,28.56023]]]},"properties":{"objectid":50865,"plotmapid":"43A267COMM","plotsizesq":0,"plot_no":"267","sector":"43","block":"A","mplanduse":"B","ppt_type":"COMM","ppt_full":"Commercial","authority":"NOIDA","category":"commercial","execution_stage":"unknown"}},{"type":"Feature","geometry":{"type":"Polygon","coordinates":[[[77.35972,28.570132],[77.359862,28.570234],[77.359542,28.570571],[77.359262,28.570363],[77.35958,28.570027],[77.35972,28.570132]]]},"properties":{"objectid":50919,"plotmapid":"41A075COMM","plotsizesq":0,"plot_no":"075","sector":"41","block":"A","mplanduse":"V","ppt_type":"COMM","ppt_full":"Commercial","remark":"As per Drone is vacant but Alloted","authority":"NOIDA","category":"commercial","execution_stage":"unknown"}},{"type":"Feature","geometry":{"type":"Polygon","coordinates":[[[77.365266,28.563028],[77.365267,28.563776],[77.364642,28.56368],[77.364656,28.563081],[77.365266,28.563004],[77.365266,28.563028]]]},"properties":{"objectid":51026,"plotmapid":"41J206ACOMM","plotsizesq":0,"plot_no":"206A","sector":"41","block":"J","mplanduse":"B","ppt_type":"COMM","ppt_full":"Commercial","authority":"NOIDA","category":"commercial","execution_stage":"unknown"}},{"type":"Feature","geometry":{"type":"Polygon","coordinates":[[[77.36143,28.569303],[77.361814,28.568845],[77.362131,28.569087],[77.361759,28.569554],[77.36143,28.569303]]]},"properties":{"objectid":51139,"plotmapid":"41C098COMM","plotsizesq":0,"plot_no":"098","sector":"41","block":"C","mplanduse":"B","ppt_type":"COMM","ppt_full":"Commercial","authority":"NOIDA","category":"commercial","execution_stage":"unknown"}},{"type":"Feature","geometry":{"type":"Polygon","coordinates":[[[77.357943,28.568818],[77.357615,28.569156],[77.357339,28.568949],[77.357666,28.568611],[77.357943,28.568818]]]},"properties":{"objectid":51983,"plotmapid":"41B127COMM","plotsizesq":0,"plot_no":"127","sector":"41","block":"B","mplanduse":"B","ppt_type":"COMM","ppt_full":"Commercial","authority":"NOIDA","category":"commercial","execution_stage":"unknown"}},{"type":"Feature","geometry":{"type":"Polygon","coordinates":[[[77.358417,28.561773],[77.358417,28.561807],[77.358014,28.561837],[77.358016,28.561566],[77.358415,28.561539],[77.358417,28.561773]]]},"properties":{"objectid":52043,"plotmapid":"41I023BCOMM","plotsizesq":0,"plot_no":"023B","sector":"41","block":"I","mplanduse":"B","ppt_type":"COMM","ppt_full":"Commercial","authority":"NOIDA","category":"commercial","execution_stage":"unknown"}},{"type":"Feature","geometry":{"type":"Polygon","coordinates":[[[77.386968,28.569901],[77.387004,28.569323],[77.388839,28.56945],[77.388797,28.570017],[77.386968,28.569901]]]},"properties":{"objectid":59643,"plotmapid":"77NA001COMM","used":"COMMERCIAL","plotsizesq":0,"plot_no":"001","sector":"77","block":"NA","mplanduse":"V","ppt_type":"COMM","ppt_full":"Commercial","authority":"NOIDA","category":"commercial","execution_stage":"unknown"}},{"type":"Feature","geometry":{"type":"Polygon","coordinates":[[[77.391319,28.561681],[77.390742,28.562065],[77.390562,28.562055],[77.390849,28.561023],[77.391319,28.561681]]]},"properties":{"objectid":59648,"plotmapid":"78 COMM","used":"COMUNITY CENTRE","plotsizesq":0,"plot_size":"NA","sector":"78","mplanduse":"V","ppt_type":"COMM","ppt_full":"Commercial","authority":"NOIDA","category":"commercial","execution_stage":"unknown"}},{"type":"Feature","geometry":{"type":"Polygon","coordinates":[[[77.392907,28.562446],[77.392967,28.562812],[77.393084,28.564488],[77.391849,28.564423],[77.391975,28.56262],[77.392828,28.562297],[77.392907,28.562446]]]},"properties":{"objectid":59651,"plotmapid":"78 COMM","used":"COMMRECIAL","plotsizesq":24439.35,"plot_size":"24439.35 SQMT","sector":"78","mplanduse":"V","ppt_type":"COMM","ppt_full":"Commercial","authority":"NOIDA","category":"commercial","execution_stage":"unknown"}},{"type":"Feature","geometry":{"type":"Polygon","coordinates":[[[77.385178,28.566855],[77.386731,28.566934],[77.386645,28.568267],[77.385092,28.568177],[77.385178,28.566855]]]},"properties":{"objectid":59656,"plotmapid":"76NACOMM","used":"COMMERCIAL","plotsizesq":22138,"plot_size":"22138 SQMT","sector":"76","block":"NA","mplanduse":"ISSUE","ppt_type":"COMM","ppt_full":"Commercial","authority":"NOIDA","category":"commercial","execution_stage":"unknown"}},{"type":"Feature","geometry":{"type":"Polygon","coordinates":[[[77.38991,28.572065],[77.390535,28.572095],[77.390464,28.573131],[77.389159,28.572513],[77.389193,28.572021],[77.38991,28.572065]]]},"properties":{"objectid":59686,"plotmapid":"74NACOMM","used":"COMM.","plotsizesq":0,"sector":"74","block":"NA","mplanduse":"V","ppt_type":"COMM","ppt_full":"Commercial","authority":"NOIDA","category":"commercial","execution_stage":"unknown"}},{"type":"Feature","geometry":{"type":"Polygon","coordinates":[[[77.385157,28.57473],[77.38515,28.574866],[77.385095,28.574857],[77.384964,28.574757],[77.384967,28.57472],[77.385157,28.57473]]]},"properties":{"objectid":59695,"plotmapid":"75NACOMM","used":"M.B.","plotsizesq":0,"sector":"75","block":"NA","mplanduse":"V","ppt_type":"COMM","ppt_full":"Commercial","authority":"NOIDA","category":"commercial","execution_stage":"unknown"}},{"type":"Feature","geometry":{"type":"Polygon","coordinates":[[[77.381201,28.574739],[77.381264,28.574742],[77.381249,28.574966],[77.381072,28.574957],[77.381088,28.574733],[77.381201,28.574739]]]},"properties":{"objectid":59701,"plotmapid":"75NACOMM","used":"M.B.","plotsizesq":0,"sector":"75","block":"NA","mplanduse":"V","ppt_type":"COMM","ppt_full":"Commercial","authority":"NOIDA","category":"commercial","execution_stage":"unknown"}},{"type":"Feature","geometry":{"type":"Polygon","coordinates":[[[77.399224,28.569275],[77.399217,28.569432],[77.399087,28.569429],[77.399094,28.56927],[77.399224,28.569275]]]},"properties":{"objectid":60075,"plotmapid":"116NACOMM","plotsizesq":0,"sector":"116","block":"NA","mplanduse":"V","ppt_type":"COMM","ppt_full":"Commercial","authority":"NOIDA","category":"commercial","execution_stage":"unknown"}},{"type":"Feature","geometry":{"type":"Polygon","coordinates":[[[77.397978,28.566909],[77.397968,28.567139],[77.397425,28.56712],[77.397436,28.56689],[77.397978,28.566909]]]},"properties":{"objectid":60083,"plotmapid":"116NACOMM","plotsizesq":0,"sector":"116","block":"NA","mplanduse":"V","ppt_type":"COMM","ppt_full":"Commercial","authority":"NOIDA","category":"commercial","execution_stage":"unknown"}},{"type":"Feature","geometry":{"type":"Polygon","coordinates":[[[77.397991,28.566594],[77.397978,28.566909],[77.397436,28.56689],[77.397451,28.566575],[77.397991,28.566594]]]},"properties":{"objectid":60089,"plotmapid":"116NACOMM","plotsizesq":0,"sector":"116","block":"NA","mplanduse":"V","ppt_type":"COMM","ppt_full":"Commercial","authority":"NOIDA","category":"commercial","execution_stage":"unknown"}},{"type":"Feature","geometry":{"type":"Polygon","coordinates":[[[77.398113,28.52624],[77.397285,28.526159],[77.397312,28.525943],[77.39763,28.525718],[77.398113,28.52624]]]},"properties":{"objectid":60529,"plotmapid":"83A150ACOMM","used":"COMM.","plotsizesq":0,"plot_size":"NA","plot_no":"150A","sector":"83","block":"A","mplanduse":"V","ppt_type":"COMM","ppt_full":"Commercial","authority":"NOIDA","category":"commercial","execution_stage":"unknown"}},{"type":"Feature","geometry":{"type":"Polygon","coordinates":[[[77.401266,28.527177],[77.401059,28.527347],[77.400707,28.526973],[77.400924,28.526816],[77.401266,28.527177]]]},"properties":{"objectid":60542,"plotmapid":"83A077COMM","used":"COMM.","plotsizesq":0,"plot_size":"NA","plot_no":"077","sector":"83","block":"A","mplanduse":"V","ppt_type":"COMM","ppt_full":"Commercial","authority":"NOIDA","category":"commercial","execution_stage":"unknown"}},{"type":"Feature","geometry":{"type":"Polygon","coordinates":[[[77.396397,28.553269],[77.396481,28.553512],[77.396114,28.553609],[77.395901,28.553404],[77.396397,28.553269]]]},"properties":{"objectid":61260,"plotmapid":"80C002COMM","property_t":"Commercial","used":"NA","plotsizesq":1200,"plot_size":"1200 SQMT","plot_no":"002","sector":"80","block":"C","mplanduse":"V","ppt_type":"COMM","ppt_full":"Commercial","authority":"NOIDA","category":"commercial","execution_stage":"unknown"}},{"type":"Feature","geometry":{"type":"Polygon","coordinates":[[[77.397817,28.55288],[77.399014,28.552555],[77.399309,28.5534],[77.396633,28.554108],[77.396114,28.553609],[77.396481,28.553512],[77.396397,28.553269],[77.397817,28.55288]]]},"properties":{"objectid":61261,"plotmapid":"80C001COMM","property_t":"Commercial","used":"COMMERCIAL","plotsizesq":26400,"plot_size":"26400 SQMT","plot_no":"001","sector":"80","block":"C","mplanduse":"V","ppt_type":"COMM","ppt_full":"Commercial","authority":"NOIDA","category":"commercial","execution_stage":"unknown"}},{"type":"Feature","geometry":{"type":"Polygon","coordinates":[[[77.39802,28.530986],[77.397907,28.531929],[77.397707,28.531905],[77.397829,28.530966],[77.39802,28.530986]]]},"properties":{"objectid":62384,"plotmapid":"HCA035COMM","used":"SHOPS","plotsizesq":0,"plot_size":"NA","plot_no":"035","sector":"HC","block":"A","mplanduse":"V","ppt_type":"COMM","ppt_full":"Commercial","authority":"NOIDA","category":"commercial","execution_stage":"unknown"}},{"type":"Feature","geometry":{"type":"Polygon","coordinates":[[[77.399065,28.572308],[77.399059,28.572077],[77.399078,28.571741],[77.399166,28.571243],[77.399263,28.570917],[77.399619,28.569972],[77.400258,28.569534],[77.400555,28.569364],[77.400395,28.56915],[77.401287,28.568616],[77.401885,28.56942],[77.401407,28.569789],[77.401139,28.570045],[77.400895,28.570318],[77.400579,28.570757],[77.400403,28.571066],[77.400257,28.571387],[77.40014,28.571716],[77.400055,28.572052],[77.4,28.572393],[77.399978,28.572737],[77.399987,28.573082],[77.400028,28.573424],[77.400151,28.573938],[77.399717,28.574144],[77.399591,28.57394],[77.399282,28.573359],[77.399298,28.573207],[77.399065,28.572308]]]},"properties":{"objectid":62864,"plotmapid":"118NACOMM","used":"COMMERCIAL","plotsizesq":0,"sector":"118","block":"NA","mplanduse":"ISSUE","ppt_type":"COMM","ppt_full":"Commercial","authority":"NOIDA","category":"commercial","execution_stage":"unknown"}},{"type":"Feature","geometry":{"type":"Polygon","coordinates":[[[77.393218,28.534534],[77.393343,28.534005],[77.393862,28.534144],[77.393875,28.534746],[77.39354,28.534758],[77.39354,28.534655],[77.393218,28.534534]]]},"properties":{"objectid":62926,"plotmapid":"106NACOMM","property_t":"Commercial","used":"FAC.","plotsizesq":3000,"plot_size":"3000 SQMT","sector":"106","block":"NA","mplanduse":"V","ppt_type":"COMM","ppt_full":"Commercial","authority":"NOIDA","category":"commercial","execution_stage":"unknown"}},{"type":"Feature","geometry":{"type":"Polygon","coordinates":[[[77.391177,28.535985],[77.391482,28.536113],[77.391124,28.536698],[77.390797,28.536567],[77.391139,28.535969],[77.391177,28.535985]]]},"properties":{"objectid":62937,"plotmapid":"106NACOMM","property_t":"Commercial","used":"FAC.","plotsizesq":3000,"plot_size":"3000 SQMT","sector":"106","block":"NA","mplanduse":"B","ppt_type":"COMM","ppt_full":"Commercial","authority":"NOIDA","category":"commercial","execution_stage":"unknown"}},{"type":"Feature","geometry":{"type":"Polygon","coordinates":[[[77.396212,28.573703],[77.396188,28.573902],[77.395884,28.573874],[77.395908,28.573674],[77.396212,28.573703]]]},"properties":{"objectid":63357,"plotmapid":"117GTCOMM","plotsizesq":0,"sector":"117","block":"GT","mplanduse":"V","ppt_type":"COMM","ppt_full":"Commercial","authority":"NOIDA","category":"commercial","execution_stage":"unknown"}},{"type":"Feature","geometry":{"type":"Polygon","coordinates":[[[77.395146,28.57673],[77.3951,28.577123],[77.394384,28.577059],[77.39443,28.576659],[77.395146,28.57673]]]},"properties":{"objectid":66699,"plotmapid":"117NACOMM","property_t":"Commercial","used":"COMMUNITY CENTRE","plotsizesq":4000,"plot_size":"4000 SQMT","sector":"117","block":"NA","mplanduse":"B","ppt_type":"COMM","ppt_full":"Commercial","authority":"NOIDA","category":"commercial","execution_stage":"unknown"}},{"type":"Feature","geometry":{"type":"Polygon","coordinates":[[[77.379351,28.556988],[77.381251,28.557121],[77.381175,28.557981],[77.379838,28.55789],[77.379741,28.55774],[77.379519,28.557451],[77.379113,28.556975],[77.379351,28.556988]]]},"properties":{"objectid":66702,"plotmapid":"78 COMM","used":"COMMRECIAL","plotsizesq":24439.35,"plot_size":"1.45 HAC","sector":"78","mplanduse":"V","ppt_type":"COMM","ppt_full":"Commercial","authority":"NOIDA","category":"commercial","execution_stage":"unknown"}},{"type":"Feature","geometry":{"type":"Polygon","coordinates":[[[77.381175,28.557981],[77.381089,28.558951],[77.380353,28.558901],[77.380243,28.558628],[77.380038,28.558201],[77.379838,28.55789],[77.381175,28.557981]]]},"properties":{"objectid":66703,"plotmapid":"78 COMM","used":"COMMRECIAL","plotsizesq":24439.35,"plot_size":"1.2 HAC","sector":"78","mplanduse":"V","ppt_type":"COMM","ppt_full":"Commercial","authority":"NOIDA","category":"commercial","execution_stage":"unknown"}},{"type":"Feature","geometry":{"type":"Polygon","coordinates":[[[77.364336,28.54462],[77.364186,28.544714],[77.364055,28.544549],[77.36421,28.54446],[77.364336,28.54462]]]},"properties":{"objectid":66879,"plotmapid":"100C001BCOMM","used":"COMMERCIAL","plotsizesq":0,"plot_size":"NA","plot_no":"001B","sector":"100","block":"C","mplanduse":"B","ppt_type":"COMM","ppt_full":"Commercial","authority":"NOIDA","category":"commercial","execution_stage":"unknown"}}]}
