{"type":"FeatureCollection","features":[{"type":"Feature","geometry":{"type":"Polygon","coordinates":[[[77.397851,28.622343],[77.397998,28.622843],[77.397432,28.622985],[77.396986,28.622945],[77.397006,28.622504],[77.397851,28.622343]]]},"properties":{"objectid":3503,"plotmapid":"63AS001INSTL","property_t":"Institutional","used":"SCHOOL","plotsizesq":0,"plot_no":"001","sector":"63A","block":"S","mplanduse":"V","ppt_type":"INSTL","ppt_full":"Institutional","remark":"As per drone is vacant ,not Alloted & not buildup","authority":"NOIDA","category":"institutional","execution_stage":"unknown"}},{"type":"Feature","geometry":{"type":"Polygon","coordinates":[[[77.393164,28.60823],[77.393174,28.608326],[77.391487,28.608458],[77.391354,28.607098],[77.393041,28.606971],[77.393164,28.60823]]]},"properties":{"objectid":5892,"plotmapid":"68C001INSTL","property_t":"Institutional","used":"WARE HOUSING","plotsizesq":122000,"plot_size":"122000 SQMT","plot_no":"001","sector":"68","block":"C","mplanduse":"V","ppt_type":"INSTL","ppt_full":"Institutional","remark":"As per drone is vacant ,not Alloted & not buildup","authority":"NOIDA","category":"institutional","execution_stage":"unknown"}},{"type":"Feature","geometry":{"type":"Polygon","coordinates":[[[77.395783,28.608122],[77.393174,28.608326],[77.393041,28.606971],[77.395651,28.606775],[77.395783,28.608122]]]},"properties":{"objectid":5893,"plotmapid":"68C002INSTL","property_t":"Institutional","used":"WARE HOUSING","plotsizesq":0,"plot_size":"NA","plot_no":"002","sector":"68","block":"C","mplanduse":"V","ppt_type":"INSTL","ppt_full":"Institutional","remark":"As per drone is vacant ,not Alloted & not buildup","authority":"NOIDA","category":"institutional","execution_stage":"unknown"}},{"type":"Feature","geometry":{"type":"Polygon","coordinates":[[[77.397034,28.606671],[77.396701,28.608053],[77.395783,28.608122],[77.395651,28.606775],[77.397034,28.606671]]]},"properties":{"objectid":5894,"plotmapid":"68C003INSTL","property_t":"Institutional","used":"WARE HOUSING","plotsizesq":0,"plot_size":"NA","plot_no":"003","sector":"68","block":"C","mplanduse":"V","ppt_type":"INSTL","ppt_full":"Institutional","remark":"As per drone is vacant ,not Alloted & not buildup","authority":"NOIDA","category":"institutional","execution_stage":"unknown"}},{"type":"Feature","geometry":{"type":"Polygon","coordinates":[[[77.393018,28.611343],[77.393331,28.61132],[77.393355,28.611594],[77.392952,28.611624],[77.39293,28.611352],[77.393018,28.611343]]]},"properties":{"objectid":5895,"plotmapid":"69BINSTL","property_t":"Institutional","used":"OFFICE BUILD.","plotsizesq":1150,"plot_size":"1150 SQMT","sector":"69","block":"B","mplanduse":"V","ppt_type":"INSTL","ppt_full":"Institutional","remark":"As per drone is vacant ,not Alloted & not buildup","authority":"NOIDA","category":"institutional","execution_stage":"unknown"}},{"type":"Feature","geometry":{"type":"Polygon","coordinates":[[[77.392966,28.610761],[77.392876,28.610769],[77.392849,28.610493],[77.393252,28.610463],[77.393278,28.61073],[77.392966,28.610761]]]},"properties":{"objectid":5896,"plotmapid":"69BINSTL","property_t":"Institutional","used":"OFFICE BUILD.","plotsizesq":1150,"plot_size":"1150 SQMT","sector":"69","block":"B","mplanduse":"V","ppt_type":"INSTL","ppt_full":"Institutional","remark":"As per drone is vacant ,not Alloted & not buildup","authority":"NOIDA","category":"institutional","execution_stage":"unknown"}},{"type":"Feature","geometry":{"type":"Polygon","coordinates":[[[77.392706,28.608897],[77.393117,28.608868],[77.393137,28.609095],[77.392727,28.609124],[77.392706,28.608897]]]},"properties":{"objectid":5897,"plotmapid":"69NAINSTL","property_t":"Institutional","used":"N.HOME","plotsizesq":0,"plot_size":"NA","sector":"69","block":"NA","mplanduse":"V","ppt_type":"INSTL","ppt_full":"Institutional","remark":"As per drone is vacant ,not Alloted & not buildup","authority":"NOIDA","category":"institutional","execution_stage":"unknown"}},{"type":"Feature","geometry":{"type":"Polygon","coordinates":[[[77.394993,28.612245],[77.394995,28.612278],[77.394815,28.612289],[77.394798,28.612069],[77.394978,28.612058],[77.394993,28.612245]]]},"properties":{"objectid":5898,"plotmapid":"69NAINSTL","property_t":"Institutional","used":"POLICE CHOKI","plotsizesq":0,"plot_size":"NA","sector":"69","block":"NA","mplanduse":"B","ppt_type":"INSTL","ppt_full":"Institutional","remark":"As per drone is vacant ,not Alloted & not buildup","authority":"NOIDA","category":"institutional","execution_stage":"unknown"}},{"type":"Feature","geometry":{"type":"Polygon","coordinates":[[[77.397786,28.609144],[77.398309,28.608695],[77.398753,28.609105],[77.398216,28.609559],[77.397787,28.609161],[77.397786,28.609144]]]},"properties":{"objectid":5900,"plotmapid":"69S001INSTL","property_t":"Institutional","used":"SOCIO-CULTURAL CENTRE","plotsizesq":5000,"plot_size":"5000 SQMT","plot_no":"001","sector":"69","block":"S","mplanduse":"V","ppt_type":"INSTL","ppt_full":"Institutional","remark":"As per drone is vacant ,not Alloted & not buildup","authority":"NOIDA","category":"institutional","execution_stage":"unknown"}},{"type":"Feature","geometry":{"type":"Polygon","coordinates":[[[77.409217,28.591513],[77.409069,28.592025],[77.40814,28.591784],[77.408311,28.591274],[77.409217,28.591513]]]},"properties":{"objectid":13910,"plotmapid":"123NAINSTL","property_t":"Institutional","used":"SITE FOR SAMSHAN GHAT","plotsizesq":0,"sector":"123","block":"NA","mplanduse":"V","ppt_type":"INSTL","ppt_full":"Institutional","authority":"NOIDA","category":"institutional","execution_stage":"unknown"}},{"type":"Feature","geometry":{"type":"Polygon","coordinates":[[[77.408483,28.590766],[77.408859,28.58968],[77.409182,28.589765],[77.409719,28.591086],[77.408483,28.590766]]]},"properties":{"objectid":13911,"plotmapid":"123NAINSTL","property_t":"Institutional","used":"GRAVE YARD","plotsizesq":10000,"plot_size":"10000 SQMT","sector":"123","block":"NA","mplanduse":"V","ppt_type":"INSTL","ppt_full":"Institutional","authority":"NOIDA","category":"institutional","execution_stage":"unknown"}},{"type":"Feature","geometry":{"type":"Polygon","coordinates":[[[77.392828,28.562297],[77.391975,28.56262],[77.390959,28.562567],[77.390985,28.562222],[77.390942,28.562112],[77.392273,28.56125],[77.392828,28.562297]]]},"properties":{"objectid":59631,"plotmapid":"78001INSTL","property_t":"Institutional","used":"S.S. SCHOOL","plotsizesq":16381,"plot_size":"16381 SQMT","plot_no":"001","sector":"78","mplanduse":"V","ppt_type":"INSTL","ppt_full":"Institutional","remark":"As per drone is vacant ,not Alloted & not buildup","authority":"NOIDA","category":"institutional","execution_stage":"unknown"}},{"type":"Feature","geometry":{"type":"Polygon","coordinates":[[[77.400087,28.5695],[77.399737,28.569728],[77.399217,28.569432],[77.399224,28.569275],[77.399914,28.569301],[77.400087,28.5695]]]},"properties":{"objectid":60090,"plotmapid":"116NAINSTL","property_t":"Institutional","used":"N.School","plotsizesq":0,"sector":"116","block":"NA","mplanduse":"V","ppt_type":"INSTL","ppt_full":"Institutional","authority":"NOIDA","category":"institutional","execution_stage":"unknown"}},{"type":"Feature","geometry":{"type":"Polygon","coordinates":[[[77.426064,28.534815],[77.426042,28.535012],[77.425899,28.535001],[77.425921,28.534804],[77.426064,28.534815]]]},"properties":{"objectid":61254,"plotmapid":"88NAINSTL","property_t":"Institutional","used":"POST OFFICE","plotsizesq":0,"sector":"88","block":"NA","mplanduse":"V","ppt_type":"INSTL","ppt_full":"Institutional","remark":"As per drone is vacant ,not Alloted & not buildup","authority":"NOIDA","category":"institutional","execution_stage":"unknown"}},{"type":"Feature","geometry":{"type":"Polygon","coordinates":[[[77.406063,28.550638],[77.406401,28.55055],[77.406718,28.55056],[77.406873,28.551005],[77.407358,28.550893],[77.407253,28.550593],[77.407672,28.550618],[77.407796,28.551736],[77.407146,28.551914],[77.407108,28.551806],[77.407053,28.551821],[77.406958,28.551816],[77.406552,28.551475],[77.406343,28.551646],[77.406078,28.551256],[77.406226,28.551062],[77.406063,28.550638]]]},"properties":{"objectid":61475,"plotmapid":"80AINSTL","property_t":"Institutional","used":"EXISTING VILL. SCHOOL","plotsizesq":0,"plot_size":"NA","sector":"80","block":"A","mplanduse":"B","ppt_type":"INSTL","ppt_full":"Institutional","authority":"NOIDA","category":"institutional","execution_stage":"unknown"}},{"type":"Feature","geometry":{"type":"Polygon","coordinates":[[[77.393922,28.553303],[77.393948,28.553376],[77.393778,28.553424],[77.393732,28.553298],[77.393903,28.553249],[77.393922,28.553303]]]},"properties":{"objectid":62305,"plotmapid":"81CINSTL","property_t":"Institutional","used":"PROPOSED SITE FOR POLICE CHOWKY (SAMSUNG)","plotsizesq":0,"sector":"81","block":"C","mplanduse":"B","ppt_type":"INSTL","ppt_full":"Institutional","authority":"NOIDA","category":"institutional","execution_stage":"unknown"}},{"type":"Feature","geometry":{"type":"Polygon","coordinates":[[[77.402735,28.564846],[77.402122,28.564825],[77.402155,28.563902],[77.402768,28.563924],[77.402735,28.564846]]]},"properties":{"objectid":62366,"plotmapid":"113NAINSTL","property_t":"Institutional","used":"FIRE STATION","plotsizesq":0,"plot_size":"6000","sector":"113","block":"NA","mplanduse":"V","ppt_type":"INSTL","ppt_full":"Institutional","authority":"NOIDA","category":"institutional","execution_stage":"unknown"}},{"type":"Feature","geometry":{"type":"Polygon","coordinates":[[[77.40959,28.566441],[77.409582,28.566801],[77.408788,28.566782],[77.408797,28.566422],[77.40959,28.566441]]]},"properties":{"objectid":62387,"plotmapid":"115NAINSTL","property_t":"Institutional","used":"SPS","plotsizesq":0,"sector":"115","block":"NA","mplanduse":"B","ppt_type":"INSTL","ppt_full":"Institutional","authority":"NOIDA","category":"institutional","execution_stage":"unknown"}},{"type":"Feature","geometry":{"type":"Polygon","coordinates":[[[77.413769,28.534371],[77.414414,28.534434],[77.41433,28.535109],[77.413685,28.53505],[77.413769,28.534371]]]},"properties":{"objectid":62530,"plotmapid":"HCD012BINSTL","property_t":"Institutional","used":"PLOT","plotsizesq":4500,"plot_size":"4500 SQMT","plot_no":"012B","sector":"HC","block":"D","mplanduse":"B","ppt_type":"INSTL","ppt_full":"Institutional","authority":"NOIDA","category":"institutional","execution_stage":"unknown"}},{"type":"Feature","geometry":{"type":"Polygon","coordinates":[[[77.395177,28.585629],[77.395155,28.585699],[77.395102,28.585686],[77.395124,28.585617],[77.395177,28.585629]]]},"properties":{"objectid":62804,"plotmapid":"120NAFACILITY-01/MB-01INSTL","property_t":"Institutional","used":"F.V. BOOTH","plotsizesq":0,"plot_size":"NA","plot_no":"FACILITY-01/MB-01","sector":"120","block":"NA","mplanduse":"B","ppt_type":"INSTL","ppt_full":"Institutional","authority":"NOIDA","category":"institutional","execution_stage":"unknown"}},{"type":"Feature","geometry":{"type":"Polygon","coordinates":[[[77.401713,28.587251],[77.401794,28.587332],[77.401394,28.587246],[77.401479,28.587013],[77.401631,28.587168],[77.401557,28.587224],[77.401646,28.587299],[77.401713,28.587251]]]},"properties":{"objectid":62807,"plotmapid":"119NAFACILITY-01INSTL","property_t":"Institutional","used":"F.V. BOOTH","plotsizesq":0,"plot_size":"NA","plot_no":"FACILITY-01","sector":"119","block":"NA","mplanduse":"B","ppt_type":"INSTL","ppt_full":"Institutional","authority":"NOIDA","category":"institutional","execution_stage":"unknown"}},{"type":"Feature","geometry":{"type":"Polygon","coordinates":[[[77.402118,28.604646],[77.400899,28.604343],[77.400521,28.604169],[77.40046,28.604125],[77.401075,28.603665],[77.402319,28.603975],[77.402118,28.604646]]]},"properties":{"objectid":62829,"plotmapid":"121NAINSTL","property_t":"Institutional","used":"H.S SCHOOL","plotsizesq":12000,"plot_size":"12000 SQMT","sector":"121","block":"NA","mplanduse":"ISSUE","ppt_type":"INSTL","ppt_full":"Institutional","authority":"NOIDA","category":"institutional","execution_stage":"unknown"}},{"type":"Feature","geometry":{"type":"Polygon","coordinates":[[[77.401574,28.60323],[77.401418,28.603751],[77.401212,28.603699],[77.401368,28.603179],[77.401574,28.60323]]]},"properties":{"objectid":62833,"plotmapid":"121NAINSTL","property_t":"Institutional","used":"RELIGIOUS","plotsizesq":1500,"plot_size":"1500 SQMT","sector":"121","block":"NA","mplanduse":"ISSUE","ppt_type":"INSTL","ppt_full":"Institutional","authority":"NOIDA","category":"institutional","execution_stage":"unknown"}},{"type":"Feature","geometry":{"type":"Polygon","coordinates":[[[77.401674,28.587211],[77.40161,28.587268],[77.401557,28.587224],[77.401631,28.587168],[77.401674,28.587211]]]},"properties":{"objectid":62844,"plotmapid":"119NAFACILITY-01/FV-01INSTL","property_t":"Institutional","used":"F.V. BOOTH","plotsizesq":0,"plot_size":"NA","plot_no":"FACILITY-01/FV-01","sector":"119","block":"NA","mplanduse":"B","ppt_type":"INSTL","ppt_full":"Institutional","authority":"NOIDA","category":"institutional","execution_stage":"unknown"}},{"type":"Feature","geometry":{"type":"Polygon","coordinates":[[[77.400092,28.586966],[77.399955,28.587417],[77.39902,28.587184],[77.399295,28.586284],[77.400232,28.586503],[77.400092,28.586966]]]},"properties":{"objectid":62849,"plotmapid":"119SS001INSTL","property_t":"Institutional","used":"NA","plotsizesq":10000,"plot_size":"10000 SQMT","plot_no":"001","sector":"119","block":"SS","mplanduse":"B","ppt_type":"INSTL","ppt_full":"Institutional","authority":"NOIDA","category":"institutional","execution_stage":"unknown"}},{"type":"Feature","geometry":{"type":"Polygon","coordinates":[[[77.40034,28.587025],[77.4002,28.587478],[77.399955,28.587417],[77.400094,28.58696],[77.40034,28.587025]]]},"properties":{"objectid":62850,"plotmapid":"119NS001INSTL","property_t":"Institutional","used":"NA","plotsizesq":1500,"plot_size":"1500 SQMT","plot_no":"001","sector":"119","block":"NS","mplanduse":"B","ppt_type":"INSTL","ppt_full":"Institutional","authority":"NOIDA","category":"institutional","execution_stage":"unknown"}},{"type":"Feature","geometry":{"type":"Polygon","coordinates":[[[77.401104,28.58671],[77.400969,28.587154],[77.400579,28.587069],[77.400724,28.586616],[77.401104,28.58671]]]},"properties":{"objectid":62862,"plotmapid":"119NH001INSTL","property_t":"Institutional","used":"N.HOME","plotsizesq":2000,"plot_size":"2000 SQMT","plot_no":"001","sector":"119","block":"NH","mplanduse":"B","ppt_type":"INSTL","ppt_full":"Institutional","authority":"NOIDA","category":"institutional","execution_stage":"unknown"}},{"type":"Feature","geometry":{"type":"Polygon","coordinates":[[[77.401713,28.587251],[77.401646,28.587299],[77.40161,28.587268],[77.401679,28.587216],[77.401713,28.587251]]]},"properties":{"objectid":62863,"plotmapid":"119NAFACILITY-01/MB-01INSTL","property_t":"Institutional","used":"F.V. BOOTH","plotsizesq":0,"plot_size":"NA","plot_no":"FACILITY-01/MB-01","sector":"119","block":"NA","mplanduse":"B","ppt_type":"INSTL","ppt_full":"Institutional","authority":"NOIDA","category":"institutional","execution_stage":"unknown"}},{"type":"Feature","geometry":{"type":"Polygon","coordinates":[[[77.393556,28.536614],[77.392928,28.536618],[77.392934,28.536337],[77.393558,28.536341],[77.393556,28.536614]]]},"properties":{"objectid":62923,"plotmapid":"106NA016INSTL","property_t":"Institutional","used":"PLOT","plotsizesq":2000,"plot_size":"2000 SQMT","plot_no":"016","sector":"106","block":"NA","mplanduse":"V","ppt_type":"INSTL","ppt_full":"Institutional","authority":"NOIDA","category":"institutional","execution_stage":"unknown"}},{"type":"Feature","geometry":{"type":"Polygon","coordinates":[[[77.39356,28.536053],[77.393558,28.536341],[77.392934,28.536337],[77.392941,28.53605],[77.39356,28.536053]]]},"properties":{"objectid":62924,"plotmapid":"106NA015INSTL","property_t":"Institutional","used":"PLOT","plotsizesq":2000,"plot_size":"2000 SQMT","plot_no":"015","sector":"106","block":"NA","mplanduse":"V","ppt_type":"INSTL","ppt_full":"Institutional","authority":"NOIDA","category":"institutional","execution_stage":"unknown"}},{"type":"Feature","geometry":{"type":"Polygon","coordinates":[[[77.393554,28.535478],[77.39356,28.536053],[77.392941,28.53605],[77.392954,28.535475],[77.393554,28.535478]]]},"properties":{"objectid":62925,"plotmapid":"106NA013-014INSTL","property_t":"Institutional","used":"PLOT","plotsizesq":2000,"plot_size":"2000 SQMT","plot_no":"013-014","sector":"106","block":"NA","mplanduse":"B","ppt_type":"INSTL","ppt_full":"Institutional","authority":"NOIDA","category":"institutional","execution_stage":"unknown"}},{"type":"Feature","geometry":{"type":"Polygon","coordinates":[[[77.39355,28.535191],[77.393554,28.535478],[77.392954,28.535475],[77.392961,28.535188],[77.39355,28.535191]]]},"properties":{"objectid":62927,"plotmapid":"106NA012INSTL","property_t":"Institutional","used":"PLOT","plotsizesq":2000,"plot_size":"2000 SQMT","plot_no":"012","sector":"106","block":"NA","mplanduse":"V","ppt_type":"INSTL","ppt_full":"Institutional","authority":"NOIDA","category":"institutional","execution_stage":"unknown"}},{"type":"Feature","geometry":{"type":"Polygon","coordinates":[[[77.392735,28.536973],[77.392094,28.536851],[77.392096,28.53663],[77.392735,28.536624],[77.392735,28.536973]]]},"properties":{"objectid":62928,"plotmapid":"106NA006INSTL","property_t":"Institutional","used":"PLOT","plotsizesq":2000,"plot_size":"2000 SQMT","plot_no":"006","sector":"106","block":"NA","mplanduse":"V","ppt_type":"INSTL","ppt_full":"Institutional","authority":"NOIDA","category":"institutional","execution_stage":"unknown"}},{"type":"Feature","geometry":{"type":"Polygon","coordinates":[[[77.392112,28.536333],[77.392734,28.536336],[77.392735,28.536624],[77.392105,28.536628],[77.392112,28.536333]]]},"properties":{"objectid":62929,"plotmapid":"106NA007INSTL","property_t":"Institutional","used":"PLOT","plotsizesq":2000,"plot_size":"2000 SQMT","plot_no":"007","sector":"106","block":"NA","mplanduse":"V","ppt_type":"INSTL","ppt_full":"Institutional","authority":"NOIDA","category":"institutional","execution_stage":"unknown"}},{"type":"Feature","geometry":{"type":"Polygon","coordinates":[[[77.392118,28.536046],[77.392734,28.536049],[77.392734,28.536336],[77.39211,28.536333],[77.392108,28.536046],[77.392118,28.536046]]]},"properties":{"objectid":62930,"plotmapid":"106NA008INSTL","property_t":"Institutional","used":"PLOT","plotsizesq":2000,"plot_size":"2000 SQMT","plot_no":"008","sector":"106","block":"NA","mplanduse":"V","ppt_type":"INSTL","ppt_full":"Institutional","authority":"NOIDA","category":"institutional","execution_stage":"unknown"}},{"type":"Feature","geometry":{"type":"Polygon","coordinates":[[[77.392733,28.535761],[77.392734,28.536049],[77.392108,28.536046],[77.392105,28.535758],[77.392733,28.535761]]]},"properties":{"objectid":62931,"plotmapid":"106NA009INSTL","property_t":"Institutional","used":"PLOT","plotsizesq":2000,"plot_size":"2000 SQMT","plot_no":"009","sector":"106","block":"NA","mplanduse":"V","ppt_type":"INSTL","ppt_full":"Institutional","authority":"NOIDA","category":"institutional","execution_stage":"unknown"}},{"type":"Feature","geometry":{"type":"Polygon","coordinates":[[[77.392886,28.53391],[77.393052,28.533937],[77.392901,28.534481],[77.39283,28.534506],[77.392538,28.533996],[77.392647,28.533946],[77.39279,28.533907],[77.392886,28.53391]]]},"properties":{"objectid":62932,"plotmapid":"106NA001INSTL","property_t":"Institutional","used":"PLOT","plotsizesq":2000,"plot_size":"2000 SQMT","plot_no":"001","sector":"106","block":"NA","mplanduse":"V","ppt_type":"INSTL","ppt_full":"Institutional","authority":"NOIDA","category":"institutional","execution_stage":"unknown"}},{"type":"Feature","geometry":{"type":"Polygon","coordinates":[[[77.392732,28.535474],[77.392733,28.535761],[77.392105,28.535758],[77.392103,28.535478],[77.392732,28.535474]]]},"properties":{"objectid":62933,"plotmapid":"106NA010INSTL","property_t":"Institutional","used":"PLOT","plotsizesq":2000,"plot_size":"2000 SQMT","plot_no":"010","sector":"106","block":"NA","mplanduse":"V","ppt_type":"INSTL","ppt_full":"Institutional","authority":"NOIDA","category":"institutional","execution_stage":"unknown"}},{"type":"Feature","geometry":{"type":"Polygon","coordinates":[[[77.392732,28.53547],[77.392103,28.535478],[77.392101,28.53519],[77.392732,28.535183],[77.392732,28.53547]]]},"properties":{"objectid":62934,"plotmapid":"106NA011INSTL","property_t":"Institutional","used":"PLOT","plotsizesq":1890,"plot_size":"1890 SQMT","plot_no":"011","sector":"106","block":"NA","mplanduse":"V","ppt_type":"INSTL","ppt_full":"Institutional","authority":"NOIDA","category":"institutional","execution_stage":"unknown"}},{"type":"Feature","geometry":{"type":"Polygon","coordinates":[[[77.39283,28.534506],[77.392587,28.534592],[77.392386,28.534752],[77.392123,28.534635],[77.392386,28.534203],[77.392538,28.533996],[77.39283,28.534506]]]},"properties":{"objectid":62935,"plotmapid":"106NA002INSTL","property_t":"Institutional","used":"PLOT","plotsizesq":2000,"plot_size":"2000 SQMT","plot_no":"002","sector":"106","block":"NA","mplanduse":"V","ppt_type":"INSTL","ppt_full":"Institutional","authority":"NOIDA","category":"institutional","execution_stage":"unknown"}},{"type":"Feature","geometry":{"type":"Polygon","coordinates":[[[77.39618,28.577409],[77.395558,28.577649],[77.395264,28.577104],[77.395872,28.576822],[77.39618,28.577409]]]},"properties":{"objectid":62939,"plotmapid":"117NAINSTL","property_t":"Institutional","used":"NA","plotsizesq":0,"plot_size":"NA","sector":"117","block":"NA","mplanduse":"V","ppt_type":"INSTL","ppt_full":"Institutional","authority":"NOIDA","category":"institutional","execution_stage":"unknown"}},{"type":"Feature","geometry":{"type":"Polygon","coordinates":[[[77.393879,28.534947],[77.393897,28.535644],[77.393879,28.535712],[77.393868,28.536512],[77.393557,28.536518],[77.39354,28.534758],[77.393875,28.534746],[77.393879,28.534947]]]},"properties":{"objectid":63393,"plotmapid":"106NAINSTL","property_t":"Institutional","used":"EXISTING","plotsizesq":0,"plot_size":"NA","sector":"106","block":"NA","mplanduse":"B","ppt_type":"INSTL","ppt_full":"Institutional","authority":"NOIDA","category":"institutional","execution_stage":"unknown"}},{"type":"Feature","geometry":{"type":"Polygon","coordinates":[[[77.392715,28.537364],[77.392864,28.537106],[77.393432,28.537355],[77.393288,28.537604],[77.392715,28.537364]]]},"properties":{"objectid":63395,"plotmapid":"106NA019INSTL","property_t":"Institutional","used":"PLOT","plotsizesq":2000,"plot_size":"2000 SQMT","plot_no":"019","sector":"106","block":"NA","mplanduse":"B","ppt_type":"INSTL","ppt_full":"Institutional","authority":"NOIDA","category":"institutional","execution_stage":"unknown"}},{"type":"Feature","geometry":{"type":"Polygon","coordinates":[[[77.393556,28.536628],[77.393554,28.537144],[77.393432,28.537355],[77.392864,28.537106],[77.392919,28.537011],[77.392928,28.536618],[77.393556,28.536614],[77.393556,28.536628]]]},"properties":{"objectid":63396,"plotmapid":"106NA017-018INSTL","property_t":"Institutional","used":"PLOT","plotsizesq":2000,"plot_size":"2000 SQMT","plot_no":"017-018","sector":"106","block":"NA","mplanduse":"B","ppt_type":"INSTL","ppt_full":"Institutional","authority":"NOIDA","category":"institutional","execution_stage":"unknown"}},{"type":"Feature","geometry":{"type":"Polygon","coordinates":[[[77.392094,28.536851],[77.392733,28.536978],[77.392551,28.537293],[77.391977,28.537054],[77.392094,28.536851]]]},"properties":{"objectid":63398,"plotmapid":"106NA005INSTL","property_t":"Institutional","used":"PLOT","plotsizesq":2000,"plot_size":"2000 SQMT","plot_no":"005","sector":"106","block":"NA","mplanduse":"B","ppt_type":"INSTL","ppt_full":"Institutional","authority":"NOIDA","category":"institutional","execution_stage":"unknown"}},{"type":"Feature","geometry":{"type":"Polygon","coordinates":[[[77.402744,28.591103],[77.402252,28.591297],[77.402148,28.590732],[77.402873,28.590926],[77.402914,28.591035],[77.402744,28.591103]]]},"properties":{"objectid":63794,"plotmapid":"122NAINSTL","property_t":"Institutional","used":"SCHOOL","plotsizesq":0,"sector":"122","block":"NA","mplanduse":"V","ppt_type":"INSTL","ppt_full":"Institutional","authority":"NOIDA","category":"institutional","execution_stage":"unknown"}},{"type":"Feature","geometry":{"type":"Polygon","coordinates":[[[77.397845,28.589854],[77.397382,28.591279],[77.396381,28.591027],[77.396859,28.589559],[77.397859,28.589807],[77.397845,28.589854]]]},"properties":{"objectid":64225,"plotmapid":"122C002INSTL","property_t":"Institutional","used":"H.S. SCHOOL","plotsizesq":0,"plot_no":"002","sector":"122","block":"C","mplanduse":"B","ppt_type":"INSTL","ppt_full":"Institutional","authority":"NOIDA","category":"institutional","execution_stage":"unknown"}},{"type":"Feature","geometry":{"type":"Polygon","coordinates":[[[77.396391,28.591029],[77.397382,28.591279],[77.397269,28.591624],[77.396268,28.591372],[77.396391,28.591029]]]},"properties":{"objectid":64276,"plotmapid":"122C001INSTL","property_t":"Institutional","used":"PROPOSED SITE FOR SCHOOL","plotsizesq":4000,"plot_size":"4000 SQMT","plot_no":"001","sector":"122","block":"C","mplanduse":"B","ppt_type":"INSTL","ppt_full":"Institutional","authority":"NOIDA","category":"institutional","execution_stage":"unknown"}},{"type":"Feature","geometry":{"type":"Polygon","coordinates":[[[77.39284,28.594037],[77.393358,28.594174],[77.393256,28.594481],[77.392734,28.594347],[77.39284,28.594037]]]},"properties":{"objectid":64854,"plotmapid":"122NS001INSTL","property_t":"Institutional","used":"N.SCHOOL","plotsizesq":0,"plot_no":"001","sector":"122","block":"NS","mplanduse":"B","ppt_type":"INSTL","ppt_full":"Institutional","authority":"NOIDA","category":"institutional","execution_stage":"unknown"}},{"type":"Feature","geometry":{"type":"Polygon","coordinates":[[[77.393587,28.591125],[77.393569,28.59118],[77.393481,28.591158],[77.393498,28.591104],[77.393587,28.591125]]]},"properties":{"objectid":65483,"plotmapid":"122NAFACILITY-01/FV-01INSTL","property_t":"Institutional","used":"F.V. BOOTH","plotsizesq":0,"plot_size":"NA","plot_no":"FACILITY-01/FV-01","sector":"122","block":"NA","mplanduse":"B","ppt_type":"INSTL","ppt_full":"Institutional","authority":"NOIDA","category":"institutional","execution_stage":"unknown"}},{"type":"Feature","geometry":{"type":"Polygon","coordinates":[[[77.393569,28.59118],[77.393554,28.591225],[77.393468,28.591202],[77.393481,28.591158],[77.393569,28.59118]]]},"properties":{"objectid":65484,"plotmapid":"122NAFACILITY-01/MB-01INSTL","property_t":"Institutional","used":"F.V. BOOTH","plotsizesq":0,"plot_size":"NA","plot_no":"FACILITY-01/MB-01","sector":"122","block":"NA","mplanduse":"B","ppt_type":"INSTL","ppt_full":"Institutional","authority":"NOIDA","category":"institutional","execution_stage":"unknown"}},{"type":"Feature","geometry":{"type":"Polygon","coordinates":[[[77.403134,28.584011],[77.405099,28.584486],[77.40483,28.585351],[77.40286,28.584883],[77.403124,28.584008],[77.403134,28.584011]]]},"properties":{"objectid":65485,"plotmapid":"118NAINSTL","property_t":"Institutional","used":"FAC./SCHOOL","plotsizesq":0,"sector":"118","block":"NA","mplanduse":"ISSUE","ppt_type":"INSTL","ppt_full":"Institutional","authority":"NOIDA","category":"institutional","execution_stage":"unknown"}},{"type":"Feature","geometry":{"type":"Polygon","coordinates":[[[77.390895,28.584619],[77.391587,28.58472],[77.391456,28.585059],[77.390974,28.584959],[77.390895,28.584619]]]},"properties":{"objectid":66262,"plotmapid":"73NANS-001INSTL","property_t":"Institutional","used":"N.SCHOOL","plotsizesq":2000,"plot_size":"2000 SQMT","plot_no":"NS-001","sector":"73","block":"NA","mplanduse":"ISSUE","ppt_type":"INSTL","ppt_full":"Institutional","authority":"NOIDA","category":"institutional","execution_stage":"unknown"}},{"type":"Feature","geometry":{"type":"Polygon","coordinates":[[[77.40101,28.564795],[77.400969,28.564795],[77.400966,28.564748],[77.40101,28.564748],[77.40101,28.564795]]]},"properties":{"objectid":66705,"plotmapid":"120NAFACILITY-01/MB-01INSTL","property_t":"Institutional","used":"F.V. BOOTH","plotsizesq":0,"plot_size":"NA","plot_no":"FACILITY-01/MB-01","sector":"120","block":"NA","mplanduse":"B","ppt_type":"INSTL","ppt_full":"Institutional","authority":"NOIDA","category":"institutional","execution_stage":"unknown"}}]}
