{"type":"FeatureCollection","features":[{"type":"Feature","geometry":{"type":"Polygon","coordinates":[[[77.389221,28.513426],[77.388699,28.512792],[77.389671,28.512146],[77.390193,28.51278],[77.389221,28.513426]]]},"properties":{"objectid":754,"plotmapid":"93BS001INSTL","property_t":"Institutional","used":"SCHOOL","plotsizesq":10000,"plot_size":"10000 SQMT","plot_no":"001","sector":"93B","block":"S","mplanduse":"B","ppt_type":"INSTL","ppt_full":"Institutional","authority":"NOIDA","category":"institutional","execution_stage":"unknown"}},{"type":"Feature","geometry":{"type":"Polygon","coordinates":[[[77.387821,28.515809],[77.387424,28.515328],[77.387674,28.51516],[77.388078,28.515651],[77.387821,28.515809]]]},"properties":{"objectid":812,"plotmapid":"93BNA001INSTL","property_t":"Institutional","used":"SCHOOL","plotsizesq":1800,"plot_size":"1800 SQMT","plot_no":"001","sector":"93B","block":"NA","mplanduse":"B","ppt_type":"INSTL","ppt_full":"Institutional","authority":"NOIDA","category":"institutional","execution_stage":"unknown"}},{"type":"Feature","geometry":{"type":"Polygon","coordinates":[[[77.387821,28.515809],[77.388078,28.515651],[77.388211,28.515822],[77.387947,28.515977],[77.387821,28.515809]]]},"properties":{"objectid":820,"plotmapid":"93BRE001INSTL","property_t":"Institutional","used":"RELIGIOUS","plotsizesq":600,"plot_size":"600 SQMT","plot_no":"001","sector":"93B","block":"RE","mplanduse":"V","ppt_type":"INSTL","ppt_full":"Institutional","authority":"NOIDA","category":"institutional","execution_stage":"unknown"}},{"type":"Feature","geometry":{"type":"Polygon","coordinates":[[[77.38567,28.520216],[77.385131,28.520554],[77.384938,28.520344],[77.385484,28.519998],[77.38567,28.520216]]]},"properties":{"objectid":1379,"plotmapid":"93NS002INSTL","property_t":"Institutional","used":"N.SCHOOL","plotsizesq":1950,"plot_size":"1950 SQMT","plot_no":"002","sector":"93","block":"NS","mplanduse":"ISSUE","ppt_type":"INSTL","ppt_full":"Institutional","authority":"NOIDA","category":"institutional","execution_stage":"unknown"}},{"type":"Feature","geometry":{"type":"Polygon","coordinates":[[[77.386611,28.521578],[77.386283,28.521202],[77.386407,28.52108],[77.386431,28.521076],[77.387096,28.52183],[77.386932,28.521943],[77.386611,28.521578]]]},"properties":{"objectid":1432,"plotmapid":"93NAS-001INSTL","property_t":"Institutional","used":"SCHOOL AREA","plotsizesq":2000,"plot_size":"2000 SQMT","plot_no":"S-001","sector":"93","block":"NA","mplanduse":"ISSUE","ppt_type":"INSTL","ppt_full":"Institutional","authority":"NOIDA","category":"institutional","execution_stage":"unknown"}},{"type":"Feature","geometry":{"type":"Polygon","coordinates":[[[77.373393,28.509366],[77.374034,28.51014],[77.372664,28.511027],[77.37191,28.510088],[77.373379,28.50935],[77.373393,28.509366]]]},"properties":{"objectid":12811,"plotmapid":"132B011-012-013INSTL","property_t":"Institutional","used":"NA","plotsizesq":8093.71,"plot_size":"8093.71 SQMT","plot_no":"011-012-013","sector":"132","block":"B","mplanduse":"V","ppt_type":"INSTL","ppt_full":"Institutional","authority":"NOIDA","category":"institutional","execution_stage":"unknown"}},{"type":"Feature","geometry":{"type":"Polygon","coordinates":[[[77.374459,28.509588],[77.374611,28.509778],[77.374275,28.509992],[77.374123,28.509808],[77.374459,28.509588]]]},"properties":{"objectid":12813,"plotmapid":"132B017INSTL","property_t":"Institutional","used":"NA","allotted_p":"Yes","plotsizesq":1000,"plot_size":"1000 SQMT","plot_no":"017","sector":"132","block":"B","mplanduse":"V","ppt_type":"INSTL","ppt_full":"Institutional","authority":"NOIDA","category":"institutional","execution_stage":"allotted"}},{"type":"Feature","geometry":{"type":"Polygon","coordinates":[[[77.37818,28.508549],[77.377771,28.508814],[77.376737,28.507664],[77.377245,28.507417],[77.37818,28.508549]]]},"properties":{"objectid":12822,"plotmapid":"132A005AINSTL","property_t":"Institutional","used":"NA","plotsizesq":8000,"plot_size":"8000 SQMT","plot_no":"005A","sector":"132","block":"A","mplanduse":"V","ppt_type":"INSTL","ppt_full":"Institutional","authority":"NOIDA","category":"institutional","execution_stage":"unknown"}},{"type":"Feature","geometry":{"type":"Polygon","coordinates":[[[77.377771,28.508814],[77.37798,28.509071],[77.376991,28.509709],[77.376186,28.508706],[77.375729,28.508169],[77.376737,28.507664],[77.377771,28.508814]]]},"properties":{"objectid":12823,"plotmapid":"132A006INSTL","property_t":"Institutional","used":"NA","plotsizesq":24281.1,"plot_size":"24281.1 SQMT","plot_no":"006","sector":"132","block":"A","mplanduse":"V","ppt_type":"INSTL","ppt_full":"Institutional","authority":"NOIDA","category":"institutional","execution_stage":"unknown"}},{"type":"Feature","geometry":{"type":"Polygon","coordinates":[[[77.374603,28.512822],[77.374389,28.513166],[77.374178,28.513059],[77.374367,28.512686],[77.374603,28.512822]]]},"properties":{"objectid":12826,"plotmapid":"132NAINSTL","property_t":"Institutional","used":"TEMPLE","plotsizesq":0,"plot_size":"NA","sector":"132","block":"NA","mplanduse":"B","ppt_type":"INSTL","ppt_full":"Institutional","authority":"NOIDA","category":"institutional","execution_stage":"unknown"}},{"type":"Feature","geometry":{"type":"Polygon","coordinates":[[[77.373276,28.514303],[77.373578,28.51467],[77.372906,28.515103],[77.372597,28.514742],[77.373276,28.514303]]]},"properties":{"objectid":12827,"plotmapid":"132B005INSTL","property_t":"Institutional","used":"NA","plotsizesq":4000,"plot_size":"4000 SQMT","plot_no":"005","sector":"132","block":"B","mplanduse":"V","ppt_type":"INSTL","ppt_full":"Institutional","authority":"NOIDA","category":"institutional","execution_stage":"unknown"}},{"type":"Feature","geometry":{"type":"Polygon","coordinates":[[[77.377516,28.511052],[77.376693,28.511586],[77.37578,28.51049],[77.37798,28.509071],[77.378897,28.510187],[77.378689,28.510318],[77.378676,28.510302],[77.37826,28.510565],[77.378229,28.510592],[77.378233,28.510611],[77.378162,28.510665],[77.377799,28.51087],[77.377516,28.511052]]]},"properties":{"objectid":12831,"plotmapid":"132A009INSTL","property_t":"Institutional","used":"NA","plotsizesq":40468.6,"plot_size":"40468.6 SQMT","plot_no":"009","sector":"132","block":"A","mplanduse":"V","ppt_type":"INSTL","ppt_full":"Institutional","authority":"NOIDA","category":"institutional","execution_stage":"unknown"}},{"type":"Feature","geometry":{"type":"Polygon","coordinates":[[[77.374164,28.514145],[77.374537,28.514596],[77.373873,28.515029],[77.373274,28.5143],[77.373936,28.513869],[77.374164,28.514145]]]},"properties":{"objectid":12832,"plotmapid":"132B031-032INSTL","property_t":"Institutional","used":"NA","plotsizesq":4046.86,"plot_size":"4046.86 SQMT","plot_no":"031-032","sector":"132","block":"B","mplanduse":"V","ppt_type":"INSTL","ppt_full":"Institutional","authority":"NOIDA","category":"institutional","execution_stage":"unknown"}},{"type":"Feature","geometry":{"type":"Polygon","coordinates":[[[77.374753,28.513292],[77.374487,28.513667],[77.374008,28.51339],[77.374193,28.513066],[77.374389,28.513166],[77.374603,28.512822],[77.374946,28.513021],[77.374753,28.513292]]]},"properties":{"objectid":12833,"plotmapid":"132NAINSTL","property_t":"Institutional","used":"BARATGHAR","plotsizesq":0,"plot_size":"NA","sector":"132","block":"NA","mplanduse":"B","ppt_type":"INSTL","ppt_full":"Institutional","authority":"NOIDA","category":"institutional","execution_stage":"unknown"}},{"type":"Feature","geometry":{"type":"Polygon","coordinates":[[[77.374121,28.515323],[77.374362,28.515609],[77.373701,28.516036],[77.373211,28.51546],[77.373873,28.515029],[77.374121,28.515323]]]},"properties":{"objectid":12835,"plotmapid":"132B002-003INSTL","property_t":"Institutional","used":"NA","plotsizesq":4000,"plot_size":"4000 SQMT","plot_no":"002-003","sector":"132","block":"B","mplanduse":"V","ppt_type":"INSTL","ppt_full":"Institutional","authority":"NOIDA","category":"institutional","execution_stage":"unknown"}},{"type":"Feature","geometry":{"type":"Polygon","coordinates":[[[77.378182,28.515827],[77.377257,28.516414],[77.376977,28.516028],[77.377878,28.515444],[77.378182,28.515827]]]},"properties":{"objectid":12838,"plotmapid":"132B038CINSTL","property_t":"Institutional","used":"NA","plotsizesq":0,"plot_size":"NA","plot_no":"038C","sector":"132","block":"B","mplanduse":"V","ppt_type":"INSTL","ppt_full":"Institutional","authority":"NOIDA","category":"institutional","execution_stage":"unknown"}},{"type":"Feature","geometry":{"type":"Polygon","coordinates":[[[77.377939,28.516434],[77.377481,28.516722],[77.377257,28.516414],[77.378182,28.515827],[77.378421,28.51612],[77.377939,28.516434]]]},"properties":{"objectid":12839,"plotmapid":"132B038BINSTL","property_t":"Institutional","used":"NA","plotsizesq":0,"plot_size":"NA","plot_no":"038B","sector":"132","block":"B","mplanduse":"V","ppt_type":"INSTL","ppt_full":"Institutional","authority":"NOIDA","category":"institutional","execution_stage":"unknown"}},{"type":"Feature","geometry":{"type":"Polygon","coordinates":[[[77.37776,28.517131],[77.377481,28.516722],[77.377939,28.516434],[77.378559,28.517234],[77.378117,28.517631],[77.37776,28.517131]]]},"properties":{"objectid":12840,"plotmapid":"132B038INSTL","property_t":"Institutional","used":"NA","allotted_p":"Yes","plotsizesq":5000,"plot_size":"5703 SQMT","plot_no":"038","sector":"132","block":"B","mplanduse":"V","ppt_type":"INSTL","ppt_full":"Institutional","authority":"NOIDA","category":"institutional","execution_stage":"allotted"}},{"type":"Feature","geometry":{"type":"Polygon","coordinates":[[[77.376511,28.509107],[77.376991,28.509709],[77.37578,28.51049],[77.375281,28.509899],[77.376511,28.509107]]]},"properties":{"objectid":12844,"plotmapid":"132A008INSTL","property_t":"Institutional","used":"NA","plotsizesq":0,"plot_size":"NA","plot_no":"008","sector":"132","block":"A","mplanduse":"V","ppt_type":"INSTL","ppt_full":"Institutional","authority":"NOIDA","category":"institutional","execution_stage":"unknown"}},{"type":"Feature","geometry":{"type":"Polygon","coordinates":[[[77.380884,28.508515],[77.37869,28.509935],[77.378227,28.509372],[77.38042,28.507959],[77.380884,28.508515]]]},"properties":{"objectid":12845,"plotmapid":"132A003AINSTL","property_t":"Institutional","used":"NA","plotsizesq":20234.3,"plot_size":"20234.3 SQMT","plot_no":"003A","sector":"132","block":"A","mplanduse":"V","ppt_type":"INSTL","ppt_full":"Institutional","authority":"NOIDA","category":"institutional","execution_stage":"unknown"}},{"type":"Feature","geometry":{"type":"Polygon","coordinates":[[[77.38133,28.509054],[77.379137,28.510476],[77.37869,28.509935],[77.380884,28.508515],[77.38133,28.509054]]]},"properties":{"objectid":12846,"plotmapid":"132A003INSTL","property_t":"Institutional","used":"NA","plotsizesq":20234.3,"plot_size":"20234.3 SQMT","plot_no":"003","sector":"132","block":"A","mplanduse":"V","ppt_type":"INSTL","ppt_full":"Institutional","authority":"NOIDA","category":"institutional","execution_stage":"unknown"}},{"type":"Feature","geometry":{"type":"Polygon","coordinates":[[[77.374788,28.5149],[77.375021,28.515183],[77.374362,28.515609],[77.373873,28.515029],[77.374537,28.514596],[77.374788,28.5149]]]},"properties":{"objectid":12847,"plotmapid":"132B033-034INSTL","property_t":"Institutional","used":"NA","plotsizesq":4046.86,"plot_size":"4046.86 SQMT","plot_no":"033-034","sector":"132","block":"B","mplanduse":"V","ppt_type":"INSTL","ppt_full":"Institutional","authority":"NOIDA","category":"institutional","execution_stage":"unknown"}},{"type":"Feature","geometry":{"type":"Polygon","coordinates":[[[77.349671,28.529746],[77.349528,28.530609],[77.348926,28.530515],[77.349065,28.529674],[77.349671,28.529746]]]},"properties":{"objectid":13052,"plotmapid":"127NA017INSTL","property_t":"Institutional","plotsizesq":5000,"plot_size":"5000 SQMT","plot_no":"017","sector":"127","block":"NA","mplanduse":"V","ppt_type":"INSTL","ppt_full":"Institutional","authority":"NOIDA","category":"institutional","execution_stage":"unknown"}},{"type":"Feature","geometry":{"type":"Polygon","coordinates":[[[77.350102,28.529791],[77.349993,28.530417],[77.34989,28.530664],[77.349528,28.530609],[77.349671,28.529746],[77.350102,28.529791]]]},"properties":{"objectid":13053,"plotmapid":"127NA016INSTL","property_t":"Institutional","plotsizesq":5000,"plot_size":"5000 SQMT","plot_no":"016","sector":"127","block":"NA","mplanduse":"V","ppt_type":"INSTL","ppt_full":"Institutional","authority":"NOIDA","category":"institutional","execution_stage":"unknown"}},{"type":"Feature","geometry":{"type":"Polygon","coordinates":[[[77.373655,28.509213],[77.374013,28.509033],[77.374162,28.509221],[77.373834,28.509435],[77.373655,28.509213]]]},"properties":{"objectid":13576,"plotmapid":"132B014INSTL","property_t":"Institutional","used":"NA","allotted_p":"Yes","plotsizesq":1100,"plot_size":"1000 SQMT","plot_no":"014","sector":"132","block":"B","mplanduse":"B","ppt_type":"INSTL","ppt_full":"Institutional","authority":"NOIDA","category":"institutional","execution_stage":"allotted"}},{"type":"Feature","geometry":{"type":"Polygon","coordinates":[[[77.37367,28.509233],[77.373972,28.509606],[77.373714,28.509754],[77.373379,28.50935],[77.373655,28.509213],[77.37367,28.509233]]]},"properties":{"objectid":13577,"plotmapid":"132B013BINSTL","property_t":"Institutional","used":"NA","plotsizesq":1150,"plot_size":"1150 SQMT","plot_no":"013B","sector":"132","block":"B","mplanduse":"B","ppt_type":"INSTL","ppt_full":"Institutional","authority":"NOIDA","category":"institutional","execution_stage":"unknown"}},{"type":"Feature","geometry":{"type":"Polygon","coordinates":[[[77.374312,28.509403],[77.373981,28.509617],[77.373834,28.509435],[77.374162,28.509221],[77.374312,28.509403]]]},"properties":{"objectid":13578,"plotmapid":"132B015INSTL","property_t":"Institutional","used":"NA","allotted_p":"Yes","plotsizesq":1000,"plot_size":"1000 SQMT","plot_no":"015","sector":"132","block":"B","mplanduse":"B","ppt_type":"INSTL","ppt_full":"Institutional","authority":"NOIDA","category":"institutional","execution_stage":"allotted"}},{"type":"Feature","geometry":{"type":"Polygon","coordinates":[[[77.374459,28.509588],[77.374123,28.509808],[77.373969,28.509625],[77.374312,28.509403],[77.374459,28.509588]]]},"properties":{"objectid":13579,"plotmapid":"132B016INSTL","property_t":"Institutional","used":"NA","allotted_p":"Yes","plotsizesq":1000,"plot_size":"1000 SQMT","plot_no":"016","sector":"132","block":"B","mplanduse":"B","ppt_type":"INSTL","ppt_full":"Institutional","authority":"NOIDA","category":"institutional","execution_stage":"allotted"}},{"type":"Feature","geometry":{"type":"Polygon","coordinates":[[[77.373981,28.509617],[77.373969,28.509625],[77.374275,28.509992],[77.374034,28.51014],[77.373714,28.509754],[77.373972,28.509606],[77.373981,28.509617]]]},"properties":{"objectid":13580,"plotmapid":"132B013AINSTL","property_t":"Institutional","used":"NA","plotsizesq":1150,"plot_size":"1150 SQMT","plot_no":"013A","sector":"132","block":"B","mplanduse":"B","ppt_type":"INSTL","ppt_full":"Institutional","authority":"NOIDA","category":"institutional","execution_stage":"unknown"}},{"type":"Feature","geometry":{"type":"Polygon","coordinates":[[[77.372354,28.51288],[77.371507,28.513432],[77.370743,28.512511],[77.372094,28.511642],[77.372853,28.512558],[77.372354,28.51288]]]},"properties":{"objectid":13616,"plotmapid":"132B009INSTL","property_t":"Institutional","used":"NA","plotsizesq":20234.3,"plot_size":"20234.3 SQMT","plot_no":"009","sector":"132","block":"B","mplanduse":"B","ppt_type":"INSTL","ppt_full":"Institutional","authority":"NOIDA","category":"institutional","execution_stage":"unknown"}},{"type":"Feature","geometry":{"type":"Polygon","coordinates":[[[77.372418,28.512957],[77.372718,28.513318],[77.371868,28.513867],[77.371507,28.513432],[77.372354,28.51288],[77.372418,28.512957]]]},"properties":{"objectid":13639,"plotmapid":"132B008INSTL","property_t":"Institutional","used":"NA","plotsizesq":6000,"plot_size":"6000 SQMT","plot_no":"008","sector":"132","block":"B","mplanduse":"B","ppt_type":"INSTL","ppt_full":"Institutional","authority":"NOIDA","category":"institutional","execution_stage":"unknown"}},{"type":"Feature","geometry":{"type":"Polygon","coordinates":[[[77.376066,28.508575],[77.376177,28.508712],[77.374954,28.509496],[77.374417,28.508832],[77.375729,28.508169],[77.376066,28.508575]]]},"properties":{"objectid":13641,"plotmapid":"132A007INSTL","property_t":"Institutional","used":"NA","plotsizesq":12140.6,"plot_size":"12140.6 SQMT","plot_no":"007","sector":"132","block":"A","mplanduse":"B","ppt_type":"INSTL","ppt_full":"Institutional","authority":"NOIDA","category":"institutional","execution_stage":"unknown"}},{"type":"Feature","geometry":{"type":"Polygon","coordinates":[[[77.372792,28.513408],[77.373081,28.513758],[77.372232,28.514305],[77.371868,28.513867],[77.372718,28.513318],[77.372792,28.513408]]]},"properties":{"objectid":13642,"plotmapid":"132B007INSTL","property_t":"Institutional","used":"NA","plotsizesq":6000,"plot_size":"6000 SQMT","plot_no":"007","sector":"132","block":"B","mplanduse":"B","ppt_type":"INSTL","ppt_full":"Institutional","authority":"NOIDA","category":"institutional","execution_stage":"unknown"}},{"type":"Feature","geometry":{"type":"Polygon","coordinates":[[[77.377245,28.507417],[77.379169,28.506451],[77.379957,28.5074],[77.37818,28.508549],[77.377245,28.507417]]]},"properties":{"objectid":13643,"plotmapid":"132A005INSTL","property_t":"Institutional","used":"NA","plotsizesq":30351.4,"plot_size":"30351.4 SQMT","plot_no":"005","sector":"132","block":"A","mplanduse":"B","ppt_type":"INSTL","ppt_full":"Institutional","authority":"NOIDA","category":"institutional","execution_stage":"unknown"}},{"type":"Feature","geometry":{"type":"Polygon","coordinates":[[[77.373274,28.5143],[77.372597,28.514742],[77.372232,28.514305],[77.373081,28.513758],[77.373438,28.514194],[77.373274,28.5143]]]},"properties":{"objectid":13644,"plotmapid":"132B006INSTL","property_t":"Institutional","used":"NA","plotsizesq":6000,"plot_size":"6000 SQMT","plot_no":"006","sector":"132","block":"B","mplanduse":"B","ppt_type":"INSTL","ppt_full":"Institutional","authority":"NOIDA","category":"institutional","execution_stage":"unknown"}},{"type":"Feature","geometry":{"type":"Polygon","coordinates":[[[77.373578,28.51467],[77.373873,28.515029],[77.373211,28.51546],[77.372906,28.515103],[77.373578,28.51467]]]},"properties":{"objectid":13645,"plotmapid":"132B004INSTL","property_t":"Institutional","used":"NA","plotsizesq":4000,"plot_size":"4000 SQMT","plot_no":"004","sector":"132","block":"B","mplanduse":"B","ppt_type":"INSTL","ppt_full":"Institutional","authority":"NOIDA","category":"institutional","execution_stage":"unknown"}},{"type":"Feature","geometry":{"type":"Polygon","coordinates":[[[77.379805,28.511283],[77.377605,28.512692],[77.376693,28.511586],[77.377799,28.51087],[77.378162,28.510665],[77.378233,28.510611],[77.378229,28.510592],[77.37826,28.510565],[77.378676,28.510302],[77.378689,28.510318],[77.378897,28.510187],[77.379805,28.511283]]]},"properties":{"objectid":13646,"plotmapid":"132A010INSTL","property_t":"Institutional","used":"NA","allotted_p":"Yes","plotsizesq":40508,"plot_size":"40468.6 SQMT","plot_no":"010","sector":"132","block":"A","mplanduse":"B","ppt_type":"INSTL","ppt_full":"Institutional","authority":"NOIDA","category":"institutional","execution_stage":"allotted"}},{"type":"Feature","geometry":{"type":"Polygon","coordinates":[[[77.37919,28.513379],[77.378528,28.513806],[77.377605,28.512692],[77.379805,28.511283],[77.38072,28.512392],[77.37919,28.513379]]]},"properties":{"objectid":13647,"plotmapid":"132A011INSTL","property_t":"Institutional","used":"NA","allotted_p":"Yes","plotsizesq":40508,"plot_size":"40468.6 SQMT","plot_no":"011","sector":"132","block":"A","mplanduse":"B","ppt_type":"INSTL","ppt_full":"Institutional","authority":"NOIDA","category":"institutional","execution_stage":"allotted"}},{"type":"Feature","geometry":{"type":"Polygon","coordinates":[[[77.378528,28.513806],[77.37919,28.513379],[77.37949,28.513746],[77.378826,28.514174],[77.378528,28.513806]]]},"properties":{"objectid":13648,"plotmapid":"132A012AINSTL","property_t":"Institutional","used":"NA","plotsizesq":4000,"plot_size":"4000 SQMT","plot_no":"012A","sector":"132","block":"A","mplanduse":"B","ppt_type":"INSTL","ppt_full":"Institutional","authority":"NOIDA","category":"institutional","execution_stage":"unknown"}},{"type":"Feature","geometry":{"type":"Polygon","coordinates":[[[77.377088,28.514404],[77.377925,28.515414],[77.376977,28.516028],[77.376879,28.515893],[77.376893,28.515885],[77.375968,28.514582],[77.376792,28.514047],[77.377088,28.514404]]]},"properties":{"objectid":13649,"plotmapid":"132B035INSTL","property_t":"Institutional","used":"NA","allotted_p":"Yes","plotsizesq":20116,"plot_size":"20234.3 SQMT","plot_no":"035","sector":"132","block":"B","mplanduse":"B","ppt_type":"INSTL","ppt_full":"Institutional","authority":"NOIDA","category":"institutional","execution_stage":"allotted"}},{"type":"Feature","geometry":{"type":"Polygon","coordinates":[[[77.376792,28.514047],[77.377669,28.513474],[77.378804,28.514845],[77.377925,28.515414],[77.376792,28.514047]]]},"properties":{"objectid":13650,"plotmapid":"132B036INSTL","property_t":"Institutional","used":"NA","allotted_p":"Yes","plotsizesq":20116,"plot_size":"20234.3 SQMT","plot_no":"036","sector":"132","block":"B","mplanduse":"B","ppt_type":"INSTL","ppt_full":"Institutional","authority":"NOIDA","category":"institutional","execution_stage":"allotted"}},{"type":"Feature","geometry":{"type":"Polygon","coordinates":[[[77.378911,28.515807],[77.378421,28.51612],[77.378154,28.515793],[77.379096,28.515194],[77.379362,28.51552],[77.378911,28.515807]]]},"properties":{"objectid":13651,"plotmapid":"132B037/BINSTL","property_t":"Institutional","used":"NA","plotsizesq":0,"plot_size":"NA","plot_no":"037/B","sector":"132","block":"B","mplanduse":"B","ppt_type":"INSTL","ppt_full":"Institutional","authority":"NOIDA","category":"institutional","execution_stage":"unknown"}},{"type":"Feature","geometry":{"type":"Polygon","coordinates":[[[77.378829,28.516966],[77.378559,28.517234],[77.377939,28.516434],[77.378237,28.516237],[77.378829,28.516966]]]},"properties":{"objectid":13653,"plotmapid":"132B038AINSTL","property_t":"Institutional","used":"NA","plotsizesq":5718,"plot_size":"5718 SQMT","plot_no":"038A","sector":"132","block":"B","mplanduse":"B","ppt_type":"INSTL","ppt_full":"Institutional","authority":"NOIDA","category":"institutional","execution_stage":"unknown"}},{"type":"Feature","geometry":{"type":"Polygon","coordinates":[[[77.379417,28.5164],[77.378829,28.516966],[77.378237,28.516237],[77.378911,28.515807],[77.379417,28.5164]]]},"properties":{"objectid":13654,"plotmapid":"132B037/AINSTL","property_t":"Institutional","used":"NA","plotsizesq":4277,"plot_size":"4277 SQMT","plot_no":"037/A","sector":"132","block":"B","mplanduse":"B","ppt_type":"INSTL","ppt_full":"Institutional","authority":"NOIDA","category":"institutional","execution_stage":"unknown"}},{"type":"Feature","geometry":{"type":"Polygon","coordinates":[[[77.379364,28.515522],[77.37979,28.516042],[77.379417,28.5164],[77.378911,28.515807],[77.379364,28.515522]]]},"properties":{"objectid":13655,"plotmapid":"132B037INSTL","property_t":"Institutional","used":"NA","allotted_p":"Yes","plotsizesq":6000,"plot_size":"4277 SQMT","plot_no":"037","sector":"132","block":"B","mplanduse":"B","ppt_type":"INSTL","ppt_full":"Institutional","authority":"NOIDA","category":"institutional","execution_stage":"allotted"}},{"type":"Feature","geometry":{"type":"Polygon","coordinates":[[[77.382804,28.51082],[77.383955,28.512209],[77.380149,28.515754],[77.378826,28.514174],[77.37949,28.513746],[77.37919,28.513379],[77.38072,28.512392],[77.380514,28.512144],[77.382729,28.510722],[77.382804,28.51082]]]},"properties":{"objectid":13656,"plotmapid":"132A001&012INSTL","property_t":"Institutional","used":"NA","plotsizesq":60702.8,"plot_size":"60702.8 SQMT","plot_no":"001&012","sector":"132","block":"A","mplanduse":"B","ppt_type":"INSTL","ppt_full":"Institutional","authority":"NOIDA","category":"institutional","execution_stage":"unknown"}},{"type":"Feature","geometry":{"type":"Polygon","coordinates":[[[77.379981,28.50743],[77.38042,28.507959],[77.378227,28.509372],[77.377771,28.508814],[77.379957,28.5074],[77.379981,28.50743]]]},"properties":{"objectid":13659,"plotmapid":"132A004INSTL","property_t":"Institutional","used":"NA","plotsizesq":20234.3,"plot_size":"20234.3 SQMT","plot_no":"004","sector":"132","block":"A","mplanduse":"B","ppt_type":"INSTL","ppt_full":"Institutional","authority":"NOIDA","category":"institutional","execution_stage":"unknown"}},{"type":"Feature","geometry":{"type":"Polygon","coordinates":[[[77.381367,28.509097],[77.382729,28.510722],[77.380514,28.512144],[77.379137,28.510476],[77.38133,28.509054],[77.381367,28.509097]]]},"properties":{"objectid":13660,"plotmapid":"132A002INSTL","property_t":"Institutional","used":"NA","plotsizesq":40468.6,"plot_size":"40468.6 SQMT","plot_no":"002","sector":"132","block":"A","mplanduse":"B","ppt_type":"INSTL","ppt_full":"Institutional","authority":"NOIDA","category":"institutional","execution_stage":"unknown"}},{"type":"Feature","geometry":{"type":"Polygon","coordinates":[[[77.376893,28.515885],[77.374554,28.517074],[77.373701,28.516036],[77.375968,28.514582],[77.376893,28.515885]]]},"properties":{"objectid":13661,"plotmapid":"132B001INSTL","property_t":"Institutional","used":"NA","plotsizesq":40468.6,"plot_size":"40468.6 SQMT","plot_no":"001","sector":"132","block":"B","mplanduse":"B","ppt_type":"INSTL","ppt_full":"Institutional","authority":"NOIDA","category":"institutional","execution_stage":"unknown"}},{"type":"Feature","geometry":{"type":"Polygon","coordinates":[[[77.379096,28.515194],[77.378154,28.515793],[77.377878,28.515444],[77.378811,28.514841],[77.379096,28.515194]]]},"properties":{"objectid":13664,"plotmapid":"132B037/CINSTL","property_t":"Institutional","used":"NA","plotsizesq":0,"plot_size":"NA","plot_no":"037/C","sector":"132","block":"B","mplanduse":"B","ppt_type":"INSTL","ppt_full":"Institutional","authority":"NOIDA","category":"institutional","execution_stage":"unknown"}},{"type":"Feature","geometry":{"type":"Polygon","coordinates":[[[77.350309,28.529813],[77.350475,28.52983],[77.35083,28.530199],[77.349974,28.530754],[77.349888,28.53067],[77.349993,28.530417],[77.350102,28.529791],[77.350309,28.529813]]]},"properties":{"objectid":13714,"plotmapid":"127NA015AINSTL","property_t":"Institutional","plotsizesq":4232,"plot_size":"4232 SQMT","plot_no":"015A","sector":"127","block":"NA","mplanduse":"B","ppt_type":"INSTL","ppt_full":"Institutional","authority":"NOIDA","category":"institutional","execution_stage":"unknown"}},{"type":"Feature","geometry":{"type":"Polygon","coordinates":[[[77.373036,28.51278],[77.372538,28.513102],[77.372354,28.51288],[77.372853,28.512558],[77.373036,28.51278]]]},"properties":{"objectid":15630,"plotmapid":"132NA025INSTL","property_t":"Institutional","used":"NA","plotsizesq":1800,"plot_size":"1800 SQMT","plot_no":"025","sector":"132","block":"NA","mplanduse":"V","ppt_type":"INSTL","ppt_full":"Institutional","remark":"As per Drone is vacant but Alloted","authority":"NOIDA","category":"institutional","execution_stage":"unknown"}},{"type":"Feature","geometry":{"type":"Polygon","coordinates":[[[77.373217,28.512999],[77.372718,28.513318],[77.372538,28.513102],[77.373036,28.51278],[77.373217,28.512999]]]},"properties":{"objectid":15631,"plotmapid":"132NA026INSTL","property_t":"Institutional","used":"NA","plotsizesq":1800,"plot_size":"1800 SQMT","plot_no":"026","sector":"132","block":"NA","mplanduse":"B","ppt_type":"INSTL","ppt_full":"Institutional","remark":"As per Drone is vacant but Alloted","authority":"NOIDA","category":"institutional","execution_stage":"unknown"}},{"type":"Feature","geometry":{"type":"Polygon","coordinates":[[[77.373397,28.513217],[77.372901,28.51354],[77.372718,28.513318],[77.373217,28.512999],[77.373397,28.513217]]]},"properties":{"objectid":15632,"plotmapid":"132NA027INSTL","property_t":"Institutional","used":"NA","plotsizesq":1800,"plot_size":"1800 SQMT","plot_no":"027","sector":"132","block":"NA","mplanduse":"B","ppt_type":"INSTL","ppt_full":"Institutional","remark":"As per Drone is vacant but Alloted","authority":"NOIDA","category":"institutional","execution_stage":"unknown"}},{"type":"Feature","geometry":{"type":"Polygon","coordinates":[[[77.373577,28.513435],[77.373081,28.513758],[77.372901,28.51354],[77.373397,28.513217],[77.373577,28.513435]]]},"properties":{"objectid":15633,"plotmapid":"132NA028INSTL","property_t":"Institutional","used":"NA","plotsizesq":1800,"plot_size":"1800 SQMT","plot_no":"028","sector":"132","block":"NA","mplanduse":"B","ppt_type":"INSTL","ppt_full":"Institutional","remark":"As per Drone is vacant but Alloted","authority":"NOIDA","category":"institutional","execution_stage":"unknown"}},{"type":"Feature","geometry":{"type":"Polygon","coordinates":[[[77.37376,28.513656],[77.373936,28.513869],[77.373438,28.514194],[77.373081,28.513758],[77.373577,28.513435],[77.37376,28.513656]]]},"properties":{"objectid":15634,"plotmapid":"132NA029&030INSTL","property_t":"Institutional","used":"NA","plotsizesq":1800,"plot_size":"1800 SQMT","plot_no":"029&030","sector":"132","block":"NA","mplanduse":"V","ppt_type":"INSTL","ppt_full":"Institutional","remark":"As per Drone is vacant but Alloted","authority":"NOIDA","category":"institutional","execution_stage":"unknown"}},{"type":"Feature","geometry":{"type":"Polygon","coordinates":[[[77.376511,28.509107],[77.375281,28.509899],[77.374954,28.509496],[77.376186,28.508706],[77.376511,28.509107]]]},"properties":{"objectid":17557,"plotmapid":"132A008AINSTL","property_t":"Institutional","used":"NA","plotsizesq":0,"plot_size":"NA","plot_no":"008A","sector":"132","block":"A","mplanduse":"V","ppt_type":"INSTL","ppt_full":"Institutional","authority":"NOIDA","category":"institutional","execution_stage":"unknown"}}]}
