{"type":"FeatureCollection","features":[{"type":"Feature","id":"rera-yeida-6260","geometry":{"type":"Polygon","coordinates":[[[77.530920263799,28.320002522161356],[77.53235464603397,28.31949831715525],[77.53247504633318,28.319690935613405],[77.53332590451917,28.32105213068877],[77.53148935281969,28.32193004205214],[77.53099541955059,28.320395414957137],[77.530920263799,28.320002522161356]]]},"properties":{"authority":"YEIDA","category":"rera-project-parcels","objectid":6260,"uniqueplotid":"PLNGRESIDENTIAL6260","gis_plot_identifier":"GH-1A/1","industrysector":"SECTOR-22D","plotsize":"10 ACRE","area_sqm":48120.657350965,"project_names":"Purvanchal Sunbliss","project_types":"Residential","rera_numbers":"UPRERAPRJ746863/04/2025","rera_statuses":"New","rera_completion_dates":"2030-01-29","official_land_areas_sqm":"","promoter_legal_entities":"Purvanchal Projects Private Limited","rera_parcel_identifiers":"GH-1A/1","match_method":"exact_identifier","match_scope":"full-parcel","match_confidence":"HIGH","mapping_ambiguity":"Exact RERA/GIS identifier. YEIDA GIS incorrectly labels the parcel vacant, so GIS status is not used as project status.","mapping_count":1,"execution_stage":"unknown"}},{"type":"Feature","id":"rera-yeida-6261","geometry":{"type":"Polygon","coordinates":[[[77.53072342225899,28.318646359000855],[77.53162418814722,28.31832972311103],[77.53235464603397,28.31949831715525],[77.530920263799,28.320002522161356],[77.53071178817774,28.318912651272417],[77.53072342225899,28.318646359000855]]]},"properties":{"authority":"YEIDA","category":"rera-project-parcels","objectid":6261,"uniqueplotid":"PLNGRESIDENTIAL6261","gis_plot_identifier":"GH-1A/2","industrysector":"SECTOR-22D","plotsize":"5 ACRE","area_sqm":23906.67659815,"project_names":"Eldeco Ballads of Bliss","project_types":"Residential","rera_numbers":"UPRERAPRJ921261/05/2025","rera_statuses":"New","rera_completion_dates":"2030-04-03","official_land_areas_sqm":"","promoter_legal_entities":"Eldeco Goodliving Properties Limited","rera_parcel_identifiers":"GH-1A/2","match_method":"exact_identifier","match_scope":"parent-parcel","match_confidence":"HIGH","mapping_ambiguity":"Exact parent parcel; the project footprint inside the parcel is not separately represented.","mapping_count":1,"execution_stage":"unknown"}},{"type":"Feature","id":"rera-yeida-6256","geometry":{"type":"Polygon","coordinates":[[[77.53556203045025,28.319983204557364],[77.53441917398287,28.320529519404857],[77.53360362767239,28.31922506965389],[77.53478353784864,28.31873801198329],[77.53556203045025,28.319983204557364]]]},"properties":{"authority":"YEIDA","category":"rera-project-parcels","objectid":6256,"uniqueplotid":"PLNGRESIDENTIAL6256","gis_plot_identifier":"GH-1C/1","industrysector":"SECTOR-22D","plotsize":"5 ACRE","area_sqm":26638.47163484,"project_names":"Eldeco Whispers of Wonder","project_types":"Residential","rera_numbers":"UPRERAPRJ752382/09/2025","rera_statuses":"New","rera_completion_dates":"2030-07-17","official_land_areas_sqm":"","promoter_legal_entities":"Eldeco Sohna Projects Limited","rera_parcel_identifiers":"GH-01C/1","match_method":"normalized_identifier","match_scope":"full-parcel","match_confidence":"HIGH","mapping_ambiguity":"Leading-zero normalization only.","mapping_count":1,"execution_stage":"unknown"}},{"type":"Feature","id":"rera-yeida-6258","geometry":{"type":"Polygon","coordinates":[[[77.53441917398287,28.320529519404857],[77.53332590451917,28.32105213068877],[77.53247504633318,28.319690935613405],[77.53360362767239,28.31922506965389],[77.53441917398287,28.320529519404857]]]},"properties":{"authority":"YEIDA","category":"rera-project-parcels","objectid":6258,"uniqueplotid":"PLNGRESIDENTIAL6258","gis_plot_identifier":"GH-1B/1","industrysector":"SECTOR-22D","plotsize":"5 ACRE","area_sqm":26640.03360999,"project_names":"Eldeco Echoes of Eden","project_types":"Residential","rera_numbers":"UPRERAPRJ125342/02/2026","rera_statuses":"New","rera_completion_dates":"2031-01-11","official_land_areas_sqm":"20235","promoter_legal_entities":"Eldeco Sohna Projects Limited","rera_parcel_identifiers":"GH01 B/1","match_method":"normalized_identifier","match_scope":"full-parcel","match_confidence":"HIGH","mapping_ambiguity":"Spacing, hyphen and leading-zero normalization only.","mapping_count":1,"execution_stage":"unknown"}},{"type":"Feature","id":"rera-yeida-6259","geometry":{"type":"Polygon","coordinates":[[[77.53360362767239,28.31922506965389],[77.53247504633318,28.319690935613405],[77.53235464603397,28.31949831715525],[77.53162418814722,28.31832972311103],[77.53278807507371,28.317920595200047],[77.53360362767239,28.31922506965389]]]},"properties":{"authority":"YEIDA","category":"rera-project-parcels","objectid":6259,"uniqueplotid":"PLNGRESIDENTIAL6259","gis_plot_identifier":"GH-1B/2","industrysector":"SECTOR-22D","plotsize":"5 ACRE","area_sqm":26636.99316739,"project_names":"VVIP Yamuna","project_types":"Residential","rera_numbers":"UPRERAPRJ677791/02/2026","rera_statuses":"New","rera_completion_dates":"2030-10-30","official_land_areas_sqm":"","promoter_legal_entities":"VVIP Infrahome Private Limited","rera_parcel_identifiers":"GH-01B/2","match_method":"normalized_identifier","match_scope":"full-parcel","match_confidence":"HIGH","mapping_ambiguity":"Leading-zero normalization only.","mapping_count":1,"execution_stage":"unknown"}},{"type":"Feature","id":"rera-yeida-6291","geometry":{"type":"Polygon","coordinates":[[[77.5523135488655,28.28307610563764],[77.55194716379037,28.284202043573252],[77.54860887058267,28.283281530231918],[77.54895509746284,28.282159299051408],[77.5523135488655,28.28307610563764]]]},"properties":{"authority":"YEIDA","category":"rera-project-parcels","objectid":6291,"uniqueplotid":"PLNGRESIDENTIAL6291","gis_plot_identifier":"GH-11","industrysector":"SECTOR-22D","plotsize":"11.3 ACRE","area_sqm":57571.02308783,"project_names":"Arihant Seasons","project_types":"Residential","rera_numbers":"UPRERAPRJ974543/02/2026","rera_statuses":"New","rera_completion_dates":"2031-01-05","official_land_areas_sqm":"45732","promoter_legal_entities":"Arihant Urban Space Private Limited","rera_parcel_identifiers":"GH-11","match_method":"exact_identifier","match_scope":"full-parcel","match_confidence":"HIGH","mapping_ambiguity":"Exact identifier; the official tripartite sublease corroborates parcel and lease references.","mapping_count":1,"execution_stage":"unknown"}},{"type":"Feature","id":"rera-yeida-6292","geometry":{"type":"Polygon","coordinates":[[[77.55268351013383,28.28193915661433],[77.5523135488655,28.28307610563764],[77.54895509746284,28.282159299051408],[77.5493322147107,28.2809369225561],[77.55270636596958,28.281868914182866],[77.55268351013383,28.28193915661433]]]},"properties":{"authority":"YEIDA","category":"rera-project-parcels","objectid":6292,"uniqueplotid":"PLNGRESIDENTIAL6292","gis_plot_identifier":"GH-12","industrysector":"SECTOR-22D","plotsize":"11.8 ACRE","area_sqm":62552.031072435,"project_names":"Gaur Chrysalis Phase 1","project_types":"Residential","rera_numbers":"UPRERAPRJ622344/11/2025","rera_statuses":"New","rera_completion_dates":"2030-10-05","official_land_areas_sqm":"47754.6","promoter_legal_entities":"Gaursons Promoters Private Limited","rera_parcel_identifiers":"GH-12","match_method":"exact_identifier","match_scope":"parent-parcel","match_confidence":"HIGH","mapping_ambiguity":"Exact parent parcel; the Phase-1 boundary is not separately represented.","mapping_count":1,"execution_stage":"unknown"}},{"type":"Feature","id":"rera-yeida-6293","geometry":{"type":"Polygon","coordinates":[[[77.55312514258873,28.280581921261902],[77.55270636596958,28.281868914182866],[77.5493322147107,28.2809369225561],[77.54972122026302,28.2796759810751],[77.55312514258873,28.280581921261902]]]},"properties":{"authority":"YEIDA","category":"rera-project-parcels","objectid":6293,"uniqueplotid":"PLNGRESIDENTIAL6293","gis_plot_identifier":"GH-13","industrysector":"SECTOR-22D","plotsize":"11.8 ACRE","area_sqm":65977.63346137,"project_names":"Gaur Alaris Phase 1","project_types":"Residential","rera_numbers":"UPRERAPRJ950965/07/2026","rera_statuses":"New","rera_completion_dates":"2031-06-09","official_land_areas_sqm":"","promoter_legal_entities":"Gaursons India Private Limited","rera_parcel_identifiers":"GH-13","match_method":"exact_identifier","match_scope":"parent-parcel","match_confidence":"HIGH","mapping_ambiguity":"Exact parent parcel; the Phase-1 development footprint requires sanctioned-plan extraction.","mapping_count":1,"execution_stage":"unknown"}},{"type":"Feature","id":"rera-yeida-4858","geometry":{"type":"Polygon","coordinates":[[[77.56275584061261,28.282056495142744],[77.5620686680478,28.28427519716011],[77.56129313719165,28.28677914907118],[77.55547206582865,28.285173928876127],[77.55646124660208,28.281964828754706],[77.55996414261088,28.28257501807901],[77.56115383454222,28.281807941597872],[77.56275584061261,28.282056495142744]]]},"properties":{"authority":"YEIDA","category":"rera-project-parcels","objectid":4858,"uniqueplotid":"PLNGRESIDENTIAL4858","gis_plot_identifier":"TS-1B","industrysector":"SECTOR-22D","plotsize":"68 ACRE","area_sqm":338675.902182295,"project_names":"ACE Edit | ACE Estate | Oasis Grandstand Phase 2 | Oasis Grandstand Phase 1","project_types":"Commercial | Residential","rera_numbers":"UPRERAPRJ467686/09/2025 | UPRERAPRJ442226/10/2024 | UPRERAPRJ585804/01/2025 | UPRERAPRJ6908","rera_statuses":"New | Ongoing","rera_completion_dates":"2029-04-30 | 2025-12-31 | 2029-01-23 | 2023-03-30","official_land_areas_sqm":"","promoter_legal_entities":"Logix Buildestate Private Limited | Oasis Realtech Private Limited","rera_parcel_identifiers":"TS-1B | TS-01B | GH-01/TS01/B","match_method":"exact_identifier | normalized_identifier | project_family_parent","match_scope":"parent-parcel","match_confidence":"LOW-MEDIUM","mapping_ambiguity":"Exact parent township parcel; the commercial C-1 subdivision is absent from the residential GIS layer. | Leading-zero normalization; TS-1B is shared by multiple registrations. | Only the TS-1B parent exists in GIS; the GH-01/project-phase footprint is absent. | Current official page has no parcel; association depends on the Phase-2 project-family evidence.","mapping_count":4,"execution_stage":"unknown"}},{"type":"Feature","id":"rera-yeida-4855","geometry":{"type":"Polygon","coordinates":[[[77.55995886411027,28.291082698631175],[77.55954099838283,28.292423137663373],[77.54781293269822,28.289189377467043],[77.54753888634943,28.286751366793194],[77.54860887058267,28.283281530231918],[77.55194716379037,28.284202043573252],[77.55518813262188,28.285095623752447],[77.55547206582865,28.285173928876127],[77.56129313719165,28.28677914907118],[77.56122968289495,28.286984023074762],[77.55995886411027,28.291082698631175]]]},"properties":{"authority":"YEIDA","category":"rera-project-parcels","objectid":4855,"uniqueplotid":"PLNGRESIDENTIAL4855","gis_plot_identifier":"TS-2","industrysector":"SECTOR-22D","plotsize":"819105 SQMT","area_sqm":1077612.760528845,"project_names":"ACE Terra | ATS Allure | Province D Olympia","project_types":"Residential","rera_numbers":"UPRERAPRJ683816/04/2024 | UPRERAPRJ918 | UPRERAPRJ556048/03/2025","rera_statuses":"New | Ongoing","rera_completion_dates":"2028-12-28 | 2021-03-02 | 2028-03-31","official_land_areas_sqm":"","promoter_legal_entities":"Ajay Realcon India LLP | ATS Realty Private Limited","rera_parcel_identifiers":"P5 & P6, TS-02/A | P7, TS-02 | TS-02A","match_method":"normalized_identifier","match_scope":"parent-parcel","match_confidence":"MEDIUM","mapping_ambiguity":"Only parent TS-2 exists in GIS; P5/P6 and TS-02/A boundaries are absent. | Only parent TS-2 is mapped; P7 cannot be isolated. | Likely TS-2 subdivision; GIS has no A-subdivision boundary.","mapping_count":3,"execution_stage":"unknown"}},{"type":"Feature","id":"rera-yeida-5308","geometry":{"type":"Polygon","coordinates":[[[77.54540226051414,28.305003051220968],[77.54510601948964,28.30512903505266],[77.54487798305307,28.305123365032056],[77.54470080563465,28.305057857251064],[77.54453413042019,28.304912786311984],[77.5443544916179,28.30467062133633],[77.54324150952358,28.303170243647802],[77.54162573048329,28.300992021031277],[77.54012266755328,28.29884907233487],[77.5390554788772,28.29717706297239],[77.53969269702735,28.296210072646232],[77.54754177802636,28.298383553276214],[77.54690050308434,28.300462876061513],[77.54667984181629,28.30117836053404],[77.54645690601392,28.30190121405612],[77.54626383560148,28.30252723183306],[77.5461167149141,28.303004250198857],[77.54599713747172,28.303391972267825],[77.54582786432945,28.303940816278267],[77.5456973454069,28.30436400584329],[77.54557550600657,28.304759052328453],[77.54548426322486,28.304923543474885],[77.54540226051414,28.305003051220968]]]},"properties":{"authority":"YEIDA","category":"rera-project-parcels","objectid":5308,"uniqueplotid":"PLNGRESIDENTIAL5308","gis_plot_identifier":"TS-5","industrysector":"SECTOR-22D","plotsize":"407041 SQMT","area_sqm":534994.79753201,"project_names":"Supertech Golf Country Phase I | Supertech Golf Country Phase III | Golf Country Phase P2 | Supertech Golf Country Phase II","project_types":"Residential","rera_numbers":"UPRERAPRJ5848 | UPRERAPRJ5863 | UPRERAPRJ403642 | UPRERAPRJ5854","rera_statuses":"Ongoing | New | Ongoing legacy record","rera_completion_dates":"2019-06-29 | 2019-12-31 | 2022-12-31","official_land_areas_sqm":"","promoter_legal_entities":"Supertech Township Project Limited","rera_parcel_identifiers":"","match_method":"spatial_probable | unresolved_duplicate_rera","match_scope":"parent-parcel","match_confidence":"LOW","mapping_ambiguity":"Official RERA map coordinate lies inside TS-5; no current address or phase boundary. | Official RERA map coordinate lies inside TS-5; no project-phase footprint. | The current RERA master also assigns UPRERAPRJ5854 to Arqis Mall; archived certificate required.","mapping_count":4,"execution_stage":"unknown"}}]}
