{"type":"FeatureCollection","features":[{"type":"Feature","geometry":{"type":"Polygon","coordinates":[[[77.57531,28.185187],[77.575855,28.182498],[77.57703,28.176936],[77.577276,28.175869],[77.577806,28.173354],[77.577839,28.173112],[77.578103,28.171814],[77.578245,28.170942],[77.578498,28.170035],[77.578854,28.168155],[77.593325,28.164786],[77.593858,28.166553],[77.636828,28.156531],[77.640067,28.164758],[77.634803,28.166167],[77.636158,28.170372],[77.638997,28.169397],[77.641614,28.175203],[77.638142,28.176433],[77.614861,28.182464],[77.598469,28.185447],[77.580469,28.185219],[77.575308,28.185198],[77.57531,28.185187]]]},"properties":{"objectid":1,"total_percentage":3.53864789,"authority":"YEIDA","category":"airport-masterplan","execution_stage":"planning"}},{"type":"Feature","geometry":{"type":"MultiPolygon","coordinates":[[[[77.578854,28.168155],[77.579471,28.165197],[77.579455,28.165065],[77.579405,28.164988],[77.57933,28.164929],[77.579222,28.164893],[77.57963,28.162886],[77.579695,28.162595],[77.579828,28.16259],[77.579919,28.162553],[77.579991,28.162491],[77.580048,28.162371],[77.581055,28.157501],[77.58136,28.156155],[77.581954,28.153207],[77.583207,28.147395],[77.584136,28.142865],[77.584361,28.141899],[77.584998,28.138761],[77.584999,28.138675],[77.585628,28.138596],[77.586955,28.13833],[77.587985,28.138072],[77.589183,28.137708],[77.590355,28.137269],[77.591466,28.136812],[77.593008,28.136103],[77.594205,28.13547],[77.596369,28.134138],[77.596862,28.13385],[77.59866,28.133034],[77.599662,28.13261],[77.600385,28.132357],[77.601174,28.132131],[77.602409,28.131845],[77.603677,28.131691],[77.606777,28.131661],[77.623741,28.131399],[77.643202,28.131025],[77.643242,28.131153],[77.643344,28.131247],[77.648299,28.131152],[77.642215,28.159574],[77.642034,28.160693],[77.641617,28.163049],[77.64145,28.164362],[77.641454,28.164488],[77.641191,28.164464],[77.639919,28.164798],[77.640067,28.164758],[77.636828,28.156531],[77.601989,28.164658],[77.601869,28.164504],[77.60242,28.164237],[77.602051,28.163573],[77.601799,28.163169],[77.601203,28.162424],[77.6005,28.162698],[77.600576,28.162831],[77.600247,28.162952],[77.60006,28.162728],[77.599338,28.163068],[77.599504,28.163326],[77.599174,28.163582],[77.599866,28.164665],[77.599691,28.164783],[77.599971,28.165128],[77.593858,28.166553],[77.593325,28.164786],[77.578854,28.168155]],[[77.610555,28.162262],[77.610856,28.162076],[77.610924,28.162089],[77.611189,28.161915],[77.611274,28.161982],[77.611446,28.161884],[77.611566,28.161759],[77.611649,28.161838],[77.612113,28.161514],[77.611965,28.161284],[77.612128,28.161192],[77.612476,28.161185],[77.612416,28.161104],[77.61268,28.160935],[77.612695,28.160954],[77.612997,28.160733],[77.613265,28.160561],[77.613126,28.160416],[77.61314,28.16033],[77.613359,28.160143],[77.613794,28.159831],[77.613866,28.159834],[77.614108,28.159607],[77.614277,28.159477],[77.614048,28.159263],[77.614246,28.159034],[77.614128,28.158855],[77.614026,28.158661],[77.613707,28.158376],[77.613819,28.158321],[77.614072,28.158117],[77.614216,28.158351],[77.614641,28.158091],[77.614329,28.157684],[77.614723,28.15745],[77.61474,28.157468],[77.61488,28.157357],[77.615204,28.157163],[77.6155,28.156936],[77.615498,28.156845],[77.615794,28.15661],[77.615874,28.1567],[77.61606,28.156567],[77.615873,28.156326],[77.615746,28.156412],[77.615493,28.156114],[77.615739,28.155954],[77.615725,28.155916],[77.615611,28.155997],[77.61556,28.155876],[77.615437,28.155934],[77.615505,28.156061],[77.615226,28.156219],[77.615136,28.156075],[77.614614,28.156415],[77.614722,28.156546],[77.614349,28.156823],[77.614269,28.156851],[77.614155,28.156827],[77.613907,28.157013],[77.613835,28.156933],[77.613635,28.157042],[77.613574,28.156938],[77.613484,28.156997],[77.613501,28.157033],[77.613282,28.157132],[77.612705,28.157525],[77.612497,28.157298],[77.612264,28.157455],[77.612516,28.157729],[77.612377,28.157806],[77.612321,28.15769],[77.612035,28.157884],[77.611654,28.158187],[77.611958,28.15852],[77.611937,28.158571],[77.611737,28.158353],[77.611403,28.158681],[77.611291,28.158563],[77.610945,28.158942],[77.611005,28.159015],[77.611196,28.159148],[77.611022,28.15929],[77.610802,28.159439],[77.61107,28.159693],[77.611221,28.159881],[77.610792,28.160137],[77.610826,28.16017],[77.610803,28.160187],[77.610963,28.160373],[77.610799,28.160541],[77.610606,28.160697],[77.610426,28.160509],[77.610409,28.16052],[77.610329,28.160444],[77.61016,28.160577],[77.610222,28.160637],[77.61001,28.160812],[77.610134,28.160915],[77.610015,28.160993],[77.610103,28.161063],[77.609541,28.161517],[77.609553,28.161527],[77.609529,28.161544],[77.60989,28.161822],[77.60994,28.161796],[77.610411,28.162167],[77.61042,28.16216],[77.610555,28.162262]],[[77.5962,28.150371],[77.596467,28.150591],[77.596942,28.149786],[77.596675,28.149329],[77.596882,28.149066],[77.597054,28.149157],[77.597125,28.149102],[77.597015,28.149001],[77.597816,28.148226],[77.597332,28.147785],[77.597414,28.147696],[77.596851,28.1472],[77.596697,28.147345],[77.595614,28.146733],[77.595402,28.14694],[77.595218,28.147156],[77.595109,28.147342],[77.595276,28.147484],[77.595159,28.14757],[77.595293,28.147668],[77.594875,28.1481],[77.594629,28.147972],[77.594527,28.148111],[77.595043,28.148813],[77.595569,28.149152],[77.595862,28.149396],[77.595571,28.149608],[77.595284,28.1499],[77.595465,28.150078],[77.595776,28.14982],[77.596116,28.150077],[77.596309,28.149906],[77.59651,28.15004],[77.5962,28.150371]],[[77.634776,28.146493],[77.635279,28.146212],[77.635311,28.146272],[77.635644,28.146179],[77.635563,28.145774],[77.635687,28.145703],[77.635907,28.14561],[77.635922,28.145552],[77.635769,28.145238],[77.635611,28.145275],[77.635428,28.144961],[77.635575,28.144891],[77.63557,28.14487],[77.635652,28.144835],[77.635738,28.145021],[77.635943,28.144929],[77.635883,28.144801],[77.6361,28.144708],[77.63611,28.144723],[77.63621,28.144665],[77.636536,28.145019],[77.636775,28.144778],[77.636569,28.144518],[77.636847,28.144337],[77.636797,28.14429],[77.636823,28.144272],[77.636617,28.14406],[77.636947,28.143851],[77.636735,28.143638],[77.636578,28.143736],[77.636431,28.143544],[77.636269,28.143628],[77.636359,28.143752],[77.635976,28.143977],[77.636122,28.144303],[77.635892,28.144406],[77.635376,28.144492],[77.635256,28.144164],[77.635229,28.144169],[77.635083,28.143829],[77.635102,28.143814],[77.635042,28.143737],[77.634962,28.14355],[77.63441,28.143701],[77.633756,28.143939],[77.633906,28.144246],[77.633454,28.144442],[77.633506,28.144613],[77.633079,28.144789],[77.633348,28.1452],[77.632636,28.145549],[77.632854,28.145898],[77.633014,28.145804],[77.632885,28.145596],[77.632986,28.145532],[77.633104,28.14574],[77.633274,28.14566],[77.633324,28.145731],[77.633414,28.145672],[77.63327,28.145455],[77.633456,28.145368],[77.633565,28.145519],[77.633715,28.14581],[77.634024,28.145677],[77.633901,28.145379],[77.634006,28.145332],[77.634019,28.145353],[77.634181,28.145263],[77.634333,28.145537],[77.63436,28.145524],[77.63462,28.145981],[77.634671,28.145965],[77.634758,28.146096],[77.6347,28.146124],[77.63471,28.146141],[77.634578,28.146201],[77.634776,28.146493]],[[77.638737,28.145323],[77.638917,28.145301],[77.638877,28.145113],[77.638861,28.144894],[77.638708,28.144472],[77.63883,28.144403],[77.638668,28.144165],[77.638588,28.144076],[77.638738,28.143836],[77.638763,28.14376],[77.63884,28.143999],[77.639097,28.143971],[77.639368,28.144173],[77.639497,28.144076],[77.63937,28.143941],[77.639826,28.14389],[77.639994,28.144038],[77.64037,28.143821],[77.640842,28.143784],[77.640849,28.143587],[77.640934,28.143535],[77.640858,28.143431],[77.641027,28.143407],[77.641108,28.143505],[77.641139,28.143481],[77.6415,28.143885],[77.642009,28.14382],[77.641936,28.143555],[77.642319,28.143186],[77.642563,28.143022],[77.642482,28.142956],[77.642787,28.142793],[77.642652,28.142552],[77.642894,28.142459],[77.642662,28.141741],[77.64267,28.141651],[77.642632,28.141647],[77.642493,28.141218],[77.642719,28.141126],[77.642646,28.141002],[77.64326,28.140818],[77.643625,28.14078],[77.643592,28.140718],[77.643449,28.140083],[77.643462,28.140095],[77.643611,28.140004],[77.643333,28.139663],[77.643617,28.139469],[77.643736,28.13962],[77.643898,28.139535],[77.643791,28.139342],[77.644109,28.13913],[77.644013,28.138958],[77.643569,28.139186],[77.643234,28.139443],[77.643213,28.139477],[77.643307,28.139573],[77.643252,28.139601],[77.643239,28.139575],[77.642975,28.139644],[77.642737,28.139249],[77.642469,28.1394],[77.642637,28.139645],[77.642627,28.13965],[77.642791,28.139867],[77.642661,28.139926],[77.642316,28.139416],[77.642218,28.139461],[77.642057,28.139229],[77.642108,28.139194],[77.64196,28.138968],[77.642011,28.138924],[77.641953,28.138847],[77.641924,28.138847],[77.641908,28.138825],[77.642041,28.138691],[77.641545,28.138265],[77.641145,28.138542],[77.641085,28.138601],[77.640483,28.138675],[77.640591,28.13926],[77.640474,28.139372],[77.639973,28.139373],[77.639894,28.138378],[77.639848,28.138381],[77.639824,28.138229],[77.639593,28.138291],[77.639517,28.13819],[77.639329,28.138243],[77.639177,28.138402],[77.639084,28.13827],[77.638862,28.13837],[77.63897,28.138559],[77.639145,28.138472],[77.639257,28.138473],[77.63929,28.138618],[77.639278,28.138658],[77.639316,28.138885],[77.638586,28.138975],[77.638633,28.139118],[77.638362,28.139207],[77.638161,28.138937],[77.637899,28.139115],[77.637835,28.139231],[77.637766,28.139313],[77.637608,28.139121],[77.637494,28.139238],[77.637117,28.139696],[77.637208,28.139786],[77.63716,28.139828],[77.637136,28.139812],[77.637038,28.139879],[77.637219,28.140139],[77.63716,28.140176],[77.637096,28.140114],[77.636919,28.1402],[77.637027,28.140398],[77.637148,28.140381],[77.637127,28.140522],[77.637148,28.140556],[77.637456,28.140835],[77.637523,28.140772],[77.637677,28.140985],[77.637759,28.141018],[77.637805,28.141005],[77.637869,28.14108],[77.638203,28.141231],[77.637906,28.141382],[77.637998,28.141469],[77.637933,28.141501],[77.63798,28.141565],[77.638092,28.141531],[77.638149,28.141593],[77.638112,28.141605],[77.638197,28.141717],[77.638354,28.14163],[77.639036,28.142524],[77.63882,28.142641],[77.638795,28.142519],[77.638741,28.142428],[77.638614,28.142422],[77.638643,28.142503],[77.638599,28.142508],[77.638351,28.142298],[77.63795,28.142369],[77.637896,28.142418],[77.637823,28.142439],[77.637848,28.142706],[77.637269,28.142943],[77.637454,28.143476],[77.637486,28.143466],[77.637514,28.143537],[77.63757,28.143498],[77.637656,28.143706],[77.637757,28.143647],[77.637785,28.143709],[77.637977,28.143624],[77.637869,28.143394],[77.638216,28.143291],[77.638463,28.143692],[77.638381,28.143745],[77.638423,28.143794],[77.638182,28.143971],[77.638472,28.144252],[77.638409,28.144353],[77.63836,28.144751],[77.638345,28.144766],[77.638314,28.144762],[77.638291,28.144795],[77.638234,28.145025],[77.638443,28.144997],[77.63864,28.144888],[77.6387,28.145162],[77.638532,28.145199],[77.638551,28.145308],[77.638727,28.145264],[77.638737,28.145323]],[[77.610255,28.138538],[77.610434,28.138473],[77.610808,28.138626],[77.610945,28.138593],[77.611035,28.13837],[77.611252,28.138465],[77.611493,28.138445],[77.611557,28.138253],[77.61144,28.138034],[77.611661,28.137884],[77.611828,28.138049],[77.612015,28.137939],[77.612201,28.138141],[77.612352,28.137986],[77.612412,28.137798],[77.611941,28.13763],[77.608542,28.136567],[77.605112,28.135555],[77.602425,28.138152],[77.602673,28.138422],[77.602733,28.138421],[77.602807,28.138486],[77.602731,28.138596],[77.603135,28.138815],[77.6033,28.138688],[77.603591,28.138962],[77.603726,28.138858],[77.603988,28.139035],[77.604251,28.139344],[77.604188,28.139409],[77.604085,28.139457],[77.604109,28.13949],[77.60407,28.139529],[77.604146,28.13966],[77.603922,28.139842],[77.604125,28.140052],[77.603913,28.140186],[77.603804,28.140303],[77.60384,28.140363],[77.606188,28.140189],[77.60655,28.140541],[77.606916,28.140694],[77.607178,28.140834],[77.607358,28.141175],[77.607074,28.141524],[77.607011,28.141762],[77.607162,28.14195],[77.607506,28.142295],[77.607725,28.142428],[77.60772,28.142459],[77.60721,28.142964],[77.606876,28.143181],[77.60677,28.143267],[77.60665,28.143117],[77.60634,28.143306],[77.60602,28.143625],[77.606065,28.143693],[77.606039,28.143705],[77.606331,28.144099],[77.60617,28.144196],[77.606096,28.144078],[77.605945,28.1442],[77.606046,28.144419],[77.606785,28.143924],[77.607182,28.144444],[77.607223,28.144527],[77.607149,28.144696],[77.607189,28.144757],[77.607339,28.144872],[77.607366,28.144944],[77.607339,28.145048],[77.607007,28.1456],[77.607087,28.145671],[77.60723,28.145726],[77.607365,28.145613],[77.607629,28.14547],[77.607724,28.145491],[77.60792,28.145396],[77.608077,28.14529],[77.608266,28.145091],[77.608312,28.145132],[77.608294,28.145206],[77.60847,28.145274],[77.6085,28.145301],[77.608863,28.145722],[77.60916,28.145533],[77.609302,28.145687],[77.609564,28.145483],[77.609699,28.145565],[77.609959,28.145972],[77.610033,28.146001],[77.609846,28.146127],[77.610347,28.146667],[77.610835,28.146372],[77.610641,28.146188],[77.610708,28.146111],[77.610676,28.146035],[77.61061,28.146002],[77.610564,28.146041],[77.610467,28.145943],[77.610771,28.145682],[77.610647,28.145566],[77.610524,28.145641],[77.610452,28.145523],[77.610197,28.145666],[77.609825,28.145226],[77.610301,28.144801],[77.610522,28.145003],[77.611042,28.144603],[77.610751,28.144338],[77.610217,28.144722],[77.609928,28.144426],[77.610218,28.144226],[77.610112,28.144113],[77.610299,28.143939],[77.610568,28.14373],[77.610417,28.143519],[77.610414,28.143424],[77.610839,28.143148],[77.610916,28.143139],[77.611351,28.143475],[77.611438,28.14337],[77.611367,28.143272],[77.611391,28.143206],[77.611569,28.143077],[77.611612,28.142881],[77.611563,28.142833],[77.611478,28.142853],[77.611351,28.142768],[77.611667,28.14257],[77.611947,28.142336],[77.61171,28.142121],[77.611568,28.142243],[77.611425,28.142121],[77.611018,28.142468],[77.610974,28.142416],[77.610853,28.142524],[77.610726,28.142402],[77.610621,28.142514],[77.610406,28.142317],[77.610057,28.142039],[77.610151,28.141941],[77.610136,28.141931],[77.610233,28.141848],[77.609819,28.141407],[77.609529,28.14168],[77.609438,28.14171],[77.609329,28.14167],[77.608867,28.141273],[77.609066,28.141021],[77.608858,28.140854],[77.608648,28.141084],[77.608671,28.141156],[77.608515,28.141281],[77.608316,28.141063],[77.608825,28.14036],[77.608846,28.140153],[77.608816,28.139971],[77.608574,28.139937],[77.608512,28.139862],[77.608636,28.139676],[77.608694,28.139622],[77.608813,28.139567],[77.608784,28.13954],[77.608965,28.139372],[77.609112,28.139407],[77.609348,28.139166],[77.60918,28.139009],[77.60964,28.138794],[77.609853,28.139026],[77.610255,28.138538]],[[77.608645,28.136371],[77.608907,28.13645],[77.608843,28.136526],[77.612954,28.1378],[77.61306,28.137423],[77.612901,28.137102],[77.61267,28.136915],[77.612556,28.136863],[77.612507,28.136815],[77.612488,28.136832],[77.612409,28.136796],[77.612136,28.137116],[77.611825,28.137151],[77.61137,28.137035],[77.610782,28.136779],[77.610585,28.13664],[77.610625,28.136525],[77.610347,28.136157],[77.610285,28.135815],[77.609981,28.135744],[77.609608,28.135904],[77.609193,28.136156],[77.609165,28.136132],[77.609134,28.136192],[77.608945,28.136397],[77.608649,28.136354],[77.608645,28.136371]],[[77.607561,28.135867],[77.607867,28.135622],[77.607523,28.135209],[77.60721,28.135167],[77.60682,28.135069],[77.606565,28.134788],[77.606309,28.134869],[77.605675,28.13555],[77.606038,28.13565],[77.607409,28.136078],[77.607561,28.135867]],[[77.643585,28.134484],[77.643615,28.134626],[77.644412,28.134999],[77.644668,28.135024],[77.644733,28.134969],[77.644743,28.134975],[77.645137,28.134627],[77.645464,28.134525],[77.64578,28.134226],[77.645498,28.133713],[77.645284,28.13349],[77.644952,28.133313],[77.644651,28.13311],[77.644486,28.133166],[77.644075,28.132939],[77.644034,28.133049],[77.644336,28.133251],[77.64394,28.133725],[77.643387,28.133379],[77.643232,28.133612],[77.643771,28.133892],[77.643492,28.134139],[77.643171,28.133918],[77.643033,28.134178],[77.643513,28.134478],[77.643621,28.134425],[77.643585,28.134484]],[[77.58509,28.144222],[77.584788,28.144413],[77.584977,28.144677],[77.584581,28.14479],[77.584639,28.144927],[77.584399,28.145046],[77.584306,28.144972],[77.584195,28.145064],[77.584079,28.144963],[77.584032,28.144894],[77.584374,28.144675],[77.584299,28.144554],[77.583905,28.144578],[77.583881,28.14485],[77.583799,28.145307],[77.583688,28.14573],[77.583507,28.146186],[77.5836,28.146345],[77.583667,28.14658],[77.58366,28.146822],[77.583594,28.147027],[77.584104,28.14667],[77.583961,28.146525],[77.584326,28.146279],[77.584194,28.146056],[77.584591,28.145781],[77.584695,28.145924],[77.58493,28.145829],[77.58484,28.145669],[77.585518,28.145254],[77.585849,28.145095],[77.585793,28.144996],[77.58509,28.144222]]],[[[77.630978,28.202478],[77.630858,28.203036],[77.618198,28.203279],[77.569905,28.203518],[77.569913,28.199907],[77.56989,28.198371],[77.569953,28.198303],[77.570093,28.198236],[77.570533,28.197818],[77.571563,28.197124],[77.5727,28.1965],[77.57301,28.196313],[77.573212,28.196164],[77.573433,28.195969],[77.573745,28.195623],[77.573843,28.195487],[77.573971,28.195207],[77.574048,28.194947],[77.574075,28.194764],[77.574138,28.192975],[77.574309,28.18974],[77.574878,28.187058],[77.575308,28.185198],[77.580469,28.185219],[77.598469,28.185447],[77.614861,28.182464],[77.635467,28.177127],[77.635586,28.185412],[77.635434,28.185641],[77.635594,28.196893],[77.635602,28.198555],[77.635123,28.19866],[77.634653,28.1988],[77.634173,28.198985],[77.633712,28.199207],[77.633264,28.199469],[77.633119,28.199571],[77.632865,28.199751],[77.632485,28.200071],[77.632103,28.200456],[77.631827,28.200791],[77.631553,28.201186],[77.631297,28.201646],[77.631113,28.202068],[77.630978,28.202478]],[[77.579161,28.202645],[77.579362,28.202959],[77.579918,28.202663],[77.579792,28.202393],[77.579544,28.202037],[77.5801,28.201646],[77.580222,28.201732],[77.580253,28.2017],[77.58019,28.201609],[77.580245,28.201477],[77.580396,28.201574],[77.580629,28.201444],[77.580426,28.201243],[77.580472,28.201193],[77.580731,28.20102],[77.580854,28.200916],[77.580915,28.20089],[77.581069,28.201029],[77.581084,28.200995],[77.581274,28.200833],[77.581195,28.200764],[77.581376,28.200581],[77.581424,28.200619],[77.581443,28.200574],[77.581361,28.200486],[77.580932,28.20084],[77.579992,28.201488],[77.579787,28.2013],[77.579923,28.201189],[77.579722,28.200889],[77.579795,28.200821],[77.579582,28.200593],[77.579379,28.200609],[77.579163,28.200392],[77.579879,28.199909],[77.579969,28.200005],[77.580364,28.199748],[77.580054,28.199387],[77.579876,28.199497],[77.579672,28.199354],[77.579792,28.199235],[77.579303,28.198791],[77.579413,28.198655],[77.579215,28.198484],[77.578964,28.198652],[77.578636,28.19836],[77.578273,28.198754],[77.577807,28.198434],[77.577767,28.198462],[77.577555,28.198491],[77.577557,28.19861],[77.577521,28.198635],[77.577339,28.19851],[77.577352,28.198461],[77.577243,28.198443],[77.57717,28.198393],[77.576707,28.198851],[77.57693,28.199095],[77.576774,28.199211],[77.576766,28.199196],[77.576669,28.199288],[77.576367,28.199511],[77.576392,28.199635],[77.576546,28.199761],[77.576255,28.199981],[77.576258,28.200064],[77.576502,28.200292],[77.576114,28.200719],[77.575588,28.200497],[77.575313,28.200173],[77.575096,28.200116],[77.574824,28.200274],[77.574874,28.200441],[77.57485,28.200521],[77.574847,28.200652],[77.574677,28.200655],[77.574298,28.200097],[77.574182,28.200126],[77.574029,28.200618],[77.573653,28.200631],[77.57362,28.200511],[77.573636,28.200941],[77.573735,28.201592],[77.573771,28.201596],[77.574461,28.201162],[77.574463,28.201178],[77.574999,28.2011],[77.57506,28.201282],[77.575399,28.201291],[77.575473,28.201329],[77.575552,28.201295],[77.575849,28.201298],[77.57587,28.201305],[77.575877,28.201347],[77.575941,28.20137],[77.575916,28.201491],[77.575969,28.201493],[77.575957,28.20158],[77.576248,28.201544],[77.576406,28.202107],[77.576474,28.202299],[77.576714,28.202274],[77.576746,28.202359],[77.577201,28.202303],[77.577298,28.202515],[77.577444,28.202641],[77.578226,28.20225],[77.578649,28.202123],[77.578716,28.202183],[77.578749,28.202164],[77.578974,28.202374],[77.579161,28.202645]],[[77.594048,28.198334],[77.594324,28.198669],[77.595295,28.198216],[77.595097,28.197963],[77.595621,28.197678],[77.59584,28.197938],[77.596418,28.197743],[77.596144,28.197405],[77.595971,28.19746],[77.595838,28.197308],[77.595609,28.197444],[77.595658,28.197603],[77.595485,28.197692],[77.595372,28.197546],[77.595301,28.197547],[77.595205,28.197337],[77.59532,28.197272],[77.595266,28.197169],[77.595053,28.197219],[77.59486,28.196817],[77.595233,28.196626],[77.594868,28.195985],[77.595163,28.195865],[77.594996,28.195656],[77.595035,28.195632],[77.594956,28.195509],[77.595427,28.195285],[77.596119,28.195034],[77.596024,28.194852],[77.596127,28.194804],[77.596181,28.194649],[77.596521,28.194545],[77.596661,28.194533],[77.59652,28.194267],[77.596018,28.19438],[77.595937,28.194376],[77.595882,28.194222],[77.595593,28.194299],[77.595377,28.193825],[77.595556,28.193796],[77.595554,28.193726],[77.595636,28.193691],[77.595544,28.193509],[77.595896,28.193359],[77.595985,28.193418],[77.596334,28.193294],[77.59627,28.193155],[77.596513,28.193036],[77.596415,28.192874],[77.596359,28.192826],[77.59625,28.192869],[77.596109,28.192662],[77.594954,28.193165],[77.594843,28.19299],[77.594899,28.192916],[77.594753,28.192849],[77.594719,28.192795],[77.594671,28.192811],[77.594637,28.192795],[77.594483,28.192875],[77.594212,28.192967],[77.594104,28.192803],[77.594115,28.192778],[77.594567,28.192531],[77.594367,28.192157],[77.594482,28.192094],[77.594405,28.191864],[77.594444,28.191731],[77.594567,28.191612],[77.594525,28.191589],[77.593834,28.19193],[77.593698,28.191924],[77.593295,28.191986],[77.593199,28.192034],[77.59302,28.191992],[77.593177,28.191788],[77.593005,28.191614],[77.59282,28.191726],[77.592643,28.191506],[77.592961,28.191297],[77.592878,28.191192],[77.592575,28.191364],[77.592547,28.19135],[77.592523,28.191283],[77.592524,28.191236],[77.59257,28.191164],[77.592848,28.191025],[77.593123,28.190832],[77.592958,28.190743],[77.592899,28.190692],[77.59284,28.190672],[77.592661,28.19067],[77.592516,28.19091],[77.592434,28.190913],[77.592322,28.19106],[77.592466,28.191222],[77.592465,28.191277],[77.592636,28.191578],[77.592819,28.191836],[77.592865,28.191951],[77.592822,28.192063],[77.592748,28.192129],[77.592648,28.192269],[77.592658,28.1924],[77.592717,28.192546],[77.592749,28.192681],[77.592638,28.192638],[77.592395,28.192631],[77.592073,28.192667],[77.591787,28.192845],[77.591645,28.192824],[77.591599,28.19258],[77.591416,28.192524],[77.591282,28.192538],[77.591009,28.192699],[77.590992,28.192806],[77.591074,28.192882],[77.59111,28.192983],[77.590881,28.193262],[77.590878,28.193399],[77.590843,28.193627],[77.591024,28.193868],[77.591224,28.194055],[77.591523,28.194455],[77.591651,28.194531],[77.591248,28.194706],[77.591284,28.194754],[77.591253,28.19478],[77.591421,28.195072],[77.59113,28.195161],[77.591299,28.195639],[77.591189,28.195643],[77.59125,28.195809],[77.591505,28.195792],[77.591559,28.195882],[77.591844,28.195842],[77.592005,28.196147],[77.592034,28.196135],[77.592197,28.196421],[77.592859,28.196189],[77.592977,28.196392],[77.5931,28.196328],[77.592992,28.196091],[77.593556,28.195956],[77.593889,28.19644],[77.593923,28.196732],[77.594208,28.196679],[77.594295,28.196804],[77.594388,28.197005],[77.594223,28.19707],[77.594225,28.197185],[77.594467,28.197591],[77.594558,28.197575],[77.594767,28.197981],[77.594362,28.19818],[77.593827,28.197226],[77.593589,28.197402],[77.593918,28.197845],[77.593774,28.1979],[77.594048,28.198334]],[[77.613031,28.196879],[77.613106,28.196938],[77.61364,28.196595],[77.613184,28.196275],[77.613076,28.196365],[77.612967,28.196182],[77.613214,28.196002],[77.613277,28.196056],[77.613328,28.195986],[77.613657,28.196225],[77.61394,28.196035],[77.61366,28.195884],[77.61373,28.195787],[77.613886,28.195859],[77.613992,28.195694],[77.614158,28.195807],[77.614255,28.195712],[77.614065,28.195558],[77.614006,28.19561],[77.613659,28.195306],[77.613702,28.195266],[77.613565,28.195128],[77.613318,28.195344],[77.613151,28.195153],[77.613095,28.195191],[77.613288,28.195414],[77.613175,28.195495],[77.613132,28.195435],[77.613008,28.195489],[77.613105,28.195621],[77.613083,28.195783],[77.613072,28.195774],[77.612894,28.195939],[77.613005,28.196025],[77.612918,28.196082],[77.612758,28.195928],[77.612695,28.195924],[77.613175,28.196761],[77.613031,28.196879]],[[77.605739,28.195209],[77.605176,28.195465],[77.605372,28.195759],[77.60461,28.196121],[77.604358,28.195858],[77.604434,28.195807],[77.604186,28.195548],[77.604666,28.19526],[77.604595,28.195162],[77.604864,28.195062],[77.604713,28.194893],[77.604743,28.194882],[77.604792,28.194932],[77.604846,28.194844],[77.605085,28.194756],[77.604874,28.194386],[77.604873,28.194199],[77.605049,28.194064],[77.605242,28.194014],[77.60526,28.194032],[77.605351,28.193982],[77.605347,28.193967],[77.605447,28.193871],[77.605444,28.193859],[77.605571,28.193805],[77.605511,28.19366],[77.605538,28.193652],[77.60538,28.193367],[77.604904,28.1935],[77.604731,28.193579],[77.604717,28.193558],[77.604587,28.193644],[77.604443,28.193444],[77.604327,28.193511],[77.604245,28.193439],[77.603948,28.193582],[77.603682,28.193152],[77.603674,28.193083],[77.603689,28.193046],[77.60379,28.19299],[77.603775,28.192975],[77.603958,28.192909],[77.604085,28.192823],[77.604021,28.192736],[77.604091,28.19266],[77.60421,28.192766],[77.604571,28.192593],[77.604318,28.192289],[77.604165,28.192346],[77.60415,28.192324],[77.603936,28.192389],[77.603818,28.192276],[77.6035,28.192444],[77.603413,28.192403],[77.603414,28.192378],[77.603388,28.192391],[77.602778,28.192369],[77.602107,28.192717],[77.60197,28.192863],[77.601875,28.192921],[77.601688,28.192812],[77.60161,28.192878],[77.601738,28.193003],[77.601324,28.193239],[77.601089,28.193039],[77.601075,28.193011],[77.601064,28.193018],[77.600948,28.19292],[77.600738,28.193061],[77.600828,28.193205],[77.60085,28.19332],[77.600764,28.19348],[77.600464,28.193696],[77.600354,28.193756],[77.599956,28.193884],[77.599709,28.193831],[77.599506,28.193446],[77.599169,28.193423],[77.598831,28.193619],[77.598872,28.194272],[77.59941,28.194291],[77.599478,28.194318],[77.599265,28.194548],[77.599651,28.194643],[77.599589,28.194715],[77.600035,28.194985],[77.60021,28.194588],[77.600255,28.194528],[77.600564,28.194441],[77.600778,28.194636],[77.600888,28.194527],[77.601331,28.194653],[77.601501,28.194853],[77.601468,28.194924],[77.601276,28.19487],[77.601235,28.194955],[77.60121,28.195137],[77.601279,28.195203],[77.601269,28.195216],[77.601392,28.195313],[77.601249,28.195477],[77.601658,28.195769],[77.601866,28.19594],[77.601879,28.195927],[77.601925,28.19596],[77.602106,28.195796],[77.602238,28.195882],[77.602537,28.195573],[77.60275,28.195696],[77.603307,28.196083],[77.603542,28.195985],[77.603798,28.196232],[77.603983,28.196072],[77.604212,28.196258],[77.604454,28.196093],[77.604598,28.196194],[77.605914,28.195527],[77.605739,28.195209]],[[77.604573,28.191544],[77.604906,28.191967],[77.605316,28.191759],[77.605771,28.191617],[77.605659,28.191466],[77.605551,28.19121],[77.605315,28.191033],[77.604968,28.191178],[77.604655,28.19139],[77.604573,28.191544]],[[77.573548,28.199891],[77.573449,28.199877],[77.57232,28.200254],[77.572508,28.200809],[77.572964,28.200817],[77.573079,28.201448],[77.573357,28.201385],[77.573587,28.201376],[77.573584,28.201334],[77.573603,28.201329],[77.573637,28.201582],[77.573703,28.201589],[77.573605,28.200942],[77.573548,28.199891]],[[77.626617,28.185337],[77.626954,28.185637],[77.62715,28.185453],[77.626766,28.185079],[77.626543,28.18523],[77.626232,28.184921],[77.626414,28.184722],[77.62612,28.184459],[77.626511,28.184043],[77.626689,28.184186],[77.626702,28.184174],[77.626787,28.184243],[77.627247,28.183833],[77.627458,28.183958],[77.627489,28.183937],[77.627728,28.184121],[77.627339,28.184484],[77.627149,28.184634],[77.627196,28.18471],[77.627755,28.185195],[77.627921,28.185011],[77.628052,28.184926],[77.628137,28.185157],[77.628258,28.18535],[77.628482,28.185256],[77.628582,28.185246],[77.62881,28.185158],[77.628938,28.185253],[77.628953,28.185232],[77.629076,28.185449],[77.629273,28.185175],[77.629303,28.185103],[77.629246,28.185004],[77.629341,28.184959],[77.629283,28.184803],[77.629448,28.184674],[77.629397,28.184584],[77.62947,28.184477],[77.629446,28.184448],[77.629458,28.184427],[77.629413,28.184409],[77.629344,28.184327],[77.629327,28.184374],[77.629219,28.184311],[77.629203,28.184255],[77.629211,28.184222],[77.629184,28.184189],[77.629091,28.183928],[77.628964,28.1837],[77.629037,28.183618],[77.629121,28.183696],[77.629153,28.183748],[77.629167,28.183739],[77.629306,28.183869],[77.629232,28.183915],[77.629314,28.184023],[77.629402,28.183958],[77.629458,28.184012],[77.629473,28.183994],[77.629431,28.184045],[77.629573,28.184261],[77.629607,28.184233],[77.629698,28.183931],[77.629602,28.18384],[77.629642,28.183792],[77.629757,28.183856],[77.62988,28.183889],[77.630007,28.183893],[77.630132,28.18387],[77.630297,28.183785],[77.630631,28.183524],[77.630716,28.18344],[77.630775,28.183339],[77.630804,28.183229],[77.630801,28.183116],[77.630767,28.183007],[77.630661,28.182867],[77.630561,28.182796],[77.63046,28.182756],[77.630452,28.18272],[77.630377,28.182657],[77.630311,28.18257],[77.630354,28.182511],[77.630316,28.182443],[77.63036,28.182388],[77.630395,28.182418],[77.630513,28.182324],[77.630585,28.182367],[77.630629,28.18233],[77.630581,28.182268],[77.630674,28.181979],[77.630541,28.181909],[77.630546,28.181898],[77.6305,28.181871],[77.630771,28.181417],[77.630782,28.181374],[77.630778,28.181303],[77.63068,28.181016],[77.630577,28.180834],[77.630537,28.180605],[77.630431,28.180361],[77.630384,28.18037],[77.630231,28.180479],[77.630328,28.180616],[77.630029,28.180805],[77.629845,28.180875],[77.629772,28.180771],[77.629748,28.180757],[77.629598,28.180895],[77.629474,28.180722],[77.629349,28.180446],[77.629394,28.180414],[77.629274,28.180294],[77.629297,28.180229],[77.629092,28.180105],[77.628894,28.180054],[77.628695,28.180028],[77.628569,28.180081],[77.628405,28.180063],[77.628323,28.180101],[77.628283,28.180038],[77.628028,28.180143],[77.627875,28.18011],[77.627406,28.18034],[77.627362,28.180411],[77.627203,28.180479],[77.627152,28.180466],[77.627162,28.180374],[77.62723,28.18034],[77.62719,28.180261],[77.627233,28.18021],[77.627301,28.18019],[77.627079,28.179855],[77.626895,28.180012],[77.626872,28.180012],[77.626841,28.179942],[77.626705,28.179798],[77.626563,28.179909],[77.626804,28.18024],[77.626842,28.180379],[77.626525,28.180528],[77.626644,28.180622],[77.62666,28.180762],[77.626232,28.180795],[77.62621,28.180699],[77.626275,28.180742],[77.626294,28.180725],[77.626126,28.180565],[77.625885,28.180576],[77.625855,28.180628],[77.625873,28.180811],[77.626207,28.180832],[77.626215,28.18091],[77.626157,28.181094],[77.626238,28.181116],[77.626244,28.181171],[77.626432,28.181175],[77.626446,28.181336],[77.62651,28.181324],[77.626516,28.181387],[77.626712,28.181423],[77.626674,28.181215],[77.626926,28.181218],[77.626923,28.181157],[77.626948,28.181103],[77.627053,28.181212],[77.62702,28.18125],[77.6271,28.181318],[77.627119,28.181318],[77.627129,28.181291],[77.627183,28.181348],[77.627026,28.181464],[77.627082,28.181576],[77.626976,28.181779],[77.626941,28.181884],[77.626837,28.18207],[77.626867,28.182104],[77.626846,28.182245],[77.626584,28.18213],[77.626295,28.182602],[77.625946,28.182852],[77.625963,28.182873],[77.625936,28.182891],[77.626209,28.18319],[77.626354,28.183104],[77.626419,28.183171],[77.626134,28.183209],[77.62621,28.183452],[77.625913,28.183672],[77.625801,28.183737],[77.625548,28.183499],[77.625369,28.183591],[77.625563,28.183902],[77.625381,28.184033],[77.625304,28.183965],[77.625211,28.184051],[77.625371,28.184196],[77.62517,28.18441],[77.625082,28.184359],[77.625054,28.1844],[77.625122,28.184461],[77.624828,28.18477],[77.62513,28.184968],[77.625017,28.185093],[77.62528,28.185271],[77.625486,28.184984],[77.625842,28.184587],[77.626389,28.185138],[77.626617,28.185337]]],[[[77.600298,28.165052],[77.599985,28.165125],[77.600238,28.164973],[77.600298,28.165052]]],[[[77.612076,28.137802],[77.611992,28.137894],[77.611839,28.137798],[77.611943,28.137715],[77.612076,28.137802]]],[[[77.587044,28.130406],[77.592435,28.131979],[77.592676,28.132219],[77.59173,28.132955],[77.592928,28.134044],[77.592017,28.134526],[77.590569,28.135192],[77.589531,28.135619],[77.588456,28.136022],[77.587378,28.13635],[77.586444,28.136583],[77.585479,28.136779],[77.58544,28.136689],[77.585606,28.136235],[77.585666,28.135723],[77.586091,28.133719],[77.586358,28.132252],[77.587044,28.130406]]],[[[77.593863,28.132006],[77.593553,28.13188],[77.592527,28.131664],[77.58713,28.13009],[77.587205,28.129845],[77.587376,28.129759],[77.587464,28.12967],[77.587566,28.129696],[77.587693,28.129701],[77.587818,28.129677],[77.587932,28.129627],[77.588563,28.129079],[77.588678,28.129095],[77.588805,28.129086],[77.588981,28.12902],[77.589079,28.128945],[77.58928,28.128738],[77.589358,28.128583],[77.589366,28.128414],[77.589303,28.128255],[77.589218,28.128153],[77.589225,28.12799],[77.589191,28.127881],[77.589127,28.127783],[77.588877,28.127543],[77.588877,28.127417],[77.588814,28.127257],[77.588551,28.126991],[77.588443,28.126913],[77.588327,28.126867],[77.588119,28.126838],[77.588249,28.126459],[77.588263,28.126364],[77.589389,28.126293],[77.592572,28.126183],[77.593808,28.126285],[77.594635,28.126426],[77.596198,28.126927],[77.597813,28.127569],[77.599383,28.128356],[77.600548,28.129016],[77.599835,28.130433],[77.599811,28.130544],[77.599827,28.130621],[77.598849,28.130955],[77.597931,28.131344],[77.596828,28.130288],[77.595693,28.131169],[77.595286,28.130789],[77.593863,28.132006]]],[[[77.601577,28.129576],[77.602618,28.12988],[77.603617,28.129887],[77.602012,28.130072],[77.600631,28.130392],[77.60117,28.129324],[77.601577,28.129576]]],[[[77.646688,28.123728],[77.646851,28.124245],[77.64688,28.124447],[77.646857,28.124651],[77.646806,28.124786],[77.64632,28.125602],[77.645487,28.127057],[77.644948,28.12795],[77.644581,28.128614],[77.64455,28.128739],[77.624659,28.129126],[77.603456,28.129443],[77.602459,28.129323],[77.601889,28.129126],[77.601374,28.128914],[77.602684,28.126289],[77.604109,28.123507],[77.605555,28.120603],[77.607722,28.116313],[77.609434,28.11361],[77.612022,28.109443],[77.612762,28.108206],[77.612796,28.108075],[77.612778,28.107988],[77.612751,28.10794],[77.613759,28.107242],[77.613798,28.107244],[77.613941,28.107401],[77.6144,28.108321],[77.614572,28.108612],[77.61468,28.108629],[77.615205,28.108465],[77.615649,28.108258],[77.61608,28.108031],[77.61611,28.108028],[77.616234,28.108148],[77.616263,28.108158],[77.617009,28.10789],[77.617399,28.107693],[77.617445,28.10771],[77.6175,28.10777],[77.617982,28.108741],[77.618338,28.108591],[77.618886,28.108452],[77.618991,28.108379],[77.618971,28.108211],[77.618815,28.108054],[77.619535,28.107532],[77.619917,28.107605],[77.620265,28.108182],[77.620318,28.108205],[77.620933,28.107736],[77.621513,28.108131],[77.621796,28.108338],[77.621866,28.108429],[77.621969,28.108492],[77.622266,28.1083],[77.622606,28.108547],[77.622662,28.108563],[77.623174,28.108151],[77.623662,28.107821],[77.62406,28.107678],[77.624348,28.107608],[77.624802,28.10754],[77.62523,28.108001],[77.625513,28.108348],[77.62569,28.108639],[77.626143,28.109262],[77.626246,28.10936],[77.627132,28.108922],[77.627138,28.108874],[77.627103,28.108799],[77.626679,28.108173],[77.626623,28.107942],[77.626744,28.107857],[77.627466,28.107473],[77.627781,28.107264],[77.628087,28.106951],[77.628351,28.106408],[77.629254,28.105508],[77.629428,28.105537],[77.629556,28.105598],[77.630026,28.10529],[77.630626,28.104852],[77.630678,28.104875],[77.630858,28.105079],[77.631167,28.105563],[77.631382,28.105952],[77.633282,28.105426],[77.633659,28.105264],[77.633797,28.105168],[77.633796,28.105149],[77.633468,28.10447],[77.634132,28.104225],[77.63425,28.104143],[77.634386,28.104008],[77.634539,28.103941],[77.634531,28.103888],[77.634438,28.103677],[77.634443,28.103579],[77.634713,28.103157],[77.634733,28.103127],[77.63533,28.102721],[77.637152,28.102829],[77.63735,28.102861],[77.637643,28.103086],[77.638113,28.103487],[77.638351,28.103661],[77.638614,28.103937],[77.63911,28.10438],[77.639622,28.104901],[77.640522,28.105742],[77.641764,28.106973],[77.641887,28.107137],[77.642604,28.107746],[77.643992,28.108806],[77.644017,28.108889],[77.643869,28.109791],[77.643617,28.110046],[77.643119,28.110443],[77.642804,28.110723],[77.642562,28.111002],[77.642517,28.111132],[77.642261,28.1116],[77.642262,28.111619],[77.642671,28.112088],[77.642375,28.112276],[77.642347,28.112343],[77.64239,28.11256],[77.642857,28.112255],[77.643086,28.112437],[77.643353,28.112735],[77.643712,28.113423],[77.644111,28.113561],[77.64539,28.113546],[77.645791,28.11363],[77.646137,28.113639],[77.646546,28.113618],[77.648175,28.113944],[77.648426,28.114134],[77.648872,28.114321],[77.649172,28.114474],[77.649276,28.11446],[77.64935,28.114422],[77.649593,28.114185],[77.649798,28.114126],[77.65007,28.114249],[77.650245,28.11435],[77.650307,28.114343],[77.650401,28.114255],[77.650484,28.114253],[77.650856,28.114509],[77.651087,28.114639],[77.651466,28.114907],[77.651511,28.114984],[77.649817,28.116154],[77.649021,28.11665],[77.648815,28.116809],[77.648651,28.116985],[77.648427,28.11733],[77.648338,28.117582],[77.648273,28.118046],[77.648365,28.118837],[77.648344,28.119203],[77.648333,28.119254],[77.648175,28.119396],[77.647742,28.117808],[77.646905,28.117031],[77.646472,28.116973],[77.646274,28.117225],[77.645758,28.116834],[77.645497,28.117173],[77.644833,28.116833],[77.644388,28.117267],[77.644877,28.117598],[77.644518,28.118345],[77.644177,28.118972],[77.645839,28.120146],[77.646385,28.120441],[77.646618,28.120264],[77.646885,28.120476],[77.646267,28.120998],[77.646171,28.121143],[77.646141,28.121312],[77.646158,28.121517],[77.646604,28.123305],[77.646688,28.123728]],[[77.615802,28.124167],[77.616961,28.123479],[77.616572,28.122918],[77.61702,28.122702],[77.617458,28.123358],[77.6178,28.123241],[77.618137,28.123691],[77.618308,28.123578],[77.618098,28.123305],[77.618268,28.123191],[77.618805,28.124],[77.619437,28.123642],[77.619621,28.123846],[77.6198,28.123721],[77.620041,28.12401],[77.62132,28.123133],[77.621566,28.123422],[77.622111,28.123019],[77.622354,28.123271],[77.623523,28.122539],[77.623278,28.122219],[77.624003,28.121918],[77.624855,28.121492],[77.622016,28.120802],[77.621314,28.120727],[77.621111,28.120518],[77.62123,28.120252],[77.621411,28.120103],[77.621857,28.120373],[77.62195,28.120493],[77.621996,28.120457],[77.622268,28.120622],[77.622415,28.120752],[77.622445,28.120729],[77.622474,28.120747],[77.622521,28.120675],[77.622561,28.120646],[77.622547,28.120634],[77.622704,28.12039],[77.623134,28.120095],[77.622988,28.119762],[77.622823,28.119805],[77.622803,28.119747],[77.62299,28.119618],[77.623194,28.119837],[77.623723,28.119437],[77.623361,28.11905],[77.623144,28.119197],[77.623282,28.119354],[77.622808,28.119688],[77.622769,28.119645],[77.622716,28.11949],[77.622767,28.119451],[77.622932,28.119387],[77.622912,28.119341],[77.622958,28.119306],[77.622677,28.118979],[77.622915,28.118884],[77.622816,28.118691],[77.623381,28.11834],[77.622795,28.117735],[77.62337,28.11728],[77.622795,28.116619],[77.622686,28.116684],[77.62291,28.116916],[77.622447,28.117244],[77.622774,28.117682],[77.622377,28.117985],[77.622153,28.117739],[77.621678,28.118124],[77.621561,28.117941],[77.621905,28.117668],[77.621964,28.117641],[77.62174,28.117316],[77.621572,28.117409],[77.621365,28.117173],[77.621067,28.117295],[77.621145,28.117432],[77.620674,28.11761],[77.620561,28.117354],[77.620194,28.117538],[77.620099,28.117441],[77.619794,28.117611],[77.619681,28.117529],[77.619106,28.118116],[77.618858,28.118448],[77.618592,28.118637],[77.618272,28.118425],[77.6182,28.118436],[77.618069,28.118127],[77.617778,28.117744],[77.617424,28.118021],[77.617541,28.11814],[77.617617,28.118301],[77.617267,28.11854],[77.617134,28.118528],[77.617074,28.118584],[77.616399,28.119033],[77.616135,28.118805],[77.615853,28.118989],[77.615944,28.119073],[77.615836,28.119205],[77.615742,28.119185],[77.615644,28.119079],[77.615458,28.119181],[77.615501,28.119236],[77.615482,28.119313],[77.615691,28.119376],[77.615061,28.119463],[77.615182,28.119696],[77.615402,28.119617],[77.615486,28.11972],[77.615798,28.119705],[77.615775,28.119402],[77.617805,28.120019],[77.617838,28.120043],[77.617811,28.12009],[77.617749,28.120042],[77.617454,28.120208],[77.61779,28.12094],[77.617214,28.121469],[77.617067,28.1214],[77.616664,28.12163],[77.616821,28.121745],[77.616212,28.122175],[77.615879,28.121992],[77.615315,28.122344],[77.615524,28.122539],[77.615036,28.122794],[77.61512,28.122894],[77.615133,28.122885],[77.615396,28.123318],[77.615474,28.123284],[77.615667,28.123595],[77.615183,28.123867],[77.615317,28.124075],[77.615675,28.123927],[77.615802,28.124167]],[[77.613974,28.116967],[77.613488,28.117532],[77.613645,28.11768],[77.613742,28.1176],[77.613906,28.117712],[77.613852,28.117806],[77.613886,28.117827],[77.613876,28.117843],[77.613963,28.11793],[77.613746,28.118213],[77.61363,28.118147],[77.61341,28.118391],[77.613511,28.118468],[77.613393,28.118579],[77.613835,28.119059],[77.613978,28.118974],[77.614427,28.119497],[77.614851,28.119459],[77.615217,28.119402],[77.615065,28.119177],[77.614598,28.118651],[77.614802,28.11842],[77.61435,28.118062],[77.614656,28.11766],[77.614825,28.117484],[77.613974,28.116967]]],[[[77.652803,28.123711],[77.651383,28.126527],[77.650904,28.127413],[77.650304,28.128624],[77.645313,28.128723],[77.645581,28.128239],[77.646119,28.127349],[77.646954,28.125891],[77.647454,28.12505],[77.647556,28.124776],[77.647594,28.124432],[77.647551,28.124123],[77.647386,28.123601],[77.647301,28.123173],[77.646973,28.121894],[77.646856,28.121368],[77.648785,28.119754],[77.648966,28.119557],[77.649017,28.119438],[77.64905,28.119286],[77.649078,28.118831],[77.648992,28.118117],[77.648992,28.117972],[77.649057,28.117634],[77.649238,28.117344],[77.649321,28.117254],[77.649455,28.117151],[77.650242,28.116662],[77.651828,28.115569],[77.651885,28.115706],[77.652036,28.11596],[77.652243,28.116246],[77.652327,28.116569],[77.652378,28.11669],[77.653541,28.118224],[77.65352,28.118232],[77.653364,28.11804],[77.650867,28.119736],[77.650765,28.119509],[77.650476,28.119629],[77.650452,28.119605],[77.650135,28.11977],[77.650046,28.119704],[77.649887,28.119832],[77.649917,28.119861],[77.649569,28.120005],[77.649553,28.120042],[77.6495,28.120034],[77.64939,28.12008],[77.649669,28.120426],[77.649663,28.120436],[77.650106,28.120968],[77.649673,28.121106],[77.649773,28.121218],[77.649391,28.12144],[77.64966,28.121894],[77.649021,28.122149],[77.649276,28.122689],[77.649678,28.123268],[77.650057,28.123061],[77.650167,28.123371],[77.65083,28.122708],[77.650883,28.122748],[77.651041,28.122568],[77.650999,28.122539],[77.651241,28.122296],[77.651508,28.122546],[77.651531,28.122527],[77.651551,28.122559],[77.652101,28.121932],[77.65321,28.122369],[77.65359,28.122075],[77.65247,28.121166],[77.65201,28.121533],[77.650795,28.120726],[77.651272,28.12043],[77.651814,28.120778],[77.651955,28.120603],[77.651398,28.120285],[77.652116,28.1198],[77.652263,28.12001],[77.653513,28.119387],[77.653251,28.119046],[77.65331,28.118941],[77.653174,28.118723],[77.653193,28.118673],[77.653654,28.118359],[77.653556,28.118229],[77.653595,28.118213],[77.653681,28.118358],[77.653492,28.118521],[77.65322,28.118673],[77.653201,28.118722],[77.653337,28.11894],[77.653278,28.119045],[77.653791,28.119714],[77.654123,28.120031],[77.654467,28.120404],[77.654283,28.12078],[77.654211,28.12083],[77.654213,28.120873],[77.654228,28.120889],[77.653056,28.123187],[77.652803,28.123711]]],[[[77.600914,28.125448],[77.602337,28.125438],[77.60077,28.128565],[77.599999,28.1281],[77.598843,28.127487],[77.597543,28.126855],[77.596224,28.126295],[77.595644,28.126076],[77.59474,28.1258],[77.593451,28.125663],[77.59929,28.12546],[77.600914,28.125448]]],[[[77.600478,28.124762],[77.590373,28.125113],[77.588663,28.12522],[77.589444,28.122865],[77.589936,28.121441],[77.589948,28.12136],[77.589934,28.121287],[77.590144,28.120655],[77.590192,28.120611],[77.590237,28.120532],[77.591236,28.117538],[77.592359,28.114289],[77.592656,28.113351],[77.592767,28.112893],[77.592799,28.112698],[77.592789,28.112402],[77.59274,28.112078],[77.59266,28.111815],[77.59257,28.111585],[77.592262,28.110998],[77.591921,28.110572],[77.591692,28.110358],[77.591514,28.110217],[77.58977,28.108911],[77.586337,28.106261],[77.58756,28.105706],[77.587979,28.106551],[77.588352,28.107246],[77.58865,28.107908],[77.589202,28.10779],[77.58969,28.107639],[77.590059,28.107411],[77.590048,28.107398],[77.590059,28.107392],[77.589878,28.107179],[77.590374,28.106863],[77.590895,28.107232],[77.590999,28.107372],[77.591265,28.107358],[77.592353,28.108306],[77.593064,28.108962],[77.59407,28.109778],[77.594828,28.110329],[77.595205,28.110736],[77.595348,28.110762],[77.595487,28.110753],[77.595606,28.110811],[77.596134,28.111274],[77.596566,28.111769],[77.596776,28.112071],[77.597214,28.112775],[77.597329,28.113133],[77.597508,28.113455],[77.597707,28.113739],[77.598144,28.1141],[77.59838,28.114323],[77.59854,28.114585],[77.59889,28.114923],[77.598973,28.115098],[77.59911,28.115468],[77.599399,28.115921],[77.599937,28.116527],[77.600539,28.116961],[77.600945,28.117376],[77.601334,28.117881],[77.602224,28.118715],[77.602802,28.118171],[77.602791,28.118162],[77.602802,28.118152],[77.602527,28.117925],[77.603,28.117461],[77.604232,28.116181],[77.604834,28.115623],[77.604931,28.115508],[77.605385,28.11487],[77.605571,28.114719],[77.605695,28.114596],[77.606426,28.11351],[77.606452,28.113419],[77.606504,28.113327],[77.606687,28.113064],[77.607473,28.11215],[77.607738,28.111899],[77.607758,28.111865],[77.60774,28.111785],[77.607627,28.111622],[77.608316,28.111097],[77.608485,28.111125],[77.608507,28.111113],[77.608749,28.110884],[77.609658,28.110133],[77.611306,28.10901],[77.611302,28.108901],[77.611742,28.108581],[77.60881,28.113305],[77.607087,28.116027],[77.604906,28.120344],[77.60346,28.123248],[77.602688,28.124751],[77.600478,28.124762]]]]},"properties":{"objectid":2,"total_percentage":11.85359287,"authority":"YEIDA","category":"airport-masterplan","execution_stage":"planning"}}]}
