{"type":"FeatureCollection","features":[{"type":"Feature","geometry":{"type":"Polygon","coordinates":[[[77.535562,28.319983],[77.534419,28.32053],[77.533604,28.319225],[77.534784,28.318738],[77.535562,28.319983]]]},"properties":{"objectid":6256,"uniqueplotid":"PLNGRESIDENTIAL6256","plotmap_id":"SECTOR-22D_GH-1C/1_GROUP HOUSING_RESI","plotidentificationnumber":"GH-1C/1","plotno":"GH-1C/1","industrysector":"SECTOR-22D","block":"GROUP HOUSING","plotsize":"5 ACRE","landuse_type":"RESIDENTIAL","landuse_subcategory":"RESIDENTIAL","investment":0,"employment":0,"landallotementstatus":"VACANT","landallotementtype":"VACANT","village_name":"Salarpur","khasra_no":"224,207,213,213M,206,212,225,229","longitude":77.53458520999999,"latitude":28.319627360000002,"authority":"YEIDA","category":"residential","execution_stage":"vacant"}},{"type":"Feature","geometry":{"type":"Polygon","coordinates":[[[77.534419,28.32053],[77.533326,28.321052],[77.532475,28.319691],[77.533604,28.319225],[77.534419,28.32053]]]},"properties":{"objectid":6258,"uniqueplotid":"PLNGRESIDENTIAL6258","plotmap_id":"SECTOR-22D_GH-1B/1_GROUP HOUSING_RESI","plotidentificationnumber":"GH-1B/1","plotno":"GH-1B/1","industrysector":"SECTOR-22D","block":"GROUP HOUSING","plotsize":"5 ACRE","landuse_type":"RESIDENTIAL","landuse_subcategory":"RESIDENTIAL","investment":0,"employment":0,"landallotementstatus":"VACANT","landallotementtype":"VACANT","village_name":"Salarpur","khasra_no":"228,207,230,204,206,201,227,203,205,225,202,202M,229","longitude":77.53344956,"latitude":28.32013239,"authority":"YEIDA","category":"residential","execution_stage":"vacant"}},{"type":"Feature","geometry":{"type":"Polygon","coordinates":[[[77.53092,28.320003],[77.532355,28.319498],[77.533326,28.321052],[77.531489,28.32193],[77.530995,28.320395],[77.53092,28.320003]]]},"properties":{"objectid":6260,"uniqueplotid":"PLNGRESIDENTIAL6260","plotmap_id":"SECTOR-22D_GH-1A/1_GROUP HOUSING_RESI","plotidentificationnumber":"GH-1A/1","plotno":"GH-1A/1","industrysector":"SECTOR-22D","block":"GROUP HOUSING","plotsize":"10 ACRE","landuse_type":"RESIDENTIAL","landuse_subcategory":"RESIDENTIAL","investment":0,"employment":0,"landallotementstatus":"VACANT","landallotementtype":"VACANT","village_name":"Salarpur","khasra_no":"177,176,230,171,172,206,193,201,203,231,191,192,202,202M,229","longitude":77.53204337,"latitude":28.32067979,"authority":"YEIDA","category":"residential","execution_stage":"vacant"}},{"type":"Feature","geometry":{"type":"Polygon","coordinates":[[[77.530723,28.318646],[77.531624,28.31833],[77.532355,28.319498],[77.53092,28.320003],[77.530712,28.318913],[77.530723,28.318646]]]},"properties":{"objectid":6261,"uniqueplotid":"PLNGRESIDENTIAL6261","plotmap_id":"SECTOR-22D_GH-1A/2_GROUP HOUSING_RESI","plotidentificationnumber":"GH-1A/2","plotno":"GH-1A/2","industrysector":"SECTOR-22D","block":"GROUP HOUSING","plotsize":"5 ACRE","landuse_type":"RESIDENTIAL","landuse_subcategory":"RESIDENTIAL","investment":0,"employment":0,"landallotementstatus":"VACANT","landallotementtype":"VACANT","village_name":"Salarpur","khasra_no":"200,198,194,193,197,201,195,196,199,202,202M","longitude":77.53144757000001,"latitude":28.319150689999997,"authority":"YEIDA","category":"residential","execution_stage":"vacant"}},{"type":"Feature","geometry":{"type":"Polygon","coordinates":[[[77.540335,28.330148],[77.538423,28.332533],[77.537883,28.332053],[77.536973,28.331171],[77.539312,28.329341],[77.540335,28.330148]]]},"properties":{"objectid":6263,"uniqueplotid":"PLNGRESIDENTIAL6263","plotmap_id":"SECTOR-22A_GH-2/2_GROUP HOUSING_RESI","plotidentificationnumber":"GH-2/2","plotno":"GH-2/2","industrysector":"SECTOR-22A","block":"GROUP HOUSING","plotsize":"49900 SQMT","landuse_type":"RESIDENTIAL","landuse_subcategory":"RESIDENTIAL","investment":0,"employment":0,"landallotementstatus":"VACANT","landallotementtype":"VACANT","village_name":"Salarpur","khasra_no":"394,398,416,421,399,415,413,356,391,393,426,417,397,423,395,396,424,422,420,419,414,418,374","longitude":77.53872823,"latitude":28.33099776,"authority":"YEIDA","category":"residential","execution_stage":"vacant"}},{"type":"Feature","geometry":{"type":"Polygon","coordinates":[[[77.54593,28.334724],[77.546025,28.335115],[77.546002,28.335376],[77.545949,28.335581],[77.545617,28.336619],[77.545374,28.337256],[77.544683,28.336947],[77.543073,28.336031],[77.54284,28.335892],[77.542161,28.335441],[77.541421,28.334924],[77.543192,28.333245],[77.54593,28.334724]]]},"properties":{"objectid":6264,"uniqueplotid":"PLNGRESIDENTIAL6264","plotmap_id":"SECTOR-22A_GH-1_GROUP HOUSING_RESI","plotidentificationnumber":"GH-1","plotno":"GH-1","industrysector":"SECTOR-22A","block":"GROUP HOUSING","plotsize":"25 ACRE","landuse_type":"RESIDENTIAL","landuse_subcategory":"RESIDENTIAL","investment":0,"employment":0,"landallotementstatus":"VACANT","landallotementtype":"VACANT","village_name":"Jaganpur Afzalpur,Salarpur","khasra_no":"490,N/F,367,493,492,445,445M,450,447,453,454,443,443M,448,451,449,452,464,457,455,456,497","longitude":77.54422002,"latitude":28.33550686,"authority":"YEIDA","category":"residential","execution_stage":"vacant"}},{"type":"Feature","geometry":{"type":"Polygon","coordinates":[[[77.534958,28.326662],[77.533693,28.327223],[77.533308,28.326617],[77.532553,28.325238],[77.532273,28.324609],[77.534696,28.323428],[77.536164,28.326127],[77.534958,28.326662]]]},"properties":{"objectid":6266,"uniqueplotid":"PLNGRESIDENTIAL6266","plotmap_id":"SECTOR-22A_GH-4_GROUP HOUSING_RESI","plotidentificationnumber":"GH-4","plotno":"GH-4","industrysector":"SECTOR-22A","block":"GROUP HOUSING","plotsize":"21 ACRE","landuse_type":"RESIDENTIAL","landuse_subcategory":"RESIDENTIAL","investment":0,"employment":0,"landallotementstatus":"VACANT","landallotementtype":"VACANT","village_name":"Salarpur","khasra_no":"279,276,376,250,250M,249,72,375,248,141,240,142,143,118,237,247,275,277,251,278,374,119","longitude":77.53416838,"latitude":28.325265939999998,"authority":"YEIDA","category":"residential","execution_stage":"vacant"}},{"type":"Feature","geometry":{"type":"Polygon","coordinates":[[[77.536781,28.325581],[77.536164,28.326127],[77.534545,28.323173],[77.536946,28.322084],[77.537675,28.321579],[77.538011,28.321401],[77.539221,28.323521],[77.538878,28.323659],[77.538596,28.323118],[77.537513,28.323577],[77.537819,28.324263],[77.537391,28.324511],[77.536601,28.324792],[77.536781,28.325581]]]},"properties":{"objectid":6267,"uniqueplotid":"PLNGRESIDENTIAL6267","plotmap_id":"SECTOR-22A_GH-5_GROUP HOUSING_RESI","plotidentificationnumber":"GH-5","plotno":"GH-5","industrysector":"SECTOR-22A","block":"GROUP HOUSING","plotsize":"24 ACRE","landuse_type":"RESIDENTIAL","landuse_subcategory":"RESIDENTIAL","investment":0,"employment":0,"landallotementstatus":"VACANT","landallotementtype":"VACANT","village_name":"Salarpur","khasra_no":"272,279,276,274,252,245,256,267,243,246,244,270,271,241,240,254,255,253,273,247,275,242,277,251,278","longitude":77.53646708,"latitude":28.323721149999997,"authority":"YEIDA","category":"residential","execution_stage":"vacant"}},{"type":"Feature","geometry":{"type":"Polygon","coordinates":[[[77.539786,28.323219],[77.539325,28.323459],[77.5389,28.322711],[77.540143,28.322224],[77.539855,28.32166],[77.539025,28.321981],[77.538596,28.321165],[77.53897,28.321066],[77.539592,28.320951],[77.539989,28.32085],[77.540533,28.320631],[77.540428,28.320435],[77.541022,28.320175],[77.540848,28.319879],[77.541573,28.31954],[77.541478,28.319379],[77.542891,28.318766],[77.543242,28.319468],[77.542623,28.319741],[77.543053,28.32052],[77.542966,28.320554],[77.54325,28.321064],[77.542597,28.32133],[77.542955,28.322019],[77.540021,28.323221],[77.539786,28.323219]]]},"properties":{"objectid":6268,"uniqueplotid":"PLNGRESIDENTIAL6268","plotmap_id":"SECTOR-22A_GH-6_GROUP HOUSING_RESI","plotidentificationnumber":"GH-6","plotno":"GH-6","industrysector":"SECTOR-22A","block":"GROUP HOUSING","plotsize":"26 ACRE","landuse_type":"RESIDENTIAL","landuse_subcategory":"RESIDENTIAL","investment":0,"employment":0,"landallotementstatus":"VACANT","landallotementtype":"VACANT","village_name":"Salarpur","khasra_no":"644,256,685,635,676,638,638M,649,649M,648,453,646,673,672,674,674M,636,642,641,640,643,677,645,671,639,596,647,634,670,637,650,255,597","longitude":77.54150934,"latitude":28.32077021,"authority":"YEIDA","category":"residential","execution_stage":"vacant"}},{"type":"Feature","geometry":{"type":"Polygon","coordinates":[[[77.53838,28.328346],[77.535704,28.329844],[77.534423,28.328313],[77.537283,28.32711],[77.53838,28.328346]]]},"properties":{"objectid":6271,"uniqueplotid":"PLNGRESIDENTIAL6271","plotmap_id":"SECTOR-22A_GH-03A_GROUP HOUSING_RESI","plotidentificationnumber":"GH-03A","plotno":"GH-03A","industrysector":"SECTOR-22A","block":"GROUP HOUSING","plotsize":"55,219.178 SQMT","landuse_type":"RESIDENTIAL","landuse_subcategory":"RESIDENTIAL","investment":0,"employment":0,"landallotementstatus":"VACANT","landallotementtype":"VACANT","village_name":"Salarpur","khasra_no":"282,384,385,387,341,284,285,338,335,388,386,382,283,336,337,383,381,73,339,118,74,390,379,374","longitude":77.53587184999999,"latitude":28.32852247,"authority":"YEIDA","category":"residential","execution_stage":"vacant"}},{"type":"Feature","geometry":{"type":"Polygon","coordinates":[[[77.537635,28.330434],[77.536856,28.33105],[77.535704,28.329844],[77.53838,28.328346],[77.539163,28.329229],[77.537635,28.330434]]]},"properties":{"objectid":6272,"uniqueplotid":"PLNGRESIDENTIAL6272","plotmap_id":"SECTOR-22A_GH-03_GROUP HOUSING_RESI","plotidentificationnumber":"GH-03","plotno":"GH-03","industrysector":"SECTOR-22A","block":"GROUP HOUSING","plotsize":"47,776.522 SQMT","landuse_type":"RESIDENTIAL","landuse_subcategory":"RESIDENTIAL","investment":0,"employment":0,"landallotementstatus":"VACANT","landallotementtype":"VACANT","village_name":"Salarpur","khasra_no":"394,392,341,354,353,338,388,356,391,393,386,389,397,355,339,340,390,374","longitude":77.53744315,"latitude":28.32968063,"authority":"YEIDA","category":"residential","execution_stage":"vacant"}},{"type":"Feature","geometry":{"type":"Polygon","coordinates":[[[77.549241,28.325286],[77.547778,28.329828],[77.547641,28.330022],[77.547487,28.330171],[77.547319,28.330296],[77.546385,28.330892],[77.546188,28.331057],[77.54595,28.331316],[77.545837,28.33147],[77.545651,28.331801],[77.545561,28.332035],[77.545482,28.332402],[77.545459,28.332766],[77.545484,28.333194],[77.54554,28.333538],[77.545643,28.333941],[77.545893,28.334583],[77.54593,28.334724],[77.543192,28.333245],[77.542011,28.330275],[77.544269,28.327945],[77.543996,28.326844],[77.543622,28.326303],[77.542278,28.32552],[77.542653,28.324333],[77.543172,28.324463],[77.549241,28.325286]]]},"properties":{"objectid":6273,"uniqueplotid":"PLNGRESIDENTIAL6273","plotmap_id":"SECTOR-22A_TS-1_TOWNSHIP_RESI","plotidentificationnumber":"TS-1","plotno":"TS-1","industrysector":"SECTOR-22A","block":"TOWNSHIP","plotsize":"100 ACRE","landuse_type":"RESIDENTIAL","landuse_subcategory":"RESIDENTIAL","investment":0,"employment":0,"landallotementstatus":"VACANT","landallotementtype":"VACANT","village_name":"Salarpur","khasra_no":"485,471,571,501,624,408,401,402,446,447,453,528,603,524,524M,523,525,510,568,506,507,565,458,511,517,454,476,484,569,472,475,474,492,495,619,531,531M,494,605,601,473,521,521M,567,478,499,602,620,530,529,606,509,479,477,493,497,498,500,623","longitude":77.54588125,"latitude":28.3286066,"authority":"YEIDA","category":"residential","execution_stage":"vacant"}},{"type":"Feature","geometry":{"type":"Polygon","coordinates":[[[77.540335,28.330148],[77.541363,28.330959],[77.539679,28.333597],[77.538865,28.332927],[77.538423,28.332533],[77.540335,28.330148]]]},"properties":{"objectid":6288,"uniqueplotid":"PLNGRESIDENTIAL6288","plotmap_id":"SECTOR-22A_GH-2/1_GROUP HOUSING_RESI","plotidentificationnumber":"GH-2/1","plotno":"GH-2/1","industrysector":"SECTOR-22A","block":"GROUP HOUSING","plotsize":"51590 SQMT","landuse_type":"RESIDENTIAL","landuse_subcategory":"RESIDENTIAL","investment":0,"employment":0,"landallotementstatus":"VACANT","landallotementtype":"VACANT","village_name":"Salarpur","khasra_no":"398,432,416,421,438,405,409,407,408,399,415,413,410/777,412,410,410M,417,373,420,419,414,418,411,374,406,444,444M,404","longitude":77.53978164,"latitude":28.33181777,"authority":"YEIDA","category":"residential","execution_stage":"vacant"}},{"type":"Feature","geometry":{"type":"Polygon","coordinates":[[[77.556922,28.338548],[77.556044,28.340299],[77.55572,28.340285],[77.554136,28.340003],[77.551029,28.339207],[77.554848,28.336511],[77.555013,28.336853],[77.556512,28.337985],[77.556922,28.338548]]]},"properties":{"objectid":18626,"uniqueplotid":"PLNGRESIDENTIAL18626","plotmap_id":"SECTOR-18_GH - 01_GROUP HOUSING_RESI","plotidentificationnumber":"GH - 01","plotno":"GH - 01","industrysector":"SECTOR-18","block":"GROUP HOUSING","plotsize":"30 ACRE APPROX","landuse_type":"RESIDENTIAL","landuse_subcategory":"RESIDENTIAL","investment":0,"employment":0,"landallotementstatus":"VACANT","landallotementtype":"VACANT","village_name":"Jaganpur Afzalpur,Dungarpur Reelika","khasra_no":"518,515,510,509,503,545,545m,504,504m,502,501,546,547,498,506,512,508,511,514,513,500,499,507.,505,461,460,51,459,455,458,456","longitude":77.55420162,"latitude":28.33853442,"authority":"YEIDA","category":"residential","execution_stage":"vacant"}}]}
