{"type":"FeatureCollection","features":[{"type":"Feature","geometry":{"type":"Polygon","coordinates":[[[77.612496,28.347631],[77.612914,28.345822],[77.616235,28.346882],[77.618573,28.347647],[77.615943,28.350378],[77.614897,28.349329],[77.614132,28.349873],[77.614006,28.349949],[77.612496,28.347631]]]},"properties":{"objectid":3047,"uniqueplotid":"PLNGRESIDENTIAL3047","plotmap_id":"SECTOR-17_G.H-9_FUTURE USE_RESI","plotidentificationnumber":"G.H-9","plotno":"G.H-9","industrysector":"SECTOR-17","block":"FUTURE USE","plotsize":"38.0 ACRE APPROX","landuse_type":"RESIDENTIAL","landuse_subcategory":"RESIDENTIAL","investment":0,"employment":0,"landallotementstatus":"VACANT","landallotementtype":"VACANT","village_name":"Dhanauri,Gadana","khasra_no":"1301,1305,1304,1338,1313,1346,1347,1351,1354,1355,1352,1316,1310,1302,1303,1317,1314,1306,1311,1308,1315,1309,1365,1375,1357,1356,1345,1344,1363,1361,1343,1339,1377,1360,1362,1376,1378,1336,1359,1374,1364,1335,1350,1334,1337,1358,1349","longitude":77.61527438,"latitude":28.348167269999998,"authority":"YEIDA","category":"residential","execution_stage":"vacant"}},{"type":"Feature","geometry":{"type":"Polygon","coordinates":[[[77.611918,28.352041],[77.610611,28.352108],[77.610447,28.35039],[77.61189,28.350257],[77.611918,28.352041]]]},"properties":{"objectid":3528,"uniqueplotid":"PLNGRESIDENTIAL3528","plotmap_id":"SECTOR-17_G.H-8C_FUTURE USE_RESI","plotidentificationnumber":"G.H-8C","plotno":"G.H-8C","industrysector":"SECTOR-17","block":"FUTURE USE","plotsize":"6.0 ACRE APPROX","landuse_type":"RESIDENTIAL","landuse_subcategory":"RESIDENTIAL","investment":0,"employment":0,"landallotementstatus":"VACANT","landallotementtype":"VACANT","village_name":"Dhanauri","khasra_no":"737,747,750,751,752,692,724,725,738,726,740,739,727,721,693","longitude":77.61118839,"latitude":28.35116913,"authority":"YEIDA","category":"residential","execution_stage":"vacant"}},{"type":"Feature","geometry":{"type":"Polygon","coordinates":[[[77.613549,28.350833],[77.612942,28.350971],[77.612431,28.351376],[77.612723,28.35164],[77.611923,28.352345],[77.61189,28.350257],[77.612221,28.348821],[77.613549,28.350833]]]},"properties":{"objectid":3529,"uniqueplotid":"PLNGRESIDENTIAL3529","plotmap_id":"SECTOR-17_N.A_FUTURE USE_RESI","plotidentificationnumber":"N.A","plotno":"N.A","industrysector":"SECTOR-17","block":"FUTURE USE","plotsize":"10.0 ACRE","landuse_type":"RESIDENTIAL","landuse_subcategory":"INFORMAL SECTOR","investment":0,"employment":0,"landallotementstatus":"VACANT","landallotementtype":"VACANT","village_name":"Dhanauri","khasra_no":"746,736,741,731,734,737,742,747,740,739,727,721,728,733,730,732,729,735","longitude":77.61265598,"latitude":28.3503294,"authority":"YEIDA","category":"residential","execution_stage":"vacant"}},{"type":"Feature","geometry":{"type":"Polygon","coordinates":[[[77.610611,28.352108],[77.609497,28.352217],[77.609333,28.350493],[77.610447,28.35039],[77.610611,28.352108]]]},"properties":{"objectid":3530,"uniqueplotid":"PLNGRESIDENTIAL3530","plotmap_id":"SECTOR-17_G.H-8B_FUTURE USE_RESI","plotidentificationnumber":"G.H-8B","plotno":"G.H-8B","industrysector":"SECTOR-17","block":"FUTURE USE","plotsize":"5.0 ACRE APPROX","landuse_type":"RESIDENTIAL","landuse_subcategory":"RESIDENTIAL","investment":0,"employment":0,"landallotementstatus":"VACANT","landallotementtype":"VACANT","village_name":"Dhanauri","khasra_no":"675,751,754,674,760/1790,671,672,685,673,691,752,692,686,725,740,739,693,753","longitude":77.60998096,"latitude":28.351314209999998,"authority":"YEIDA","category":"residential","execution_stage":"vacant"}},{"type":"Feature","geometry":{"type":"Polygon","coordinates":[[[77.614006,28.349949],[77.614132,28.349873],[77.614897,28.349329],[77.615943,28.350378],[77.615763,28.350564],[77.61585,28.350765],[77.615725,28.351034],[77.615466,28.351263],[77.615075,28.351551],[77.614006,28.349949]]]},"properties":{"objectid":3534,"uniqueplotid":"PLNGRESIDENTIAL3534","plotmap_id":"SECTOR-17_N.A_FUTURE USE_RESI","plotidentificationnumber":"N.A","plotno":"N.A","industrysector":"SECTOR-17","block":"FUTURE USE","plotsize":"N.A","landuse_type":"RESIDENTIAL","landuse_subcategory":"ENCROACHMENT","investment":0,"employment":0,"plotstatus":"Nonsaleble","landallotementstatus":"NONSALEBLE","landallotementtype":"NONSALEBLE","village_name":"Dhanauri,Gadana","khasra_no":"1301,1300,1299,1305,1304,1338,1340,1347,1341,1298,1295,1342,1345,1343,1339,460,459,526,455,457,456,458","longitude":77.61498672,"latitude":28.35037213,"authority":"YEIDA","category":"residential","execution_stage":"nonsaleble"}},{"type":"Feature","geometry":{"type":"Polygon","coordinates":[[[77.60977,28.353863],[77.609662,28.35394],[77.609497,28.352217],[77.610611,28.352108],[77.610638,28.353249],[77.60977,28.353863]]]},"properties":{"objectid":4021,"uniqueplotid":"PLNGRESIDENTIAL4021","plotmap_id":"SECTOR-17_G.H-8A_FUTURE USE_RESI","plotidentificationnumber":"G.H-8A","plotno":"G.H-8A","industrysector":"SECTOR-17","block":"FUTURE USE","plotsize":"4.0 ACRE APPROX","landuse_type":"RESIDENTIAL","landuse_subcategory":"RESIDENTIAL","investment":0,"employment":0,"landallotementstatus":"VACANT","landallotementtype":"VACANT","village_name":"Dhanauri","khasra_no":"644,676,682,685,677,683,684,691,678,680,679,692,690,686","longitude":77.61005528,"latitude":28.353006540000003,"authority":"YEIDA","category":"residential","execution_stage":"vacant"}},{"type":"Feature","geometry":{"type":"Polygon","coordinates":[[[77.614299,28.352019],[77.61354,28.352684],[77.613175,28.352308],[77.612557,28.352786],[77.612206,28.35313],[77.611508,28.353867],[77.610403,28.354466],[77.60977,28.353863],[77.610638,28.353249],[77.610611,28.352108],[77.611918,28.352041],[77.611923,28.352345],[77.612723,28.35164],[77.612431,28.351376],[77.612942,28.350971],[77.613549,28.350833],[77.614299,28.352019]]]},"properties":{"objectid":4379,"uniqueplotid":"PLNGRESIDENTIAL4379","plotmap_id":"SECTOR-17_N.A_FUTURE USE_RESI","plotidentificationnumber":"N.A","plotno":"N.A","industrysector":"SECTOR-17","block":"FUTURE USE","plotsize":"N.A","landuse_type":"RESIDENTIAL","landuse_subcategory":"ENCROACHMENT","investment":0,"employment":0,"plotstatus":"Nonsaleble","landallotementstatus":"NONSALEBLE","landallotementtype":"NONSALEBLE","village_name":"Dhanauri","khasra_no":"717,713,716,731,714,712,711,710,709,691,678,679,692,690,686,724,725,687,689,723,688,722,694,721,728,730,729,720,719,718,693","longitude":77.61208741,"latitude":28.352535749999998,"authority":"YEIDA","category":"residential","execution_stage":"nonsaleble"}}]}
