{"type":"FeatureCollection","features":[{"type":"Feature","geometry":{"type":"Polygon","coordinates":[[[77.54524,28.373625],[77.543526,28.374086],[77.544841,28.37014],[77.545912,28.366775],[77.552057,28.368489],[77.550868,28.372111],[77.54524,28.373625]]]},"properties":{"objectid":2089,"uniqueplotid":"PLNGRESIDENTIAL2089","plotmap_id":"SECTOR-17A_TS-1_TOWNSHIP_RESI","plotidentificationnumber":"TS-1","plotno":"TS-1","industrysector":"SECTOR-17A","block":"TOWNSHIP","plotsize":"100 ACRE","landuse_type":"RESIDENTIAL","landuse_subcategory":"RESIDENTIAL","investment":0,"employment":0,"landallotementstatus":"VACANT","landallotementtype":"VACANT","village_name":"Dankaur,Jaganpur Afzalpur","khasra_no":"885,883,889,884,882,11,12,5,10,7,884,2,8,6,4,3,39/1,39/2,39/9,39/11,39/12,39/13,39/14,39/15,39/16,39/18","longitude":77.54800784,"latitude":28.370011270000003,"authority":"YEIDA","category":"residential","execution_stage":"vacant"}}]}
