{"type":"FeatureCollection","features":[{"type":"Feature","geometry":{"type":"Polygon","coordinates":[[[77.562756,28.282056],[77.561293,28.286779],[77.555472,28.285174],[77.556461,28.281965],[77.559964,28.282575],[77.561154,28.281808],[77.562756,28.282056]]]},"properties":{"objectid":4858,"uniqueplotid":"PLNGRESIDENTIAL4858","plotmap_id":"SECTOR-22D_TS-1B_TOWNSHIP_RESI","plotidentificationnumber":"TS-1B","plotno":"TS-1B","industrysector":"SECTOR-22D","block":"TOWNSHIP","plotsize":"68 ACRE","landuse_type":"RESIDENTIAL","landuse_subcategory":"RESIDENTIAL","investment":0,"employment":0,"landallotementstatus":"VACANT","landallotementtype":"VACANT","village_name":"Ronija,Niloni Sahapura","khasra_no":"294,314,308,307,302,331,291,330,319,318,329,310,317,315,292,312,311,309,304,306,316,313,293,298,300,62,61,328,67,58,65/1429,65/1428,333,305,303,301,296,297,295,63,65,59,299,50,66,66/1431,332,64,57,56,81,82,20,49,16,96,54,50,52,19","longitude":77.55958053,"latitude":28.284201999999997,"authority":"YEIDA","category":"residential","execution_stage":"vacant"}},{"type":"Feature","geometry":{"type":"Polygon","coordinates":[[[77.562756,28.282056],[77.561154,28.281808],[77.559964,28.282575],[77.556461,28.281965],[77.557159,28.279702],[77.563154,28.28077],[77.562756,28.282056]]]},"properties":{"objectid":6290,"uniqueplotid":"PLNGRESIDENTIAL6290","plotmap_id":"SECTOR-22D_GH-17_GROUP HOUSING_RESI","plotidentificationnumber":"GH-17","plotno":"GH-17","industrysector":"SECTOR-22D","block":"GROUP HOUSING","plotsize":"33.5 ACRE","landuse_type":"RESIDENTIAL","landuse_subcategory":"RESIDENTIAL","investment":0,"employment":0,"landallotementstatus":"VACANT","landallotementtype":"VACANT","village_name":"Ronija","khasra_no":"114,113,120,81,82,20,49,96,50,51/1,51/2,51/3,51/4,51/5,51/6,97,85,78,79,86/709,87,86,103,102,74,92,105/704,89,91,109,71,84,76,75,83,77,115,93,23,95,101,100,99,112,98,111,110,122,21,88,104,90,94","longitude":77.56039479,"latitude":28.28105286,"authority":"YEIDA","category":"residential","execution_stage":"vacant"}},{"type":"Feature","geometry":{"type":"Polygon","coordinates":[[[77.567107,28.280226],[77.566701,28.280236],[77.566677,28.279328],[77.567084,28.279319],[77.567107,28.280226]]]},"properties":{"objectid":21710,"uniqueplotid":"PLNGRESIDENTIAL21710","plotmap_id":"SECTOR-20_103_A_RESI","plotidentificationnumber":"103","plotno":"103","industrysector":"SECTOR-20","block":"A","plotsize":"4000 SQMT","plotsize_at_the_time_of_allotme":"4000 SQMT","landuse_type":"RESIDENTIAL","landuse_subcategory":"RESIDENTIAL","scheme_cod":"RES01","investment":0,"employment":0,"plotstatus":"Allotted","landallotementstatus":"SOLD","landallotementtype":"ALLOTTED","allotmentid":"YEA000122","lease_deed":"Y","lease_deed_date":1521138600000,"village_name":"Ronija","khasra_no":"468,448,445,444","longitude":77.56689229,"latitude":28.279777569999997,"authority":"YEIDA","category":"residential","execution_stage":"lease-recorded"}},{"type":"Feature","geometry":{"type":"Polygon","coordinates":[[[77.56766,28.286049],[77.567253,28.286057],[77.567233,28.285151],[77.56764,28.285142],[77.56766,28.286049]]]},"properties":{"objectid":22228,"uniqueplotid":"PLNGRESIDENTIAL22228","plotmap_id":"SECTOR-20_20_A_RESI","plotidentificationnumber":"20","plotno":"20","industrysector":"SECTOR-20","block":"A","plotsize":"4000 SQMT","plotsize_at_the_time_of_allotme":"4000 SQMT","landuse_type":"RESIDENTIAL","landuse_subcategory":"RESIDENTIAL","scheme_cod":"RES01","investment":0,"employment":0,"plotstatus":"Allotted","landallotementstatus":"SOLD","landallotementtype":"ALLOTTED","allotmentid":"YEA000002","village_name":"Niloni Sahapura","khasra_no":"239,240,369,408,353","longitude":77.56744634,"latitude":28.285599859999998,"authority":"YEIDA","category":"residential","execution_stage":"allotted"}},{"type":"Feature","geometry":{"type":"Polygon","coordinates":[[[77.567253,28.286057],[77.566846,28.286066],[77.566826,28.285159],[77.567233,28.285151],[77.567253,28.286057]]]},"properties":{"objectid":22229,"uniqueplotid":"PLNGRESIDENTIAL22229","plotmap_id":"SECTOR-20_21_A_RESI","plotidentificationnumber":"21","plotno":"21","industrysector":"SECTOR-20","block":"A","plotsize":"4000 SQMT","plotsize_at_the_time_of_allotme":"4000 SQMT","landuse_type":"RESIDENTIAL","landuse_subcategory":"RESIDENTIAL","scheme_cod":"RES01","investment":0,"employment":0,"plotstatus":"Allotted","landallotementstatus":"SOLD","landallotementtype":"ALLOTTED","allotmentid":"YEA000099","village_name":"Niloni Sahapura","khasra_no":"239,240,353","longitude":77.56703931,"latitude":28.28560804,"authority":"YEIDA","category":"residential","execution_stage":"allotted"}},{"type":"Feature","geometry":{"type":"Polygon","coordinates":[[[77.565605,28.285183],[77.565625,28.28609],[77.565218,28.286098],[77.565198,28.285191],[77.565605,28.285183]]]},"properties":{"objectid":22608,"uniqueplotid":"PLNGRESIDENTIAL22608","plotmap_id":"SECTOR-20_25A_A_RESI","plotidentificationnumber":"25A","plotno":"25A","industrysector":"SECTOR-20","block":"A","plotsize":"4000 SQMT","plotsize_at_the_time_of_allotme":"4000 SQMT","landuse_type":"RESIDENTIAL","landuse_subcategory":"RESIDENTIAL","scheme_cod":"RPS08","investment":0,"employment":0,"plotstatus":"Allotted","landallotementstatus":"SOLD","landallotementtype":"ALLOTTED","allotmentid":"RPS081351","village_name":"Niloni Sahapura","khasra_no":"240,241,242,245,246,244","longitude":77.56541116999999,"latitude":28.285640769999997,"authority":"YEIDA","category":"residential","execution_stage":"allotted"}},{"type":"Feature","geometry":{"type":"Polygon","coordinates":[[[77.568953,28.280748],[77.567936,28.280771],[77.567927,28.280411],[77.568944,28.28039],[77.568953,28.280748]]]},"properties":{"objectid":22623,"uniqueplotid":"PLNGRESIDENTIAL22623","plotmap_id":"SECTOR-20_52_A_RESI","plotidentificationnumber":"52","plotno":"52","industrysector":"SECTOR-20","block":"A","plotsize":"4000 SQMT","plotsize_at_the_time_of_allotme":"4000 SQMT","landuse_type":"RESIDENTIAL","landuse_subcategory":"RESIDENTIAL","scheme_cod":"RPS04","investment":0,"employment":0,"plotstatus":"Allotted","landallotementstatus":"SOLD","landallotementtype":"ALLOTTED","allotmentid":"RPS041415","village_name":"Ronija","khasra_no":"462,458,456,457,466","longitude":77.56844149,"latitude":28.2805793,"authority":"YEIDA","category":"residential","execution_stage":"allotted"}},{"type":"Feature","geometry":{"type":"Polygon","coordinates":[[[77.564722,28.285201],[77.565198,28.285191],[77.565218,28.286098],[77.56446,28.286114],[77.564722,28.285201]]]},"properties":{"objectid":22625,"uniqueplotid":"PLNGRESIDENTIAL22625","plotmap_id":"SECTOR-20_25_A_RESI","plotidentificationnumber":"25","plotno":"25","industrysector":"SECTOR-20","block":"A","plotsize":"4000 SQMT","plotsize_at_the_time_of_allotme":"4000 SQMT","landuse_type":"RESIDENTIAL","landuse_subcategory":"RESIDENTIAL","scheme_cod":"RES01","investment":0,"employment":0,"plotstatus":"Allotted","landallotementstatus":"SOLD","landallotementtype":"ALLOTTED","allotmentid":"YEA000049","village_name":"Niloni Sahapura","khasra_no":"284,241,243,242,245,246,244","longitude":77.56494237999999,"latitude":28.28557469,"authority":"YEIDA","category":"residential","execution_stage":"allotted"}},{"type":"Feature","geometry":{"type":"Polygon","coordinates":[[[77.564982,28.284299],[77.565178,28.284294],[77.565198,28.285191],[77.564722,28.285201],[77.564982,28.284299]]]},"properties":{"objectid":22627,"uniqueplotid":"PLNGRESIDENTIAL22627","plotmap_id":"SECTOR-20_26_A_RESI","plotidentificationnumber":"26","plotno":"26","industrysector":"SECTOR-20","block":"A","plotsize":"4000 SQMT","plotsize_at_the_time_of_allotme":"4000 SQMT","landuse_type":"RESIDENTIAL","landuse_subcategory":"RESIDENTIAL","scheme_cod":"RES01","investment":0,"employment":0,"plotstatus":"Allotted","landallotementstatus":"SOLD","landallotementtype":"ALLOTTED","allotmentid":"YEA000104","village_name":"Niloni Sahapura","khasra_no":"284,350,241,243,242,351,285,N/F","longitude":77.56500068,"latitude":28.284748540000002,"authority":"YEIDA","category":"residential","execution_stage":"allotted"}},{"type":"Feature","geometry":{"type":"Polygon","coordinates":[[[77.568861,28.285118],[77.568881,28.286025],[77.568474,28.286033],[77.568454,28.285126],[77.568861,28.285118]]]},"properties":{"objectid":22679,"uniqueplotid":"PLNGRESIDENTIAL22679","plotmap_id":"SECTOR-20_17_A_RESI","plotidentificationnumber":"17","plotno":"17","industrysector":"SECTOR-20","block":"A","plotsize":"4000 SQMT","plotsize_at_the_time_of_allotme":"4000 SQMT","landuse_type":"RESIDENTIAL","landuse_subcategory":"RESIDENTIAL","scheme_cod":"RES01","investment":0,"employment":0,"plotstatus":"Allotted","landallotementstatus":"SOLD","landallotementtype":"ALLOTTED","allotmentid":"YEA000033","lease_deed":"Y","lease_deed_date":1558981800000,"village_name":"Niloni Sahapura","khasra_no":"409/1442,371,370,409,408,412","longitude":77.56866745,"latitude":28.28557531,"authority":"YEIDA","category":"residential","execution_stage":"lease-recorded"}},{"type":"Feature","geometry":{"type":"Polygon","coordinates":[[[77.568474,28.286033],[77.568067,28.286041],[77.568047,28.285134],[77.568454,28.285126],[77.568474,28.286033]]]},"properties":{"objectid":22680,"uniqueplotid":"PLNGRESIDENTIAL22680","plotmap_id":"SECTOR-20_18_A_RESI","plotidentificationnumber":"18","plotno":"18","industrysector":"SECTOR-20","block":"A","plotsize":"4000 SQMT","plotsize_at_the_time_of_allotme":"4000 SQMT","landuse_type":"RESIDENTIAL","landuse_subcategory":"RESIDENTIAL","scheme_cod":"RES01","investment":0,"employment":0,"plotstatus":"Allotted","landallotementstatus":"SOLD","landallotementtype":"ALLOTTED","allotmentid":"YEA000108","village_name":"Niloni Sahapura","khasra_no":"409/1442,371,370,369,409,408","longitude":77.56826041000001,"latitude":28.28558349,"authority":"YEIDA","category":"residential","execution_stage":"allotted"}},{"type":"Feature","geometry":{"type":"Polygon","coordinates":[[[77.568067,28.286041],[77.56766,28.286049],[77.56764,28.285142],[77.568047,28.285134],[77.568067,28.286041]]]},"properties":{"objectid":22681,"uniqueplotid":"PLNGRESIDENTIAL22681","plotmap_id":"SECTOR-20_19_A_RESI","plotidentificationnumber":"19","plotno":"19","industrysector":"SECTOR-20","block":"A","plotsize":"4000 SQMT","plotsize_at_the_time_of_allotme":"4000 SQMT","landuse_type":"RESIDENTIAL","landuse_subcategory":"RESIDENTIAL","scheme_cod":"RES01","investment":0,"employment":0,"plotstatus":"Allotted","landallotementstatus":"SOLD","landallotementtype":"ALLOTTED","allotmentid":"YEA000039","lease_deed":"Y","lease_deed_date":1737052200000,"village_name":"Niloni Sahapura","khasra_no":"239,240,409/1442,371,370,369,409,408,353","longitude":77.56785338,"latitude":28.28559167,"authority":"YEIDA","category":"residential","execution_stage":"lease-recorded"}},{"type":"Feature","geometry":{"type":"Polygon","coordinates":[[[77.569027,28.28363],[77.568009,28.283653],[77.568,28.28329],[77.569017,28.283267],[77.569027,28.28363]]]},"properties":{"objectid":23022,"uniqueplotid":"PLNGRESIDENTIAL23022","plotmap_id":"SECTOR-20_44_A_RESI","plotidentificationnumber":"44","plotno":"44","industrysector":"SECTOR-20","block":"A","plotsize":"4000 SQMT","plotsize_at_the_time_of_allotme":"4000 SQMT","landuse_type":"RESIDENTIAL","landuse_subcategory":"RESIDENTIAL","scheme_cod":"RPS08","investment":0,"employment":0,"plotstatus":"Allotted","landallotementstatus":"SOLD","landallotementtype":"ALLOTTED","allotmentid":"RPS081347","village_name":"Niloni Sahapura","khasra_no":"375,368","longitude":77.56851329,"latitude":28.28346027,"authority":"YEIDA","category":"residential","execution_stage":"allotted"}},{"type":"Feature","geometry":{"type":"Polygon","coordinates":[[[77.568962,28.281108],[77.567945,28.281131],[77.567936,28.280771],[77.568953,28.280748],[77.568962,28.281108]]]},"properties":{"objectid":23023,"uniqueplotid":"PLNGRESIDENTIAL23023","plotmap_id":"SECTOR-20_51_A_RESI","plotidentificationnumber":"51","plotno":"51","industrysector":"SECTOR-20","block":"A","plotsize":"4000 SQMT","plotsize_at_the_time_of_allotme":"4000 SQMT","landuse_type":"RESIDENTIAL","landuse_subcategory":"RESIDENTIAL","scheme_cod":"RES01","investment":0,"employment":0,"plotstatus":"Allotted","landallotementstatus":"SOLD","landallotementtype":"ALLOTTED","allotmentid":"YEA000112","lease_deed":"Y","lease_deed_date":1648665000000,"village_name":"Ronija","khasra_no":"458,456,457","longitude":77.56844912999999,"latitude":28.28093942,"authority":"YEIDA","category":"residential","execution_stage":"lease-recorded"}},{"type":"Feature","geometry":{"type":"Polygon","coordinates":[[[77.566032,28.286082],[77.565625,28.28609],[77.565605,28.285183],[77.566012,28.285175],[77.566032,28.286082]]]},"properties":{"objectid":23588,"uniqueplotid":"PLNGRESIDENTIAL23588","plotmap_id":"SECTOR-20_24_A_RESI","plotidentificationnumber":"24","plotno":"24","industrysector":"SECTOR-20","block":"A","plotsize":"4000 SQMT","plotsize_at_the_time_of_allotme":"4000 SQMT","landuse_type":"RESIDENTIAL","landuse_subcategory":"RESIDENTIAL","scheme_cod":"RES01","investment":0,"employment":0,"plotstatus":"Allotted","landallotementstatus":"SOLD","landallotementtype":"ALLOTTED","allotmentid":"YEA000079","village_name":"Niloni Sahapura","khasra_no":"240,241,242","longitude":77.5658182,"latitude":28.28563259,"authority":"YEIDA","category":"residential","execution_stage":"allotted"}},{"type":"Feature","geometry":{"type":"Polygon","coordinates":[[[77.566826,28.285159],[77.566846,28.286066],[77.566439,28.286074],[77.566419,28.285167],[77.566826,28.285159]]]},"properties":{"objectid":23600,"uniqueplotid":"PLNGRESIDENTIAL23600","plotmap_id":"SECTOR-20_22_A_RESI","plotidentificationnumber":"22","plotno":"22","industrysector":"SECTOR-20","block":"A","plotsize":"4000 SQMT","plotsize_at_the_time_of_allotme":"4000 SQMT","landuse_type":"RESIDENTIAL","landuse_subcategory":"RESIDENTIAL","scheme_cod":"RES01","investment":0,"employment":0,"plotstatus":"Allotted","landallotementstatus":"SOLD","landallotementtype":"ALLOTTED","allotmentid":"YEA000067","village_name":"Niloni Sahapura","khasra_no":"240,241","longitude":77.56663227,"latitude":28.285616219999998,"authority":"YEIDA","category":"residential","execution_stage":"allotted"}},{"type":"Feature","geometry":{"type":"Polygon","coordinates":[[[77.566439,28.286074],[77.566032,28.286082],[77.566012,28.285175],[77.566419,28.285167],[77.566439,28.286074]]]},"properties":{"objectid":23601,"uniqueplotid":"PLNGRESIDENTIAL23601","plotmap_id":"SECTOR-20_23_A_RESI","plotidentificationnumber":"23","plotno":"23","industrysector":"SECTOR-20","block":"A","plotsize":"4000 SQMT","plotsize_at_the_time_of_allotme":"4000 SQMT","landuse_type":"RESIDENTIAL","landuse_subcategory":"RESIDENTIAL","scheme_cod":"RES01","investment":0,"employment":0,"plotstatus":"Allotted","landallotementstatus":"SOLD","landallotementtype":"ALLOTTED","allotmentid":"YEA000017","village_name":"Niloni Sahapura","khasra_no":"240,241","longitude":77.56622524,"latitude":28.28562441,"authority":"YEIDA","category":"residential","execution_stage":"allotted"}},{"type":"Feature","geometry":{"type":"Polygon","coordinates":[[[77.565605,28.285183],[77.565198,28.285191],[77.565178,28.284294],[77.565585,28.284285],[77.565605,28.285183]]]},"properties":{"objectid":29965,"uniqueplotid":"PLNGRESIDENTIAL29965","plotmap_id":"SECTOR-20_26A_A_RESI","plotidentificationnumber":"26A","plotno":"26A","industrysector":"SECTOR-20","block":"A","plotsize":"4000 SQMT","plotsize_at_the_time_of_allotme":"4000 SQMT","landuse_type":"RESIDENTIAL","landuse_subcategory":"RESIDENTIAL","scheme_cod":"RPS08","investment":0,"employment":0,"plotstatus":"Allotted","landallotementstatus":"SOLD","landallotementtype":"ALLOTTED","allotmentid":"RPS081352","village_name":"Niloni Sahapura","khasra_no":"241,352,351,285,N/F","longitude":77.5653912,"latitude":28.28473843,"authority":"YEIDA","category":"residential","execution_stage":"allotted"}},{"type":"Feature","geometry":{"type":"Polygon","coordinates":[[[77.569027,28.28363],[77.569036,28.28399],[77.568018,28.284014],[77.568009,28.283653],[77.569027,28.28363]]]},"properties":{"objectid":29980,"uniqueplotid":"PLNGRESIDENTIAL29980","plotmap_id":"SECTOR-20_43_A_RESI","plotidentificationnumber":"43","plotno":"43","industrysector":"SECTOR-20","block":"A","plotsize":"4000 SQMT","plotsize_at_the_time_of_allotme":"4000 SQMT","landuse_type":"RESIDENTIAL","landuse_subcategory":"RESIDENTIAL","scheme_cod":"RES01","investment":0,"employment":0,"plotstatus":"Allotted","landallotementstatus":"SOLD","landallotementtype":"ALLOTTED","allotmentid":"YEA000066","lease_deed":"Y","lease_deed_date":1670956200000,"village_name":"Niloni Sahapura","khasra_no":"368","longitude":77.56851058,"latitude":28.28381795,"authority":"YEIDA","category":"residential","execution_stage":"lease-recorded"}},{"type":"Feature","geometry":{"type":"Polygon","coordinates":[[[77.567491,28.27931],[77.567084,28.279319],[77.567062,28.27841],[77.567469,28.278401],[77.567491,28.27931]]]},"properties":{"objectid":29984,"uniqueplotid":"PLNGRESIDENTIAL29984","plotmap_id":"SECTOR-20_127_A_RESI","plotidentificationnumber":"127","plotno":"127","industrysector":"SECTOR-20","block":"A","plotsize":"4000 SQMT","plotsize_at_the_time_of_allotme":"4000 SQMT","landuse_type":"RESIDENTIAL","landuse_subcategory":"RESIDENTIAL","scheme_cod":"RPS08","investment":0,"employment":0,"plotstatus":"Allotted","landallotementstatus":"SOLD","landallotementtype":"ALLOTTED","allotmentid":"RPS081350","village_name":"Ronija","khasra_no":"444,469","longitude":77.56727628,"latitude":28.278859920000002,"authority":"YEIDA","category":"residential","execution_stage":"allotted"}},{"type":"Feature","geometry":{"type":"Polygon","coordinates":[[[77.566012,28.285175],[77.565605,28.285183],[77.565585,28.284285],[77.565992,28.284276],[77.566012,28.285175]]]},"properties":{"objectid":30033,"uniqueplotid":"PLNGRESIDENTIAL30033","plotmap_id":"SECTOR-20_27_A_RESI","plotidentificationnumber":"27","plotno":"27","industrysector":"SECTOR-20","block":"A","plotsize":"4000 SQMT","plotsize_at_the_time_of_allotme":"4000 SQMT","landuse_type":"RESIDENTIAL","landuse_subcategory":"RESIDENTIAL","scheme_cod":"RES01","investment":0,"employment":0,"plotstatus":"Allotted","landallotementstatus":"SOLD","landallotementtype":"ALLOTTED","allotmentid":"YEA000089","village_name":"Niloni Sahapura","khasra_no":"241,N/F","longitude":77.56579822,"latitude":28.28472971,"authority":"YEIDA","category":"residential","execution_stage":"allotted"}},{"type":"Feature","geometry":{"type":"Polygon","coordinates":[[[77.566419,28.285167],[77.566012,28.285175],[77.565992,28.284276],[77.566398,28.284267],[77.566419,28.285167]]]},"properties":{"objectid":30145,"uniqueplotid":"PLNGRESIDENTIAL30145","plotmap_id":"SECTOR-20_28_A_RESI","plotidentificationnumber":"28","plotno":"28","industrysector":"SECTOR-20","block":"A","plotsize":"4000 SQMT","plotsize_at_the_time_of_allotme":"4000 SQMT","landuse_type":"RESIDENTIAL","landuse_subcategory":"RESIDENTIAL","scheme_cod":"RES01","investment":0,"employment":0,"plotstatus":"Allotted","landallotementstatus":"SOLD","landallotementtype":"ALLOTTED","allotmentid":"YEA000044","village_name":"Niloni Sahapura","khasra_no":"241","longitude":77.56620523999999,"latitude":28.284721010000002,"authority":"YEIDA","category":"residential","execution_stage":"allotted"}},{"type":"Feature","geometry":{"type":"Polygon","coordinates":[[[77.566805,28.284257],[77.566826,28.285159],[77.566419,28.285167],[77.566398,28.284267],[77.566805,28.284257]]]},"properties":{"objectid":30146,"uniqueplotid":"PLNGRESIDENTIAL30146","plotmap_id":"SECTOR-20_29_A_RESI","plotidentificationnumber":"29","plotno":"29","industrysector":"SECTOR-20","block":"A","plotsize":"4000 SQMT","plotsize_at_the_time_of_allotme":"4000 SQMT","landuse_type":"RESIDENTIAL","landuse_subcategory":"RESIDENTIAL","scheme_cod":"RES01","investment":0,"employment":0,"plotstatus":"Allotted","landallotementstatus":"SOLD","landallotementtype":"ALLOTTED","allotmentid":"YEA000045","village_name":"Niloni Sahapura","khasra_no":"240,241,358,357,353","longitude":77.56661215,"latitude":28.28471229,"authority":"YEIDA","category":"residential","execution_stage":"allotted"}},{"type":"Feature","geometry":{"type":"Polygon","coordinates":[[[77.567213,28.284248],[77.567233,28.285151],[77.566826,28.285159],[77.566805,28.284257],[77.567213,28.284248]]]},"properties":{"objectid":30147,"uniqueplotid":"PLNGRESIDENTIAL30147","plotmap_id":"SECTOR-20_30_A_RESI","plotidentificationnumber":"30","plotno":"30","industrysector":"SECTOR-20","block":"A","plotsize":"4000 SQMT","plotsize_at_the_time_of_allotme":"4000 SQMT","landuse_type":"RESIDENTIAL","landuse_subcategory":"RESIDENTIAL","scheme_cod":"RES01","investment":0,"employment":0,"plotstatus":"Allotted","landallotementstatus":"SOLD","landallotementtype":"ALLOTTED","allotmentid":"YEA000086","lease_deed":"Y","lease_deed_date":1704738600000,"village_name":"Niloni Sahapura","khasra_no":"359,240,241,368,358,357,408,353","longitude":77.56701910999999,"latitude":28.28470357,"authority":"YEIDA","category":"residential","execution_stage":"lease-recorded"}},{"type":"Feature","geometry":{"type":"Polygon","coordinates":[[[77.56762,28.284239],[77.56764,28.285142],[77.567233,28.285151],[77.567213,28.284248],[77.56762,28.284239]]]},"properties":{"objectid":30148,"uniqueplotid":"PLNGRESIDENTIAL30148","plotmap_id":"SECTOR-20_31_A_RESI","plotidentificationnumber":"31","plotno":"31","industrysector":"SECTOR-20","block":"A","plotsize":"4000 SQMT","plotsize_at_the_time_of_allotme":"4000 SQMT","landuse_type":"RESIDENTIAL","landuse_subcategory":"RESIDENTIAL","scheme_cod":"RES01","investment":0,"employment":0,"plotstatus":"Allotted","landallotementstatus":"SOLD","landallotementtype":"ALLOTTED","allotmentid":"YEA000031","village_name":"Niloni Sahapura","khasra_no":"359,368,369,358,408,353","longitude":77.56742636000001,"latitude":28.284694860000002,"authority":"YEIDA","category":"residential","execution_stage":"allotted"}},{"type":"Feature","geometry":{"type":"Polygon","coordinates":[[[77.568028,28.28423],[77.568047,28.285134],[77.56764,28.285142],[77.56762,28.284239],[77.568028,28.28423]]]},"properties":{"objectid":30149,"uniqueplotid":"PLNGRESIDENTIAL30149","plotmap_id":"SECTOR-20_32_A_RESI","plotidentificationnumber":"32","plotno":"32","industrysector":"SECTOR-20","block":"A","plotsize":"4000 SQMT","plotsize_at_the_time_of_allotme":"4000 SQMT","landuse_type":"RESIDENTIAL","landuse_subcategory":"RESIDENTIAL","scheme_cod":"RES01","investment":0,"employment":0,"plotstatus":"Allotted","landallotementstatus":"SOLD","landallotementtype":"ALLOTTED","allotmentid":"YEA000029","lease_deed":"Y","lease_deed_date":1561660200000,"village_name":"Niloni Sahapura","khasra_no":"359,368,369,408","longitude":77.56783329000001,"latitude":28.28468614,"authority":"YEIDA","category":"residential","execution_stage":"lease-recorded"}},{"type":"Feature","geometry":{"type":"Polygon","coordinates":[[[77.568434,28.28422],[77.568454,28.285126],[77.568047,28.285134],[77.568028,28.28423],[77.568434,28.28422]]]},"properties":{"objectid":30150,"uniqueplotid":"PLNGRESIDENTIAL30150","plotmap_id":"SECTOR-20_33_A_RESI","plotidentificationnumber":"33","plotno":"33","industrysector":"SECTOR-20","block":"A","plotsize":"4000 SQMT","plotsize_at_the_time_of_allotme":"4000 SQMT","landuse_type":"RESIDENTIAL","landuse_subcategory":"RESIDENTIAL","scheme_cod":"RES01","investment":0,"employment":0,"plotstatus":"Allotted","landallotementstatus":"SOLD","landallotementtype":"ALLOTTED","allotmentid":"YEA000061","village_name":"Niloni Sahapura","khasra_no":"372,368,370,369","longitude":77.56824042000001,"latitude":28.284677430000002,"authority":"YEIDA","category":"residential","execution_stage":"allotted"}},{"type":"Feature","geometry":{"type":"Polygon","coordinates":[[[77.56884,28.284211],[77.568861,28.285118],[77.568454,28.285126],[77.568434,28.28422],[77.56884,28.284211]]]},"properties":{"objectid":30151,"uniqueplotid":"PLNGRESIDENTIAL30151","plotmap_id":"SECTOR-20_34_A_RESI","plotidentificationnumber":"34","plotno":"34","industrysector":"SECTOR-20","block":"A","plotsize":"4000 SQMT","plotsize_at_the_time_of_allotme":"4000 SQMT","landuse_type":"RESIDENTIAL","landuse_subcategory":"RESIDENTIAL","scheme_cod":"RES01","investment":0,"employment":0,"plotstatus":"Allotted","landallotementstatus":"SOLD","landallotementtype":"ALLOTTED","allotmentid":"YEA000050","lease_deed":"Y","lease_deed_date":1647973800000,"village_name":"Niloni Sahapura","khasra_no":"372,368,373,371,370,369","longitude":77.56864744,"latitude":28.28466873,"authority":"YEIDA","category":"residential","execution_stage":"lease-recorded"}},{"type":"Feature","geometry":{"type":"Polygon","coordinates":[[[77.567515,28.280217],[77.567107,28.280226],[77.567084,28.279319],[77.567491,28.27931],[77.567515,28.280217]]]},"properties":{"objectid":30258,"uniqueplotid":"PLNGRESIDENTIAL30258","plotmap_id":"SECTOR-20_104_A_RESI","plotidentificationnumber":"104","plotno":"104","industrysector":"SECTOR-20","block":"A","plotsize":"4000 SQMT","plotsize_at_the_time_of_allotme":"4000 SQMT","landuse_type":"RESIDENTIAL","landuse_subcategory":"RESIDENTIAL","scheme_cod":"RES01","investment":0,"employment":0,"plotstatus":"Allotted","landallotementstatus":"SOLD","landallotementtype":"ALLOTTED","allotmentid":"YEA000026","village_name":"Ronija","khasra_no":"468,448,450,445,444,469,449,466","longitude":77.56729948,"latitude":28.279767949999997,"authority":"YEIDA","category":"residential","execution_stage":"allotted"}},{"type":"Feature","geometry":{"type":"Polygon","coordinates":[[[77.567921,28.280207],[77.567515,28.280217],[77.567491,28.27931],[77.567898,28.2793],[77.567921,28.280207]]]},"properties":{"objectid":30259,"uniqueplotid":"PLNGRESIDENTIAL30259","plotmap_id":"SECTOR-20_105_A_RESI","plotidentificationnumber":"105","plotno":"105","industrysector":"SECTOR-20","block":"A","plotsize":"4000 SQMT","plotsize_at_the_time_of_allotme":"4000 SQMT","landuse_type":"RESIDENTIAL","landuse_subcategory":"RESIDENTIAL","scheme_cod":"RES01","investment":0,"employment":0,"plotstatus":"Allotted","landallotementstatus":"SOLD","landallotementtype":"ALLOTTED","allotmentid":"YEA000024","lease_deed":"Y","lease_deed_date":1717007400000,"village_name":"Ronija","khasra_no":"468,444,469,449,467,466","longitude":77.5677063,"latitude":28.27975831,"authority":"YEIDA","category":"residential","execution_stage":"lease-recorded"}},{"type":"Feature","geometry":{"type":"Polygon","coordinates":[[[77.568328,28.280197],[77.567921,28.280207],[77.567898,28.2793],[77.568305,28.279291],[77.568328,28.280197]]]},"properties":{"objectid":30260,"uniqueplotid":"PLNGRESIDENTIAL30260","plotmap_id":"SECTOR-20_106_A_RESI","plotidentificationnumber":"106","plotno":"106","industrysector":"SECTOR-20","block":"A","plotsize":"4000 SQMT","plotsize_at_the_time_of_allotme":"4000 SQMT","landuse_type":"RESIDENTIAL","landuse_subcategory":"RESIDENTIAL","scheme_cod":"RES01","investment":0,"employment":0,"plotstatus":"Allotted","landallotementstatus":"SOLD","landallotementtype":"ALLOTTED","allotmentid":"YEA000069","lease_deed":"Y","lease_deed_date":1637605800000,"village_name":"Ronija","khasra_no":"468,469,467,466","longitude":77.56811329,"latitude":28.279748689999998,"authority":"YEIDA","category":"residential","execution_stage":"lease-recorded"}},{"type":"Feature","geometry":{"type":"Polygon","coordinates":[[[77.568735,28.280187],[77.568328,28.280197],[77.568305,28.279291],[77.568712,28.279282],[77.568735,28.280187]]]},"properties":{"objectid":30261,"uniqueplotid":"PLNGRESIDENTIAL30261","plotmap_id":"SECTOR-20_107_A_RESI","plotidentificationnumber":"107","plotno":"107","industrysector":"SECTOR-20","block":"A","plotsize":"4000 SQMT","plotsize_at_the_time_of_allotme":"4000 SQMT","landuse_type":"RESIDENTIAL","landuse_subcategory":"RESIDENTIAL","scheme_cod":"RES01","investment":0,"employment":0,"plotstatus":"Allotted","landallotementstatus":"SOLD","landallotementtype":"ALLOTTED","allotmentid":"YEA000025","village_name":"Ronija","khasra_no":"465,467,466","longitude":77.5685203,"latitude":28.279739059999997,"authority":"YEIDA","category":"residential","execution_stage":"allotted"}},{"type":"Feature","geometry":{"type":"Polygon","coordinates":[[[77.568712,28.279282],[77.568305,28.279291],[77.568282,28.278382],[77.568688,28.278373],[77.568712,28.279282]]]},"properties":{"objectid":30276,"uniqueplotid":"PLNGRESIDENTIAL30276","plotmap_id":"SECTOR-20_124_A_RESI","plotidentificationnumber":"124","plotno":"124","industrysector":"SECTOR-20","block":"A","plotsize":"4000 SQMT","plotsize_at_the_time_of_allotme":"4000 SQMT","landuse_type":"RESIDENTIAL","landuse_subcategory":"RESIDENTIAL","scheme_cod":"RES01","investment":0,"employment":0,"plotstatus":"Allotted","landallotementstatus":"SOLD","landallotementtype":"ALLOTTED","allotmentid":"YEA000041","village_name":"Ronija","khasra_no":"468,465,469,467,472","longitude":77.56849729,"latitude":28.27883202,"authority":"YEIDA","category":"residential","execution_stage":"allotted"}},{"type":"Feature","geometry":{"type":"Polygon","coordinates":[[[77.568305,28.279291],[77.567898,28.2793],[77.567875,28.278392],[77.568282,28.278382],[77.568305,28.279291]]]},"properties":{"objectid":30277,"uniqueplotid":"PLNGRESIDENTIAL30277","plotmap_id":"SECTOR-20_125_A_RESI","plotidentificationnumber":"125","plotno":"125","industrysector":"SECTOR-20","block":"A","plotsize":"4000 SQMT","plotsize_at_the_time_of_allotme":"4000 SQMT","landuse_type":"RESIDENTIAL","landuse_subcategory":"RESIDENTIAL","scheme_cod":"RES01","investment":0,"employment":0,"plotstatus":"Allotted","landallotementstatus":"SOLD","landallotementtype":"ALLOTTED","allotmentid":"YEA000038","lease_deed":"Y","lease_deed_date":1527791400000,"village_name":"Ronija","khasra_no":"468,469,467","longitude":77.56809009,"latitude":28.27884132,"authority":"YEIDA","category":"residential","execution_stage":"lease-recorded"}},{"type":"Feature","geometry":{"type":"Polygon","coordinates":[[[77.567898,28.2793],[77.567491,28.27931],[77.567469,28.278401],[77.567875,28.278392],[77.567898,28.2793]]]},"properties":{"objectid":30278,"uniqueplotid":"PLNGRESIDENTIAL30278","plotmap_id":"SECTOR-20_126_A_RESI","plotidentificationnumber":"126","plotno":"126","industrysector":"SECTOR-20","block":"A","plotsize":"4000 SQMT","plotsize_at_the_time_of_allotme":"4000 SQMT","landuse_type":"RESIDENTIAL","landuse_subcategory":"RESIDENTIAL","scheme_cod":"RPS08","investment":0,"employment":0,"plotstatus":"Allotted","landallotementstatus":"SOLD","landallotementtype":"ALLOTTED","allotmentid":"RPS081349","village_name":"Ronija","khasra_no":"469","longitude":77.56768328,"latitude":28.27885063,"authority":"YEIDA","category":"residential","execution_stage":"allotted"}},{"type":"Feature","geometry":{"type":"Polygon","coordinates":[[[77.569017,28.283267],[77.568,28.28329],[77.567991,28.282927],[77.569008,28.282904],[77.569017,28.283267]]]},"properties":{"objectid":30365,"uniqueplotid":"PLNGRESIDENTIAL30365","plotmap_id":"SECTOR-20_45_A_RESI","plotidentificationnumber":"45","plotno":"45","industrysector":"SECTOR-20","block":"A","plotsize":"4000 SQMT","plotsize_at_the_time_of_allotme":"4000 SQMT","landuse_type":"RESIDENTIAL","landuse_subcategory":"RESIDENTIAL","scheme_cod":"RPS04","investment":0,"employment":0,"plotstatus":"Allotted","landallotementstatus":"SOLD","landallotementtype":"ALLOTTED","allotmentid":"RPS041416","lease_deed":"Y","lease_deed_date":1719340200000,"village_name":"Niloni Sahapura","khasra_no":"375,368,366,367","longitude":77.56850405,"latitude":28.28309737,"authority":"YEIDA","category":"residential","execution_stage":"lease-recorded"}},{"type":"Feature","geometry":{"type":"Polygon","coordinates":[[[77.569008,28.282904],[77.567991,28.282927],[77.567981,28.282564],[77.568999,28.282541],[77.569008,28.282904]]]},"properties":{"objectid":30366,"uniqueplotid":"PLNGRESIDENTIAL30366","plotmap_id":"SECTOR-20_46_A_RESI","plotidentificationnumber":"46","plotno":"46","industrysector":"SECTOR-20","block":"A","plotsize":"4000 SQMT","plotsize_at_the_time_of_allotme":"4000 SQMT","landuse_type":"RESIDENTIAL","landuse_subcategory":"RESIDENTIAL","scheme_cod":"RES01","investment":0,"employment":0,"plotstatus":"Allotted","landallotementstatus":"SOLD","landallotementtype":"ALLOTTED","allotmentid":"YEA000059","village_name":"Niloni Sahapura","khasra_no":"392,391,388,389,375,390,368,365,366,367,387","longitude":77.56849480999999,"latitude":28.282734419999997,"authority":"YEIDA","category":"residential","execution_stage":"allotted"}},{"type":"Feature","geometry":{"type":"Polygon","coordinates":[[[77.568999,28.282541],[77.567981,28.282564],[77.567972,28.282202],[77.56899,28.282178],[77.568999,28.282541]]]},"properties":{"objectid":30367,"uniqueplotid":"PLNGRESIDENTIAL30367","plotmap_id":"SECTOR-20_47_A_RESI","plotidentificationnumber":"47","plotno":"47","industrysector":"SECTOR-20","block":"A","plotsize":"4000 SQMT","plotsize_at_the_time_of_allotme":"4000 SQMT","landuse_type":"RESIDENTIAL","landuse_subcategory":"RESIDENTIAL","scheme_cod":"RES01","investment":0,"employment":0,"plotstatus":"Allotted","landallotementstatus":"SOLD","landallotementtype":"ALLOTTED","allotmentid":"YEA000035","village_name":"Niloni Sahapura","khasra_no":"392,363,391,388,389,365,364","longitude":77.56848558,"latitude":28.2823715,"authority":"YEIDA","category":"residential","execution_stage":"allotted"}},{"type":"Feature","geometry":{"type":"Polygon","coordinates":[[[77.56899,28.282178],[77.567972,28.282202],[77.567963,28.281838],[77.56898,28.281816],[77.56899,28.282178]]]},"properties":{"objectid":30368,"uniqueplotid":"PLNGRESIDENTIAL30368","plotmap_id":"SECTOR-20_48_A_RESI","plotidentificationnumber":"48","plotno":"48","industrysector":"SECTOR-20","block":"A","plotsize":"4000 SQMT","plotsize_at_the_time_of_allotme":"4000 SQMT","landuse_type":"RESIDENTIAL","landuse_subcategory":"RESIDENTIAL","scheme_cod":"RES01","investment":0,"employment":0,"plotstatus":"Allotted","landallotementstatus":"SOLD","landallotementtype":"ALLOTTED","allotmentid":"YEA000113","lease_deed":"Y","lease_deed_date":1635445800000,"village_name":"Niloni Sahapura","khasra_no":"392,363,391,388,389","longitude":77.56847634,"latitude":28.28200858,"authority":"YEIDA","category":"residential","execution_stage":"lease-recorded"}},{"type":"Feature","geometry":{"type":"Polygon","coordinates":[[[77.56898,28.281816],[77.567964,28.281839],[77.567954,28.281476],[77.568971,28.281453],[77.56898,28.281816]]]},"properties":{"objectid":30369,"uniqueplotid":"PLNGRESIDENTIAL30369","plotmap_id":"SECTOR-20_49_A_RESI","plotidentificationnumber":"49","plotno":"49","industrysector":"SECTOR-20","block":"A","plotsize":"4000 SQMT","plotsize_at_the_time_of_allotme":"4000 SQMT","landuse_type":"RESIDENTIAL","landuse_subcategory":"RESIDENTIAL","scheme_cod":"RES01","investment":0,"employment":0,"plotstatus":"Allotted","landallotementstatus":"SOLD","landallotementtype":"ALLOTTED","allotmentid":"YEA000009","lease_deed":"Y","lease_deed_date":1574188200000,"village_name":"Ronija,Niloni Sahapura","khasra_no":"392,391,454,456","longitude":77.56846709999999,"latitude":28.281645660000002,"authority":"YEIDA","category":"residential","execution_stage":"lease-recorded"}},{"type":"Feature","geometry":{"type":"Polygon","coordinates":[[[77.568971,28.281453],[77.567954,28.281476],[77.567945,28.281131],[77.568962,28.281108],[77.568971,28.281453]]]},"properties":{"objectid":30370,"uniqueplotid":"PLNGRESIDENTIAL30370","plotmap_id":"SECTOR-20_50_A_RESI","plotidentificationnumber":"50","plotno":"50","industrysector":"SECTOR-20","block":"A","plotsize":"4000 SQMT","plotsize_at_the_time_of_allotme":"4000 SQMT","landuse_type":"RESIDENTIAL","landuse_subcategory":"RESIDENTIAL","scheme_cod":"RES01","investment":0,"employment":0,"plotstatus":"Allotted","landallotementstatus":"SOLD","landallotementtype":"ALLOTTED","allotmentid":"YEA000109","lease_deed":"Y","lease_deed_date":1699468200000,"village_name":"Ronija,Niloni Sahapura","khasra_no":"392,454,455,456,457","longitude":77.56844574,"latitude":28.281288019999998,"authority":"YEIDA","category":"residential","execution_stage":"lease-recorded"}}]}
