{"type":"FeatureCollection","features":[{"type":"Feature","geometry":{"type":"Polygon","coordinates":[[[77.596352,28.272373],[77.596355,28.272522],[77.59605,28.272528],[77.596046,28.272379],[77.596352,28.272373]]]},"properties":{"objectid":19937,"uniqueplotid":"PLNGRESIDENTIAL19937","plotmap_id":"SECTOR-20_674_S_RESI","plotidentificationnumber":"674","plotno":"674","industrysector":"SECTOR-20","block":"S","plotsize":"500 SQMT","plotsize_at_the_time_of_allotme":"500 SQMT","landuse_type":"RESIDENTIAL","landuse_subcategory":"RESIDENTIAL","scheme_cod":"RES01","investment":0,"employment":0,"plotstatus":"Allotted","landallotementstatus":"SOLD","landallotementtype":"ALLOTTED","allotmentid":"YEA001785","village_name":"Rabupura,Pachokara","khasra_no":"47,46,39","longitude":77.59620063,"latitude":28.27245063,"authority":"YEIDA","category":"residential","execution_stage":"allotted"}},{"type":"Feature","geometry":{"type":"Polygon","coordinates":[[[77.595984,28.269693],[77.595988,28.269843],[77.595682,28.269849],[77.595679,28.269699],[77.595984,28.269693]]]},"properties":{"objectid":20066,"uniqueplotid":"PLNGRESIDENTIAL20066","plotmap_id":"SECTOR-20_400_U_RESI","plotidentificationnumber":"400","plotno":"400","industrysector":"SECTOR-20","block":"U","plotsize":"500 SQMT","plotsize_at_the_time_of_allotme":"500 SQMT","landuse_type":"RESIDENTIAL","landuse_subcategory":"RESIDENTIAL","scheme_cod":"RPS08","investment":0,"employment":0,"plotstatus":"Allotted","landallotementstatus":"SOLD","landallotementtype":"ALLOTTED","allotmentid":"RPS081293","village_name":"Rabupura","khasra_no":"59","longitude":77.59582816999999,"latitude":28.26976835,"authority":"YEIDA","category":"residential","execution_stage":"allotted"}},{"type":"Feature","geometry":{"type":"Polygon","coordinates":[[[77.595971,28.266104],[77.595978,28.266373],[77.595807,28.266377],[77.595801,28.266108],[77.595971,28.266104]]]},"properties":{"objectid":20091,"uniqueplotid":"PLNGRESIDENTIAL20091","plotmap_id":"SECTOR-20_379_U_RESI","plotidentificationnumber":"379","plotno":"379","industrysector":"SECTOR-20","block":"U","plotsize":"500 SQMT","plotsize_at_the_time_of_allotme":"500 SQMT","landuse_type":"RESIDENTIAL","landuse_subcategory":"RESIDENTIAL","scheme_cod":"RES01","investment":0,"employment":0,"plotstatus":"Allotted","landallotementstatus":"SOLD","landallotementtype":"ALLOTTED","allotmentid":"YEA003866","lease_deed":"Y","lease_deed_date":1526581800000,"village_name":"Rabupura","khasra_no":"100","longitude":77.59588936,"latitude":28.26624036,"authority":"YEIDA","category":"residential","execution_stage":"lease-recorded"}},{"type":"Feature","geometry":{"type":"Polygon","coordinates":[[[77.595986,28.266805],[77.595817,28.266809],[77.595811,28.26654],[77.59598,28.266537],[77.595986,28.266805]]]},"properties":{"objectid":20092,"uniqueplotid":"PLNGRESIDENTIAL20092","plotmap_id":"SECTOR-20_386_U_RESI","plotidentificationnumber":"386","plotno":"386","industrysector":"SECTOR-20","block":"U","plotsize":"500 SQMT","plotsize_at_the_time_of_allotme":"500 SQMT","landuse_type":"RESIDENTIAL","landuse_subcategory":"RESIDENTIAL","scheme_cod":"RPS08","investment":0,"employment":0,"plotstatus":"Allotted","landallotementstatus":"SOLD","landallotementtype":"ALLOTTED","allotmentid":"RPS081297","village_name":"Rabupura","khasra_no":"77,100,69","longitude":77.59589849999999,"latitude":28.26667269,"authority":"YEIDA","category":"residential","execution_stage":"allotted"}},{"type":"Feature","geometry":{"type":"Polygon","coordinates":[[[77.595981,28.269543],[77.595984,28.269693],[77.595679,28.269699],[77.595676,28.26955],[77.595981,28.269543]]]},"properties":{"objectid":20388,"uniqueplotid":"PLNGRESIDENTIAL20388","plotmap_id":"SECTOR-20_401_U_RESI","plotidentificationnumber":"401","plotno":"401","industrysector":"SECTOR-20","block":"U","plotsize":"500 SQMT","plotsize_at_the_time_of_allotme":"500 SQMT","landuse_type":"RESIDENTIAL","landuse_subcategory":"RESIDENTIAL","scheme_cod":"RPS08","investment":0,"employment":0,"plotstatus":"Allotted","landallotementstatus":"SOLD","landallotementtype":"ALLOTTED","allotmentid":"RPS081319","village_name":"Rabupura","khasra_no":"73,71,59","longitude":77.59583015999999,"latitude":28.26962126,"authority":"YEIDA","category":"residential","execution_stage":"allotted"}},{"type":"Feature","geometry":{"type":"Polygon","coordinates":[[[77.59604,28.27208],[77.596043,28.272229],[77.595738,28.272236],[77.595734,28.272086],[77.59604,28.27208]]]},"properties":{"objectid":20595,"uniqueplotid":"PLNGRESIDENTIAL20595","plotmap_id":"SECTOR-20_671_S_RESI","plotidentificationnumber":"671","plotno":"671","industrysector":"SECTOR-20","block":"S","plotsize":"500 SQMT","plotsize_at_the_time_of_allotme":"500 SQMT","landuse_type":"RESIDENTIAL","landuse_subcategory":"RESIDENTIAL","scheme_cod":"RES01","investment":0,"employment":0,"plotstatus":"Allotted","landallotementstatus":"SOLD","landallotementtype":"ALLOTTED","allotmentid":"YEA004126","village_name":"Rabupura","khasra_no":"47","longitude":77.59586302,"latitude":28.27214572,"authority":"YEIDA","category":"residential","execution_stage":"allotted"}},{"type":"Feature","geometry":{"type":"Polygon","coordinates":[[[77.596345,28.272074],[77.596348,28.272223],[77.596043,28.272229],[77.59604,28.27208],[77.596345,28.272074]]]},"properties":{"objectid":20596,"uniqueplotid":"PLNGRESIDENTIAL20596","plotmap_id":"SECTOR-20_672_S_RESI","plotidentificationnumber":"672","plotno":"672","industrysector":"SECTOR-20","block":"S","plotsize":"500 SQMT","plotsize_at_the_time_of_allotme":"500 SQMT","landuse_type":"RESIDENTIAL","landuse_subcategory":"RESIDENTIAL","scheme_cod":"RES01","investment":0,"employment":0,"plotstatus":"Allotted","landallotementstatus":"SOLD","landallotementtype":"ALLOTTED","allotmentid":"YEA002271","village_name":"Rabupura","khasra_no":"47,48","longitude":77.59619400000001,"latitude":28.272151530000002,"authority":"YEIDA","category":"residential","execution_stage":"allotted"}},{"type":"Feature","geometry":{"type":"Polygon","coordinates":[[[77.596034,28.271918],[77.595835,28.271922],[77.595829,28.271651],[77.596028,28.271647],[77.596034,28.271918]]]},"properties":{"objectid":20607,"uniqueplotid":"PLNGRESIDENTIAL20607","plotmap_id":"SECTOR-20_648_S_RESI","plotidentificationnumber":"648","plotno":"648","industrysector":"SECTOR-20","block":"S","plotsize":"500 SQMT","plotsize_at_the_time_of_allotme":"500 SQMT","landuse_type":"RESIDENTIAL","landuse_subcategory":"RESIDENTIAL","scheme_cod":"RES01","investment":0,"employment":0,"plotstatus":"Allotted","landallotementstatus":"SOLD","landallotementtype":"ALLOTTED","allotmentid":"YEA003173","village_name":"Rabupura","khasra_no":"47,48","longitude":77.59593119,"latitude":28.27178458,"authority":"YEIDA","category":"residential","execution_stage":"allotted"}},{"type":"Feature","geometry":{"type":"Polygon","coordinates":[[[77.596028,28.271647],[77.595829,28.271651],[77.595823,28.271381],[77.596022,28.271377],[77.596028,28.271647]]]},"properties":{"objectid":20608,"uniqueplotid":"PLNGRESIDENTIAL20608","plotmap_id":"SECTOR-20_649_S_RESI","plotidentificationnumber":"649","plotno":"649","industrysector":"SECTOR-20","block":"S","plotsize":"500 SQMT","plotsize_at_the_time_of_allotme":"500 SQMT","landuse_type":"RESIDENTIAL","landuse_subcategory":"RESIDENTIAL","scheme_cod":"RES01","investment":0,"employment":0,"plotstatus":"Allotted","landallotementstatus":"SOLD","landallotementtype":"ALLOTTED","allotmentid":"YEA001986","lease_deed":"Y","lease_deed_date":1674412200000,"village_name":"Rabupura","khasra_no":"49,47,48","longitude":77.59592261,"latitude":28.27151094,"authority":"YEIDA","category":"residential","execution_stage":"lease-recorded"}},{"type":"Feature","geometry":{"type":"Polygon","coordinates":[[[77.596046,28.272379],[77.59605,28.272528],[77.595744,28.272535],[77.595741,28.272385],[77.596046,28.272379]]]},"properties":{"objectid":21184,"uniqueplotid":"PLNGRESIDENTIAL21184","plotmap_id":"SECTOR-20_669_S_RESI","plotidentificationnumber":"669","plotno":"669","industrysector":"SECTOR-20","block":"S","plotsize":"500 SQMT","plotsize_at_the_time_of_allotme":"500 SQMT","landuse_type":"RESIDENTIAL","landuse_subcategory":"RESIDENTIAL","scheme_cod":"RES01","investment":0,"employment":0,"plotstatus":"Allotted","landallotementstatus":"SOLD","landallotementtype":"ALLOTTED","allotmentid":"YEA002814","lease_deed":"Y","lease_deed_date":1601490600000,"village_name":"Rabupura","khasra_no":"47","longitude":77.59589536,"latitude":28.27245677,"authority":"YEIDA","category":"residential","execution_stage":"lease-recorded"}},{"type":"Feature","geometry":{"type":"Polygon","coordinates":[[[77.596043,28.272229],[77.596046,28.272379],[77.595741,28.272385],[77.595738,28.272236],[77.596043,28.272229]]]},"properties":{"objectid":21185,"uniqueplotid":"PLNGRESIDENTIAL21185","plotmap_id":"SECTOR-20_670_S_RESI","plotidentificationnumber":"670","plotno":"670","industrysector":"SECTOR-20","block":"S","plotsize":"500 SQMT","plotsize_at_the_time_of_allotme":"500 SQMT","landuse_type":"RESIDENTIAL","landuse_subcategory":"RESIDENTIAL","scheme_cod":"RES01","investment":0,"employment":0,"plotstatus":"Allotted","landallotementstatus":"SOLD","landallotementtype":"ALLOTTED","allotmentid":"YEA002446","lease_deed":"Y","lease_deed_date":1675103400000,"village_name":"Rabupura","khasra_no":"47","longitude":77.59589205,"latitude":28.272307220000002,"authority":"YEIDA","category":"residential","execution_stage":"lease-recorded"}},{"type":"Feature","geometry":{"type":"Polygon","coordinates":[[[77.596348,28.272223],[77.596352,28.272373],[77.596046,28.272379],[77.596043,28.272229],[77.596348,28.272223]]]},"properties":{"objectid":21186,"uniqueplotid":"PLNGRESIDENTIAL21186","plotmap_id":"SECTOR-20_673_S_RESI","plotidentificationnumber":"673","plotno":"673","industrysector":"SECTOR-20","block":"S","plotsize":"500 SQMT","plotsize_at_the_time_of_allotme":"500 SQMT","landuse_type":"RESIDENTIAL","landuse_subcategory":"RESIDENTIAL","scheme_cod":"RES01","investment":0,"employment":0,"plotstatus":"Allotted","landallotementstatus":"SOLD","landallotementtype":"ALLOTTED","allotmentid":"YEA003645","village_name":"Rabupura,Pachokara","khasra_no":"47,48,46,39","longitude":77.59619732,"latitude":28.272301080000002,"authority":"YEIDA","category":"residential","execution_stage":"allotted"}},{"type":"Feature","geometry":{"type":"Polygon","coordinates":[[[77.596115,28.275442],[77.596118,28.275592],[77.595812,28.275598],[77.595809,28.275448],[77.596115,28.275442]]]},"properties":{"objectid":21481,"uniqueplotid":"PLNGRESIDENTIAL21481","plotmap_id":"SECTOR-20_232_S_RESI","plotidentificationnumber":"232","plotno":"232","industrysector":"SECTOR-20","block":"S","plotsize":"500 SQMT","plotsize_at_the_time_of_allotme":"500 SQMT","landuse_type":"RESIDENTIAL","landuse_subcategory":"RESIDENTIAL","scheme_cod":"RES01","investment":0,"employment":0,"plotstatus":"Allotted","landallotementstatus":"SOLD","landallotementtype":"ALLOTTED","allotmentid":"YEA002862","lease_deed":"Y","lease_deed_date":1601317800000,"village_name":"Pachokara","khasra_no":"20,21","longitude":77.59596364,"latitude":28.27551984,"authority":"YEIDA","category":"residential","execution_stage":"lease-recorded"}},{"type":"Feature","geometry":{"type":"Polygon","coordinates":[[[77.596118,28.275592],[77.596122,28.275741],[77.595816,28.275747],[77.595812,28.275598],[77.596118,28.275592]]]},"properties":{"objectid":21482,"uniqueplotid":"PLNGRESIDENTIAL21482","plotmap_id":"SECTOR-20_233_S_RESI","plotidentificationnumber":"233","plotno":"233","industrysector":"SECTOR-20","block":"S","plotsize":"500 SQMT","plotsize_at_the_time_of_allotme":"500 SQMT","landuse_type":"RESIDENTIAL","landuse_subcategory":"RESIDENTIAL","scheme_cod":"RES01","investment":0,"employment":0,"plotstatus":"Allotted","landallotementstatus":"SOLD","landallotementtype":"ALLOTTED","allotmentid":"YEA003083","lease_deed":"Y","lease_deed_date":1563993000000,"village_name":"Pachokara","khasra_no":"20,21","longitude":77.59596692,"latitude":28.27566939,"authority":"YEIDA","category":"residential","execution_stage":"lease-recorded"}},{"type":"Feature","geometry":{"type":"Polygon","coordinates":[[[77.596122,28.275741],[77.596125,28.275891],[77.595819,28.275897],[77.595816,28.275747],[77.596122,28.275741]]]},"properties":{"objectid":21483,"uniqueplotid":"PLNGRESIDENTIAL21483","plotmap_id":"SECTOR-20_234_S_RESI","plotidentificationnumber":"234","plotno":"234","industrysector":"SECTOR-20","block":"S","plotsize":"500 SQMT","plotsize_at_the_time_of_allotme":"500 SQMT","landuse_type":"RESIDENTIAL","landuse_subcategory":"RESIDENTIAL","scheme_cod":"RES01","investment":0,"employment":0,"plotstatus":"Allotted","landallotementstatus":"SOLD","landallotementtype":"ALLOTTED","allotmentid":"YEA003751","lease_deed":"Y","lease_deed_date":1719253800000,"village_name":"Pachokara","khasra_no":"21","longitude":77.59597019,"latitude":28.27581894,"authority":"YEIDA","category":"residential","execution_stage":"lease-recorded"}},{"type":"Feature","geometry":{"type":"Polygon","coordinates":[[[77.596125,28.275891],[77.596128,28.27604],[77.595822,28.276046],[77.595819,28.275897],[77.596125,28.275891]]]},"properties":{"objectid":21484,"uniqueplotid":"PLNGRESIDENTIAL21484","plotmap_id":"SECTOR-20_235_S_RESI","plotidentificationnumber":"235","plotno":"235","industrysector":"SECTOR-20","block":"S","plotsize":"500 SQMT","plotsize_at_the_time_of_allotme":"500 SQMT","landuse_type":"RESIDENTIAL","landuse_subcategory":"RESIDENTIAL","scheme_cod":"RES01","investment":0,"employment":0,"plotstatus":"Allotted","landallotementstatus":"SOLD","landallotementtype":"ALLOTTED","allotmentid":"YEA003520","village_name":"Pachokara","khasra_no":"21","longitude":77.59597347,"latitude":28.27596848,"authority":"YEIDA","category":"residential","execution_stage":"allotted"}},{"type":"Feature","geometry":{"type":"Polygon","coordinates":[[[77.596128,28.27604],[77.596131,28.27619],[77.595826,28.276196],[77.595822,28.276046],[77.596128,28.27604]]]},"properties":{"objectid":21485,"uniqueplotid":"PLNGRESIDENTIAL21485","plotmap_id":"SECTOR-20_236_S_RESI","plotidentificationnumber":"236","plotno":"236","industrysector":"SECTOR-20","block":"S","plotsize":"500 SQMT","plotsize_at_the_time_of_allotme":"500 SQMT","landuse_type":"RESIDENTIAL","landuse_subcategory":"RESIDENTIAL","scheme_cod":"RES01","investment":0,"employment":0,"plotstatus":"Allotted","landallotementstatus":"SOLD","landallotementtype":"ALLOTTED","allotmentid":"YEA002300","village_name":"Pachokara","khasra_no":"21","longitude":77.59597675,"latitude":28.27611804,"authority":"YEIDA","category":"residential","execution_stage":"allotted"}},{"type":"Feature","geometry":{"type":"Polygon","coordinates":[[[77.596131,28.27619],[77.596135,28.276339],[77.595829,28.276345],[77.595826,28.276196],[77.596131,28.27619]]]},"properties":{"objectid":21486,"uniqueplotid":"PLNGRESIDENTIAL21486","plotmap_id":"SECTOR-20_237_S_RESI","plotidentificationnumber":"237","plotno":"237","industrysector":"SECTOR-20","block":"S","plotsize":"500 SQMT","plotsize_at_the_time_of_allotme":"500 SQMT","landuse_type":"RESIDENTIAL","landuse_subcategory":"RESIDENTIAL","scheme_cod":"RPS07","investment":0,"employment":0,"plotstatus":"Allotted","landallotementstatus":"SOLD","landallotementtype":"ALLOTTED","allotmentid":"RPS072150","village_name":"Pachokara","khasra_no":"21","longitude":77.59598003,"latitude":28.276267609999998,"authority":"YEIDA","category":"residential","execution_stage":"allotted"}},{"type":"Feature","geometry":{"type":"Polygon","coordinates":[[[77.596135,28.276339],[77.596138,28.276489],[77.595832,28.276495],[77.595829,28.276345],[77.596135,28.276339]]]},"properties":{"objectid":21487,"uniqueplotid":"PLNGRESIDENTIAL21487","plotmap_id":"SECTOR-20_238_S_RESI","plotidentificationnumber":"238","plotno":"238","industrysector":"SECTOR-20","block":"S","plotsize":"500 SQMT","plotsize_at_the_time_of_allotme":"500 SQMT","landuse_type":"RESIDENTIAL","landuse_subcategory":"RESIDENTIAL","scheme_cod":"RES01","investment":0,"employment":0,"plotstatus":"Allotted","landallotementstatus":"SOLD","landallotementtype":"ALLOTTED","allotmentid":"YEA002670","village_name":"Pachokara","khasra_no":"23,21","longitude":77.5959833,"latitude":28.276417159999998,"authority":"YEIDA","category":"residential","execution_stage":"allotted"}},{"type":"Feature","geometry":{"type":"Polygon","coordinates":[[[77.596431,28.275885],[77.596434,28.276034],[77.596128,28.27604],[77.596125,28.275891],[77.596431,28.275885]]]},"properties":{"objectid":21488,"uniqueplotid":"PLNGRESIDENTIAL21488","plotmap_id":"SECTOR-20_252_S_RESI","plotidentificationnumber":"252","plotno":"252","industrysector":"SECTOR-20","block":"S","plotsize":"500 SQMT","plotsize_at_the_time_of_allotme":"500 SQMT","landuse_type":"RESIDENTIAL","landuse_subcategory":"RESIDENTIAL","scheme_cod":"RES01","investment":0,"employment":0,"plotstatus":"Allotted","landallotementstatus":"SOLD","landallotementtype":"ALLOTTED","allotmentid":"YEA003136","lease_deed":"Y","lease_deed_date":1630002600000,"village_name":"Pachokara","khasra_no":"21","longitude":77.59627956,"latitude":28.27596248,"authority":"YEIDA","category":"residential","execution_stage":"lease-recorded"}},{"type":"Feature","geometry":{"type":"Polygon","coordinates":[[[77.596428,28.275735],[77.596431,28.275885],[77.596125,28.275891],[77.596122,28.275741],[77.596428,28.275735]]]},"properties":{"objectid":21489,"uniqueplotid":"PLNGRESIDENTIAL21489","plotmap_id":"SECTOR-20_253_S_RESI","plotidentificationnumber":"253","plotno":"253","industrysector":"SECTOR-20","block":"S","plotsize":"500 SQMT","plotsize_at_the_time_of_allotme":"500 SQMT","landuse_type":"RESIDENTIAL","landuse_subcategory":"RESIDENTIAL","scheme_cod":"RES01","investment":0,"employment":0,"plotstatus":"Allotted","landallotementstatus":"SOLD","landallotementtype":"ALLOTTED","allotmentid":"YEA002145","lease_deed":"Y","lease_deed_date":1600972200000,"village_name":"Pachokara","khasra_no":"21","longitude":77.59627634,"latitude":28.27581293,"authority":"YEIDA","category":"residential","execution_stage":"lease-recorded"}},{"type":"Feature","geometry":{"type":"Polygon","coordinates":[[[77.596425,28.275586],[77.596428,28.275735],[77.596122,28.275741],[77.596118,28.275592],[77.596425,28.275586]]]},"properties":{"objectid":21490,"uniqueplotid":"PLNGRESIDENTIAL21490","plotmap_id":"SECTOR-20_254_S_RESI","plotidentificationnumber":"254","plotno":"254","industrysector":"SECTOR-20","block":"S","plotsize":"500 SQMT","plotsize_at_the_time_of_allotme":"500 SQMT","landuse_type":"RESIDENTIAL","landuse_subcategory":"RESIDENTIAL","scheme_cod":"RES01","investment":0,"employment":0,"plotstatus":"Allotted","landallotementstatus":"SOLD","landallotementtype":"ALLOTTED","allotmentid":"YEA003945","lease_deed":"Y","lease_deed_date":1603218600000,"village_name":"Pachokara","khasra_no":"21","longitude":77.59627311,"latitude":28.275663390000002,"authority":"YEIDA","category":"residential","execution_stage":"lease-recorded"}},{"type":"Feature","geometry":{"type":"Polygon","coordinates":[[[77.596056,28.272828],[77.59606,28.272977],[77.595754,28.272983],[77.595751,28.272834],[77.596056,28.272828]]]},"properties":{"objectid":21499,"uniqueplotid":"PLNGRESIDENTIAL21499","plotmap_id":"SECTOR-20_666_S_RESI","plotidentificationnumber":"666","plotno":"666","industrysector":"SECTOR-20","block":"S","plotsize":"500 SQMT","plotsize_at_the_time_of_allotme":"500 SQMT","landuse_type":"RESIDENTIAL","landuse_subcategory":"RESIDENTIAL","scheme_cod":"RES01","investment":0,"employment":0,"plotstatus":"Allotted","landallotementstatus":"SOLD","landallotementtype":"ALLOTTED","allotmentid":"YEA002425","lease_deed":"Y","lease_deed_date":1575311400000,"village_name":"Rabupura,Pachokara","khasra_no":"47,46,39","longitude":77.5959053,"latitude":28.27290542,"authority":"YEIDA","category":"residential","execution_stage":"lease-recorded"}},{"type":"Feature","geometry":{"type":"Polygon","coordinates":[[[77.596053,28.272678],[77.596056,28.272828],[77.595751,28.272834],[77.595748,28.272684],[77.596053,28.272678]]]},"properties":{"objectid":21500,"uniqueplotid":"PLNGRESIDENTIAL21500","plotmap_id":"SECTOR-20_667_S_RESI","plotidentificationnumber":"667","plotno":"667","industrysector":"SECTOR-20","block":"S","plotsize":"500 SQMT","plotsize_at_the_time_of_allotme":"500 SQMT","landuse_type":"RESIDENTIAL","landuse_subcategory":"RESIDENTIAL","scheme_cod":"RES01","investment":0,"employment":0,"plotstatus":"Allotted","landallotementstatus":"SOLD","landallotementtype":"ALLOTTED","allotmentid":"YEA002479","village_name":"Rabupura,Pachokara","khasra_no":"47,46,39","longitude":77.59590199,"latitude":28.27275587,"authority":"YEIDA","category":"residential","execution_stage":"allotted"}},{"type":"Feature","geometry":{"type":"Polygon","coordinates":[[[77.596355,28.272522],[77.596358,28.272672],[77.596053,28.272678],[77.59605,28.272528],[77.596355,28.272522]]]},"properties":{"objectid":21501,"uniqueplotid":"PLNGRESIDENTIAL21501","plotmap_id":"SECTOR-20_675_S_RESI","plotidentificationnumber":"675","plotno":"675","industrysector":"SECTOR-20","block":"S","plotsize":"500 SQMT","plotsize_at_the_time_of_allotme":"500 SQMT","landuse_type":"RESIDENTIAL","landuse_subcategory":"RESIDENTIAL","scheme_cod":"RES01","investment":0,"employment":0,"plotstatus":"Allotted","landallotementstatus":"SOLD","landallotementtype":"ALLOTTED","allotmentid":"YEA002035","village_name":"Rabupura,Pachokara","khasra_no":"47,46,39","longitude":77.59620394,"latitude":28.27260018,"authority":"YEIDA","category":"residential","execution_stage":"allotted"}},{"type":"Feature","geometry":{"type":"Polygon","coordinates":[[[77.596362,28.272821],[77.596056,28.272828],[77.596053,28.272678],[77.596358,28.272672],[77.596362,28.272821]]]},"properties":{"objectid":21502,"uniqueplotid":"PLNGRESIDENTIAL21502","plotmap_id":"SECTOR-20_676_S_RESI","plotidentificationnumber":"676","plotno":"676","industrysector":"SECTOR-20","block":"S","plotsize":"500 SQMT","plotsize_at_the_time_of_allotme":"500 SQMT","landuse_type":"RESIDENTIAL","landuse_subcategory":"RESIDENTIAL","scheme_cod":"RES01","investment":0,"employment":0,"plotstatus":"Allotted","landallotementstatus":"SOLD","landallotementtype":"ALLOTTED","allotmentid":"YEA004044","village_name":"Rabupura,Pachokara","khasra_no":"47,46,39","longitude":77.59623297,"latitude":28.272761680000002,"authority":"YEIDA","category":"residential","execution_stage":"allotted"}},{"type":"Feature","geometry":{"type":"Polygon","coordinates":[[[77.596362,28.272821],[77.596365,28.272971],[77.59606,28.272977],[77.596056,28.272828],[77.596362,28.272821]]]},"properties":{"objectid":21503,"uniqueplotid":"PLNGRESIDENTIAL21503","plotmap_id":"SECTOR-20_677_S_RESI","plotidentificationnumber":"677","plotno":"677","industrysector":"SECTOR-20","block":"S","plotsize":"500 SQMT","plotsize_at_the_time_of_allotme":"500 SQMT","landuse_type":"RESIDENTIAL","landuse_subcategory":"RESIDENTIAL","scheme_cod":"RES01","investment":0,"employment":0,"plotstatus":"Allotted","landallotementstatus":"SOLD","landallotementtype":"ALLOTTED","allotmentid":"YEA002516","village_name":"Pachokara","khasra_no":"39","longitude":77.59621937,"latitude":28.27290337,"authority":"YEIDA","category":"residential","execution_stage":"allotted"}},{"type":"Feature","geometry":{"type":"Polygon","coordinates":[[[77.596365,28.272971],[77.596368,28.273121],[77.596063,28.273127],[77.59606,28.272977],[77.596365,28.272971]]]},"properties":{"objectid":21504,"uniqueplotid":"PLNGRESIDENTIAL21504","plotmap_id":"SECTOR-20_678_S_RESI","plotidentificationnumber":"678","plotno":"678","industrysector":"SECTOR-20","block":"S","plotsize":"500 SQMT","plotsize_at_the_time_of_allotme":"500 SQMT","landuse_type":"RESIDENTIAL","landuse_subcategory":"RESIDENTIAL","scheme_cod":"RES01","investment":0,"employment":0,"plotstatus":"Allotted","landallotementstatus":"SOLD","landallotementtype":"ALLOTTED","allotmentid":"YEA002669","village_name":"Pachokara","khasra_no":"39","longitude":77.59621388,"latitude":28.27304883,"authority":"YEIDA","category":"residential","execution_stage":"allotted"}},{"type":"Feature","geometry":{"type":"Polygon","coordinates":[[[77.596154,28.277236],[77.595849,28.277243],[77.595845,28.277093],[77.596151,28.277087],[77.596154,28.277236]]]},"properties":{"objectid":21754,"uniqueplotid":"PLNGRESIDENTIAL21754","plotmap_id":"SECTOR-20_243_S_RESI","plotidentificationnumber":"243","plotno":"243","industrysector":"SECTOR-20","block":"S","plotsize":"500 SQMT","plotsize_at_the_time_of_allotme":"500 SQMT","landuse_type":"RESIDENTIAL","landuse_subcategory":"RESIDENTIAL","scheme_cod":"RES01","investment":0,"employment":0,"plotstatus":"Allotted","landallotementstatus":"SOLD","landallotementtype":"ALLOTTED","allotmentid":"YEA003161","village_name":"Pachokara","khasra_no":"17,11","longitude":77.59600084,"latitude":28.2771654,"authority":"YEIDA","category":"residential","execution_stage":"allotted"}},{"type":"Feature","geometry":{"type":"Polygon","coordinates":[[[77.5961,28.274739],[77.596103,28.274874],[77.595796,28.274879],[77.595793,28.274745],[77.5961,28.274739]]]},"properties":{"objectid":21759,"uniqueplotid":"PLNGRESIDENTIAL21759","plotmap_id":"SECTOR-20_227_S_RESI","plotidentificationnumber":"227","plotno":"227","industrysector":"SECTOR-20","block":"S","plotsize":"500 SQMT","plotsize_at_the_time_of_allotme":"500 SQMT","landuse_type":"RESIDENTIAL","landuse_subcategory":"RESIDENTIAL","scheme_cod":"RES01","investment":0,"employment":0,"plotstatus":"Allotted","landallotementstatus":"SOLD","landallotementtype":"ALLOTTED","allotmentid":"YEA003603","village_name":"Pachokara","khasra_no":"39","longitude":77.59595598,"latitude":28.27481267,"authority":"YEIDA","category":"residential","execution_stage":"allotted"}},{"type":"Feature","geometry":{"type":"Polygon","coordinates":[[[77.596406,28.274733],[77.596409,28.274868],[77.596103,28.274874],[77.5961,28.274739],[77.596406,28.274733]]]},"properties":{"objectid":21760,"uniqueplotid":"PLNGRESIDENTIAL21760","plotmap_id":"SECTOR-20_260_S_RESI","plotidentificationnumber":"260","plotno":"260","industrysector":"SECTOR-20","block":"S","plotsize":"500 SQMT","plotsize_at_the_time_of_allotme":"500 SQMT","landuse_type":"RESIDENTIAL","landuse_subcategory":"RESIDENTIAL","scheme_cod":"RES01","investment":0,"employment":0,"plotstatus":"Allotted","landallotementstatus":"SOLD","landallotementtype":"ALLOTTED","allotmentid":"YEA002245","village_name":"Pachokara","khasra_no":"39","longitude":77.59626779,"latitude":28.27480884,"authority":"YEIDA","category":"residential","execution_stage":"allotted"}},{"type":"Feature","geometry":{"type":"Polygon","coordinates":[[[77.596403,28.274571],[77.596065,28.274578],[77.596059,28.274307],[77.596397,28.274301],[77.596403,28.274571]]]},"properties":{"objectid":21763,"uniqueplotid":"PLNGRESIDENTIAL21763","plotmap_id":"SECTOR-20_261_S_RESI","plotidentificationnumber":"261","plotno":"261","industrysector":"SECTOR-20","block":"S","plotsize":"500 SQMT","plotsize_at_the_time_of_allotme":"500 SQMT","landuse_type":"RESIDENTIAL","landuse_subcategory":"RESIDENTIAL","scheme_cod":"RES01","investment":0,"employment":0,"plotstatus":"Allotted","landallotementstatus":"SOLD","landallotementtype":"ALLOTTED","allotmentid":"YEA003671","village_name":"Pachokara","khasra_no":"39","longitude":77.59623099,"latitude":28.27443918,"authority":"YEIDA","category":"residential","execution_stage":"allotted"}},{"type":"Feature","geometry":{"type":"Polygon","coordinates":[[[77.596391,28.27403],[77.596397,28.274301],[77.596059,28.274307],[77.596053,28.274037],[77.596391,28.27403]]]},"properties":{"objectid":21799,"uniqueplotid":"PLNGRESIDENTIAL21799","plotmap_id":"SECTOR-20_326_S_RESI","plotidentificationnumber":"326","plotno":"326","industrysector":"SECTOR-20","block":"S","plotsize":"500 SQMT","plotsize_at_the_time_of_allotme":"500 SQMT","landuse_type":"RESIDENTIAL","landuse_subcategory":"RESIDENTIAL","scheme_cod":"RES01","investment":0,"employment":0,"plotstatus":"Allotted","landallotementstatus":"SOLD","landallotementtype":"ALLOTTED","allotmentid":"YEA001873","village_name":"Pachokara","khasra_no":"39","longitude":77.59622818,"latitude":28.27417135,"authority":"YEIDA","category":"residential","execution_stage":"allotted"}},{"type":"Feature","geometry":{"type":"Polygon","coordinates":[[[77.596103,28.274874],[77.596105,28.274993],[77.595799,28.274999],[77.595796,28.274879],[77.596103,28.274874]]]},"properties":{"objectid":22011,"uniqueplotid":"PLNGRESIDENTIAL22011","plotmap_id":"SECTOR-20_228_S_RESI","plotidentificationnumber":"228","plotno":"228","industrysector":"SECTOR-20","block":"S","plotsize":"500 SQMT","plotsize_at_the_time_of_allotme":"500 SQMT","landuse_type":"RESIDENTIAL","landuse_subcategory":"RESIDENTIAL","scheme_cod":"RES01","investment":0,"employment":0,"plotstatus":"Allotted","landallotementstatus":"SOLD","landallotementtype":"ALLOTTED","allotmentid":"YEA002409","lease_deed":"Y","lease_deed_date":1571596200000,"village_name":"Pachokara","khasra_no":"39","longitude":77.59595085,"latitude":28.274936489999998,"authority":"YEIDA","category":"residential","execution_stage":"lease-recorded"}},{"type":"Feature","geometry":{"type":"Polygon","coordinates":[[[77.596105,28.274993],[77.596109,28.275143],[77.595802,28.275149],[77.595799,28.274999],[77.596105,28.274993]]]},"properties":{"objectid":22012,"uniqueplotid":"PLNGRESIDENTIAL22012","plotmap_id":"SECTOR-20_229_S_RESI","plotidentificationnumber":"229","plotno":"229","industrysector":"SECTOR-20","block":"S","plotsize":"500 SQMT","plotsize_at_the_time_of_allotme":"500 SQMT","landuse_type":"RESIDENTIAL","landuse_subcategory":"RESIDENTIAL","scheme_cod":"RES01","investment":0,"employment":0,"plotstatus":"Allotted","landallotementstatus":"SOLD","landallotementtype":"ALLOTTED","allotmentid":"YEA002036","lease_deed":"Y","lease_deed_date":1575829800000,"village_name":"Pachokara","khasra_no":"20,37,39","longitude":77.59595381,"latitude":28.2750712,"authority":"YEIDA","category":"residential","execution_stage":"lease-recorded"}},{"type":"Feature","geometry":{"type":"Polygon","coordinates":[[[77.596109,28.275143],[77.596112,28.275293],[77.595806,28.275299],[77.595802,28.275149],[77.596109,28.275143]]]},"properties":{"objectid":22013,"uniqueplotid":"PLNGRESIDENTIAL22013","plotmap_id":"SECTOR-20_230_S_RESI","plotidentificationnumber":"230","plotno":"230","industrysector":"SECTOR-20","block":"S","plotsize":"500 SQMT","plotsize_at_the_time_of_allotme":"500 SQMT","landuse_type":"RESIDENTIAL","landuse_subcategory":"RESIDENTIAL","scheme_cod":"RES01","investment":0,"employment":0,"plotstatus":"Allotted","landallotementstatus":"SOLD","landallotementtype":"ALLOTTED","allotmentid":"YEA003412","lease_deed":"Y","lease_deed_date":1635359400000,"village_name":"Pachokara","khasra_no":"20,37,39","longitude":77.59595708,"latitude":28.275220750000003,"authority":"YEIDA","category":"residential","execution_stage":"lease-recorded"}},{"type":"Feature","geometry":{"type":"Polygon","coordinates":[[[77.596112,28.275293],[77.596115,28.275442],[77.595809,28.275448],[77.595806,28.275299],[77.596112,28.275293]]]},"properties":{"objectid":22014,"uniqueplotid":"PLNGRESIDENTIAL22014","plotmap_id":"SECTOR-20_231_S_RESI","plotidentificationnumber":"231","plotno":"231","industrysector":"SECTOR-20","block":"S","plotsize":"500 SQMT","plotsize_at_the_time_of_allotme":"500 SQMT","landuse_type":"RESIDENTIAL","landuse_subcategory":"RESIDENTIAL","scheme_cod":"RES01","investment":0,"employment":0,"plotstatus":"Allotted","landallotementstatus":"SOLD","landallotementtype":"ALLOTTED","allotmentid":"YEA001905","lease_deed":"Y","lease_deed_date":1594751400000,"village_name":"Pachokara","khasra_no":"20","longitude":77.59596036,"latitude":28.275370300000002,"authority":"YEIDA","category":"residential","execution_stage":"lease-recorded"}},{"type":"Feature","geometry":{"type":"Polygon","coordinates":[[[77.596138,28.276489],[77.596141,28.276639],[77.595835,28.276644],[77.595832,28.276495],[77.596138,28.276489]]]},"properties":{"objectid":22015,"uniqueplotid":"PLNGRESIDENTIAL22015","plotmap_id":"SECTOR-20_239_S_RESI","plotidentificationnumber":"239","plotno":"239","industrysector":"SECTOR-20","block":"S","plotsize":"500 SQMT","plotsize_at_the_time_of_allotme":"500 SQMT","landuse_type":"RESIDENTIAL","landuse_subcategory":"RESIDENTIAL","scheme_cod":"RES01","investment":0,"employment":0,"plotstatus":"Allotted","landallotementstatus":"SOLD","landallotementtype":"ALLOTTED","allotmentid":"YEA002868","village_name":"Pachokara","khasra_no":"22,23,21","longitude":77.59598658,"latitude":28.2765667,"authority":"YEIDA","category":"residential","execution_stage":"allotted"}},{"type":"Feature","geometry":{"type":"Polygon","coordinates":[[[77.596141,28.276639],[77.596144,28.276788],[77.595839,28.276794],[77.595835,28.276644],[77.596141,28.276639]]]},"properties":{"objectid":22016,"uniqueplotid":"PLNGRESIDENTIAL22016","plotmap_id":"SECTOR-20_240_S_RESI","plotidentificationnumber":"240","plotno":"240","industrysector":"SECTOR-20","block":"S","plotsize":"500 SQMT","plotsize_at_the_time_of_allotme":"500 SQMT","landuse_type":"RESIDENTIAL","landuse_subcategory":"RESIDENTIAL","scheme_cod":"RES01","investment":0,"employment":0,"plotstatus":"Allotted","landallotementstatus":"SOLD","landallotementtype":"ALLOTTED","allotmentid":"YEA001889","village_name":"Pachokara","khasra_no":"22,21","longitude":77.59598986,"latitude":28.276716250000003,"authority":"YEIDA","category":"residential","execution_stage":"allotted"}},{"type":"Feature","geometry":{"type":"Polygon","coordinates":[[[77.596144,28.276788],[77.596147,28.276938],[77.595842,28.276944],[77.595839,28.276794],[77.596144,28.276788]]]},"properties":{"objectid":22017,"uniqueplotid":"PLNGRESIDENTIAL22017","plotmap_id":"SECTOR-20_241_S_RESI","plotidentificationnumber":"241","plotno":"241","industrysector":"SECTOR-20","block":"S","plotsize":"500 SQMT","plotsize_at_the_time_of_allotme":"500 SQMT","landuse_type":"RESIDENTIAL","landuse_subcategory":"RESIDENTIAL","scheme_cod":"RES01","investment":0,"employment":0,"plotstatus":"Allotted","landallotementstatus":"SOLD","landallotementtype":"ALLOTTED","allotmentid":"YEA002812","village_name":"Pachokara","khasra_no":"22,21","longitude":77.59599313,"latitude":28.276865790000002,"authority":"YEIDA","category":"residential","execution_stage":"allotted"}},{"type":"Feature","geometry":{"type":"Polygon","coordinates":[[[77.596147,28.276938],[77.596151,28.277087],[77.595845,28.277093],[77.595842,28.276944],[77.596147,28.276938]]]},"properties":{"objectid":22018,"uniqueplotid":"PLNGRESIDENTIAL22018","plotmap_id":"SECTOR-20_242_S_RESI","plotidentificationnumber":"242","plotno":"242","industrysector":"SECTOR-20","block":"S","plotsize":"500 SQMT","plotsize_at_the_time_of_allotme":"500 SQMT","landuse_type":"RESIDENTIAL","landuse_subcategory":"RESIDENTIAL","scheme_cod":"RES01","investment":0,"employment":0,"plotstatus":"Allotted","landallotementstatus":"SOLD","landallotementtype":"ALLOTTED","allotmentid":"YEA002068","village_name":"Pachokara","khasra_no":"22,17,11","longitude":77.59599641,"latitude":28.277015340000002,"authority":"YEIDA","category":"residential","execution_stage":"allotted"}},{"type":"Feature","geometry":{"type":"Polygon","coordinates":[[[77.596438,28.276184],[77.596131,28.27619],[77.596128,28.27604],[77.596434,28.276034],[77.596438,28.276184]]]},"properties":{"objectid":22019,"uniqueplotid":"PLNGRESIDENTIAL22019","plotmap_id":"SECTOR-20_251_S_RESI","plotidentificationnumber":"251","plotno":"251","industrysector":"SECTOR-20","block":"S","plotsize":"500 SQMT","plotsize_at_the_time_of_allotme":"500 SQMT","landuse_type":"RESIDENTIAL","landuse_subcategory":"RESIDENTIAL","scheme_cod":"RES01","investment":0,"employment":0,"plotstatus":"Allotted","landallotementstatus":"SOLD","landallotementtype":"ALLOTTED","allotmentid":"YEA002292","lease_deed":"Y","lease_deed_date":1601404200000,"village_name":"Pachokara","khasra_no":"21","longitude":77.59628273999999,"latitude":28.27611205,"authority":"YEIDA","category":"residential","execution_stage":"lease-recorded"}},{"type":"Feature","geometry":{"type":"Polygon","coordinates":[[[77.596412,28.274987],[77.596415,28.275137],[77.596109,28.275143],[77.596105,28.274993],[77.596412,28.274987]]]},"properties":{"objectid":22020,"uniqueplotid":"PLNGRESIDENTIAL22020","plotmap_id":"SECTOR-20_258_S_RESI","plotidentificationnumber":"258","plotno":"258","industrysector":"SECTOR-20","block":"S","plotsize":"500 SQMT","plotsize_at_the_time_of_allotme":"500 SQMT","landuse_type":"RESIDENTIAL","landuse_subcategory":"RESIDENTIAL","scheme_cod":"RES01","investment":0,"employment":0,"plotstatus":"Allotted","landallotementstatus":"SOLD","landallotementtype":"ALLOTTED","allotmentid":"YEA003522","lease_deed":"Y","lease_deed_date":1675103400000,"village_name":"Pachokara","khasra_no":"20,19,37,39","longitude":77.59626019,"latitude":28.2750652,"authority":"YEIDA","category":"residential","execution_stage":"lease-recorded"}},{"type":"Feature","geometry":{"type":"Polygon","coordinates":[[[77.596409,28.274868],[77.596412,28.274987],[77.596105,28.274993],[77.596103,28.274874],[77.596409,28.274868]]]},"properties":{"objectid":22021,"uniqueplotid":"PLNGRESIDENTIAL22021","plotmap_id":"SECTOR-20_259_S_RESI","plotidentificationnumber":"259","plotno":"259","industrysector":"SECTOR-20","block":"S","plotsize":"500 SQMT","plotsize_at_the_time_of_allotme":"500 SQMT","landuse_type":"RESIDENTIAL","landuse_subcategory":"RESIDENTIAL","scheme_cod":"RES01","investment":0,"employment":0,"plotstatus":"Allotted","landallotementstatus":"SOLD","landallotementtype":"ALLOTTED","allotmentid":"YEA003488","village_name":"Pachokara","khasra_no":"37,39","longitude":77.59625727999999,"latitude":28.274930519999998,"authority":"YEIDA","category":"residential","execution_stage":"allotted"}},{"type":"Feature","geometry":{"type":"Polygon","coordinates":[[[77.596053,28.274037],[77.596059,28.274307],[77.59589,28.274311],[77.595884,28.274041],[77.596053,28.274037]]]},"properties":{"objectid":22032,"uniqueplotid":"PLNGRESIDENTIAL22032","plotmap_id":"SECTOR-20_324_S_RESI","plotidentificationnumber":"324","plotno":"324","industrysector":"SECTOR-20","block":"S","plotsize":"500 SQMT","plotsize_at_the_time_of_allotme":"500 SQMT","landuse_type":"RESIDENTIAL","landuse_subcategory":"RESIDENTIAL","scheme_cod":"RES01","investment":0,"employment":0,"plotstatus":"Allotted","landallotementstatus":"SOLD","landallotementtype":"ALLOTTED","allotmentid":"YEA003943","village_name":"Pachokara","khasra_no":"39","longitude":77.59597162,"latitude":28.27417401,"authority":"YEIDA","category":"residential","execution_stage":"allotted"}},{"type":"Feature","geometry":{"type":"Polygon","coordinates":[[[77.596059,28.274307],[77.596065,28.274578],[77.595896,28.274581],[77.59589,28.274311],[77.596059,28.274307]]]},"properties":{"objectid":22033,"uniqueplotid":"PLNGRESIDENTIAL22033","plotmap_id":"SECTOR-20_262_S_RESI","plotidentificationnumber":"262","plotno":"262","industrysector":"SECTOR-20","block":"S","plotsize":"500 SQMT","plotsize_at_the_time_of_allotme":"500 SQMT","landuse_type":"RESIDENTIAL","landuse_subcategory":"RESIDENTIAL","scheme_cod":"RES01","investment":0,"employment":0,"plotstatus":"Allotted","landallotementstatus":"SOLD","landallotementtype":"ALLOTTED","allotmentid":"YEA003456","village_name":"Pachokara","khasra_no":"39","longitude":77.59597761,"latitude":28.27444427,"authority":"YEIDA","category":"residential","execution_stage":"allotted"}},{"type":"Feature","geometry":{"type":"Polygon","coordinates":[[[77.59605,28.272528],[77.596053,28.272678],[77.595748,28.272684],[77.595744,28.272535],[77.59605,28.272528]]]},"properties":{"objectid":22042,"uniqueplotid":"PLNGRESIDENTIAL22042","plotmap_id":"SECTOR-20_668_S_RESI","plotidentificationnumber":"668","plotno":"668","industrysector":"SECTOR-20","block":"S","plotsize":"500 SQMT","plotsize_at_the_time_of_allotme":"500 SQMT","landuse_type":"RESIDENTIAL","landuse_subcategory":"RESIDENTIAL","scheme_cod":"RES01","investment":0,"employment":0,"plotstatus":"Allotted","landallotementstatus":"SOLD","landallotementtype":"ALLOTTED","allotmentid":"YEA003994","lease_deed":"Y","lease_deed_date":1582655400000,"village_name":"Rabupura","khasra_no":"47","longitude":77.59589867,"latitude":28.27260632,"authority":"YEIDA","category":"residential","execution_stage":"lease-recorded"}},{"type":"Feature","geometry":{"type":"Polygon","coordinates":[[[77.596076,28.273725],[77.596079,28.273874],[77.595774,28.273881],[77.595771,28.273731],[77.596076,28.273725]]]},"properties":{"objectid":22225,"uniqueplotid":"PLNGRESIDENTIAL22225","plotmap_id":"SECTOR-20_660_S_RESI","plotidentificationnumber":"660","plotno":"660","industrysector":"SECTOR-20","block":"S","plotsize":"500 SQMT","plotsize_at_the_time_of_allotme":"500 SQMT","landuse_type":"RESIDENTIAL","landuse_subcategory":"RESIDENTIAL","scheme_cod":"RES01","investment":0,"employment":0,"plotstatus":"Allotted","landallotementstatus":"SOLD","landallotementtype":"ALLOTTED","allotmentid":"YEA002132","village_name":"Pachokara","khasra_no":"39","longitude":77.59591637,"latitude":28.27379862,"authority":"YEIDA","category":"residential","execution_stage":"allotted"}},{"type":"Feature","geometry":{"type":"Polygon","coordinates":[[[77.596381,28.273719],[77.596385,28.273868],[77.596079,28.273874],[77.596076,28.273725],[77.596381,28.273719]]]},"properties":{"objectid":22226,"uniqueplotid":"PLNGRESIDENTIAL22226","plotmap_id":"SECTOR-20_683_S_RESI","plotidentificationnumber":"683","plotno":"683","industrysector":"SECTOR-20","block":"S","plotsize":"500 SQMT","plotsize_at_the_time_of_allotme":"500 SQMT","landuse_type":"RESIDENTIAL","landuse_subcategory":"RESIDENTIAL","scheme_cod":"RPS08","investment":0,"employment":0,"plotstatus":"Allotted","landallotementstatus":"SOLD","landallotementtype":"ALLOTTED","allotmentid":"RPS081292","village_name":"Pachokara","khasra_no":"39","longitude":77.59623045,"latitude":28.273796570000002,"authority":"YEIDA","category":"residential","execution_stage":"allotted"}},{"type":"Feature","geometry":{"type":"Polygon","coordinates":[[[77.596421,28.275436],[77.596425,28.275586],[77.596118,28.275592],[77.596115,28.275442],[77.596421,28.275436]]]},"properties":{"objectid":22383,"uniqueplotid":"PLNGRESIDENTIAL22383","plotmap_id":"SECTOR-20_255_S_RESI","plotidentificationnumber":"255","plotno":"255","industrysector":"SECTOR-20","block":"S","plotsize":"500 SQMT","plotsize_at_the_time_of_allotme":"500 SQMT","landuse_type":"RESIDENTIAL","landuse_subcategory":"RESIDENTIAL","scheme_cod":"RES01","investment":0,"employment":0,"plotstatus":"Allotted","landallotementstatus":"SOLD","landallotementtype":"ALLOTTED","allotmentid":"YEA002621","lease_deed":"Y","lease_deed_date":1580409000000,"village_name":"Pachokara","khasra_no":"20,21","longitude":77.59626988,"latitude":28.275513840000002,"authority":"YEIDA","category":"residential","execution_stage":"lease-recorded"}},{"type":"Feature","geometry":{"type":"Polygon","coordinates":[[[77.596418,28.275287],[77.596421,28.275436],[77.596115,28.275442],[77.596112,28.275293],[77.596418,28.275287]]]},"properties":{"objectid":22384,"uniqueplotid":"PLNGRESIDENTIAL22384","plotmap_id":"SECTOR-20_256_S_RESI","plotidentificationnumber":"256","plotno":"256","industrysector":"SECTOR-20","block":"S","plotsize":"500 SQMT","plotsize_at_the_time_of_allotme":"500 SQMT","landuse_type":"RESIDENTIAL","landuse_subcategory":"RESIDENTIAL","scheme_cod":"RPS04","investment":0,"employment":0,"plotstatus":"Allotted","landallotementstatus":"SOLD","landallotementtype":"ALLOTTED","allotmentid":"RPS041318","lease_deed":"Y","lease_deed_date":1692124200000,"village_name":"Pachokara","khasra_no":"20,21","longitude":77.59626664999999,"latitude":28.275364290000002,"authority":"YEIDA","category":"residential","execution_stage":"lease-recorded"}},{"type":"Feature","geometry":{"type":"Polygon","coordinates":[[[77.596415,28.275137],[77.596418,28.275287],[77.596112,28.275293],[77.596109,28.275143],[77.596415,28.275137]]]},"properties":{"objectid":22385,"uniqueplotid":"PLNGRESIDENTIAL22385","plotmap_id":"SECTOR-20_257_S_RESI","plotidentificationnumber":"257","plotno":"257","industrysector":"SECTOR-20","block":"S","plotsize":"500 SQMT","plotsize_at_the_time_of_allotme":"500 SQMT","landuse_type":"RESIDENTIAL","landuse_subcategory":"RESIDENTIAL","scheme_cod":"RES01","investment":0,"employment":0,"plotstatus":"Allotted","landallotementstatus":"SOLD","landallotementtype":"ALLOTTED","allotmentid":"YEA003457","lease_deed":"Y","lease_deed_date":1675103400000,"village_name":"Pachokara","khasra_no":"20,19","longitude":77.59626342,"latitude":28.27521475,"authority":"YEIDA","category":"residential","execution_stage":"lease-recorded"}},{"type":"Feature","geometry":{"type":"Polygon","coordinates":[[[77.596073,28.273575],[77.596076,28.273725],[77.595771,28.273731],[77.595768,28.273581],[77.596073,28.273575]]]},"properties":{"objectid":22388,"uniqueplotid":"PLNGRESIDENTIAL22388","plotmap_id":"SECTOR-20_661_S_RESI","plotidentificationnumber":"661","plotno":"661","industrysector":"SECTOR-20","block":"S","plotsize":"500 SQMT","plotsize_at_the_time_of_allotme":"500 SQMT","landuse_type":"RESIDENTIAL","landuse_subcategory":"RESIDENTIAL","scheme_cod":"RES01","investment":0,"employment":0,"plotstatus":"Allotted","landallotementstatus":"SOLD","landallotementtype":"ALLOTTED","allotmentid":"YEA003374","lease_deed":"Y","lease_deed_date":1575484200000,"village_name":"Pachokara","khasra_no":"39","longitude":77.59592187,"latitude":28.27365316,"authority":"YEIDA","category":"residential","execution_stage":"lease-recorded"}},{"type":"Feature","geometry":{"type":"Polygon","coordinates":[[[77.59607,28.273426],[77.596073,28.273575],[77.595768,28.273581],[77.595764,28.273432],[77.59607,28.273426]]]},"properties":{"objectid":22389,"uniqueplotid":"PLNGRESIDENTIAL22389","plotmap_id":"SECTOR-20_662_S_RESI","plotidentificationnumber":"662","plotno":"662","industrysector":"SECTOR-20","block":"S","plotsize":"500 SQMT","plotsize_at_the_time_of_allotme":"500 SQMT","landuse_type":"RESIDENTIAL","landuse_subcategory":"RESIDENTIAL","scheme_cod":"RES01","investment":0,"employment":0,"plotstatus":"Allotted","landallotementstatus":"SOLD","landallotementtype":"ALLOTTED","allotmentid":"YEA001678","village_name":"Pachokara","khasra_no":"39","longitude":77.59591855,"latitude":28.27350361,"authority":"YEIDA","category":"residential","execution_stage":"allotted"}},{"type":"Feature","geometry":{"type":"Polygon","coordinates":[[[77.596066,28.273276],[77.59607,28.273426],[77.595764,28.273432],[77.595761,28.273282],[77.596066,28.273276]]]},"properties":{"objectid":22390,"uniqueplotid":"PLNGRESIDENTIAL22390","plotmap_id":"SECTOR-20_663_S_RESI","plotidentificationnumber":"663","plotno":"663","industrysector":"SECTOR-20","block":"S","plotsize":"500 SQMT","plotsize_at_the_time_of_allotme":"500 SQMT","landuse_type":"RESIDENTIAL","landuse_subcategory":"RESIDENTIAL","scheme_cod":"RES01","investment":0,"employment":0,"plotstatus":"Allotted","landallotementstatus":"SOLD","landallotementtype":"ALLOTTED","allotmentid":"YEA002514","village_name":"Rabupura,Pachokara","khasra_no":"46,39","longitude":77.59591524,"latitude":28.27335406,"authority":"YEIDA","category":"residential","execution_stage":"allotted"}},{"type":"Feature","geometry":{"type":"Polygon","coordinates":[[[77.596063,28.273127],[77.596066,28.273276],[77.595761,28.273282],[77.595758,28.273133],[77.596063,28.273127]]]},"properties":{"objectid":22391,"uniqueplotid":"PLNGRESIDENTIAL22391","plotmap_id":"SECTOR-20_664_S_RESI","plotidentificationnumber":"664","plotno":"664","industrysector":"SECTOR-20","block":"S","plotsize":"500 SQMT","plotsize_at_the_time_of_allotme":"500 SQMT","landuse_type":"RESIDENTIAL","landuse_subcategory":"RESIDENTIAL","scheme_cod":"RES01","investment":0,"employment":0,"plotstatus":"Allotted","landallotementstatus":"SOLD","landallotementtype":"ALLOTTED","allotmentid":"YEA002099","lease_deed":"Y","lease_deed_date":1575916200000,"village_name":"Rabupura,Pachokara","khasra_no":"47,46,39","longitude":77.59591193,"latitude":28.27320452,"authority":"YEIDA","category":"residential","execution_stage":"lease-recorded"}},{"type":"Feature","geometry":{"type":"Polygon","coordinates":[[[77.59606,28.272977],[77.596063,28.273127],[77.595758,28.273133],[77.595754,28.272983],[77.59606,28.272977]]]},"properties":{"objectid":22392,"uniqueplotid":"PLNGRESIDENTIAL22392","plotmap_id":"SECTOR-20_665_S_RESI","plotidentificationnumber":"665","plotno":"665","industrysector":"SECTOR-20","block":"S","plotsize":"500 SQMT","plotsize_at_the_time_of_allotme":"500 SQMT","landuse_type":"RESIDENTIAL","landuse_subcategory":"RESIDENTIAL","scheme_cod":"RES01","investment":0,"employment":0,"plotstatus":"Allotted","landallotementstatus":"SOLD","landallotementtype":"ALLOTTED","allotmentid":"YEA001757","lease_deed":"Y","lease_deed_date":1576089000000,"village_name":"Rabupura,Pachokara","khasra_no":"47,46,39","longitude":77.59590861,"latitude":28.27305497,"authority":"YEIDA","category":"residential","execution_stage":"lease-recorded"}},{"type":"Feature","geometry":{"type":"Polygon","coordinates":[[[77.596368,28.273121],[77.596371,28.27327],[77.596066,28.273276],[77.596063,28.273127],[77.596368,28.273121]]]},"properties":{"objectid":22393,"uniqueplotid":"PLNGRESIDENTIAL22393","plotmap_id":"SECTOR-20_679_S_RESI","plotidentificationnumber":"679","plotno":"679","industrysector":"SECTOR-20","block":"S","plotsize":"500 SQMT","landuse_type":"RESIDENTIAL","landuse_subcategory":"RESIDENTIAL","investment":0,"employment":0,"landallotementstatus":"VACANT","landallotementtype":"VACANT","village_name":"Pachokara","khasra_no":"39","longitude":77.5962172,"latitude":28.27319837,"authority":"YEIDA","category":"residential","execution_stage":"vacant"}},{"type":"Feature","geometry":{"type":"Polygon","coordinates":[[[77.596371,28.27327],[77.596375,28.27342],[77.59607,28.273426],[77.596066,28.273276],[77.596371,28.27327]]]},"properties":{"objectid":22394,"uniqueplotid":"PLNGRESIDENTIAL22394","plotmap_id":"SECTOR-20_680_S_RESI","plotidentificationnumber":"680","plotno":"680","industrysector":"SECTOR-20","block":"S","plotsize":"500 SQMT","plotsize_at_the_time_of_allotme":"500 SQMT","landuse_type":"RESIDENTIAL","landuse_subcategory":"RESIDENTIAL","scheme_cod":"RES01","investment":0,"employment":0,"plotstatus":"Allotted","landallotementstatus":"SOLD","landallotementtype":"ALLOTTED","allotmentid":"YEA001860","village_name":"Pachokara","khasra_no":"39","longitude":77.59622051,"latitude":28.27334792,"authority":"YEIDA","category":"residential","execution_stage":"allotted"}},{"type":"Feature","geometry":{"type":"Polygon","coordinates":[[[77.596375,28.27342],[77.596378,28.273569],[77.596073,28.273575],[77.59607,28.273426],[77.596375,28.27342]]]},"properties":{"objectid":22395,"uniqueplotid":"PLNGRESIDENTIAL22395","plotmap_id":"SECTOR-20_681_S_RESI","plotidentificationnumber":"681","plotno":"681","industrysector":"SECTOR-20","block":"S","plotsize":"500 SQMT","plotsize_at_the_time_of_allotme":"500 SQMT","landuse_type":"RESIDENTIAL","landuse_subcategory":"RESIDENTIAL","scheme_cod":"RPS07","investment":0,"employment":0,"plotstatus":"Allotted","landallotementstatus":"SOLD","landallotementtype":"ALLOTTED","allotmentid":"RPS072131","village_name":"Pachokara","khasra_no":"39","longitude":77.59622381999999,"latitude":28.27349747,"authority":"YEIDA","category":"residential","execution_stage":"allotted"}},{"type":"Feature","geometry":{"type":"Polygon","coordinates":[[[77.596378,28.273569],[77.596381,28.273719],[77.596076,28.273725],[77.596073,28.273575],[77.596378,28.273569]]]},"properties":{"objectid":22396,"uniqueplotid":"PLNGRESIDENTIAL22396","plotmap_id":"SECTOR-20_682_S_RESI","plotidentificationnumber":"682","plotno":"682","industrysector":"SECTOR-20","block":"S","plotsize":"500 SQMT","plotsize_at_the_time_of_allotme":"500 SQMT","landuse_type":"RESIDENTIAL","landuse_subcategory":"RESIDENTIAL","scheme_cod":"RES01","investment":0,"employment":0,"plotstatus":"Allotted","landallotementstatus":"SOLD","landallotementtype":"ALLOTTED","allotmentid":"YEA001901","village_name":"Pachokara","khasra_no":"39","longitude":77.59622714,"latitude":28.27364702,"authority":"YEIDA","category":"residential","execution_stage":"allotted"}},{"type":"Feature","geometry":{"type":"Polygon","coordinates":[[[77.59646,28.27723],[77.596154,28.277236],[77.596151,28.277087],[77.596457,28.277081],[77.59646,28.27723]]]},"properties":{"objectid":29028,"uniqueplotid":"PLNGRESIDENTIAL29028","plotmap_id":"SECTOR-20_244_S_RESI","plotidentificationnumber":"244","plotno":"244","industrysector":"SECTOR-20","block":"S","plotsize":"500 SQMT","plotsize_at_the_time_of_allotme":"500 SQMT","landuse_type":"RESIDENTIAL","landuse_subcategory":"RESIDENTIAL","scheme_cod":"RES01","investment":0,"employment":0,"plotstatus":"Allotted","landallotementstatus":"SOLD","landallotementtype":"ALLOTTED","allotmentid":"YEA003813","village_name":"Pachokara","khasra_no":"12,11","longitude":77.59630532999999,"latitude":28.277158760000003,"authority":"YEIDA","category":"residential","execution_stage":"allotted"}},{"type":"Feature","geometry":{"type":"Polygon","coordinates":[[[77.596457,28.277081],[77.596151,28.277087],[77.596147,28.276938],[77.596454,28.276932],[77.596457,28.277081]]]},"properties":{"objectid":29199,"uniqueplotid":"PLNGRESIDENTIAL29199","plotmap_id":"SECTOR-20_245_S_RESI","plotidentificationnumber":"245","plotno":"245","industrysector":"SECTOR-20","block":"S","plotsize":"500 SQMT","plotsize_at_the_time_of_allotme":"500 SQMT","landuse_type":"RESIDENTIAL","landuse_subcategory":"RESIDENTIAL","scheme_cod":"RES01","investment":0,"employment":0,"plotstatus":"Allotted","landallotementstatus":"SOLD","landallotementtype":"ALLOTTED","allotmentid":"YEA003886","lease_deed":"Y","lease_deed_date":1682447400000,"village_name":"Pachokara","khasra_no":"22,17,12,11,21","longitude":77.59630217,"latitude":28.277009420000002,"authority":"YEIDA","category":"residential","execution_stage":"lease-recorded"}},{"type":"Feature","geometry":{"type":"Polygon","coordinates":[[[77.596454,28.276932],[77.596147,28.276938],[77.596144,28.276788],[77.59645,28.276782],[77.596454,28.276932]]]},"properties":{"objectid":29200,"uniqueplotid":"PLNGRESIDENTIAL29200","plotmap_id":"SECTOR-20_246_S_RESI","plotidentificationnumber":"246","plotno":"246","industrysector":"SECTOR-20","block":"S","plotsize":"500 SQMT","plotsize_at_the_time_of_allotme":"500 SQMT","landuse_type":"RESIDENTIAL","landuse_subcategory":"RESIDENTIAL","scheme_cod":"RES01","investment":0,"employment":0,"plotstatus":"Allotted","landallotementstatus":"SOLD","landallotementtype":"ALLOTTED","allotmentid":"YEA003918","lease_deed":"Y","lease_deed_date":1719340200000,"village_name":"Pachokara","khasra_no":"22,17,12,21","longitude":77.59629894,"latitude":28.27685988,"authority":"YEIDA","category":"residential","execution_stage":"lease-recorded"}},{"type":"Feature","geometry":{"type":"Polygon","coordinates":[[[77.59645,28.276782],[77.596144,28.276788],[77.596141,28.276639],[77.596447,28.276633],[77.59645,28.276782]]]},"properties":{"objectid":29201,"uniqueplotid":"PLNGRESIDENTIAL29201","plotmap_id":"SECTOR-20_247_S_RESI","plotidentificationnumber":"247","plotno":"247","industrysector":"SECTOR-20","block":"S","plotsize":"500 SQMT","plotsize_at_the_time_of_allotme":"500 SQMT","landuse_type":"RESIDENTIAL","landuse_subcategory":"RESIDENTIAL","scheme_cod":"RES01","investment":0,"employment":0,"plotstatus":"Allotted","landallotementstatus":"SOLD","landallotementtype":"ALLOTTED","allotmentid":"YEA001955","lease_deed":"Y","lease_deed_date":1615228200000,"village_name":"Pachokara","khasra_no":"21","longitude":77.59629570999999,"latitude":28.27671033,"authority":"YEIDA","category":"residential","execution_stage":"lease-recorded"}},{"type":"Feature","geometry":{"type":"Polygon","coordinates":[[[77.596447,28.276633],[77.596141,28.276639],[77.596138,28.276489],[77.596444,28.276483],[77.596447,28.276633]]]},"properties":{"objectid":29202,"uniqueplotid":"PLNGRESIDENTIAL29202","plotmap_id":"SECTOR-20_248_S_RESI","plotidentificationnumber":"248","plotno":"248","industrysector":"SECTOR-20","block":"S","plotsize":"500 SQMT","plotsize_at_the_time_of_allotme":"500 SQMT","landuse_type":"RESIDENTIAL","landuse_subcategory":"RESIDENTIAL","scheme_cod":"RES01","investment":0,"employment":0,"plotstatus":"Allotted","landallotementstatus":"SOLD","landallotementtype":"ALLOTTED","allotmentid":"YEA002217","lease_deed":"Y","lease_deed_date":1578335400000,"village_name":"Pachokara","khasra_no":"21","longitude":77.59629248,"latitude":28.27656077,"authority":"YEIDA","category":"residential","execution_stage":"lease-recorded"}},{"type":"Feature","geometry":{"type":"Polygon","coordinates":[[[77.596444,28.276483],[77.596138,28.276489],[77.596135,28.276339],[77.596441,28.276334],[77.596444,28.276483]]]},"properties":{"objectid":29203,"uniqueplotid":"PLNGRESIDENTIAL29203","plotmap_id":"SECTOR-20_249_S_RESI","plotidentificationnumber":"249","plotno":"249","industrysector":"SECTOR-20","block":"S","plotsize":"500 SQMT","plotsize_at_the_time_of_allotme":"500 SQMT","landuse_type":"RESIDENTIAL","landuse_subcategory":"RESIDENTIAL","scheme_cod":"RES01","investment":0,"employment":0,"plotstatus":"Allotted","landallotementstatus":"SOLD","landallotementtype":"ALLOTTED","allotmentid":"YEA002679","lease_deed":"Y","lease_deed_date":1567017000000,"village_name":"Pachokara","khasra_no":"21","longitude":77.59628925,"latitude":28.276411239999998,"authority":"YEIDA","category":"residential","execution_stage":"lease-recorded"}},{"type":"Feature","geometry":{"type":"Polygon","coordinates":[[[77.596438,28.276184],[77.596441,28.276334],[77.596135,28.276339],[77.596131,28.27619],[77.596438,28.276184]]]},"properties":{"objectid":29204,"uniqueplotid":"PLNGRESIDENTIAL29204","plotmap_id":"SECTOR-20_250_S_RESI","plotidentificationnumber":"250","plotno":"250","industrysector":"SECTOR-20","block":"S","plotsize":"500 SQMT","plotsize_at_the_time_of_allotme":"500 SQMT","landuse_type":"RESIDENTIAL","landuse_subcategory":"RESIDENTIAL","scheme_cod":"RES01","investment":0,"employment":0,"plotstatus":"Allotted","landallotementstatus":"SOLD","landallotementtype":"ALLOTTED","allotmentid":"YEA004132","lease_deed":"Y","lease_deed_date":1616351400000,"village_name":"Pachokara","khasra_no":"21","longitude":77.59628602,"latitude":28.27626167,"authority":"YEIDA","category":"residential","execution_stage":"lease-recorded"}},{"type":"Feature","geometry":{"type":"Polygon","coordinates":[[[77.595801,28.266108],[77.595795,28.265838],[77.595964,28.265834],[77.595971,28.266104],[77.595801,28.266108]]]},"properties":{"objectid":29508,"uniqueplotid":"PLNGRESIDENTIAL29508","plotmap_id":"SECTOR-20_378_U_RESI","plotidentificationnumber":"378","plotno":"378","industrysector":"SECTOR-20","block":"U","plotsize":"500 SQMT","plotsize_at_the_time_of_allotme":"500 SQMT","landuse_type":"RESIDENTIAL","landuse_subcategory":"RESIDENTIAL","scheme_cod":"RES01","investment":0,"employment":0,"plotstatus":"Allotted","landallotementstatus":"SOLD","landallotementtype":"ALLOTTED","allotmentid":"YEA003110","lease_deed":"Y","lease_deed_date":1718735400000,"village_name":"Rabupura","khasra_no":"100","longitude":77.59588296999999,"latitude":28.26597077,"authority":"YEIDA","category":"residential","execution_stage":"lease-recorded"}}]}
