{"type":"FeatureCollection","features":[{"type":"Feature","geometry":{"type":"Polygon","coordinates":[[[77.558133,28.296958],[77.557015,28.300564],[77.547959,28.298067],[77.54916,28.294195],[77.558217,28.296688],[77.558133,28.296958]]]},"properties":{"objectid":4853,"uniqueplotid":"PLNGRESIDENTIAL4853","plotmap_id":"SECTOR-22D_TS-4_TOWNSHIP_RESI","plotidentificationnumber":"TS-4","plotno":"TS-4","industrysector":"SECTOR-22D","block":"TOWNSHIP","plotsize":"407533 SQMT","landuse_type":"RESIDENTIAL","landuse_subcategory":"RESIDENTIAL","investment":0,"employment":0,"landallotementstatus":"VACANT","landallotementtype":"VACANT","village_name":"Kherli Bhav,Mirzapur","khasra_no":"212,349,252,258,265,244,263,262,254,249,260,280,211,343,344,255/1188,214,213,356,346,266,279,283,271,276,286,270,273,268,285,284,357,272,208,264,259,256,216,261,269,209,210,257,253,255,355,348,345,248,347,281,277,278,282,267,342,194","longitude":77.55308832,"latitude":28.29737911,"authority":"YEIDA","category":"residential","execution_stage":"vacant"}},{"type":"Feature","geometry":{"type":"Polygon","coordinates":[[[77.559111,28.293804],[77.558217,28.296688],[77.54916,28.294195],[77.550361,28.290318],[77.55941,28.292843],[77.559111,28.293804]]]},"properties":{"objectid":4854,"uniqueplotid":"PLNGRESIDENTIAL4854","plotmap_id":"SECTOR-22D_TS-3_TOWNSHIP_RESI","plotidentificationnumber":"TS-3","plotno":"TS-3","industrysector":"SECTOR-22D","block":"TOWNSHIP","plotsize":"405896 SQMT","landuse_type":"RESIDENTIAL","landuse_subcategory":"RESIDENTIAL","investment":0,"employment":0,"landallotementstatus":"VACANT","landallotementtype":"VACANT","village_name":"Kherli Bhav,Niloni Sahapura,Mirzapur","khasra_no":"292,302,299,333,332,306,338,541,336,335,280,337,538,343,344,331,326,340,289,325,295,296,297,298,301,300,287,279,288,283,276,286,285,284,547,542,543,339,539,303,291,290,327,328,304,329,293,261,334,N/F,294,348,281,305,277,282,341,342","longitude":77.55428278999999,"latitude":28.29350596,"authority":"YEIDA","category":"residential","execution_stage":"vacant"}},{"type":"Feature","geometry":{"type":"Polygon","coordinates":[[[77.549446,28.299813],[77.547243,28.300915],[77.547986,28.298507],[77.552731,28.299809],[77.5526,28.300158],[77.55248,28.300046],[77.550841,28.30078],[77.550322,28.300102],[77.549446,28.299813]]]},"properties":{"objectid":4856,"uniqueplotid":"PLNGRESIDENTIAL4856","plotmap_id":"SECTOR-22D_GH-9_GROUP HOUSING_RESI","plotidentificationnumber":"GH-9","plotno":"GH-9","industrysector":"SECTOR-22D","block":"GROUP HOUSING","plotsize":"15 ACRE","landuse_type":"RESIDENTIAL","landuse_subcategory":"RESIDENTIAL","investment":0,"employment":0,"landallotementstatus":"VACANT","landallotementtype":"VACANT","village_name":"Kherli Bhav,Mirzapur","khasra_no":"224,227,212,240,223,244,250,241,226,215,214,213,222,218,217,220,219,221,229,208,216,225,243,239,242,228,146,144","longitude":77.54982125000001,"latitude":28.29970888,"authority":"YEIDA","category":"residential","execution_stage":"vacant"}},{"type":"Feature","geometry":{"type":"Polygon","coordinates":[[[77.545402,28.305003],[77.545106,28.305129],[77.544878,28.305123],[77.544701,28.305058],[77.544534,28.304913],[77.541626,28.300992],[77.540123,28.298849],[77.539055,28.297177],[77.539693,28.29621],[77.547542,28.298384],[77.545576,28.304759],[77.545484,28.304924],[77.545402,28.305003]]]},"properties":{"objectid":5308,"uniqueplotid":"PLNGRESIDENTIAL5308","plotmap_id":"SECTOR-22D_TS-5_TOWNSHIP_RESI","plotidentificationnumber":"TS-5","plotno":"TS-5","industrysector":"SECTOR-22D","block":"TOWNSHIP","plotsize":"407041 SQMT","landuse_type":"RESIDENTIAL","landuse_subcategory":"RESIDENTIAL","investment":0,"employment":0,"landallotementstatus":"VACANT","landallotementtype":"VACANT","village_name":"Kherli Bhav","khasra_no":"71,244,383,378,65,67,101,149,N/F,389,102,377,393,421,420,147,397,405,150,N/F,380,379,245,404,403,145,396,N/F,246,363,385,155,392,63,167,153/1187,156,159,154,153,69,152,151,46,47,40,45,170,44,41,42,66,391,390,387,148,395,108,400,109","longitude":77.54348541,"latitude":28.30036547,"authority":"YEIDA","category":"residential","execution_stage":"vacant"}},{"type":"Feature","geometry":{"type":"Polygon","coordinates":[[[77.548183,28.305516],[77.547968,28.305645],[77.547906,28.305564],[77.547909,28.305638],[77.546443,28.303511],[77.546753,28.302503],[77.548527,28.304741],[77.548268,28.30519],[77.548183,28.305516]]]},"properties":{"objectid":5309,"uniqueplotid":"PLNGRESIDENTIAL5309","plotmap_id":"SECTOR-22D_GH-10_GROUP HOUSING_RESI","plotidentificationnumber":"GH-10","plotno":"GH-10","industrysector":"SECTOR-22D","block":"GROUP HOUSING","plotsize":"6 ACRE","landuse_type":"RESIDENTIAL","landuse_subcategory":"RESIDENTIAL","investment":0,"employment":0,"landallotementstatus":"VACANT","landallotementtype":"VACANT","village_name":"Kherli Bhav,Mirzapur","khasra_no":"33,176,170,177,175,174,36,173,171,37,172,51,19","longitude":77.54757626,"latitude":28.304259990000002,"authority":"YEIDA","category":"residential","execution_stage":"vacant"}},{"type":"Feature","geometry":{"type":"Polygon","coordinates":[[[77.553335,28.30373],[77.553281,28.303734],[77.554562,28.300311],[77.556896,28.30095],[77.556136,28.303399],[77.554504,28.303652],[77.554173,28.303152],[77.553335,28.30373]]]},"properties":{"objectid":5310,"uniqueplotid":"PLNGRESIDENTIAL5310","plotmap_id":"SECTOR-22D_GH-7_GROUP HOUSING_RESI","plotidentificationnumber":"GH-7","plotno":"GH-7","industrysector":"SECTOR-22D","block":"GROUP HOUSING","plotsize":"20 ACRE","landuse_type":"RESIDENTIAL","landuse_subcategory":"RESIDENTIAL","investment":0,"employment":0,"landallotementstatus":"VACANT","landallotementtype":"VACANT","village_name":"Mirzapur","khasra_no":"116,136,133,132,146,135,134,147,144","longitude":77.55543145,"latitude":28.30201526,"authority":"YEIDA","category":"residential","execution_stage":"vacant"}},{"type":"Feature","geometry":{"type":"Polygon","coordinates":[[[77.549658,28.305857],[77.548644,28.304671],[77.549609,28.303971],[77.549272,28.303561],[77.551619,28.301902],[77.552076,28.301425],[77.552522,28.300555],[77.552632,28.300285],[77.5526,28.300158],[77.552731,28.299809],[77.554562,28.300311],[77.553281,28.303734],[77.553021,28.303751],[77.549658,28.305857]]]},"properties":{"objectid":5311,"uniqueplotid":"PLNGRESIDENTIAL5311","plotmap_id":"SECTOR-22D_GH-8_GROUP HOUSING_RESI","plotidentificationnumber":"GH-8","plotno":"GH-8","industrysector":"SECTOR-22D","block":"GROUP HOUSING","plotsize":"38 ACRE","landuse_type":"RESIDENTIAL","landuse_subcategory":"RESIDENTIAL","investment":0,"employment":0,"landallotementstatus":"VACANT","landallotementtype":"VACANT","village_name":"Kherli Bhav,Mirzapur","khasra_no":"199,200,197,198,208,186,192,196,193,141,136,143,146,135,142,134,139,140,147,145,144,137,138","longitude":77.5516981,"latitude":28.30287796,"authority":"YEIDA","category":"residential","execution_stage":"vacant"}}]}
