{"type":"FeatureCollection","features":[{"type":"Feature","geometry":{"type":"Polygon","coordinates":[[[77.567602,28.277292],[77.567928,28.277285],[77.567943,28.27785],[77.567607,28.277858],[77.567602,28.277292]]]},"properties":{"objectid":22212,"uniqueplotid":"PLNGRESIDENTIAL22212","plotmap_id":"SECTOR-20_48_B_RESI","plotidentificationnumber":"48","plotno":"48","industrysector":"SECTOR-20","block":"B","plotsize":"2000 SQMT","plotsize_at_the_time_of_allotme":"2000 SQMT","landuse_type":"RESIDENTIAL","landuse_subcategory":"RESIDENTIAL","scheme_cod":"RES01","investment":0,"employment":0,"plotstatus":"Allotted","landallotementstatus":"SOLD","landallotementtype":"ALLOTTED","allotmentid":"YEA000356","lease_deed":"Y","lease_deed_date":1569522600000,"village_name":"Ronija","khasra_no":"471,483,469,472,478","longitude":77.56777144,"latitude":28.27757215,"authority":"YEIDA","category":"residential","execution_stage":"lease-recorded"}},{"type":"Feature","geometry":{"type":"Polygon","coordinates":[[[77.568664,28.274187],[77.568339,28.274194],[77.568319,28.273627],[77.568649,28.27362],[77.568664,28.274187]]]},"properties":{"objectid":28623,"uniqueplotid":"PLNGRESIDENTIAL28623","plotmap_id":"SECTOR-20_90_B_RESI","plotidentificationnumber":"90","plotno":"90","industrysector":"SECTOR-20","block":"B","plotsize":"2000 SQMT","plotsize_at_the_time_of_allotme":"2000 SQMT","landuse_type":"RESIDENTIAL","landuse_subcategory":"RESIDENTIAL","scheme_cod":"RES01","investment":0,"employment":0,"plotstatus":"Allotted","landallotementstatus":"SOLD","landallotementtype":"ALLOTTED","allotmentid":"YEA000360","village_name":"Ronija","khasra_no":"552,553,554","longitude":77.56849188999999,"latitude":28.27390683,"authority":"YEIDA","category":"residential","execution_stage":"allotted"}},{"type":"Feature","geometry":{"type":"Polygon","coordinates":[[[77.569019,28.274681],[77.568383,28.274693],[77.568376,28.274409],[77.569012,28.274394],[77.569019,28.274681]]]},"properties":{"objectid":30034,"uniqueplotid":"PLNGRESIDENTIAL30034","plotmap_id":"SECTOR-20_36_B_RESI","plotidentificationnumber":"36","plotno":"36","industrysector":"SECTOR-20","block":"B","plotsize":"2000 SQMT","plotsize_at_the_time_of_allotme":"2000 SQMT","landuse_type":"RESIDENTIAL","landuse_subcategory":"RESIDENTIAL","scheme_cod":"RES01","investment":0,"employment":0,"plotstatus":"Allotted","landallotementstatus":"SOLD","landallotementtype":"ALLOTTED","allotmentid":"YEA000388","village_name":"Ronija","khasra_no":"552,553,551","longitude":77.56869746000001,"latitude":28.2745439,"authority":"YEIDA","category":"residential","execution_stage":"allotted"}},{"type":"Feature","geometry":{"type":"Polygon","coordinates":[[[77.568042,28.277847],[77.567943,28.277849],[77.567928,28.277285],[77.568255,28.277279],[77.568269,28.277842],[77.568042,28.277847]]]},"properties":{"objectid":30035,"uniqueplotid":"PLNGRESIDENTIAL30035","plotmap_id":"SECTOR-20_47_B_RESI","plotidentificationnumber":"47","plotno":"47","industrysector":"SECTOR-20","block":"B","plotsize":"2000 SQMT","plotsize_at_the_time_of_allotme":"2000 SQMT","landuse_type":"RESIDENTIAL","landuse_subcategory":"RESIDENTIAL","scheme_cod":"RES01","investment":0,"employment":0,"plotstatus":"Allotted","landallotementstatus":"SOLD","landallotementtype":"ALLOTTED","allotmentid":"YEA000253","lease_deed":"Y","lease_deed_date":1521743400000,"village_name":"Ronija","khasra_no":"472,473","longitude":77.56809865,"latitude":28.2775641,"authority":"YEIDA","category":"residential","execution_stage":"lease-recorded"}},{"type":"Feature","geometry":{"type":"Polygon","coordinates":[[[77.567914,28.276723],[77.56824,28.276716],[77.568255,28.277279],[77.567928,28.277285],[77.567914,28.276723]]]},"properties":{"objectid":30036,"uniqueplotid":"PLNGRESIDENTIAL30036","plotmap_id":"SECTOR-20_60_B_RESI","plotidentificationnumber":"60","plotno":"60","industrysector":"SECTOR-20","block":"B","plotsize":"2000 SQMT","plotsize_at_the_time_of_allotme":"2000 SQMT","landuse_type":"RESIDENTIAL","landuse_subcategory":"RESIDENTIAL","scheme_cod":"RES01","investment":0,"employment":0,"plotstatus":"Allotted","landallotementstatus":"SOLD","landallotementtype":"ALLOTTED","allotmentid":"YEA000210","lease_deed":"Y","lease_deed_date":1625164200000,"village_name":"Ronija","khasra_no":"483,472,473,478","longitude":77.5680842,"latitude":28.277000620000003,"authority":"YEIDA","category":"residential","execution_stage":"lease-recorded"}},{"type":"Feature","geometry":{"type":"Polygon","coordinates":[[[77.567914,28.276723],[77.567928,28.277285],[77.567602,28.277292],[77.567589,28.27673],[77.567914,28.276723]]]},"properties":{"objectid":30037,"uniqueplotid":"PLNGRESIDENTIAL30037","plotmap_id":"SECTOR-20_59_B_RESI","plotidentificationnumber":"59","plotno":"59","industrysector":"SECTOR-20","block":"B","plotsize":"2000 SQMT","plotsize_at_the_time_of_allotme":"2000 SQMT","landuse_type":"RESIDENTIAL","landuse_subcategory":"RESIDENTIAL","scheme_cod":"RES01","investment":0,"employment":0,"plotstatus":"Allotted","landallotementstatus":"SOLD","landallotementtype":"ALLOTTED","allotmentid":"YEA000125","lease_deed":"Y","lease_deed_date":1645381800000,"village_name":"Ronija","khasra_no":"483,472,478","longitude":77.56775845,"latitude":28.27700772,"authority":"YEIDA","category":"residential","execution_stage":"lease-recorded"}},{"type":"Feature","geometry":{"type":"Polygon","coordinates":[[[77.569092,28.277563],[77.568456,28.277576],[77.568449,28.277288],[77.569085,28.277275],[77.569092,28.277563]]]},"properties":{"objectid":30038,"uniqueplotid":"PLNGRESIDENTIAL30038","plotmap_id":"SECTOR-20_46_B_RESI","plotidentificationnumber":"46","plotno":"46","industrysector":"SECTOR-20","block":"B","plotsize":"2000 SQMT","plotsize_at_the_time_of_allotme":"2000 SQMT","landuse_type":"RESIDENTIAL","landuse_subcategory":"RESIDENTIAL","scheme_cod":"RES01","investment":0,"employment":0,"plotstatus":"Allotted","landallotementstatus":"SOLD","landallotementtype":"ALLOTTED","allotmentid":"YEA000223","lease_deed":"Y","lease_deed_date":1639074600000,"village_name":"Ronija","khasra_no":"473,476,474","longitude":77.56877031,"latitude":28.27742573,"authority":"YEIDA","category":"residential","execution_stage":"lease-recorded"}},{"type":"Feature","geometry":{"type":"Polygon","coordinates":[[[77.569026,28.274969],[77.56839,28.274982],[77.568383,28.274693],[77.569019,28.274681],[77.569026,28.274969]]]},"properties":{"objectid":30279,"uniqueplotid":"PLNGRESIDENTIAL30279","plotmap_id":"SECTOR-20_37_B_RESI","plotidentificationnumber":"37","plotno":"37","industrysector":"SECTOR-20","block":"B","plotsize":"2000 SQMT","plotsize_at_the_time_of_allotme":"2000 SQMT","landuse_type":"RESIDENTIAL","landuse_subcategory":"RESIDENTIAL","scheme_cod":"RES01","investment":0,"employment":0,"plotstatus":"Allotted","landallotementstatus":"SOLD","landallotementtype":"ALLOTTED","allotmentid":"YEA000301","village_name":"Ronija","khasra_no":"553,551","longitude":77.56870471,"latitude":28.274831369999998,"authority":"YEIDA","category":"residential","execution_stage":"allotted"}},{"type":"Feature","geometry":{"type":"Polygon","coordinates":[[[77.569034,28.275257],[77.568398,28.275271],[77.56839,28.274982],[77.569026,28.274969],[77.569034,28.275257]]]},"properties":{"objectid":30280,"uniqueplotid":"PLNGRESIDENTIAL30280","plotmap_id":"SECTOR-20_38_B_RESI","plotidentificationnumber":"38","plotno":"38","industrysector":"SECTOR-20","block":"B","plotsize":"2000 SQMT","plotsize_at_the_time_of_allotme":"2000 SQMT","landuse_type":"RESIDENTIAL","landuse_subcategory":"RESIDENTIAL","scheme_cod":"RES01","investment":0,"employment":0,"plotstatus":"Allotted","landallotementstatus":"SOLD","landallotementtype":"ALLOTTED","allotmentid":"YEA000378","village_name":"Ronija","khasra_no":"551,550","longitude":77.568712,"latitude":28.275119819999997,"authority":"YEIDA","category":"residential","execution_stage":"allotted"}},{"type":"Feature","geometry":{"type":"Polygon","coordinates":[[[77.569041,28.275546],[77.568405,28.275558],[77.568398,28.275271],[77.569034,28.275257],[77.569041,28.275546]]]},"properties":{"objectid":30281,"uniqueplotid":"PLNGRESIDENTIAL30281","plotmap_id":"SECTOR-20_39_B_RESI","plotidentificationnumber":"39","plotno":"39","industrysector":"SECTOR-20","block":"B","plotsize":"2000 SQMT","plotsize_at_the_time_of_allotme":"2000 SQMT","landuse_type":"RESIDENTIAL","landuse_subcategory":"RESIDENTIAL","scheme_cod":"RES01","investment":0,"employment":0,"plotstatus":"Allotted","landallotementstatus":"SOLD","landallotementtype":"ALLOTTED","allotmentid":"YEA000398","lease_deed":"Y","lease_deed_date":1527705000000,"village_name":"Ronija","khasra_no":"543,549,551,550","longitude":77.56871930000001,"latitude":28.27540786,"authority":"YEIDA","category":"residential","execution_stage":"lease-recorded"}},{"type":"Feature","geometry":{"type":"Polygon","coordinates":[[[77.569048,28.275834],[77.568412,28.275846],[77.568405,28.275558],[77.569041,28.275546],[77.569048,28.275834]]]},"properties":{"objectid":30282,"uniqueplotid":"PLNGRESIDENTIAL30282","plotmap_id":"SECTOR-20_40_B_RESI","plotidentificationnumber":"40","plotno":"40","industrysector":"SECTOR-20","block":"B","plotsize":"2000 SQMT","plotsize_at_the_time_of_allotme":"2000 SQMT","landuse_type":"RESIDENTIAL","landuse_subcategory":"RESIDENTIAL","scheme_cod":"RES01","investment":0,"employment":0,"plotstatus":"Allotted","landallotementstatus":"SOLD","landallotementtype":"ALLOTTED","allotmentid":"YEA000265","lease_deed":"Y","lease_deed_date":1710354600000,"village_name":"Ronija","khasra_no":"543,549,485,487,484,550,548","longitude":77.56872657000001,"latitude":28.27569613,"authority":"YEIDA","category":"residential","execution_stage":"lease-recorded"}},{"type":"Feature","geometry":{"type":"Polygon","coordinates":[[[77.569056,28.276122],[77.568419,28.276133],[77.568412,28.275846],[77.569048,28.275834],[77.569056,28.276122]]]},"properties":{"objectid":30283,"uniqueplotid":"PLNGRESIDENTIAL30283","plotmap_id":"SECTOR-20_41_B_RESI","plotidentificationnumber":"41","plotno":"41","industrysector":"SECTOR-20","block":"B","plotsize":"2000 SQMT","plotsize_at_the_time_of_allotme":"2000 SQMT","landuse_type":"RESIDENTIAL","landuse_subcategory":"RESIDENTIAL","scheme_cod":"RES01","investment":0,"employment":0,"plotstatus":"Allotted","landallotementstatus":"SOLD","landallotementtype":"ALLOTTED","allotmentid":"YEA000344","lease_deed":"Y","lease_deed_date":1490207400000,"village_name":"Ronija","khasra_no":"543,549,484,550,548","longitude":77.56873387,"latitude":28.2759844,"authority":"YEIDA","category":"residential","execution_stage":"lease-recorded"}},{"type":"Feature","geometry":{"type":"Polygon","coordinates":[[[77.569063,28.27641],[77.568427,28.276422],[77.568419,28.276133],[77.569056,28.276122],[77.569063,28.27641]]]},"properties":{"objectid":30284,"uniqueplotid":"PLNGRESIDENTIAL30284","plotmap_id":"SECTOR-20_42_B_RESI","plotidentificationnumber":"42","plotno":"42","industrysector":"SECTOR-20","block":"B","plotsize":"2000 SQMT","plotsize_at_the_time_of_allotme":"2000 SQMT","landuse_type":"RESIDENTIAL","landuse_subcategory":"RESIDENTIAL","scheme_cod":"RES01","investment":0,"employment":0,"plotstatus":"Allotted","landallotementstatus":"SOLD","landallotementtype":"ALLOTTED","allotmentid":"YEA000352","lease_deed":"Y","lease_deed_date":1682620200000,"village_name":"Ronija","khasra_no":"543,549,484,548","longitude":77.56874115000001,"latitude":28.27627267,"authority":"YEIDA","category":"residential","execution_stage":"lease-recorded"}},{"type":"Feature","geometry":{"type":"Polygon","coordinates":[[[77.56907,28.276699],[77.568434,28.276711],[77.568427,28.276422],[77.569063,28.27641],[77.56907,28.276699]]]},"properties":{"objectid":30285,"uniqueplotid":"PLNGRESIDENTIAL30285","plotmap_id":"SECTOR-20_43_B_RESI","plotidentificationnumber":"43","plotno":"43","industrysector":"SECTOR-20","block":"B","plotsize":"2000 SQMT","plotsize_at_the_time_of_allotme":"2000 SQMT","landuse_type":"RESIDENTIAL","landuse_subcategory":"RESIDENTIAL","scheme_cod":"RES01","investment":0,"employment":0,"plotstatus":"Allotted","landallotementstatus":"SOLD","landallotementtype":"ALLOTTED","allotmentid":"YEA000152","lease_deed":"Y","lease_deed_date":1659033000000,"village_name":"Ronija","khasra_no":"484,478,476","longitude":77.56874843000001,"latitude":28.27656093,"authority":"YEIDA","category":"residential","execution_stage":"lease-recorded"}},{"type":"Feature","geometry":{"type":"Polygon","coordinates":[[[77.56907,28.276699],[77.569077,28.276987],[77.568441,28.276999],[77.568434,28.276711],[77.56907,28.276699]]]},"properties":{"objectid":30286,"uniqueplotid":"PLNGRESIDENTIAL30286","plotmap_id":"SECTOR-20_44_B_RESI","plotidentificationnumber":"44","plotno":"44","industrysector":"SECTOR-20","block":"B","plotsize":"2000 SQMT","plotsize_at_the_time_of_allotme":"2000 SQMT","landuse_type":"RESIDENTIAL","landuse_subcategory":"RESIDENTIAL","scheme_cod":"RES01","investment":0,"employment":0,"plotstatus":"Allotted","landallotementstatus":"SOLD","landallotementtype":"ALLOTTED","allotmentid":"YEA000222","lease_deed":"Y","lease_deed_date":1514226600000,"village_name":"Ronija","khasra_no":"483,484,473,478,476,474","longitude":77.56875573,"latitude":28.2768492,"authority":"YEIDA","category":"residential","execution_stage":"lease-recorded"}},{"type":"Feature","geometry":{"type":"Polygon","coordinates":[[[77.569085,28.277275],[77.568449,28.277288],[77.568441,28.276999],[77.569077,28.276987],[77.569085,28.277275]]]},"properties":{"objectid":30287,"uniqueplotid":"PLNGRESIDENTIAL30287","plotmap_id":"SECTOR-20_45_B_RESI","plotidentificationnumber":"45","plotno":"45","industrysector":"SECTOR-20","block":"B","plotsize":"2000 SQMT","plotsize_at_the_time_of_allotme":"2000 SQMT","landuse_type":"RESIDENTIAL","landuse_subcategory":"RESIDENTIAL","scheme_cod":"RES01","investment":0,"employment":0,"plotstatus":"Allotted","landallotementstatus":"SOLD","landallotementtype":"ALLOTTED","allotmentid":"YEA000284","lease_deed":"Y","lease_deed_date":1499193000000,"village_name":"Ronija","khasra_no":"473,476,474","longitude":77.56876301000001,"latitude":28.27713747,"authority":"YEIDA","category":"residential","execution_stage":"lease-recorded"}},{"type":"Feature","geometry":{"type":"Polygon","coordinates":[[[77.568226,28.276007],[77.568238,28.276553],[77.567878,28.276562],[77.567876,28.276005],[77.568226,28.276007]]]},"properties":{"objectid":30624,"uniqueplotid":"PLNGRESIDENTIAL30624","plotmap_id":"SECTOR-20_61_B_RESI","plotidentificationnumber":"61","plotno":"61","industrysector":"SECTOR-20","block":"B","plotsize":"2000 SQMT","plotsize_at_the_time_of_allotme":"2000 SQMT","landuse_type":"RESIDENTIAL","landuse_subcategory":"RESIDENTIAL","scheme_cod":"RES01","investment":0,"employment":0,"plotstatus":"Allotted","landallotementstatus":"SOLD","landallotementtype":"ALLOTTED","allotmentid":"YEA000266","lease_deed":"Y","lease_deed_date":1523817000000,"village_name":"Ronija","khasra_no":"485,483,487,484","longitude":77.56805564,"latitude":28.27628319,"authority":"YEIDA","category":"residential","execution_stage":"lease-recorded"}},{"type":"Feature","geometry":{"type":"Polygon","coordinates":[[[77.567876,28.276005],[77.567874,28.275482],[77.568215,28.275475],[77.568226,28.276007],[77.567876,28.276005]]]},"properties":{"objectid":30625,"uniqueplotid":"PLNGRESIDENTIAL30625","plotmap_id":"SECTOR-20_70_B_RESI","plotidentificationnumber":"70","plotno":"70","industrysector":"SECTOR-20","block":"B","plotsize":"2000 SQMT","plotsize_at_the_time_of_allotme":"2000 SQMT","landuse_type":"RESIDENTIAL","landuse_subcategory":"RESIDENTIAL","scheme_cod":"RES01","investment":0,"employment":0,"plotstatus":"Allotted","landallotementstatus":"SOLD","landallotementtype":"ALLOTTED","allotmentid":"YEA000250","village_name":"Ronija","khasra_no":"485,487,484","longitude":77.56804944,"latitude":28.27574249,"authority":"YEIDA","category":"residential","execution_stage":"allotted"}},{"type":"Feature","geometry":{"type":"Polygon","coordinates":[[[77.567607,28.277858],[77.567295,28.277866],[77.56728,28.277301],[77.567602,28.277292],[77.567607,28.277858]]]},"properties":{"objectid":30626,"uniqueplotid":"PLNGRESIDENTIAL30626","plotmap_id":"SECTOR-20_49_B_RESI","plotidentificationnumber":"49","plotno":"49","industrysector":"SECTOR-20","block":"B","plotsize":"2000 SQMT","plotsize_at_the_time_of_allotme":"2000 SQMT","landuse_type":"RESIDENTIAL","landuse_subcategory":"RESIDENTIAL","scheme_cod":"RES01","investment":0,"employment":0,"plotstatus":"Allotted","landallotementstatus":"SOLD","landallotementtype":"ALLOTTED","allotmentid":"YEA000220","lease_deed":"Y","lease_deed_date":1672079400000,"village_name":"Ronija","khasra_no":"480,482,471,483,472,478","longitude":77.56744539,"latitude":28.27757896,"authority":"YEIDA","category":"residential","execution_stage":"lease-recorded"}}]}
