{"type":"FeatureCollection","features":[{"type":"Feature","geometry":{"type":"Polygon","coordinates":[[[77.562175,28.317237],[77.561697,28.317774],[77.561296,28.318125],[77.561027,28.318407],[77.561284,28.318668],[77.561624,28.31897],[77.562552,28.32229],[77.562128,28.321775],[77.562011,28.321691],[77.561918,28.32165],[77.55395,28.320092],[77.555661,28.315227],[77.561025,28.297233],[77.561915,28.294385],[77.562054,28.294568],[77.562339,28.294417],[77.562631,28.294894],[77.564154,28.293753],[77.564203,28.293864],[77.563782,28.294472],[77.563972,28.294706],[77.564125,28.294572],[77.564372,28.294874],[77.564847,28.294723],[77.565227,28.295209],[77.565551,28.294991],[77.565741,28.295259],[77.56557,28.295393],[77.566254,28.29623],[77.566254,28.29633],[77.566596,28.29695],[77.566977,28.296849],[77.567357,28.297519],[77.568099,28.297034],[77.568365,28.297469],[77.56884,28.297335],[77.568954,28.297653],[77.569392,28.297553],[77.569793,28.298905],[77.570073,28.298907],[77.570247,28.299234],[77.570026,28.299772],[77.569641,28.300429],[77.5691,28.301832],[77.569043,28.30192],[77.568878,28.302449],[77.568727,28.303064],[77.568655,28.304119],[77.568638,28.304119],[77.568472,28.307118],[77.568377,28.307626],[77.56778,28.307984],[77.568263,28.308746],[77.568128,28.310282],[77.568221,28.310523],[77.566811,28.314892],[77.566875,28.314949],[77.566778,28.315151],[77.566488,28.315624],[77.56638,28.31585],[77.566224,28.315691],[77.566088,28.31579],[77.564504,28.315918],[77.562942,28.317056],[77.56255,28.316763],[77.562175,28.317237]]]},"properties":{"objectid":18987,"uniqueplotid":"PLNGRESIDENTIAL18987","plotmap_id":"SECTOR-18_L.F.D.-3_LFD(Land for Development)3_RESI","plotidentificationnumber":"L.F.D.-3","plotno":"L.F.D.-3","industrysector":"SECTOR-18","block":"LFD(Land for Development)3","plotsize":"N.A","landuse_type":"RESIDENTIAL","landuse_subcategory":"RESIDENTIAL","investment":0,"employment":0,"landallotementstatus":"VACANT","landallotementtype":"VACANT","village_name":"Achheja Bujurg,Rampur Bangar,Mirzapur","khasra_no":"417,350,328,431,427,327,429,326,426,434,435,439,478,345,341,346,359,357,320,315,355,277,419,414,415,420,358,421,316,418,353,329,436,351,464,465,459,475,276,275,271,366,361,356,365,340,574,584,578,565,504,511,510,564,507,495,494,506,572,492,570,571","longitude":77.56231960999999,"latitude":28.30812642,"authority":"YEIDA","category":"residential","execution_stage":"vacant"}}]}
