{"type":"FeatureCollection","features":[{"type":"Feature","geometry":{"type":"Polygon","coordinates":[[[77.548226,28.305806],[77.548079,28.305885],[77.547909,28.305638],[77.547906,28.305564],[77.547968,28.305645],[77.548183,28.305516],[77.548225,28.305642],[77.548145,28.305655],[77.548254,28.305761],[77.548226,28.305806]]]},"properties":{"objectid":5307,"uniqueplotid":"PLNGRESIDENTIAL5307","plotmap_id":"SECTOR-22D_SH-1_GROUP HOUSING_RESI","plotidentificationnumber":"SH-1","plotno":"SH-1","industrysector":"SECTOR-22D","block":"GROUP HOUSING","plotsize":"700 SQMT","landuse_type":"RESIDENTIAL","landuse_subcategory":"RESIDENTIAL","investment":0,"employment":0,"landallotementstatus":"VACANT","landallotementtype":"VACANT","village_name":"Kherli Bhav,Mirzapur","khasra_no":"33,37,19","longitude":77.54806957,"latitude":28.305691669999998,"authority":"YEIDA","category":"residential","execution_stage":"vacant"}},{"type":"Feature","geometry":{"type":"Polygon","coordinates":[[[77.545194,28.310962],[77.545189,28.311031],[77.543952,28.312335],[77.541295,28.309909],[77.542526,28.308524],[77.545194,28.310962]]]},"properties":{"objectid":6244,"uniqueplotid":"PLNGRESIDENTIAL6244","plotmap_id":"SECTOR-22D_GH-6_GROUP HOUSING_RESI","plotidentificationnumber":"GH-6","plotno":"GH-6","industrysector":"SECTOR-22D","block":"GROUP HOUSING","plotsize":"70681 SQMT","landuse_type":"RESIDENTIAL","landuse_subcategory":"RESIDENTIAL","investment":0,"employment":0,"landallotementstatus":"VACANT","landallotementtype":"VACANT","village_name":"Kherli Bhav,Munjkheda","khasra_no":"6,466,451,475,479,453,472,473,452,480,471,450,470,474,465","longitude":77.5435639,"latitude":28.3107291,"authority":"YEIDA","category":"residential","execution_stage":"vacant"}},{"type":"Feature","geometry":{"type":"Polygon","coordinates":[[[77.542559,28.313802],[77.541776,28.314609],[77.541735,28.31461],[77.541338,28.314231],[77.541798,28.313935],[77.541697,28.313822],[77.542096,28.313573],[77.541116,28.312464],[77.540685,28.312744],[77.540219,28.31218],[77.540599,28.311946],[77.540341,28.311647],[77.54075,28.311361],[77.540649,28.311251],[77.540934,28.31102],[77.540871,28.310962],[77.541096,28.310718],[77.540846,28.310536],[77.541218,28.310124],[77.541295,28.309909],[77.543952,28.312335],[77.542559,28.313802]]]},"properties":{"objectid":6245,"uniqueplotid":"PLNGRESIDENTIAL6245","plotmap_id":"SECTOR-22D_N.A_GROUP HOUSING_RESI","plotidentificationnumber":"N.A","plotno":"N.A","industrysector":"SECTOR-22D","block":"GROUP HOUSING","plotsize":"78630  SQMT","landuse_type":"RESIDENTIAL","landuse_subcategory":"RESIDENTIAL","investment":0,"employment":0,"landallotementstatus":"VACANT","landallotementtype":"VACANT","village_name":"Munjkheda","khasra_no":"466,457,456,469,434,461,449,460,454,459,445,458,468,453,472,473,463,462,452,471,464,455,450,435,467,470,465","longitude":77.54232418,"latitude":28.31244161,"authority":"YEIDA","category":"residential","execution_stage":"vacant"}},{"type":"Feature","geometry":{"type":"Polygon","coordinates":[[[77.550563,28.316751],[77.550613,28.317092],[77.550517,28.316966],[77.548986,28.31581],[77.546566,28.314791],[77.547245,28.312872],[77.547674,28.309898],[77.548023,28.309616],[77.545577,28.306318],[77.546274,28.304058],[77.549989,28.309448],[77.553554,28.311721],[77.553183,28.312861],[77.551762,28.312321],[77.551068,28.313864],[77.551781,28.314577],[77.551541,28.314759],[77.551219,28.315062],[77.550846,28.315611],[77.550695,28.315938],[77.5506,28.316237],[77.550563,28.316751]]]},"properties":{"objectid":6262,"uniqueplotid":"PLNGRESIDENTIAL6262","plotmap_id":"SECTOR-22D_TS-6_TOWNSHIP_RESI","plotidentificationnumber":"TS-6","plotno":"TS-6","industrysector":"SECTOR-22D","block":"TOWNSHIP","plotsize":"408622 SQMT","landuse_type":"RESIDENTIAL","landuse_subcategory":"RESIDENTIAL","investment":0,"employment":0,"landallotementstatus":"VACANT","landallotementtype":"VACANT","village_name":"Kherli Bhav,Munjkheda,Achheja Bujurg,Salarpur,Mirzapur","khasra_no":"1,33,49,48,22,24,21,38,39,32,28,34,29,23,31,30,50,27,37,51,446m,471,470,37,42,36,32,11,31,1,5,28,14,7,8,2,3,6,12,35,10,4,33,13,16,34,15,9,775,775M,774,773","longitude":77.54857979,"latitude":28.311265889999998,"authority":"YEIDA","category":"residential","execution_stage":"vacant"}}]}
