{"type":"FeatureCollection","features":[{"type":"Feature","geometry":{"type":"Polygon","coordinates":[[[77.534055,28.314266],[77.534,28.314332],[77.533849,28.314237],[77.533904,28.314171],[77.534055,28.314266]]]},"properties":{"objectid":5791,"uniqueplotid":"PLNGRESIDENTIAL5791","plotmap_id":"SECTOR-22D_148_A_RESI","plotidentificationnumber":"148","plotno":"148","industrysector":"SECTOR-22D","block":"A","plotsize":"162 SQMT","landuse_type":"RESIDENTIAL","landuse_subcategory":"RESIDENTIAL","investment":0,"employment":0,"landallotementstatus":"VACANT","landallotementtype":"VACANT","village_name":"Munjkheda","khasra_no":"483","longitude":77.533952,"latitude":28.31425151,"authority":"YEIDA","category":"residential","execution_stage":"vacant"}},{"type":"Feature","geometry":{"type":"Polygon","coordinates":[[[77.53506,28.315031],[77.53495,28.315163],[77.534875,28.315115],[77.534985,28.314984],[77.53506,28.315031]]]},"properties":{"objectid":5864,"uniqueplotid":"PLNGRESIDENTIAL5864","plotmap_id":"SECTOR-22D_91_A_RESI","plotidentificationnumber":"91","plotno":"91","industrysector":"SECTOR-22D","block":"A","plotsize":"162 SQMT","plotsize_at_the_time_of_allotme":"162 SQMT","landuse_type":"RESIDENTIAL","landuse_subcategory":"RESIDENTIAL","scheme_cod":"RPS02","investment":0,"employment":0,"plotstatus":"Allotted","landallotementstatus":"SOLD","landallotementtype":"ALLOTTED","allotmentid":"RPS022258","lease_deed":"Y","lease_deed_date":1575484200000,"village_name":"Munjkheda","khasra_no":"483,484,492,491","longitude":77.53496752,"latitude":28.31507315,"authority":"YEIDA","category":"residential","execution_stage":"lease-recorded"}},{"type":"Feature","geometry":{"type":"Polygon","coordinates":[[[77.534985,28.314984],[77.534875,28.315115],[77.534799,28.315068],[77.53491,28.314936],[77.534985,28.314984]]]},"properties":{"objectid":5865,"uniqueplotid":"PLNGRESIDENTIAL5865","plotmap_id":"SECTOR-22D_92_A_RESI","plotidentificationnumber":"92","plotno":"92","industrysector":"SECTOR-22D","block":"A","plotsize":"162 SQMT","plotsize_at_the_time_of_allotme":"162 SQMT","landuse_type":"RESIDENTIAL","landuse_subcategory":"RESIDENTIAL","scheme_cod":"RPS02","investment":0,"employment":0,"plotstatus":"Allotted","landallotementstatus":"SOLD","landallotementtype":"ALLOTTED","allotmentid":"RPS022041","lease_deed":"Y","lease_deed_date":1606329000000,"village_name":"Munjkheda","khasra_no":"483,484,491","longitude":77.53489224,"latitude":28.31502589,"authority":"YEIDA","category":"residential","execution_stage":"lease-recorded"}},{"type":"Feature","geometry":{"type":"Polygon","coordinates":[[[77.53491,28.314936],[77.534799,28.315068],[77.534724,28.315021],[77.534835,28.314889],[77.53491,28.314936]]]},"properties":{"objectid":5866,"uniqueplotid":"PLNGRESIDENTIAL5866","plotmap_id":"SECTOR-22D_93_A_RESI","plotidentificationnumber":"93","plotno":"93","industrysector":"SECTOR-22D","block":"A","plotsize":"162 SQMT","plotsize_at_the_time_of_allotme":"162 SQMT","landuse_type":"RESIDENTIAL","landuse_subcategory":"RESIDENTIAL","scheme_cod":"RPS02","investment":0,"employment":0,"plotstatus":"Allotted","landallotementstatus":"SOLD","landallotementtype":"ALLOTTED","allotmentid":"RPS022250","lease_deed":"Y","lease_deed_date":1574793000000,"village_name":"Munjkheda","khasra_no":"483,484,491","longitude":77.53481696,"latitude":28.314978640000003,"authority":"YEIDA","category":"residential","execution_stage":"lease-recorded"}},{"type":"Feature","geometry":{"type":"Polygon","coordinates":[[[77.534835,28.314889],[77.534724,28.315021],[77.534649,28.314974],[77.534759,28.314842],[77.534835,28.314889]]]},"properties":{"objectid":5867,"uniqueplotid":"PLNGRESIDENTIAL5867","plotmap_id":"SECTOR-22D_94_A_RESI","plotidentificationnumber":"94","plotno":"94","industrysector":"SECTOR-22D","block":"A","plotsize":"162 SQMT","landuse_type":"RESIDENTIAL","landuse_subcategory":"RESIDENTIAL","investment":0,"employment":0,"landallotementstatus":"VACANT","landallotementtype":"VACANT","village_name":"Munjkheda","khasra_no":"483,484,491","longitude":77.53474166,"latitude":28.31493139,"authority":"YEIDA","category":"residential","execution_stage":"vacant"}},{"type":"Feature","geometry":{"type":"Polygon","coordinates":[[[77.534759,28.314842],[77.534649,28.314974],[77.534573,28.314926],[77.534684,28.314795],[77.534759,28.314842]]]},"properties":{"objectid":5868,"uniqueplotid":"PLNGRESIDENTIAL5868","plotmap_id":"SECTOR-22D_95_A_RESI","plotidentificationnumber":"95","plotno":"95","industrysector":"SECTOR-22D","block":"A","plotsize":"162 SQMT","landuse_type":"RESIDENTIAL","landuse_subcategory":"RESIDENTIAL","investment":0,"employment":0,"landallotementstatus":"VACANT","landallotementtype":"VACANT","village_name":"Munjkheda","khasra_no":"483,484,491","longitude":77.53466639,"latitude":28.314884130000003,"authority":"YEIDA","category":"residential","execution_stage":"vacant"}},{"type":"Feature","geometry":{"type":"Polygon","coordinates":[[[77.534684,28.314795],[77.534573,28.314926],[77.534498,28.314879],[77.534609,28.314747],[77.534684,28.314795]]]},"properties":{"objectid":5869,"uniqueplotid":"PLNGRESIDENTIAL5869","plotmap_id":"SECTOR-22D_96_A_RESI","plotidentificationnumber":"96","plotno":"96","industrysector":"SECTOR-22D","block":"A","plotsize":"162 SQMT","landuse_type":"RESIDENTIAL","landuse_subcategory":"RESIDENTIAL","investment":0,"employment":0,"landallotementstatus":"VACANT","landallotementtype":"VACANT","village_name":"Munjkheda","khasra_no":"483,484,491","longitude":77.5345911,"latitude":28.314836890000002,"authority":"YEIDA","category":"residential","execution_stage":"vacant"}},{"type":"Feature","geometry":{"type":"Polygon","coordinates":[[[77.534609,28.314747],[77.534498,28.314879],[77.534423,28.314832],[77.534533,28.3147],[77.534609,28.314747]]]},"properties":{"objectid":5870,"uniqueplotid":"PLNGRESIDENTIAL5870","plotmap_id":"SECTOR-22D_97_A_RESI","plotidentificationnumber":"97","plotno":"97","industrysector":"SECTOR-22D","block":"A","plotsize":"162 SQMT","landuse_type":"RESIDENTIAL","landuse_subcategory":"RESIDENTIAL","investment":0,"employment":0,"landallotementstatus":"VACANT","landallotementtype":"VACANT","village_name":"Munjkheda","khasra_no":"483,484","longitude":77.53451582,"latitude":28.314789639999997,"authority":"YEIDA","category":"residential","execution_stage":"vacant"}},{"type":"Feature","geometry":{"type":"Polygon","coordinates":[[[77.534533,28.3147],[77.534423,28.314832],[77.534348,28.314785],[77.534458,28.314653],[77.534533,28.3147]]]},"properties":{"objectid":5871,"uniqueplotid":"PLNGRESIDENTIAL5871","plotmap_id":"SECTOR-22D_98_A_RESI","plotidentificationnumber":"98","plotno":"98","industrysector":"SECTOR-22D","block":"A","plotsize":"162 SQMT","plotsize_at_the_time_of_allotme":"162 SQMT","landuse_type":"RESIDENTIAL","landuse_subcategory":"RESIDENTIAL","scheme_cod":"RRPS03","investment":0,"employment":0,"plotstatus":"Allotted","landallotementstatus":"SOLD","landallotementtype":"ALLOTTED","allotmentid":"RRPS031392","lease_deed":"Y","lease_deed_date":1648405800000,"village_name":"Munjkheda","khasra_no":"483","longitude":77.53443838000001,"latitude":28.314743359999998,"authority":"YEIDA","category":"residential","execution_stage":"lease-recorded"}},{"type":"Feature","geometry":{"type":"Polygon","coordinates":[[[77.534458,28.314653],[77.534348,28.314785],[77.534272,28.314737],[77.534383,28.314606],[77.534458,28.314653]]]},"properties":{"objectid":5872,"uniqueplotid":"PLNGRESIDENTIAL5872","plotmap_id":"SECTOR-22D_99_A_RESI","plotidentificationnumber":"99","plotno":"99","industrysector":"SECTOR-22D","block":"A","plotsize":"162 SQMT","plotsize_at_the_time_of_allotme":"162 SQMT","landuse_type":"RESIDENTIAL","landuse_subcategory":"RESIDENTIAL","scheme_cod":"RRPS03","investment":0,"employment":0,"plotstatus":"Allotted","landallotementstatus":"SOLD","landallotementtype":"ALLOTTED","allotmentid":"RRPS031415","lease_deed":"Y","lease_deed_date":1626287400000,"village_name":"Munjkheda","khasra_no":"483","longitude":77.53436331,"latitude":28.31469602,"authority":"YEIDA","category":"residential","execution_stage":"lease-recorded"}},{"type":"Feature","geometry":{"type":"Polygon","coordinates":[[[77.534383,28.314606],[77.534272,28.314737],[77.534197,28.31469],[77.534308,28.314558],[77.534383,28.314606]]]},"properties":{"objectid":5873,"uniqueplotid":"PLNGRESIDENTIAL5873","plotmap_id":"SECTOR-22D_100_A_RESI","plotidentificationnumber":"100","plotno":"100","industrysector":"SECTOR-22D","block":"A","plotsize":"162 SQMT","plotsize_at_the_time_of_allotme":"162 SQMT","landuse_type":"RESIDENTIAL","landuse_subcategory":"RESIDENTIAL","scheme_cod":"RRPS04","investment":0,"employment":0,"plotstatus":"Allotted","landallotementstatus":"SOLD","landallotementtype":"ALLOTTED","allotmentid":"RRPS041618","village_name":"Munjkheda","khasra_no":"483","longitude":77.53428996,"latitude":28.31464788,"authority":"YEIDA","category":"residential","execution_stage":"allotted"}},{"type":"Feature","geometry":{"type":"Polygon","coordinates":[[[77.534308,28.314558],[77.534197,28.31469],[77.534122,28.314643],[77.534232,28.314511],[77.534308,28.314558]]]},"properties":{"objectid":5874,"uniqueplotid":"PLNGRESIDENTIAL5874","plotmap_id":"SECTOR-22D_101_A_RESI","plotidentificationnumber":"101","plotno":"101","industrysector":"SECTOR-22D","block":"A","plotsize":"162 SQMT","plotsize_at_the_time_of_allotme":"162 SQMT","landuse_type":"RESIDENTIAL","landuse_subcategory":"RESIDENTIAL","scheme_cod":"RRPS03","investment":0,"employment":0,"plotstatus":"Allotted","landallotementstatus":"SOLD","landallotementtype":"ALLOTTED","allotmentid":"RRPS031403","lease_deed":"Y","lease_deed_date":1630089000000,"village_name":"Munjkheda","khasra_no":"483","longitude":77.53421467,"latitude":28.31460064,"authority":"YEIDA","category":"residential","execution_stage":"lease-recorded"}},{"type":"Feature","geometry":{"type":"Polygon","coordinates":[[[77.534232,28.314511],[77.534122,28.314643],[77.534046,28.314596],[77.534157,28.314464],[77.534232,28.314511]]]},"properties":{"objectid":5875,"uniqueplotid":"PLNGRESIDENTIAL5875","plotmap_id":"SECTOR-22D_102_A_RESI","plotidentificationnumber":"102","plotno":"102","industrysector":"SECTOR-22D","block":"A","plotsize":"162 SQMT","plotsize_at_the_time_of_allotme":"162 SQMT","landuse_type":"RESIDENTIAL","landuse_subcategory":"RESIDENTIAL","scheme_cod":"RRPS03","investment":0,"employment":0,"plotstatus":"Allotted","landallotementstatus":"SOLD","landallotementtype":"ALLOTTED","allotmentid":"RRPS031407","lease_deed":"Y","lease_deed_date":1675103400000,"village_name":"Munjkheda","khasra_no":"382,483","longitude":77.5341394,"latitude":28.31455338,"authority":"YEIDA","category":"residential","execution_stage":"lease-recorded"}},{"type":"Feature","geometry":{"type":"Polygon","coordinates":[[[77.534157,28.314464],[77.534046,28.314596],[77.533971,28.314548],[77.534082,28.314416],[77.534157,28.314464]]]},"properties":{"objectid":5876,"uniqueplotid":"PLNGRESIDENTIAL5876","plotmap_id":"SECTOR-22D_103_A_RESI","plotidentificationnumber":"103","plotno":"103","industrysector":"SECTOR-22D","block":"A","plotsize":"162 SQMT","plotsize_at_the_time_of_allotme":"162 SQMT","landuse_type":"RESIDENTIAL","landuse_subcategory":"RESIDENTIAL","scheme_cod":"RRPS03","investment":0,"employment":0,"plotstatus":"Allotted","landallotementstatus":"SOLD","landallotementtype":"ALLOTTED","allotmentid":"RRPS031421","lease_deed":"Y","lease_deed_date":1705257000000,"village_name":"Munjkheda","khasra_no":"382,483","longitude":77.53404386000001,"latitude":28.3145188,"authority":"YEIDA","category":"residential","execution_stage":"lease-recorded"}},{"type":"Feature","geometry":{"type":"Polygon","coordinates":[[[77.534341,28.314244],[77.534231,28.314376],[77.534155,28.314329],[77.534268,28.314198],[77.534341,28.314244]]]},"properties":{"objectid":5877,"uniqueplotid":"PLNGRESIDENTIAL5877","plotmap_id":"SECTOR-22D_104_A_RESI","plotidentificationnumber":"104","plotno":"104","industrysector":"SECTOR-22D","block":"A","plotsize":"162 SQMT","plotsize_at_the_time_of_allotme":"162 SQMT","landuse_type":"RESIDENTIAL","landuse_subcategory":"RESIDENTIAL","scheme_cod":"RRPS03","investment":0,"employment":0,"plotstatus":"Allotted","landallotementstatus":"SOLD","landallotementtype":"ALLOTTED","allotmentid":"RRPS031447","village_name":"Munjkheda","khasra_no":"483,484","longitude":77.53424832,"latitude":28.31428704,"authority":"YEIDA","category":"residential","execution_stage":"allotted"}},{"type":"Feature","geometry":{"type":"Polygon","coordinates":[[[77.534416,28.314291],[77.534306,28.314423],[77.534231,28.314376],[77.534341,28.314244],[77.534416,28.314291]]]},"properties":{"objectid":5878,"uniqueplotid":"PLNGRESIDENTIAL5878","plotmap_id":"SECTOR-22D_105_A_RESI","plotidentificationnumber":"105","plotno":"105","industrysector":"SECTOR-22D","block":"A","plotsize":"162 SQMT","plotsize_at_the_time_of_allotme":"162 SQMT","landuse_type":"RESIDENTIAL","landuse_subcategory":"RESIDENTIAL","scheme_cod":"RRPS04","investment":0,"employment":0,"plotstatus":"Allotted","landallotementstatus":"SOLD","landallotementtype":"ALLOTTED","allotmentid":"RRPS041478","lease_deed":"Y","lease_deed_date":1695925800000,"village_name":"Munjkheda","khasra_no":"483,484,491","longitude":77.53432351000001,"latitude":28.31433363,"authority":"YEIDA","category":"residential","execution_stage":"lease-recorded"}},{"type":"Feature","geometry":{"type":"Polygon","coordinates":[[[77.534492,28.314339],[77.534381,28.31447],[77.534306,28.314423],[77.534416,28.314291],[77.534492,28.314339]]]},"properties":{"objectid":5879,"uniqueplotid":"PLNGRESIDENTIAL5879","plotmap_id":"SECTOR-22D_106_A_RESI","plotidentificationnumber":"106","plotno":"106","industrysector":"SECTOR-22D","block":"A","plotsize":"162 SQMT","plotsize_at_the_time_of_allotme":"162 SQMT","landuse_type":"RESIDENTIAL","landuse_subcategory":"RESIDENTIAL","scheme_cod":"RRPS03","investment":0,"employment":0,"plotstatus":"Allotted","landallotementstatus":"SOLD","landallotementtype":"ALLOTTED","allotmentid":"RRPS031484","lease_deed":"Y","lease_deed_date":1629484200000,"village_name":"Munjkheda","khasra_no":"483,484,491","longitude":77.53439879,"latitude":28.31438089,"authority":"YEIDA","category":"residential","execution_stage":"lease-recorded"}},{"type":"Feature","geometry":{"type":"Polygon","coordinates":[[[77.534567,28.314386],[77.534456,28.314518],[77.534381,28.31447],[77.534492,28.314339],[77.534567,28.314386]]]},"properties":{"objectid":5880,"uniqueplotid":"PLNGRESIDENTIAL5880","plotmap_id":"SECTOR-22D_107_A_RESI","plotidentificationnumber":"107","plotno":"107","industrysector":"SECTOR-22D","block":"A","plotsize":"162 SQMT","plotsize_at_the_time_of_allotme":"162 SQMT","landuse_type":"RESIDENTIAL","landuse_subcategory":"RESIDENTIAL","scheme_cod":"RPS02","investment":0,"employment":0,"plotstatus":"Allotted","landallotementstatus":"SOLD","landallotementtype":"ALLOTTED","allotmentid":"RPS022290","lease_deed":"Y","lease_deed_date":1691951400000,"village_name":"Munjkheda","khasra_no":"483,484,491","longitude":77.53447407,"latitude":28.314428149999998,"authority":"YEIDA","category":"residential","execution_stage":"lease-recorded"}},{"type":"Feature","geometry":{"type":"Polygon","coordinates":[[[77.534642,28.314433],[77.534532,28.314565],[77.534456,28.314518],[77.534567,28.314386],[77.534642,28.314433]]]},"properties":{"objectid":5881,"uniqueplotid":"PLNGRESIDENTIAL5881","plotmap_id":"SECTOR-22D_108_A_RESI","plotidentificationnumber":"108","plotno":"108","industrysector":"SECTOR-22D","block":"A","plotsize":"162 SQMT","plotsize_at_the_time_of_allotme":"162 SQMT","landuse_type":"RESIDENTIAL","landuse_subcategory":"RESIDENTIAL","scheme_cod":"RPS02","investment":0,"employment":0,"plotstatus":"Allotted","landallotementstatus":"SOLD","landallotementtype":"ALLOTTED","allotmentid":"RPS022267","village_name":"Munjkheda","khasra_no":"483,484,491","longitude":77.53454934999999,"latitude":28.3144754,"authority":"YEIDA","category":"residential","execution_stage":"allotted"}},{"type":"Feature","geometry":{"type":"Polygon","coordinates":[[[77.534717,28.31448],[77.534607,28.314612],[77.534532,28.314565],[77.534642,28.314433],[77.534717,28.31448]]]},"properties":{"objectid":5882,"uniqueplotid":"PLNGRESIDENTIAL5882","plotmap_id":"SECTOR-22D_109_A_RESI","plotidentificationnumber":"109","plotno":"109","industrysector":"SECTOR-22D","block":"A","plotsize":"162 SQMT","plotsize_at_the_time_of_allotme":"162 SQMT","landuse_type":"RESIDENTIAL","landuse_subcategory":"RESIDENTIAL","scheme_cod":"RPS02","investment":0,"employment":0,"plotstatus":"Allotted","landallotementstatus":"SOLD","landallotementtype":"ALLOTTED","allotmentid":"RPS022265","lease_deed":"Y","lease_deed_date":1571164200000,"village_name":"Munjkheda","khasra_no":"484,491","longitude":77.53462463,"latitude":28.314522659999998,"authority":"YEIDA","category":"residential","execution_stage":"lease-recorded"}},{"type":"Feature","geometry":{"type":"Polygon","coordinates":[[[77.534793,28.314528],[77.534682,28.314659],[77.534607,28.314612],[77.534717,28.31448],[77.534793,28.314528]]]},"properties":{"objectid":5883,"uniqueplotid":"PLNGRESIDENTIAL5883","plotmap_id":"SECTOR-22D_110_A_RESI","plotidentificationnumber":"110","plotno":"110","industrysector":"SECTOR-22D","block":"A","plotsize":"162 SQMT","plotsize_at_the_time_of_allotme":"162 SQMT","landuse_type":"RESIDENTIAL","landuse_subcategory":"RESIDENTIAL","scheme_cod":"RPS02","investment":0,"employment":0,"plotstatus":"Allotted","landallotementstatus":"SOLD","landallotementtype":"ALLOTTED","allotmentid":"RPS022013","lease_deed":"Y","lease_deed_date":1600194600000,"village_name":"Munjkheda","khasra_no":"491","longitude":77.53469991,"latitude":28.31456991,"authority":"YEIDA","category":"residential","execution_stage":"lease-recorded"}},{"type":"Feature","geometry":{"type":"Polygon","coordinates":[[[77.534868,28.314575],[77.534758,28.314707],[77.534682,28.314659],[77.534793,28.314528],[77.534868,28.314575]]]},"properties":{"objectid":5884,"uniqueplotid":"PLNGRESIDENTIAL5884","plotmap_id":"SECTOR-22D_111_A_RESI","plotidentificationnumber":"111","plotno":"111","industrysector":"SECTOR-22D","block":"A","plotsize":"162 SQMT","plotsize_at_the_time_of_allotme":"162 SQMT","landuse_type":"RESIDENTIAL","landuse_subcategory":"RESIDENTIAL","scheme_cod":"RPS02","investment":0,"employment":0,"plotstatus":"Allotted","landallotementstatus":"SOLD","landallotementtype":"ALLOTTED","allotmentid":"RPS022282","village_name":"Munjkheda","khasra_no":"491","longitude":77.53477519,"latitude":28.31461717,"authority":"YEIDA","category":"residential","execution_stage":"allotted"}},{"type":"Feature","geometry":{"type":"Polygon","coordinates":[[[77.534943,28.314622],[77.534833,28.314754],[77.534758,28.314707],[77.534868,28.314575],[77.534943,28.314622]]]},"properties":{"objectid":5885,"uniqueplotid":"PLNGRESIDENTIAL5885","plotmap_id":"SECTOR-22D_112_A_RESI","plotidentificationnumber":"112","plotno":"112","industrysector":"SECTOR-22D","block":"A","plotsize":"162 SQMT","plotsize_at_the_time_of_allotme":"162 SQMT","landuse_type":"RESIDENTIAL","landuse_subcategory":"RESIDENTIAL","scheme_cod":"RPS02","investment":0,"employment":0,"plotstatus":"Allotted","landallotementstatus":"SOLD","landallotementtype":"ALLOTTED","allotmentid":"RPS022049","lease_deed":"Y","lease_deed_date":1601317800000,"village_name":"Munjkheda","khasra_no":"491","longitude":77.53485047000001,"latitude":28.31466442,"authority":"YEIDA","category":"residential","execution_stage":"lease-recorded"}},{"type":"Feature","geometry":{"type":"Polygon","coordinates":[[[77.53502,28.31467],[77.534908,28.314801],[77.534833,28.314754],[77.534943,28.314622],[77.53502,28.31467]]]},"properties":{"objectid":5886,"uniqueplotid":"PLNGRESIDENTIAL5886","plotmap_id":"SECTOR-22D_113_A_RESI","plotidentificationnumber":"113","plotno":"113","industrysector":"SECTOR-22D","block":"A","plotsize":"162 SQMT","plotsize_at_the_time_of_allotme":"162 SQMT","landuse_type":"RESIDENTIAL","landuse_subcategory":"RESIDENTIAL","scheme_cod":"RPS02","investment":0,"employment":0,"plotstatus":"Allotted","landallotementstatus":"SOLD","landallotementtype":"ALLOTTED","allotmentid":"RPS022263","lease_deed":"Y","lease_deed_date":1576002600000,"village_name":"Munjkheda","khasra_no":"491","longitude":77.53492621999999,"latitude":28.314711669999998,"authority":"YEIDA","category":"residential","execution_stage":"lease-recorded"}},{"type":"Feature","geometry":{"type":"Polygon","coordinates":[[[77.535054,28.31449],[77.534943,28.314622],[77.534868,28.314575],[77.534979,28.314443],[77.535054,28.31449]]]},"properties":{"objectid":5908,"uniqueplotid":"PLNGRESIDENTIAL5908","plotmap_id":"SECTOR-22D_135_A_RESI","plotidentificationnumber":"135","plotno":"135","industrysector":"SECTOR-22D","block":"A","plotsize":"162 SQMT","plotsize_at_the_time_of_allotme":"162 SQMT","landuse_type":"RESIDENTIAL","landuse_subcategory":"RESIDENTIAL","scheme_cod":"RPS02","investment":0,"employment":0,"plotstatus":"Allotted","landallotementstatus":"SOLD","landallotementtype":"ALLOTTED","allotmentid":"RPS022081","lease_deed":"Y","lease_deed_date":1712601000000,"village_name":"Munjkheda","khasra_no":"491","longitude":77.53496093,"latitude":28.314532619999998,"authority":"YEIDA","category":"residential","execution_stage":"lease-recorded"}},{"type":"Feature","geometry":{"type":"Polygon","coordinates":[[[77.534979,28.314443],[77.534868,28.314575],[77.534793,28.314528],[77.534903,28.314396],[77.534979,28.314443]]]},"properties":{"objectid":5909,"uniqueplotid":"PLNGRESIDENTIAL5909","plotmap_id":"SECTOR-22D_136_A_RESI","plotidentificationnumber":"136","plotno":"136","industrysector":"SECTOR-22D","block":"A","plotsize":"162 SQMT","plotsize_at_the_time_of_allotme":"162 SQMT","landuse_type":"RESIDENTIAL","landuse_subcategory":"RESIDENTIAL","scheme_cod":"RRPS01","investment":0,"employment":0,"plotstatus":"Allotted","landallotementstatus":"SOLD","landallotementtype":"ALLOTTED","allotmentid":"RRPS012095","lease_deed":"Y","lease_deed_date":1673289000000,"village_name":"Munjkheda","khasra_no":"491","longitude":77.53488565,"latitude":28.31448536,"authority":"YEIDA","category":"residential","execution_stage":"lease-recorded"}},{"type":"Feature","geometry":{"type":"Polygon","coordinates":[[[77.534903,28.314396],[77.534793,28.314528],[77.534717,28.31448],[77.534828,28.314349],[77.534903,28.314396]]]},"properties":{"objectid":5910,"uniqueplotid":"PLNGRESIDENTIAL5910","plotmap_id":"SECTOR-22D_137_A_RESI","plotidentificationnumber":"137","plotno":"137","industrysector":"SECTOR-22D","block":"A","plotsize":"162 SQMT","landuse_type":"RESIDENTIAL","landuse_subcategory":"RESIDENTIAL","investment":0,"employment":0,"landallotementstatus":"VACANT","landallotementtype":"VACANT","village_name":"Munjkheda","khasra_no":"491","longitude":77.53481037,"latitude":28.314438109999998,"authority":"YEIDA","category":"residential","execution_stage":"vacant"}},{"type":"Feature","geometry":{"type":"Polygon","coordinates":[[[77.534828,28.314349],[77.534717,28.31448],[77.534642,28.314433],[77.534753,28.314301],[77.534828,28.314349]]]},"properties":{"objectid":5911,"uniqueplotid":"PLNGRESIDENTIAL5911","plotmap_id":"SECTOR-22D_138_A_RESI","plotidentificationnumber":"138","plotno":"138","industrysector":"SECTOR-22D","block":"A","plotsize":"162 SQMT","plotsize_at_the_time_of_allotme":"162 SQMT","landuse_type":"RESIDENTIAL","landuse_subcategory":"RESIDENTIAL","scheme_cod":"RPS02","investment":0,"employment":0,"plotstatus":"Allotted","landallotementstatus":"SOLD","landallotementtype":"ALLOTTED","allotmentid":"RPS022215","lease_deed":"Y","lease_deed_date":1615573800000,"village_name":"Munjkheda","khasra_no":"491","longitude":77.53473509,"latitude":28.31439085,"authority":"YEIDA","category":"residential","execution_stage":"lease-recorded"}},{"type":"Feature","geometry":{"type":"Polygon","coordinates":[[[77.534753,28.314301],[77.534642,28.314433],[77.534567,28.314386],[77.534677,28.314254],[77.534753,28.314301]]]},"properties":{"objectid":5912,"uniqueplotid":"PLNGRESIDENTIAL5912","plotmap_id":"SECTOR-22D_139_A_RESI","plotidentificationnumber":"139","plotno":"139","industrysector":"SECTOR-22D","block":"A","plotsize":"162 SQMT","plotsize_at_the_time_of_allotme":"162 SQMT","landuse_type":"RESIDENTIAL","landuse_subcategory":"RESIDENTIAL","scheme_cod":"RRPS01","investment":0,"employment":0,"plotstatus":"Allotted","landallotementstatus":"SOLD","landallotementtype":"ALLOTTED","allotmentid":"RRPS012509","lease_deed":"Y","lease_deed_date":1664217000000,"village_name":"Munjkheda","khasra_no":"491","longitude":77.53465981,"latitude":28.3143436,"authority":"YEIDA","category":"residential","execution_stage":"lease-recorded"}},{"type":"Feature","geometry":{"type":"Polygon","coordinates":[[[77.534677,28.314254],[77.534567,28.314386],[77.534492,28.314339],[77.534602,28.314207],[77.534677,28.314254]]]},"properties":{"objectid":5913,"uniqueplotid":"PLNGRESIDENTIAL5913","plotmap_id":"SECTOR-22D_140_A_RESI","plotidentificationnumber":"140","plotno":"140","industrysector":"SECTOR-22D","block":"A","plotsize":"162 SQMT","plotsize_at_the_time_of_allotme":"162 SQMT","landuse_type":"RESIDENTIAL","landuse_subcategory":"RESIDENTIAL","scheme_cod":"RPS02","investment":0,"employment":0,"plotstatus":"Allotted","landallotementstatus":"SOLD","landallotementtype":"ALLOTTED","allotmentid":"RPS022242","village_name":"Munjkheda","khasra_no":"491","longitude":77.53458452,"latitude":28.31429634,"authority":"YEIDA","category":"residential","execution_stage":"allotted"}},{"type":"Feature","geometry":{"type":"Polygon","coordinates":[[[77.534602,28.314207],[77.534492,28.314339],[77.534416,28.314291],[77.534527,28.31416],[77.534602,28.314207]]]},"properties":{"objectid":5914,"uniqueplotid":"PLNGRESIDENTIAL5914","plotmap_id":"SECTOR-22D_141_A_RESI","plotidentificationnumber":"141","plotno":"141","industrysector":"SECTOR-22D","block":"A","plotsize":"162 SQMT","plotsize_at_the_time_of_allotme":"162 SQMT","landuse_type":"RESIDENTIAL","landuse_subcategory":"RESIDENTIAL","scheme_cod":"RPS02","investment":0,"employment":0,"plotstatus":"Allotted","landallotementstatus":"SOLD","landallotementtype":"ALLOTTED","allotmentid":"RPS022222","lease_deed":"Y","lease_deed_date":1636309800000,"village_name":"Munjkheda","khasra_no":"491","longitude":77.53450923999999,"latitude":28.31424909,"authority":"YEIDA","category":"residential","execution_stage":"lease-recorded"}},{"type":"Feature","geometry":{"type":"Polygon","coordinates":[[[77.534527,28.31416],[77.534416,28.314291],[77.534341,28.314244],[77.534452,28.314112],[77.534527,28.31416]]]},"properties":{"objectid":5915,"uniqueplotid":"PLNGRESIDENTIAL5915","plotmap_id":"SECTOR-22D_142_A_RESI","plotidentificationnumber":"142","plotno":"142","industrysector":"SECTOR-22D","block":"A","plotsize":"162 SQMT","plotsize_at_the_time_of_allotme":"162 SQMT","landuse_type":"RESIDENTIAL","landuse_subcategory":"RESIDENTIAL","scheme_cod":"RPS02","investment":0,"employment":0,"plotstatus":"Allotted","landallotementstatus":"SOLD","landallotementtype":"ALLOTTED","allotmentid":"RPS022206","lease_deed":"Y","lease_deed_date":1701714600000,"village_name":"Munjkheda","khasra_no":"484,491","longitude":77.53443396,"latitude":28.31420183,"authority":"YEIDA","category":"residential","execution_stage":"lease-recorded"}},{"type":"Feature","geometry":{"type":"Polygon","coordinates":[[[77.534452,28.314112],[77.534341,28.314244],[77.534268,28.314198],[77.534381,28.314068],[77.534452,28.314112]]]},"properties":{"objectid":5916,"uniqueplotid":"PLNGRESIDENTIAL5916","plotmap_id":"SECTOR-22D_143_A_RESI","plotidentificationnumber":"143","plotno":"143","industrysector":"SECTOR-22D","block":"A","plotsize":"162 SQMT","plotsize_at_the_time_of_allotme":"162 SQMT","landuse_type":"RESIDENTIAL","landuse_subcategory":"RESIDENTIAL","scheme_cod":"RPS02","investment":0,"employment":0,"plotstatus":"Allotted","landallotementstatus":"SOLD","landallotementtype":"ALLOTTED","allotmentid":"RPS022180","lease_deed":"Y","lease_deed_date":1708453800000,"village_name":"Munjkheda","khasra_no":"484,491","longitude":77.53435989,"latitude":28.31415594,"authority":"YEIDA","category":"residential","execution_stage":"lease-recorded"}},{"type":"Feature","geometry":{"type":"Polygon","coordinates":[[[77.534,28.314332],[77.533879,28.314476],[77.533794,28.314303],[77.533849,28.314237],[77.534,28.314332]]]},"properties":{"objectid":5917,"uniqueplotid":"PLNGRESIDENTIAL5917","plotmap_id":"SECTOR-22D_149_A_RESI","plotidentificationnumber":"149","plotno":"149","industrysector":"SECTOR-22D","block":"A","plotsize":"162 SQMT","plotsize_at_the_time_of_allotme":"162 SQMT","landuse_type":"RESIDENTIAL","landuse_subcategory":"RESIDENTIAL","scheme_cod":"RRPS03","investment":0,"employment":0,"plotstatus":"Allotted","landallotementstatus":"SOLD","landallotementtype":"ALLOTTED","allotmentid":"RRPS031452","lease_deed":"Y","lease_deed_date":1729535400000,"village_name":"Munjkheda","khasra_no":"382,483,373","longitude":77.53389224,"latitude":28.314350909999998,"authority":"YEIDA","category":"residential","execution_stage":"lease-recorded"}},{"type":"Feature","geometry":{"type":"Polygon","coordinates":[[[77.53411,28.3142],[77.534055,28.314266],[77.533904,28.314171],[77.53396,28.314105],[77.53411,28.3142]]]},"properties":{"objectid":5918,"uniqueplotid":"PLNGRESIDENTIAL5918","plotmap_id":"SECTOR-22D_147_A_RESI","plotidentificationnumber":"147","plotno":"147","industrysector":"SECTOR-22D","block":"A","plotsize":"162 SQMT","plotsize_at_the_time_of_allotme":"162 SQMT","landuse_type":"RESIDENTIAL","landuse_subcategory":"RESIDENTIAL","scheme_cod":"RRPS04","investment":0,"employment":0,"plotstatus":"Allotted","landallotementstatus":"SOLD","landallotementtype":"ALLOTTED","allotmentid":"RRPS041575","lease_deed":"Y","lease_deed_date":1709577000000,"village_name":"Munjkheda","khasra_no":"483","longitude":77.53400722,"latitude":28.31418561,"authority":"YEIDA","category":"residential","execution_stage":"lease-recorded"}},{"type":"Feature","geometry":{"type":"Polygon","coordinates":[[[77.534165,28.314134],[77.53411,28.3142],[77.53396,28.314105],[77.534015,28.31404],[77.534165,28.314134]]]},"properties":{"objectid":5919,"uniqueplotid":"PLNGRESIDENTIAL5919","plotmap_id":"SECTOR-22D_146_A_RESI","plotidentificationnumber":"146","plotno":"146","industrysector":"SECTOR-22D","block":"A","plotsize":"162 SQMT","plotsize_at_the_time_of_allotme":"162 SQMT","landuse_type":"RESIDENTIAL","landuse_subcategory":"RESIDENTIAL","scheme_cod":"RRPS03","investment":0,"employment":0,"plotstatus":"Allotted","landallotementstatus":"SOLD","landallotementtype":"ALLOTTED","allotmentid":"RRPS031438","lease_deed":"Y","lease_deed_date":1640025000000,"village_name":"Munjkheda","khasra_no":"483","longitude":77.53406244,"latitude":28.3141197,"authority":"YEIDA","category":"residential","execution_stage":"lease-recorded"}},{"type":"Feature","geometry":{"type":"Polygon","coordinates":[[[77.534276,28.314002],[77.534221,28.314068],[77.53407,28.313974],[77.534125,28.313908],[77.534276,28.314002]]]},"properties":{"objectid":5920,"uniqueplotid":"PLNGRESIDENTIAL5920","plotmap_id":"SECTOR-22D_144_A_RESI","plotidentificationnumber":"144","plotno":"144","industrysector":"SECTOR-22D","block":"A","plotsize":"162 SQMT","plotsize_at_the_time_of_allotme":"162 SQMT","landuse_type":"RESIDENTIAL","landuse_subcategory":"RESIDENTIAL","scheme_cod":"RPS02","investment":0,"employment":0,"plotstatus":"Allotted","landallotementstatus":"SOLD","landallotementtype":"ALLOTTED","allotmentid":"RPS022176","lease_deed":"Y","lease_deed_date":1695580200000,"village_name":"Munjkheda","khasra_no":"483,484,491","longitude":77.53417288,"latitude":28.31398789,"authority":"YEIDA","category":"residential","execution_stage":"lease-recorded"}},{"type":"Feature","geometry":{"type":"Polygon","coordinates":[[[77.534221,28.314068],[77.534165,28.314134],[77.534015,28.31404],[77.53407,28.313974],[77.534221,28.314068]]]},"properties":{"objectid":5921,"uniqueplotid":"PLNGRESIDENTIAL5921","plotmap_id":"SECTOR-22D_145_A_RESI","plotidentificationnumber":"145","plotno":"145","industrysector":"SECTOR-22D","block":"A","plotsize":"162 SQMT","landuse_type":"RESIDENTIAL","landuse_subcategory":"RESIDENTIAL","investment":0,"employment":0,"landallotementstatus":"VACANT","landallotementtype":"VACANT","village_name":"Munjkheda","khasra_no":"483,484","longitude":77.53411765999999,"latitude":28.3140538,"authority":"YEIDA","category":"residential","execution_stage":"vacant"}},{"type":"Feature","geometry":{"type":"Polygon","coordinates":[[[77.533849,28.314237],[77.533794,28.314303],[77.533709,28.31413],[77.533754,28.314077],[77.533904,28.314171],[77.533849,28.314237]]]},"properties":{"objectid":5923,"uniqueplotid":"PLNGRESIDENTIAL5923","plotmap_id":"SECTOR-22D_150_A_RESI","plotidentificationnumber":"150","plotno":"150","industrysector":"SECTOR-22D","block":"A","plotsize":"162 SQMT","plotsize_at_the_time_of_allotme":"162 SQMT","landuse_type":"RESIDENTIAL","landuse_subcategory":"RESIDENTIAL","scheme_cod":"RRPS03","investment":0,"employment":0,"plotstatus":"Allotted","landallotementstatus":"SOLD","landallotementtype":"ALLOTTED","allotmentid":"RRPS031467","lease_deed":"Y","lease_deed_date":1739817000000,"village_name":"Munjkheda","khasra_no":"382,483,373","longitude":77.53380255,"latitude":28.31418489,"authority":"YEIDA","category":"residential","execution_stage":"lease-recorded"}},{"type":"Feature","geometry":{"type":"Polygon","coordinates":[[[77.53396,28.314105],[77.533904,28.314171],[77.533754,28.314077],[77.533809,28.314011],[77.53396,28.314105]]]},"properties":{"objectid":5924,"uniqueplotid":"PLNGRESIDENTIAL5924","plotmap_id":"SECTOR-22D_151_A_RESI","plotidentificationnumber":"151","plotno":"151","industrysector":"SECTOR-22D","block":"A","plotsize":"162 SQMT","plotsize_at_the_time_of_allotme":"162 SQMT","landuse_type":"RESIDENTIAL","landuse_subcategory":"RESIDENTIAL","scheme_cod":"RRPS03","investment":0,"employment":0,"plotstatus":"Allotted","landallotementstatus":"SOLD","landallotementtype":"ALLOTTED","allotmentid":"RRPS031492","lease_deed":"Y","lease_deed_date":1640889000000,"village_name":"Munjkheda","khasra_no":"483","longitude":77.53385664,"latitude":28.31409111,"authority":"YEIDA","category":"residential","execution_stage":"lease-recorded"}},{"type":"Feature","geometry":{"type":"Polygon","coordinates":[[[77.534015,28.31404],[77.53396,28.314105],[77.533809,28.314011],[77.533864,28.313945],[77.534015,28.31404]]]},"properties":{"objectid":5925,"uniqueplotid":"PLNGRESIDENTIAL5925","plotmap_id":"SECTOR-22D_152_A_RESI","plotidentificationnumber":"152","plotno":"152","industrysector":"SECTOR-22D","block":"A","plotsize":"162 SQMT","plotsize_at_the_time_of_allotme":"162 SQMT","landuse_type":"RESIDENTIAL","landuse_subcategory":"RESIDENTIAL","scheme_cod":"RRPS03","investment":0,"employment":0,"plotstatus":"Allotted","landallotementstatus":"SOLD","landallotementtype":"ALLOTTED","allotmentid":"RRPS031519","lease_deed":"Y","lease_deed_date":1704220200000,"village_name":"Munjkheda","khasra_no":"483","longitude":77.53391186,"latitude":28.3140252,"authority":"YEIDA","category":"residential","execution_stage":"lease-recorded"}},{"type":"Feature","geometry":{"type":"Polygon","coordinates":[[[77.53407,28.313974],[77.534015,28.31404],[77.533864,28.313945],[77.533919,28.313879],[77.53407,28.313974]]]},"properties":{"objectid":5926,"uniqueplotid":"PLNGRESIDENTIAL5926","plotmap_id":"SECTOR-22D_153_A_RESI","plotidentificationnumber":"153","plotno":"153","industrysector":"SECTOR-22D","block":"A","plotsize":"162 SQMT","plotsize_at_the_time_of_allotme":"162 SQMT","landuse_type":"RESIDENTIAL","landuse_subcategory":"RESIDENTIAL","scheme_cod":"RRPS03","investment":0,"employment":0,"plotstatus":"Allotted","landallotementstatus":"SOLD","landallotementtype":"ALLOTTED","allotmentid":"RRPS031437","lease_deed":"Y","lease_deed_date":1626719400000,"village_name":"Munjkheda","khasra_no":"483","longitude":77.53396708,"latitude":28.3139593,"authority":"YEIDA","category":"residential","execution_stage":"lease-recorded"}},{"type":"Feature","geometry":{"type":"Polygon","coordinates":[[[77.534125,28.313908],[77.53407,28.313974],[77.533919,28.313879],[77.533975,28.313813],[77.534125,28.313908]]]},"properties":{"objectid":5927,"uniqueplotid":"PLNGRESIDENTIAL5927","plotmap_id":"SECTOR-22D_154_A_RESI","plotidentificationnumber":"154","plotno":"154","industrysector":"SECTOR-22D","block":"A","plotsize":"162 SQMT","landuse_type":"RESIDENTIAL","landuse_subcategory":"RESIDENTIAL","investment":0,"employment":0,"landallotementstatus":"VACANT","landallotementtype":"VACANT","village_name":"Munjkheda","khasra_no":"483,484","longitude":77.5340223,"latitude":28.31389339,"authority":"YEIDA","category":"residential","execution_stage":"vacant"}},{"type":"Feature","geometry":{"type":"Polygon","coordinates":[[[77.534254,28.313754],[77.534199,28.31382],[77.534048,28.313725],[77.534103,28.313659],[77.534254,28.313754]]]},"properties":{"objectid":5928,"uniqueplotid":"PLNGRESIDENTIAL5928","plotmap_id":"SECTOR-22D_155_A_RESI","plotidentificationnumber":"155","plotno":"155","industrysector":"SECTOR-22D","block":"A","plotsize":"162 SQMT","plotsize_at_the_time_of_allotme":"162 SQMT","landuse_type":"RESIDENTIAL","landuse_subcategory":"RESIDENTIAL","scheme_cod":"RPS02","investment":0,"employment":0,"plotstatus":"Allotted","landallotementstatus":"SOLD","landallotementtype":"ALLOTTED","allotmentid":"RPS022172","lease_deed":"Y","lease_deed_date":1675103400000,"village_name":"Munjkheda","khasra_no":"484,491","longitude":77.53415115,"latitude":28.313739610000003,"authority":"YEIDA","category":"residential","execution_stage":"lease-recorded"}},{"type":"Feature","geometry":{"type":"Polygon","coordinates":[[[77.534309,28.313688],[77.534254,28.313754],[77.534103,28.313659],[77.534159,28.313594],[77.534309,28.313688]]]},"properties":{"objectid":5929,"uniqueplotid":"PLNGRESIDENTIAL5929","plotmap_id":"SECTOR-22D_156_A_RESI","plotidentificationnumber":"156","plotno":"156","industrysector":"SECTOR-22D","block":"A","plotsize":"162 SQMT","plotsize_at_the_time_of_allotme":"162 SQMT","landuse_type":"RESIDENTIAL","landuse_subcategory":"RESIDENTIAL","scheme_cod":"RPS02","investment":0,"employment":0,"plotstatus":"Allotted","landallotementstatus":"SOLD","landallotementtype":"ALLOTTED","allotmentid":"RPS022127","lease_deed":"Y","lease_deed_date":1684693800000,"village_name":"Munjkheda","khasra_no":"484,491","longitude":77.53420636999999,"latitude":28.313673700000002,"authority":"YEIDA","category":"residential","execution_stage":"lease-recorded"}},{"type":"Feature","geometry":{"type":"Polygon","coordinates":[[[77.534364,28.313622],[77.534309,28.313688],[77.534159,28.313594],[77.534214,28.313528],[77.534364,28.313622]]]},"properties":{"objectid":5930,"uniqueplotid":"PLNGRESIDENTIAL5930","plotmap_id":"SECTOR-22D_157_A_RESI","plotidentificationnumber":"157","plotno":"157","industrysector":"SECTOR-22D","block":"A","plotsize":"162 SQMT","plotsize_at_the_time_of_allotme":"162 SQMT","landuse_type":"RESIDENTIAL","landuse_subcategory":"RESIDENTIAL","scheme_cod":"RPS02","investment":0,"employment":0,"plotstatus":"Allotted","landallotementstatus":"SOLD","landallotementtype":"ALLOTTED","allotmentid":"RPS022016","lease_deed":"Y","lease_deed_date":1735583400000,"village_name":"Munjkheda","khasra_no":"484,491","longitude":77.53426154,"latitude":28.31360781,"authority":"YEIDA","category":"residential","execution_stage":"lease-recorded"}},{"type":"Feature","geometry":{"type":"Polygon","coordinates":[[[77.53442,28.313556],[77.534364,28.313622],[77.534214,28.313528],[77.534269,28.313462],[77.53442,28.313556]]]},"properties":{"objectid":5931,"uniqueplotid":"PLNGRESIDENTIAL5931","plotmap_id":"SECTOR-22D_158_A_RESI","plotidentificationnumber":"158","plotno":"158","industrysector":"SECTOR-22D","block":"A","plotsize":"162 SQMT","plotsize_at_the_time_of_allotme":"162 SQMT","landuse_type":"RESIDENTIAL","landuse_subcategory":"RESIDENTIAL","scheme_cod":"RPS02","investment":0,"employment":0,"plotstatus":"Allotted","landallotementstatus":"SOLD","landallotementtype":"ALLOTTED","allotmentid":"RPS022120","lease_deed":"Y","lease_deed_date":1687717800000,"village_name":"Munjkheda","khasra_no":"484,487,491","longitude":77.53431681,"latitude":28.31354194,"authority":"YEIDA","category":"residential","execution_stage":"lease-recorded"}},{"type":"Feature","geometry":{"type":"Polygon","coordinates":[[[77.534475,28.31349],[77.53442,28.313556],[77.534269,28.313462],[77.534324,28.313396],[77.534475,28.31349]]]},"properties":{"objectid":5932,"uniqueplotid":"PLNGRESIDENTIAL5932","plotmap_id":"SECTOR-22D_159_A_RESI","plotidentificationnumber":"159","plotno":"159","industrysector":"SECTOR-22D","block":"A","plotsize":"162 SQMT","plotsize_at_the_time_of_allotme":"162 SQMT","landuse_type":"RESIDENTIAL","landuse_subcategory":"RESIDENTIAL","scheme_cod":"RPS02","investment":0,"employment":0,"plotstatus":"Allotted","landallotementstatus":"SOLD","landallotementtype":"ALLOTTED","allotmentid":"RPS022223","lease_deed":"Y","lease_deed_date":1575397800000,"village_name":"Munjkheda","khasra_no":"487","longitude":77.53437203,"latitude":28.31347598,"authority":"YEIDA","category":"residential","execution_stage":"lease-recorded"}},{"type":"Feature","geometry":{"type":"Polygon","coordinates":[[[77.53453,28.313424],[77.534475,28.31349],[77.534324,28.313396],[77.53438,28.31333],[77.53453,28.313424]]]},"properties":{"objectid":5933,"uniqueplotid":"PLNGRESIDENTIAL5933","plotmap_id":"SECTOR-22D_160_A_RESI","plotidentificationnumber":"160","plotno":"160","industrysector":"SECTOR-22D","block":"A","plotsize":"162 SQMT","plotsize_at_the_time_of_allotme":"162 SQMT","landuse_type":"RESIDENTIAL","landuse_subcategory":"RESIDENTIAL","scheme_cod":"RPS02","investment":0,"employment":0,"plotstatus":"Allotted","landallotementstatus":"SOLD","landallotementtype":"ALLOTTED","allotmentid":"RPS022188","lease_deed":"Y","lease_deed_date":1565893800000,"village_name":"Munjkheda","khasra_no":"487","longitude":77.5344273,"latitude":28.31341007,"authority":"YEIDA","category":"residential","execution_stage":"lease-recorded"}},{"type":"Feature","geometry":{"type":"Polygon","coordinates":[[[77.534585,28.313358],[77.53453,28.313424],[77.53438,28.31333],[77.534435,28.313264],[77.534585,28.313358]]]},"properties":{"objectid":5934,"uniqueplotid":"PLNGRESIDENTIAL5934","plotmap_id":"SECTOR-22D_161_A_RESI","plotidentificationnumber":"161","plotno":"161","industrysector":"SECTOR-22D","block":"A","plotsize":"162 SQMT","plotsize_at_the_time_of_allotme":"162 SQMT","landuse_type":"RESIDENTIAL","landuse_subcategory":"RESIDENTIAL","scheme_cod":"RPS02","investment":0,"employment":0,"plotstatus":"Allotted","landallotementstatus":"SOLD","landallotementtype":"ALLOTTED","allotmentid":"RPS022074","lease_deed":"Y","lease_deed_date":1575829800000,"village_name":"Munjkheda","khasra_no":"487","longitude":77.53448248000001,"latitude":28.31334412,"authority":"YEIDA","category":"residential","execution_stage":"lease-recorded"}},{"type":"Feature","geometry":{"type":"Polygon","coordinates":[[[77.534641,28.313293],[77.534585,28.313358],[77.534435,28.313264],[77.53449,28.313198],[77.534641,28.313293]]]},"properties":{"objectid":5935,"uniqueplotid":"PLNGRESIDENTIAL5935","plotmap_id":"SECTOR-22D_162_A_RESI","plotidentificationnumber":"162","plotno":"162","industrysector":"SECTOR-22D","block":"A","plotsize":"162 SQMT","plotsize_at_the_time_of_allotme":"162 SQMT","landuse_type":"RESIDENTIAL","landuse_subcategory":"RESIDENTIAL","scheme_cod":"RPS02","investment":0,"employment":0,"plotstatus":"Allotted","landallotementstatus":"SOLD","landallotementtype":"ALLOTTED","allotmentid":"RPS022243","lease_deed":"Y","lease_deed_date":1599244200000,"village_name":"Munjkheda","khasra_no":"487","longitude":77.53453769,"latitude":28.31327825,"authority":"YEIDA","category":"residential","execution_stage":"lease-recorded"}},{"type":"Feature","geometry":{"type":"Polygon","coordinates":[[[77.534696,28.313227],[77.534641,28.313293],[77.53449,28.313198],[77.534545,28.313132],[77.534696,28.313227]]]},"properties":{"objectid":5936,"uniqueplotid":"PLNGRESIDENTIAL5936","plotmap_id":"SECTOR-22D_163_A_RESI","plotidentificationnumber":"163","plotno":"163","industrysector":"SECTOR-22D","block":"A","plotsize":"162 SQMT","plotsize_at_the_time_of_allotme":"162 SQMT","landuse_type":"RESIDENTIAL","landuse_subcategory":"RESIDENTIAL","scheme_cod":"RPS02","investment":0,"employment":0,"plotstatus":"Allotted","landallotementstatus":"SOLD","landallotementtype":"ALLOTTED","allotmentid":"RPS022031","lease_deed":"Y","lease_deed_date":1576089000000,"village_name":"Munjkheda","khasra_no":"487","longitude":77.53459291,"latitude":28.313212359999998,"authority":"YEIDA","category":"residential","execution_stage":"lease-recorded"}},{"type":"Feature","geometry":{"type":"Polygon","coordinates":[[[77.534751,28.313161],[77.534696,28.313227],[77.534545,28.313132],[77.5346,28.313066],[77.534751,28.313161]]]},"properties":{"objectid":5937,"uniqueplotid":"PLNGRESIDENTIAL5937","plotmap_id":"SECTOR-22D_164_A_RESI","plotidentificationnumber":"164","plotno":"164","industrysector":"SECTOR-22D","block":"A","plotsize":"162 SQMT","plotsize_at_the_time_of_allotme":"162 SQMT","landuse_type":"RESIDENTIAL","landuse_subcategory":"RESIDENTIAL","scheme_cod":"RPS02","investment":0,"employment":0,"plotstatus":"Allotted","landallotementstatus":"SOLD","landallotementtype":"ALLOTTED","allotmentid":"RPS022205","lease_deed":"Y","lease_deed_date":1571769000000,"village_name":"Munjkheda","khasra_no":"487","longitude":77.53464813,"latitude":28.313146449999998,"authority":"YEIDA","category":"residential","execution_stage":"lease-recorded"}},{"type":"Feature","geometry":{"type":"Polygon","coordinates":[[[77.534806,28.313095],[77.534751,28.313161],[77.5346,28.313066],[77.534656,28.313],[77.534806,28.313095]]]},"properties":{"objectid":5938,"uniqueplotid":"PLNGRESIDENTIAL5938","plotmap_id":"SECTOR-22D_165_A_RESI","plotidentificationnumber":"165","plotno":"165","industrysector":"SECTOR-22D","block":"A","plotsize":"162 SQMT","plotsize_at_the_time_of_allotme":"162 SQMT","landuse_type":"RESIDENTIAL","landuse_subcategory":"RESIDENTIAL","scheme_cod":"RPS02","investment":0,"employment":0,"plotstatus":"Allotted","landallotementstatus":"SOLD","landallotementtype":"ALLOTTED","allotmentid":"RPS022056","lease_deed":"Y","lease_deed_date":1575225000000,"village_name":"Munjkheda","khasra_no":"489,487","longitude":77.53470335,"latitude":28.313080539999998,"authority":"YEIDA","category":"residential","execution_stage":"lease-recorded"}},{"type":"Feature","geometry":{"type":"Polygon","coordinates":[[[77.534861,28.313029],[77.534806,28.313095],[77.534656,28.313],[77.534711,28.312934],[77.534861,28.313029]]]},"properties":{"objectid":5939,"uniqueplotid":"PLNGRESIDENTIAL5939","plotmap_id":"SECTOR-22D_166_A_RESI","plotidentificationnumber":"166","plotno":"166","industrysector":"SECTOR-22D","block":"A","plotsize":"162 SQMT","plotsize_at_the_time_of_allotme":"162 SQMT","landuse_type":"RESIDENTIAL","landuse_subcategory":"RESIDENTIAL","scheme_cod":"RPS02","investment":0,"employment":0,"plotstatus":"Allotted","landallotementstatus":"SOLD","landallotementtype":"ALLOTTED","allotmentid":"RPS022063","lease_deed":"Y","lease_deed_date":1731522600000,"village_name":"Munjkheda","khasra_no":"489","longitude":77.53475857,"latitude":28.313014629999998,"authority":"YEIDA","category":"residential","execution_stage":"lease-recorded"}},{"type":"Feature","geometry":{"type":"Polygon","coordinates":[[[77.534935,28.312941],[77.534861,28.313029],[77.534711,28.312934],[77.534785,28.312847],[77.534935,28.312941]]]},"properties":{"objectid":5940,"uniqueplotid":"PLNGRESIDENTIAL5940","plotmap_id":"SECTOR-22D_167_A_RESI","plotidentificationnumber":"167","plotno":"167","industrysector":"SECTOR-22D","block":"A","plotsize":"162 SQMT","plotsize_at_the_time_of_allotme":"162 SQMT","landuse_type":"RESIDENTIAL","landuse_subcategory":"RESIDENTIAL","scheme_cod":"RRPS01","investment":0,"employment":0,"plotstatus":"Allotted","landallotementstatus":"SOLD","landallotementtype":"ALLOTTED","allotmentid":"RRPS012266","lease_deed":"Y","lease_deed_date":1705948200000,"village_name":"Munjkheda","khasra_no":"489","longitude":77.53482299000001,"latitude":28.31293774,"authority":"YEIDA","category":"residential","execution_stage":"lease-recorded"}},{"type":"Feature","geometry":{"type":"Polygon","coordinates":[[[77.535082,28.312765],[77.535009,28.312853],[77.534858,28.312759],[77.534932,28.312671],[77.535082,28.312765]]]},"properties":{"objectid":5941,"uniqueplotid":"PLNGRESIDENTIAL5941","plotmap_id":"SECTOR-22D_168_A_RESI","plotidentificationnumber":"168","plotno":"168","industrysector":"SECTOR-22D","block":"A","plotsize":"162 SQMT","plotsize_at_the_time_of_allotme":"162 SQMT","landuse_type":"RESIDENTIAL","landuse_subcategory":"RESIDENTIAL","scheme_cod":"RPS02","investment":0,"employment":0,"plotstatus":"Allotted","landallotementstatus":"SOLD","landallotementtype":"ALLOTTED","allotmentid":"RPS022193","village_name":"Munjkheda","khasra_no":"489,494,495","longitude":77.53497026,"latitude":28.31276196,"authority":"YEIDA","category":"residential","execution_stage":"allotted"}},{"type":"Feature","geometry":{"type":"Polygon","coordinates":[[[77.535086,28.313036],[77.535012,28.313123],[77.534861,28.313029],[77.534935,28.312941],[77.535086,28.313036]]]},"properties":{"objectid":5969,"uniqueplotid":"PLNGRESIDENTIAL5969","plotmap_id":"SECTOR-22D_196_A_RESI","plotidentificationnumber":"196","plotno":"196","industrysector":"SECTOR-22D","block":"A","plotsize":"162 SQMT","plotsize_at_the_time_of_allotme":"162 SQMT","landuse_type":"RESIDENTIAL","landuse_subcategory":"RESIDENTIAL","scheme_cod":"RPS02","investment":0,"employment":0,"plotstatus":"Allotted","landallotementstatus":"SOLD","landallotementtype":"ALLOTTED","allotmentid":"RPS022014","lease_deed":"Y","lease_deed_date":1690137000000,"village_name":"Munjkheda","khasra_no":"489","longitude":77.53497356,"latitude":28.31303224,"authority":"YEIDA","category":"residential","execution_stage":"lease-recorded"}},{"type":"Feature","geometry":{"type":"Polygon","coordinates":[[[77.535012,28.313123],[77.534957,28.313189],[77.534806,28.313095],[77.534861,28.313029],[77.535012,28.313123]]]},"properties":{"objectid":5970,"uniqueplotid":"PLNGRESIDENTIAL5970","plotmap_id":"SECTOR-22D_197_A_RESI","plotidentificationnumber":"197","plotno":"197","industrysector":"SECTOR-22D","block":"A","plotsize":"162 SQMT","plotsize_at_the_time_of_allotme":"162 SQMT","landuse_type":"RESIDENTIAL","landuse_subcategory":"RESIDENTIAL","scheme_cod":"RPS02","investment":0,"employment":0,"plotstatus":"Allotted","landallotementstatus":"SOLD","landallotementtype":"ALLOTTED","allotmentid":"RPS022125","village_name":"Munjkheda","khasra_no":"489","longitude":77.53490914999999,"latitude":28.31310912,"authority":"YEIDA","category":"residential","execution_stage":"allotted"}},{"type":"Feature","geometry":{"type":"Polygon","coordinates":[[[77.534957,28.313189],[77.534902,28.313255],[77.534751,28.313161],[77.534806,28.313095],[77.534957,28.313189]]]},"properties":{"objectid":5971,"uniqueplotid":"PLNGRESIDENTIAL5971","plotmap_id":"SECTOR-22D_198_A_RESI","plotidentificationnumber":"198","plotno":"198","industrysector":"SECTOR-22D","block":"A","plotsize":"162 SQMT","plotsize_at_the_time_of_allotme":"162 SQMT","landuse_type":"RESIDENTIAL","landuse_subcategory":"RESIDENTIAL","scheme_cod":"RPS02","investment":0,"employment":0,"plotstatus":"Allotted","landallotementstatus":"SOLD","landallotementtype":"ALLOTTED","allotmentid":"RPS022116","lease_deed":"Y","lease_deed_date":1598380200000,"village_name":"Munjkheda","khasra_no":"489,487,491","longitude":77.53485393000001,"latitude":28.31317503,"authority":"YEIDA","category":"residential","execution_stage":"lease-recorded"}},{"type":"Feature","geometry":{"type":"Polygon","coordinates":[[[77.534902,28.313255],[77.534846,28.313321],[77.534696,28.313227],[77.534751,28.313161],[77.534902,28.313255]]]},"properties":{"objectid":5972,"uniqueplotid":"PLNGRESIDENTIAL5972","plotmap_id":"SECTOR-22D_199_A_RESI","plotidentificationnumber":"199","plotno":"199","industrysector":"SECTOR-22D","block":"A","plotsize":"162 SQMT","plotsize_at_the_time_of_allotme":"162 SQMT","landuse_type":"RESIDENTIAL","landuse_subcategory":"RESIDENTIAL","scheme_cod":"RPS02","investment":0,"employment":0,"plotstatus":"Allotted","landallotementstatus":"SOLD","landallotementtype":"ALLOTTED","allotmentid":"RPS022237","lease_deed":"Y","lease_deed_date":1575484200000,"village_name":"Munjkheda","khasra_no":"487,491","longitude":77.5347987,"latitude":28.313240949999997,"authority":"YEIDA","category":"residential","execution_stage":"lease-recorded"}},{"type":"Feature","geometry":{"type":"Polygon","coordinates":[[[77.534846,28.313321],[77.534791,28.313387],[77.534641,28.313293],[77.534696,28.313227],[77.534846,28.313321]]]},"properties":{"objectid":5973,"uniqueplotid":"PLNGRESIDENTIAL5973","plotmap_id":"SECTOR-22D_200_A_RESI","plotidentificationnumber":"200","plotno":"200","industrysector":"SECTOR-22D","block":"A","plotsize":"162 SQMT","plotsize_at_the_time_of_allotme":"162 SQMT","landuse_type":"RESIDENTIAL","landuse_subcategory":"RESIDENTIAL","scheme_cod":"RPS02","investment":0,"employment":0,"plotstatus":"Allotted","landallotementstatus":"SOLD","landallotementtype":"ALLOTTED","allotmentid":"RPS022195","lease_deed":"Y","lease_deed_date":1600626600000,"village_name":"Munjkheda","khasra_no":"487,491","longitude":77.53474348,"latitude":28.31330686,"authority":"YEIDA","category":"residential","execution_stage":"lease-recorded"}},{"type":"Feature","geometry":{"type":"Polygon","coordinates":[[[77.534791,28.313387],[77.534736,28.313453],[77.534585,28.313358],[77.534641,28.313293],[77.534791,28.313387]]]},"properties":{"objectid":5974,"uniqueplotid":"PLNGRESIDENTIAL5974","plotmap_id":"SECTOR-22D_201_A_RESI","plotidentificationnumber":"201","plotno":"201","industrysector":"SECTOR-22D","block":"A","plotsize":"162 SQMT","plotsize_at_the_time_of_allotme":"162 SQMT","landuse_type":"RESIDENTIAL","landuse_subcategory":"RESIDENTIAL","scheme_cod":"RPS02","investment":0,"employment":0,"plotstatus":"Allotted","landallotementstatus":"SOLD","landallotementtype":"ALLOTTED","allotmentid":"RPS022134","lease_deed":"Y","lease_deed_date":1674585000000,"village_name":"Munjkheda","khasra_no":"487,491","longitude":77.53468827,"latitude":28.313372740000002,"authority":"YEIDA","category":"residential","execution_stage":"lease-recorded"}},{"type":"Feature","geometry":{"type":"Polygon","coordinates":[[[77.534736,28.313453],[77.534681,28.313519],[77.53453,28.313424],[77.534585,28.313358],[77.534736,28.313453]]]},"properties":{"objectid":5975,"uniqueplotid":"PLNGRESIDENTIAL5975","plotmap_id":"SECTOR-22D_202_A_RESI","plotidentificationnumber":"202","plotno":"202","industrysector":"SECTOR-22D","block":"A","plotsize":"162 SQMT","plotsize_at_the_time_of_allotme":"162 SQMT","landuse_type":"RESIDENTIAL","landuse_subcategory":"RESIDENTIAL","scheme_cod":"RPS02","investment":0,"employment":0,"plotstatus":"Allotted","landallotementstatus":"SOLD","landallotementtype":"ALLOTTED","allotmentid":"RPS022086","lease_deed":"Y","lease_deed_date":1574015400000,"village_name":"Munjkheda","khasra_no":"487,491","longitude":77.53463311,"latitude":28.31343854,"authority":"YEIDA","category":"residential","execution_stage":"lease-recorded"}},{"type":"Feature","geometry":{"type":"Polygon","coordinates":[[[77.534681,28.313519],[77.534625,28.313585],[77.534475,28.31349],[77.53453,28.313424],[77.534681,28.313519]]]},"properties":{"objectid":5976,"uniqueplotid":"PLNGRESIDENTIAL5976","plotmap_id":"SECTOR-22D_203_A_RESI","plotidentificationnumber":"203","plotno":"203","industrysector":"SECTOR-22D","block":"A","plotsize":"162 SQMT","plotsize_at_the_time_of_allotme":"162 SQMT","landuse_type":"RESIDENTIAL","landuse_subcategory":"RESIDENTIAL","scheme_cod":"RPS02","investment":0,"employment":0,"plotstatus":"Allotted","landallotementstatus":"SOLD","landallotementtype":"ALLOTTED","allotmentid":"RPS022008","lease_deed":"Y","lease_deed_date":1575484200000,"village_name":"Munjkheda","khasra_no":"487,491","longitude":77.53457791999999,"latitude":28.31350451,"authority":"YEIDA","category":"residential","execution_stage":"lease-recorded"}},{"type":"Feature","geometry":{"type":"Polygon","coordinates":[[[77.534625,28.313585],[77.53457,28.313651],[77.53442,28.313556],[77.534475,28.31349],[77.534625,28.313585]]]},"properties":{"objectid":5977,"uniqueplotid":"PLNGRESIDENTIAL5977","plotmap_id":"SECTOR-22D_204_A_RESI","plotidentificationnumber":"204","plotno":"204","industrysector":"SECTOR-22D","block":"A","plotsize":"162 SQMT","plotsize_at_the_time_of_allotme":"162 SQMT","landuse_type":"RESIDENTIAL","landuse_subcategory":"RESIDENTIAL","scheme_cod":"RRPS01","investment":0,"employment":0,"plotstatus":"Allotted","landallotementstatus":"SOLD","landallotementtype":"ALLOTTED","allotmentid":"RRPS012199","lease_deed":"Y","lease_deed_date":1606415400000,"village_name":"Munjkheda","khasra_no":"487,491","longitude":77.53452259999999,"latitude":28.313570480000003,"authority":"YEIDA","category":"residential","execution_stage":"lease-recorded"}},{"type":"Feature","geometry":{"type":"Polygon","coordinates":[[[77.53457,28.313651],[77.534515,28.313717],[77.534364,28.313622],[77.53442,28.313556],[77.53457,28.313651]]]},"properties":{"objectid":5978,"uniqueplotid":"PLNGRESIDENTIAL5978","plotmap_id":"SECTOR-22D_205_A_RESI","plotidentificationnumber":"205","plotno":"205","industrysector":"SECTOR-22D","block":"A","plotsize":"162 SQMT","plotsize_at_the_time_of_allotme":"162 SQMT","landuse_type":"RESIDENTIAL","landuse_subcategory":"RESIDENTIAL","scheme_cod":"RPS02","investment":0,"employment":0,"plotstatus":"Allotted","landallotementstatus":"SOLD","landallotementtype":"ALLOTTED","allotmentid":"RPS022178","lease_deed":"Y","lease_deed_date":1573151400000,"village_name":"Munjkheda","khasra_no":"487,491","longitude":77.53446733,"latitude":28.3136365,"authority":"YEIDA","category":"residential","execution_stage":"lease-recorded"}},{"type":"Feature","geometry":{"type":"Polygon","coordinates":[[[77.534515,28.313717],[77.53446,28.313782],[77.534309,28.313688],[77.534364,28.313622],[77.534515,28.313717]]]},"properties":{"objectid":5979,"uniqueplotid":"PLNGRESIDENTIAL5979","plotmap_id":"SECTOR-22D_206_A_RESI","plotidentificationnumber":"206","plotno":"206","industrysector":"SECTOR-22D","block":"A","plotsize":"162 SQMT","plotsize_at_the_time_of_allotme":"162 SQMT","landuse_type":"RESIDENTIAL","landuse_subcategory":"RESIDENTIAL","scheme_cod":"RPS02","investment":0,"employment":0,"plotstatus":"Allotted","landallotementstatus":"SOLD","landallotementtype":"ALLOTTED","allotmentid":"RPS022121","lease_deed":"Y","lease_deed_date":1573151400000,"village_name":"Munjkheda","khasra_no":"491","longitude":77.53441206000001,"latitude":28.31370237,"authority":"YEIDA","category":"residential","execution_stage":"lease-recorded"}},{"type":"Feature","geometry":{"type":"Polygon","coordinates":[[[77.53446,28.313782],[77.534405,28.313848],[77.534254,28.313754],[77.534309,28.313688],[77.53446,28.313782]]]},"properties":{"objectid":5980,"uniqueplotid":"PLNGRESIDENTIAL5980","plotmap_id":"SECTOR-22D_207_A_RESI","plotidentificationnumber":"207","plotno":"207","industrysector":"SECTOR-22D","block":"A","plotsize":"162 SQMT","plotsize_at_the_time_of_allotme":"162 SQMT","landuse_type":"RESIDENTIAL","landuse_subcategory":"RESIDENTIAL","scheme_cod":"RPS02","investment":0,"employment":0,"plotstatus":"Allotted","landallotementstatus":"SOLD","landallotementtype":"ALLOTTED","allotmentid":"RPS022025","lease_deed":"Y","lease_deed_date":1573151400000,"village_name":"Munjkheda","khasra_no":"491","longitude":77.53435694,"latitude":28.313768200000002,"authority":"YEIDA","category":"residential","execution_stage":"lease-recorded"}},{"type":"Feature","geometry":{"type":"Polygon","coordinates":[[[77.534405,28.313848],[77.534349,28.313914],[77.534199,28.31382],[77.534254,28.313754],[77.534405,28.313848]]]},"properties":{"objectid":5981,"uniqueplotid":"PLNGRESIDENTIAL5981","plotmap_id":"SECTOR-22D_208_A_RESI","plotidentificationnumber":"208","plotno":"208","industrysector":"SECTOR-22D","block":"A","plotsize":"162 SQMT","plotsize_at_the_time_of_allotme":"162 SQMT","landuse_type":"RESIDENTIAL","landuse_subcategory":"RESIDENTIAL","scheme_cod":"RRPS01","investment":0,"employment":0,"plotstatus":"Allotted","landallotementstatus":"SOLD","landallotementtype":"ALLOTTED","allotmentid":"RRPS012241","lease_deed":"Y","lease_deed_date":1737311400000,"village_name":"Munjkheda","khasra_no":"491","longitude":77.53430172,"latitude":28.313834110000002,"authority":"YEIDA","category":"residential","execution_stage":"lease-recorded"}},{"type":"Feature","geometry":{"type":"Polygon","coordinates":[[[77.534784,28.318738],[77.533604,28.319225],[77.532788,28.317921],[77.534005,28.317493],[77.534784,28.318738]]]},"properties":{"objectid":6257,"uniqueplotid":"PLNGRESIDENTIAL6257","plotmap_id":"SECTOR-22D_GH-1C/2_GROUP HOUSING_RESI","plotidentificationnumber":"GH-1C/2","plotno":"GH-1C/2","industrysector":"SECTOR-22D","block":"GROUP HOUSING","plotsize":"5 ACRE","landuse_type":"RESIDENTIAL","landuse_subcategory":"RESIDENTIAL","investment":0,"employment":0,"landallotementstatus":"VACANT","landallotementtype":"VACANT","village_name":"Salarpur","khasra_no":"210,211,207,216,213,213M,215,217,212,208","longitude":77.53378812,"latitude":28.31835242,"authority":"YEIDA","category":"residential","execution_stage":"vacant"}},{"type":"Feature","geometry":{"type":"Polygon","coordinates":[[[77.533604,28.319225],[77.532475,28.319691],[77.531624,28.31833],[77.532788,28.317921],[77.533604,28.319225]]]},"properties":{"objectid":6259,"uniqueplotid":"PLNGRESIDENTIAL6259","plotmap_id":"SECTOR-22D_GH-1B/2_GROUP HOUSING_RESI","plotidentificationnumber":"GH-1B/2","plotno":"GH-1B/2","industrysector":"SECTOR-22D","block":"GROUP HOUSING","plotsize":"5 ACRE","landuse_type":"RESIDENTIAL","landuse_subcategory":"RESIDENTIAL","investment":0,"employment":0,"landallotementstatus":"VACANT","landallotementtype":"VACANT","village_name":"Salarpur","khasra_no":"209,210,211,207,200,213,213M,204,201,199,205,208,202,202M","longitude":77.53261629,"latitude":28.31879945,"authority":"YEIDA","category":"residential","execution_stage":"vacant"}},{"type":"Feature","geometry":{"type":"Polygon","coordinates":[[[77.53222,28.316007],[77.530731,28.316157],[77.530664,28.315649],[77.530347,28.314547],[77.533557,28.314438],[77.534415,28.315787],[77.53222,28.316007]]]},"properties":{"objectid":6265,"uniqueplotid":"PLNGRESIDENTIAL6265","plotmap_id":"SECTOR-22D_GH-2C_GROUP HOUSING_RESI","plotidentificationnumber":"GH-2C","plotno":"GH-2C","industrysector":"SECTOR-22D","block":"GROUP HOUSING","plotsize":"15 ACRE","landuse_type":"RESIDENTIAL","landuse_subcategory":"RESIDENTIAL","investment":0,"employment":0,"landallotementstatus":"VACANT","landallotementtype":"VACANT","village_name":"Munjkheda","khasra_no":"508,565,511,369,501,509,510,371,372,368,365,370,369/1118,364,500,354","longitude":77.53186651,"latitude":28.31529664,"authority":"YEIDA","category":"residential","execution_stage":"vacant"}},{"type":"Feature","geometry":{"type":"Polygon","coordinates":[[[77.532436,28.317812],[77.530734,28.31841],[77.530807,28.316737],[77.530731,28.316157],[77.53222,28.316007],[77.532436,28.317812]]]},"properties":{"objectid":6269,"uniqueplotid":"PLNGRESIDENTIAL6269","plotmap_id":"SECTOR-22D_GH-2A_GROUP HOUSING_RESI","plotidentificationnumber":"GH-2A","plotno":"GH-2A","industrysector":"SECTOR-22D","block":"GROUP HOUSING","plotsize":"10 ACRE","landuse_type":"RESIDENTIAL","landuse_subcategory":"RESIDENTIAL","investment":0,"employment":0,"landallotementstatus":"VACANT","landallotementtype":"VACANT","village_name":"Munjkheda,Salarpur","khasra_no":"332,329,362,360,565,511,357,363,501,510,359,358m,333,368,365,366,370,369/1118,364,330,367,361,500,356,354,331,198,195,196,199","longitude":77.53155962999999,"latitude":28.31715541,"authority":"YEIDA","category":"residential","execution_stage":"vacant"}},{"type":"Feature","geometry":{"type":"Polygon","coordinates":[[[77.533592,28.317406],[77.532436,28.317812],[77.53222,28.316007],[77.533383,28.31589],[77.533592,28.317406]]]},"properties":{"objectid":6270,"uniqueplotid":"PLNGRESIDENTIAL6270","plotmap_id":"SECTOR-22D_GH-2B/1_GROUP HOUSING_RESI","plotidentificationnumber":"GH-2B/1","plotno":"GH-2B/1","industrysector":"SECTOR-22D","block":"GROUP HOUSING","plotsize":" 4.9 ACRE","landuse_type":"RESIDENTIAL","landuse_subcategory":"RESIDENTIAL","investment":0,"employment":0,"landallotementstatus":"VACANT","landallotementtype":"VACANT","village_name":"Munjkheda,Salarpur","khasra_no":"362,363,375,372,368,365,366,370,364,367,361,216,213,213M,204,215,199,205","longitude":77.5328974,"latitude":28.31681706,"authority":"YEIDA","category":"residential","execution_stage":"vacant"}},{"type":"Feature","geometry":{"type":"Polygon","coordinates":[[[77.533383,28.31589],[77.534415,28.315787],[77.535107,28.316873],[77.533592,28.317406],[77.533383,28.31589]]]},"properties":{"objectid":6289,"uniqueplotid":"PLNGRESIDENTIAL6289","plotmap_id":"SECTOR-22D_GH-2B/2_GROUP HOUSING_RESI","plotidentificationnumber":"GH-2B/2","plotno":"GH-2B/2","industrysector":"SECTOR-22D","block":"GROUP HOUSING","plotsize":" 5.1 ACRE","landuse_type":"RESIDENTIAL","landuse_subcategory":"RESIDENTIAL","investment":0,"employment":0,"landallotementstatus":"VACANT","landallotementtype":"VACANT","village_name":"Munjkheda,Salarpur","khasra_no":"375,377,376,372,380,374,379,216,215,217","longitude":77.53415235,"latitude":28.31655337,"authority":"YEIDA","category":"residential","execution_stage":"vacant"}}]}
