{"type":"FeatureCollection","features":[{"type":"Feature","geometry":{"type":"Polygon","coordinates":[[[77.571084,28.304587],[77.571091,28.304812],[77.570968,28.304815],[77.570961,28.304589],[77.571084,28.304587]]]},"properties":{"objectid":7142,"uniqueplotid":"PLNGRESIDENTIAL7142","plotmap_id":"SECTOR-18_711_2B_RESI","plotidentificationnumber":"711","plotno":"711","industrysector":"SECTOR-18","block":"2B","plotsize":"300 SQMT","plotsize_at_the_time_of_allotme":"300 SQMT","landuse_type":"RESIDENTIAL","landuse_subcategory":"RESIDENTIAL","scheme_cod":"RES01","investment":0,"employment":0,"plotstatus":"Allotted","landallotementstatus":"SOLD","landallotementtype":"ALLOTTED","allotmentid":"YEA005700","village_name":"Rampur Bangar","khasra_no":"184","longitude":77.57102601,"latitude":28.30470068,"authority":"YEIDA","category":"residential","execution_stage":"allotted"}},{"type":"Feature","geometry":{"type":"Polygon","coordinates":[[[77.570839,28.304592],[77.570846,28.304818],[77.570723,28.30482],[77.570716,28.304595],[77.570839,28.304592]]]},"properties":{"objectid":7149,"uniqueplotid":"PLNGRESIDENTIAL7149","plotmap_id":"SECTOR-18_709_2B_RESI","plotidentificationnumber":"709","plotno":"709","industrysector":"SECTOR-18","block":"2B","plotsize":"300 SQMT","plotsize_at_the_time_of_allotme":"300 SQMT","landuse_type":"RESIDENTIAL","landuse_subcategory":"RESIDENTIAL","scheme_cod":"RES01","investment":0,"employment":0,"plotstatus":"Allotted","landallotementstatus":"SOLD","landallotementtype":"ALLOTTED","allotmentid":"YEA011464","village_name":"Rampur Bangar","khasra_no":"184,183","longitude":77.57078099,"latitude":28.30470627,"authority":"YEIDA","category":"residential","execution_stage":"allotted"}},{"type":"Feature","geometry":{"type":"Polygon","coordinates":[[[77.571343,28.305032],[77.571221,28.305035],[77.571213,28.304809],[77.571336,28.304806],[77.571343,28.305032]]]},"properties":{"objectid":7150,"uniqueplotid":"PLNGRESIDENTIAL7150","plotmap_id":"SECTOR-18_702_2B_RESI","plotidentificationnumber":"702","plotno":"702","industrysector":"SECTOR-18","block":"2B","plotsize":"300 SQMT","plotsize_at_the_time_of_allotme":"300 SQMT","landuse_type":"RESIDENTIAL","landuse_subcategory":"RESIDENTIAL","scheme_cod":"RES01","investment":0,"employment":0,"plotstatus":"Allotted","landallotementstatus":"SOLD","landallotementtype":"ALLOTTED","allotmentid":"YEA020719","village_name":"Rampur Bangar","khasra_no":"206,186,207,187","longitude":77.57127822000001,"latitude":28.30492061,"authority":"YEIDA","category":"residential","execution_stage":"allotted"}},{"type":"Feature","geometry":{"type":"Polygon","coordinates":[[[77.569473,28.304371],[77.569218,28.304376],[77.569214,28.304268],[77.569469,28.304262],[77.569473,28.304371]]]},"properties":{"objectid":7155,"uniqueplotid":"PLNGRESIDENTIAL7155","plotmap_id":"SECTOR-18_760_2B_RESI","plotidentificationnumber":"760","plotno":"760","industrysector":"SECTOR-18","block":"2B","plotsize":"300 SQMT","plotsize_at_the_time_of_allotme":"300 SQMT","landuse_type":"RESIDENTIAL","landuse_subcategory":"RESIDENTIAL","scheme_cod":"RES01","investment":0,"employment":0,"plotstatus":"Allotted","landallotementstatus":"SOLD","landallotementtype":"ALLOTTED","allotmentid":"YEA007239","village_name":"Rampur Bangar","khasra_no":"142","longitude":77.56934342,"latitude":28.304319300000003,"authority":"YEIDA","category":"residential","execution_stage":"allotted"}},{"type":"Feature","geometry":{"type":"Polygon","coordinates":[[[77.571091,28.304812],[77.571098,28.305038],[77.570976,28.30504],[77.570968,28.304815],[77.571091,28.304812]]]},"properties":{"objectid":7161,"uniqueplotid":"PLNGRESIDENTIAL7161","plotmap_id":"SECTOR-18_704_2B_RESI","plotidentificationnumber":"704","plotno":"704","industrysector":"SECTOR-18","block":"2B","plotsize":"300 SQMT","plotsize_at_the_time_of_allotme":"300 SQMT","landuse_type":"RESIDENTIAL","landuse_subcategory":"RESIDENTIAL","scheme_cod":"RES01","investment":0,"employment":0,"plotstatus":"Allotted","landallotementstatus":"SOLD","landallotementtype":"ALLOTTED","allotmentid":"YEA018039","village_name":"Rampur Bangar","khasra_no":"206,186,184,187","longitude":77.5710332,"latitude":28.3049262,"authority":"YEIDA","category":"residential","execution_stage":"allotted"}},{"type":"Feature","geometry":{"type":"Polygon","coordinates":[[[77.570976,28.30504],[77.570853,28.305043],[77.570846,28.304818],[77.570968,28.304815],[77.570976,28.30504]]]},"properties":{"objectid":7162,"uniqueplotid":"PLNGRESIDENTIAL7162","plotmap_id":"SECTOR-18_705_2B_RESI","plotidentificationnumber":"705","plotno":"705","industrysector":"SECTOR-18","block":"2B","plotsize":"300 SQMT","plotsize_at_the_time_of_allotme":"300 SQMT","landuse_type":"RESIDENTIAL","landuse_subcategory":"RESIDENTIAL","scheme_cod":"RES01","investment":0,"employment":0,"plotstatus":"Allotted","landallotementstatus":"SOLD","landallotementtype":"ALLOTTED","allotmentid":"YEA005390","village_name":"Rampur Bangar","khasra_no":"206,186,184,187","longitude":77.57091068999999,"latitude":28.304929,"authority":"YEIDA","category":"residential","execution_stage":"allotted"}},{"type":"Feature","geometry":{"type":"Polygon","coordinates":[[[77.570846,28.304818],[77.570853,28.305043],[77.570731,28.305046],[77.570723,28.30482],[77.570846,28.304818]]]},"properties":{"objectid":7163,"uniqueplotid":"PLNGRESIDENTIAL7163","plotmap_id":"SECTOR-18_706_2B_RESI","plotidentificationnumber":"706","plotno":"706","industrysector":"SECTOR-18","block":"2B","plotsize":"300 SQMT","plotsize_at_the_time_of_allotme":"300 SQMT","landuse_type":"RESIDENTIAL","landuse_subcategory":"RESIDENTIAL","scheme_cod":"RES01","investment":0,"employment":0,"plotstatus":"Allotted","landallotementstatus":"SOLD","landallotementtype":"ALLOTTED","allotmentid":"YEA008536","village_name":"Rampur Bangar","khasra_no":"186,184,185","longitude":77.57078818000001,"latitude":28.30493179,"authority":"YEIDA","category":"residential","execution_stage":"allotted"}},{"type":"Feature","geometry":{"type":"Polygon","coordinates":[[[77.570731,28.305046],[77.570608,28.305049],[77.570601,28.304823],[77.570723,28.30482],[77.570731,28.305046]]]},"properties":{"objectid":7164,"uniqueplotid":"PLNGRESIDENTIAL7164","plotmap_id":"SECTOR-18_707_2B_RESI","plotidentificationnumber":"707","plotno":"707","industrysector":"SECTOR-18","block":"2B","plotsize":"300 SQMT","plotsize_at_the_time_of_allotme":"300 SQMT","landuse_type":"RESIDENTIAL","landuse_subcategory":"RESIDENTIAL","scheme_cod":"RES01","investment":0,"employment":0,"plotstatus":"Allotted","landallotementstatus":"SOLD","landallotementtype":"ALLOTTED","allotmentid":"YEA010349","village_name":"Rampur Bangar","khasra_no":"184,185","longitude":77.57066567,"latitude":28.30493459,"authority":"YEIDA","category":"residential","execution_stage":"allotted"}},{"type":"Feature","geometry":{"type":"Polygon","coordinates":[[[77.571703,28.304798],[77.571581,28.304801],[77.571574,28.304575],[77.571696,28.304573],[77.571703,28.304798]]]},"properties":{"objectid":7165,"uniqueplotid":"PLNGRESIDENTIAL7165","plotmap_id":"SECTOR-18_716_2B_RESI","plotidentificationnumber":"716","plotno":"716","industrysector":"SECTOR-18","block":"2B","plotsize":"300 SQMT","plotsize_at_the_time_of_allotme":"300 SQMT","landuse_type":"RESIDENTIAL","landuse_subcategory":"RESIDENTIAL","scheme_cod":"RES01","investment":0,"employment":0,"plotstatus":"Allotted","landallotementstatus":"SOLD","landallotementtype":"ALLOTTED","allotmentid":"YEA005503","village_name":"Rampur Bangar","khasra_no":"186,179,207,187","longitude":77.57163857,"latitude":28.3046867,"authority":"YEIDA","category":"residential","execution_stage":"allotted"}},{"type":"Feature","geometry":{"type":"Polygon","coordinates":[[[77.571703,28.304798],[77.571711,28.305024],[77.571588,28.305026],[77.571581,28.304801],[77.571703,28.304798]]]},"properties":{"objectid":7166,"uniqueplotid":"PLNGRESIDENTIAL7166","plotmap_id":"SECTOR-18_699_2B_RESI","plotidentificationnumber":"699","plotno":"699","industrysector":"SECTOR-18","block":"2B","plotsize":"300 SQMT","plotsize_at_the_time_of_allotme":"300 SQMT","landuse_type":"RESIDENTIAL","landuse_subcategory":"RESIDENTIAL","scheme_cod":"RES01","investment":0,"employment":0,"plotstatus":"Allotted","landallotementstatus":"SOLD","landallotementtype":"ALLOTTED","allotmentid":"YEA010155","village_name":"Rampur Bangar","khasra_no":"207","longitude":77.57164576000001,"latitude":28.30491223,"authority":"YEIDA","category":"residential","execution_stage":"allotted"}},{"type":"Feature","geometry":{"type":"Polygon","coordinates":[[[77.569742,28.304789],[77.569745,28.304906],[77.56949,28.304912],[77.569486,28.304795],[77.569742,28.304789]]]},"properties":{"objectid":7170,"uniqueplotid":"PLNGRESIDENTIAL7170","plotmap_id":"SECTOR-18_722_2B_RESI","plotidentificationnumber":"722","plotno":"722","industrysector":"SECTOR-18","block":"2B","plotsize":"300 SQMT","plotsize_at_the_time_of_allotme":"300 SQMT","landuse_type":"RESIDENTIAL","landuse_subcategory":"RESIDENTIAL","scheme_cod":"RES01","investment":0,"employment":0,"plotstatus":"Allotted","landallotementstatus":"SOLD","landallotementtype":"ALLOTTED","allotmentid":"YEA010123","village_name":"Rampur Bangar","khasra_no":"186,182,183,187,188","longitude":77.56961577,"latitude":28.30485054,"authority":"YEIDA","category":"residential","execution_stage":"allotted"}},{"type":"Feature","geometry":{"type":"Polygon","coordinates":[[[77.569483,28.304695],[77.569486,28.304795],[77.569231,28.304801],[77.569228,28.304701],[77.569483,28.304695]]]},"properties":{"objectid":7171,"uniqueplotid":"PLNGRESIDENTIAL7171","plotmap_id":"SECTOR-18_756_2B_RESI","plotidentificationnumber":"756","plotno":"756","industrysector":"SECTOR-18","block":"2B","plotsize":"300 SQMT","plotsize_at_the_time_of_allotme":"300 SQMT","landuse_type":"RESIDENTIAL","landuse_subcategory":"RESIDENTIAL","scheme_cod":"RES01","investment":0,"employment":0,"plotstatus":"Allotted","landallotementstatus":"SOLD","landallotementtype":"ALLOTTED","allotmentid":"YEA014245","village_name":"Rampur Bangar","khasra_no":"142,175,188","longitude":77.56935709,"latitude":28.30474812,"authority":"YEIDA","category":"residential","execution_stage":"allotted"}},{"type":"Feature","geometry":{"type":"Polygon","coordinates":[[[77.569738,28.304689],[77.569742,28.304789],[77.569486,28.304795],[77.569483,28.304695],[77.569738,28.304689]]]},"properties":{"objectid":7172,"uniqueplotid":"PLNGRESIDENTIAL7172","plotmap_id":"SECTOR-18_721_2B_RESI","plotidentificationnumber":"721","plotno":"721","industrysector":"SECTOR-18","block":"2B","plotsize":"300 SQMT","plotsize_at_the_time_of_allotme":"300 SQMT","landuse_type":"RESIDENTIAL","landuse_subcategory":"RESIDENTIAL","scheme_cod":"RES01","investment":0,"employment":0,"plotstatus":"Allotted","landallotementstatus":"SOLD","landallotementtype":"ALLOTTED","allotmentid":"YEA008164","village_name":"Rampur Bangar","khasra_no":"186,182,187,188","longitude":77.56961231999999,"latitude":28.30474229,"authority":"YEIDA","category":"residential","execution_stage":"allotted"}},{"type":"Feature","geometry":{"type":"Polygon","coordinates":[[[77.56948,28.304587],[77.569483,28.304695],[77.569228,28.304701],[77.569224,28.304593],[77.56948,28.304587]]]},"properties":{"objectid":7173,"uniqueplotid":"PLNGRESIDENTIAL7173","plotmap_id":"SECTOR-18_757_2B_RESI","plotidentificationnumber":"757","plotno":"757","industrysector":"SECTOR-18","block":"2B","plotsize":"300 SQMT","plotsize_at_the_time_of_allotme":"300 SQMT","landuse_type":"RESIDENTIAL","landuse_subcategory":"RESIDENTIAL","scheme_cod":"RES01","investment":0,"employment":0,"plotstatus":"Allotted","landallotementstatus":"SOLD","landallotementtype":"ALLOTTED","allotmentid":"YEA019661","village_name":"Rampur Bangar","khasra_no":"142,175,188","longitude":77.56935376999999,"latitude":28.30464405,"authority":"YEIDA","category":"residential","execution_stage":"allotted"}},{"type":"Feature","geometry":{"type":"Polygon","coordinates":[[[77.569735,28.304581],[77.569738,28.304689],[77.569483,28.304695],[77.56948,28.304587],[77.569735,28.304581]]]},"properties":{"objectid":7174,"uniqueplotid":"PLNGRESIDENTIAL7174","plotmap_id":"SECTOR-18_720_2B_RESI","plotidentificationnumber":"720","plotno":"720","industrysector":"SECTOR-18","block":"2B","plotsize":"300 SQMT","plotsize_at_the_time_of_allotme":"300 SQMT","landuse_type":"RESIDENTIAL","landuse_subcategory":"RESIDENTIAL","scheme_cod":"RES01","investment":0,"employment":0,"plotstatus":"Allotted","landallotementstatus":"SOLD","landallotementtype":"ALLOTTED","allotmentid":"YEA011886","village_name":"Rampur Bangar","khasra_no":"186,142,175,182,187,188","longitude":77.56960901,"latitude":28.304638230000002,"authority":"YEIDA","category":"residential","execution_stage":"allotted"}},{"type":"Feature","geometry":{"type":"Polygon","coordinates":[[[77.569476,28.304479],[77.56948,28.304587],[77.569224,28.304593],[77.569221,28.304485],[77.569476,28.304479]]]},"properties":{"objectid":7175,"uniqueplotid":"PLNGRESIDENTIAL7175","plotmap_id":"SECTOR-18_758_2B_RESI","plotidentificationnumber":"758","plotno":"758","industrysector":"SECTOR-18","block":"2B","plotsize":"300 SQMT","plotsize_at_the_time_of_allotme":"300 SQMT","landuse_type":"RESIDENTIAL","landuse_subcategory":"RESIDENTIAL","scheme_cod":"RES01","investment":0,"employment":0,"plotstatus":"Allotted","landallotementstatus":"SOLD","landallotementtype":"ALLOTTED","allotmentid":"YEA005773","village_name":"Rampur Bangar","khasra_no":"142","longitude":77.56935032,"latitude":28.3045358,"authority":"YEIDA","category":"residential","execution_stage":"allotted"}},{"type":"Feature","geometry":{"type":"Polygon","coordinates":[[[77.569731,28.304473],[77.569735,28.304581],[77.56948,28.304587],[77.569476,28.304479],[77.569731,28.304473]]]},"properties":{"objectid":7176,"uniqueplotid":"PLNGRESIDENTIAL7176","plotmap_id":"SECTOR-18_719_2B_RESI","plotidentificationnumber":"719","plotno":"719","industrysector":"SECTOR-18","block":"2B","plotsize":"300 SQMT","plotsize_at_the_time_of_allotme":"300 SQMT","landuse_type":"RESIDENTIAL","landuse_subcategory":"RESIDENTIAL","scheme_cod":"RES01","investment":0,"employment":0,"plotstatus":"Allotted","landallotementstatus":"SOLD","landallotementtype":"ALLOTTED","allotmentid":"YEA011341","village_name":"Rampur Bangar","khasra_no":"142,175,182","longitude":77.56960556,"latitude":28.30452998,"authority":"YEIDA","category":"residential","execution_stage":"allotted"}},{"type":"Feature","geometry":{"type":"Polygon","coordinates":[[[77.569476,28.304479],[77.569221,28.304485],[77.569218,28.304376],[77.569473,28.304371],[77.569476,28.304479]]]},"properties":{"objectid":7177,"uniqueplotid":"PLNGRESIDENTIAL7177","plotmap_id":"SECTOR-18_759_2B_RESI","plotidentificationnumber":"759","plotno":"759","industrysector":"SECTOR-18","block":"2B","plotsize":"300 SQMT","plotsize_at_the_time_of_allotme":"300 SQMT","landuse_type":"RESIDENTIAL","landuse_subcategory":"RESIDENTIAL","scheme_cod":"RES01","investment":0,"employment":0,"plotstatus":"Allotted","landallotementstatus":"SOLD","landallotementtype":"ALLOTTED","allotmentid":"YEA018663","village_name":"Rampur Bangar","khasra_no":"142","longitude":77.56934687,"latitude":28.30442755,"authority":"YEIDA","category":"residential","execution_stage":"allotted"}},{"type":"Feature","geometry":{"type":"Polygon","coordinates":[[[77.569728,28.304365],[77.569731,28.304473],[77.569476,28.304479],[77.569473,28.304371],[77.569728,28.304365]]]},"properties":{"objectid":7178,"uniqueplotid":"PLNGRESIDENTIAL7178","plotmap_id":"SECTOR-18_718_2B_RESI","plotidentificationnumber":"718","plotno":"718","industrysector":"SECTOR-18","block":"2B","plotsize":"300 SQMT","plotsize_at_the_time_of_allotme":"300 SQMT","landuse_type":"RESIDENTIAL","landuse_subcategory":"RESIDENTIAL","scheme_cod":"RES01","investment":0,"employment":0,"plotstatus":"Allotted","landallotementstatus":"SOLD","landallotementtype":"ALLOTTED","allotmentid":"YEA019956","village_name":"Rampur Bangar","khasra_no":"142,175","longitude":77.56960210999999,"latitude":28.30442172,"authority":"YEIDA","category":"residential","execution_stage":"allotted"}},{"type":"Feature","geometry":{"type":"Polygon","coordinates":[[[77.569728,28.304365],[77.569473,28.304371],[77.569469,28.304262],[77.569725,28.304256],[77.569728,28.304365]]]},"properties":{"objectid":7179,"uniqueplotid":"PLNGRESIDENTIAL7179","plotmap_id":"SECTOR-18_717_2B_RESI","plotidentificationnumber":"717","plotno":"717","industrysector":"SECTOR-18","block":"2B","plotsize":"300 SQMT","plotsize_at_the_time_of_allotme":"300 SQMT","landuse_type":"RESIDENTIAL","landuse_subcategory":"RESIDENTIAL","scheme_cod":"RES01","investment":0,"employment":0,"plotstatus":"Allotted","landallotementstatus":"SOLD","landallotementtype":"ALLOTTED","allotmentid":"YEA008577","village_name":"Rampur Bangar","khasra_no":"142","longitude":77.56959866000001,"latitude":28.30431347,"authority":"YEIDA","category":"residential","execution_stage":"allotted"}},{"type":"Feature","geometry":{"type":"Polygon","coordinates":[[[77.571574,28.304575],[77.571581,28.304801],[77.571458,28.304804],[77.571451,28.304578],[77.571574,28.304575]]]},"properties":{"objectid":7207,"uniqueplotid":"PLNGRESIDENTIAL7207","plotmap_id":"SECTOR-18_715_2B_RESI","plotidentificationnumber":"715","plotno":"715","industrysector":"SECTOR-18","block":"2B","plotsize":"300 SQMT","plotsize_at_the_time_of_allotme":"300 SQMT","landuse_type":"RESIDENTIAL","landuse_subcategory":"RESIDENTIAL","scheme_cod":"RES01","investment":0,"employment":0,"plotstatus":"Allotted","landallotementstatus":"SOLD","landallotementtype":"ALLOTTED","allotmentid":"YEA013982","village_name":"Rampur Bangar","khasra_no":"186,179,207,184,187","longitude":77.57151606,"latitude":28.304689500000002,"authority":"YEIDA","category":"residential","execution_stage":"allotted"}},{"type":"Feature","geometry":{"type":"Polygon","coordinates":[[[77.571452,28.304603],[77.571458,28.304804],[77.571336,28.304806],[77.571329,28.304581],[77.571451,28.304578],[77.571452,28.304603]]]},"properties":{"objectid":7208,"uniqueplotid":"PLNGRESIDENTIAL7208","plotmap_id":"SECTOR-18_714_2B_RESI","plotidentificationnumber":"714","plotno":"714","industrysector":"SECTOR-18","block":"2B","plotsize":"300 SQMT","plotsize_at_the_time_of_allotme":"300 SQMT","landuse_type":"RESIDENTIAL","landuse_subcategory":"RESIDENTIAL","scheme_cod":"RES01","investment":0,"employment":0,"plotstatus":"Allotted","landallotementstatus":"SOLD","landallotementtype":"ALLOTTED","allotmentid":"YEA012757","village_name":"Rampur Bangar","khasra_no":"186,207,184,187","longitude":77.57139355,"latitude":28.304692290000002,"authority":"YEIDA","category":"residential","execution_stage":"allotted"}},{"type":"Feature","geometry":{"type":"Polygon","coordinates":[[[77.571336,28.304806],[77.571213,28.304809],[77.571206,28.304584],[77.571329,28.304581],[77.571336,28.304806]]]},"properties":{"objectid":7209,"uniqueplotid":"PLNGRESIDENTIAL7209","plotmap_id":"SECTOR-18_713_2B_RESI","plotidentificationnumber":"713","plotno":"713","industrysector":"SECTOR-18","block":"2B","plotsize":"300 SQMT","plotsize_at_the_time_of_allotme":"300 SQMT","landuse_type":"RESIDENTIAL","landuse_subcategory":"RESIDENTIAL","scheme_cod":"RES01","investment":0,"employment":0,"plotstatus":"Allotted","landallotementstatus":"SOLD","landallotementtype":"ALLOTTED","allotmentid":"YEA013247","village_name":"Rampur Bangar","khasra_no":"186,184,187","longitude":77.57127104,"latitude":28.30469509,"authority":"YEIDA","category":"residential","execution_stage":"allotted"}},{"type":"Feature","geometry":{"type":"Polygon","coordinates":[[[77.571213,28.304809],[77.571091,28.304812],[77.571084,28.304587],[77.571206,28.304584],[77.571213,28.304809]]]},"properties":{"objectid":7210,"uniqueplotid":"PLNGRESIDENTIAL7210","plotmap_id":"SECTOR-18_712_2B_RESI","plotidentificationnumber":"712","plotno":"712","industrysector":"SECTOR-18","block":"2B","plotsize":"300 SQMT","plotsize_at_the_time_of_allotme":"300 SQMT","landuse_type":"RESIDENTIAL","landuse_subcategory":"RESIDENTIAL","scheme_cod":"RES01","investment":0,"employment":0,"plotstatus":"Allotted","landallotementstatus":"SOLD","landallotementtype":"ALLOTTED","allotmentid":"YEA016893","village_name":"Rampur Bangar","khasra_no":"186,184","longitude":77.57114853,"latitude":28.30469789,"authority":"YEIDA","category":"residential","execution_stage":"allotted"}},{"type":"Feature","geometry":{"type":"Polygon","coordinates":[[[77.570961,28.304589],[77.570968,28.304815],[77.570846,28.304818],[77.570839,28.304592],[77.570961,28.304589]]]},"properties":{"objectid":7211,"uniqueplotid":"PLNGRESIDENTIAL7211","plotmap_id":"SECTOR-18_710_2B_RESI","plotidentificationnumber":"710","plotno":"710","industrysector":"SECTOR-18","block":"2B","plotsize":"300 SQMT","plotsize_at_the_time_of_allotme":"300 SQMT","landuse_type":"RESIDENTIAL","landuse_subcategory":"RESIDENTIAL","scheme_cod":"RES01","investment":0,"employment":0,"plotstatus":"Allotted","landallotementstatus":"SOLD","landallotementtype":"ALLOTTED","allotmentid":"YEA014884","village_name":"Rampur Bangar","khasra_no":"184,183","longitude":77.5709035,"latitude":28.30470348,"authority":"YEIDA","category":"residential","execution_stage":"allotted"}},{"type":"Feature","geometry":{"type":"Polygon","coordinates":[[[77.570723,28.30482],[77.570601,28.304823],[77.570594,28.304598],[77.570716,28.304595],[77.570723,28.30482]]]},"properties":{"objectid":7212,"uniqueplotid":"PLNGRESIDENTIAL7212","plotmap_id":"SECTOR-18_708_2B_RESI","plotidentificationnumber":"708","plotno":"708","industrysector":"SECTOR-18","block":"2B","plotsize":"300 SQMT","plotsize_at_the_time_of_allotme":"300 SQMT","landuse_type":"RESIDENTIAL","landuse_subcategory":"RESIDENTIAL","scheme_cod":"RES01","investment":0,"employment":0,"plotstatus":"Allotted","landallotementstatus":"SOLD","landallotementtype":"ALLOTTED","allotmentid":"YEA008827","village_name":"Rampur Bangar","khasra_no":"184,185,183","longitude":77.57065848,"latitude":28.30470907,"authority":"YEIDA","category":"residential","execution_stage":"allotted"}},{"type":"Feature","geometry":{"type":"Polygon","coordinates":[[[77.571581,28.304801],[77.571588,28.305026],[77.571466,28.305029],[77.571458,28.304804],[77.571581,28.304801]]]},"properties":{"objectid":7213,"uniqueplotid":"PLNGRESIDENTIAL7213","plotmap_id":"SECTOR-18_700_2B_RESI","plotidentificationnumber":"700","plotno":"700","industrysector":"SECTOR-18","block":"2B","plotsize":"300 SQMT","plotsize_at_the_time_of_allotme":"300 SQMT","landuse_type":"RESIDENTIAL","landuse_subcategory":"RESIDENTIAL","scheme_cod":"RES01","investment":0,"employment":0,"plotstatus":"Allotted","landallotementstatus":"SOLD","landallotementtype":"ALLOTTED","allotmentid":"YEA011276","lease_deed":"Y","lease_deed_date":1662057000000,"village_name":"Rampur Bangar","khasra_no":"207","longitude":77.57152325,"latitude":28.30491502,"authority":"YEIDA","category":"residential","execution_stage":"lease-recorded"}},{"type":"Feature","geometry":{"type":"Polygon","coordinates":[[[77.571466,28.305029],[77.571343,28.305032],[77.571336,28.304806],[77.571458,28.304804],[77.571466,28.305029]]]},"properties":{"objectid":7214,"uniqueplotid":"PLNGRESIDENTIAL7214","plotmap_id":"SECTOR-18_701_2B_RESI","plotidentificationnumber":"701","plotno":"701","industrysector":"SECTOR-18","block":"2B","plotsize":"300 SQMT","plotsize_at_the_time_of_allotme":"300 SQMT","landuse_type":"RESIDENTIAL","landuse_subcategory":"RESIDENTIAL","scheme_cod":"RES01","investment":0,"employment":0,"plotstatus":"Allotted","landallotementstatus":"SOLD","landallotementtype":"ALLOTTED","allotmentid":"YEA007241","lease_deed":"Y","lease_deed_date":1682361000000,"village_name":"Rampur Bangar","khasra_no":"207,187","longitude":77.57140074,"latitude":28.30491782,"authority":"YEIDA","category":"residential","execution_stage":"lease-recorded"}},{"type":"Feature","geometry":{"type":"Polygon","coordinates":[[[77.571221,28.305035],[77.571098,28.305038],[77.571091,28.304812],[77.571213,28.304809],[77.571221,28.305035]]]},"properties":{"objectid":7215,"uniqueplotid":"PLNGRESIDENTIAL7215","plotmap_id":"SECTOR-18_703_2B_RESI","plotidentificationnumber":"703","plotno":"703","industrysector":"SECTOR-18","block":"2B","plotsize":"300 SQMT","plotsize_at_the_time_of_allotme":"300 SQMT","landuse_type":"RESIDENTIAL","landuse_subcategory":"RESIDENTIAL","scheme_cod":"RES01","investment":0,"employment":0,"plotstatus":"Allotted","landallotementstatus":"SOLD","landallotementtype":"ALLOTTED","allotmentid":"YEA007810","lease_deed":"Y","lease_deed_date":1659551400000,"village_name":"Rampur Bangar","khasra_no":"206,186,207,184,187","longitude":77.57115571,"latitude":28.30492341,"authority":"YEIDA","category":"residential","execution_stage":"lease-recorded"}},{"type":"Feature","geometry":{"type":"Polygon","coordinates":[[[77.569497,28.305128],[77.5695,28.305237],[77.569245,28.305242],[77.569242,28.305134],[77.569497,28.305128]]]},"properties":{"objectid":7221,"uniqueplotid":"PLNGRESIDENTIAL7221","plotmap_id":"SECTOR-18_752_2B_RESI","plotidentificationnumber":"752","plotno":"752","industrysector":"SECTOR-18","block":"2B","plotsize":"300 SQMT","plotsize_at_the_time_of_allotme":"300 SQMT","landuse_type":"RESIDENTIAL","landuse_subcategory":"RESIDENTIAL","scheme_cod":"RES01","investment":0,"employment":0,"plotstatus":"Allotted","landallotementstatus":"SOLD","landallotementtype":"ALLOTTED","allotmentid":"YEA014268","village_name":"Rampur Bangar","khasra_no":"188","longitude":77.56937101999999,"latitude":28.305185299999998,"authority":"YEIDA","category":"residential","execution_stage":"allotted"}},{"type":"Feature","geometry":{"type":"Polygon","coordinates":[[[77.569752,28.305122],[77.569756,28.305231],[77.5695,28.305237],[77.569497,28.305128],[77.569752,28.305122]]]},"properties":{"objectid":7222,"uniqueplotid":"PLNGRESIDENTIAL7222","plotmap_id":"SECTOR-18_725_2B_RESI","plotidentificationnumber":"725","plotno":"725","industrysector":"SECTOR-18","block":"2B","plotsize":"300 SQMT","plotsize_at_the_time_of_allotme":"300 SQMT","landuse_type":"RESIDENTIAL","landuse_subcategory":"RESIDENTIAL","scheme_cod":"RES01","investment":0,"employment":0,"plotstatus":"Allotted","landallotementstatus":"SOLD","landallotementtype":"ALLOTTED","allotmentid":"YEA010226","village_name":"Rampur Bangar","khasra_no":"188","longitude":77.56962625,"latitude":28.30517948,"authority":"YEIDA","category":"residential","execution_stage":"allotted"}},{"type":"Feature","geometry":{"type":"Polygon","coordinates":[[[77.569493,28.30502],[77.569497,28.305128],[77.569242,28.305134],[77.569238,28.305026],[77.569493,28.30502]]]},"properties":{"objectid":7223,"uniqueplotid":"PLNGRESIDENTIAL7223","plotmap_id":"SECTOR-18_753_2B_RESI","plotidentificationnumber":"753","plotno":"753","industrysector":"SECTOR-18","block":"2B","plotsize":"300 SQMT","plotsize_at_the_time_of_allotme":"300 SQMT","landuse_type":"RESIDENTIAL","landuse_subcategory":"RESIDENTIAL","scheme_cod":"RES01","investment":0,"employment":0,"plotstatus":"Allotted","landallotementstatus":"SOLD","landallotementtype":"ALLOTTED","allotmentid":"YEA005727","village_name":"Rampur Bangar","khasra_no":"188","longitude":77.56936757,"latitude":28.30507705,"authority":"YEIDA","category":"residential","execution_stage":"allotted"}},{"type":"Feature","geometry":{"type":"Polygon","coordinates":[[[77.569749,28.305014],[77.569752,28.305122],[77.569497,28.305128],[77.569493,28.30502],[77.569749,28.305014]]]},"properties":{"objectid":7224,"uniqueplotid":"PLNGRESIDENTIAL7224","plotmap_id":"SECTOR-18_724_2B_RESI","plotidentificationnumber":"724","plotno":"724","industrysector":"SECTOR-18","block":"2B","plotsize":"300 SQMT","plotsize_at_the_time_of_allotme":"300 SQMT","landuse_type":"RESIDENTIAL","landuse_subcategory":"RESIDENTIAL","scheme_cod":"RES01","investment":0,"employment":0,"plotstatus":"Allotted","landallotementstatus":"SOLD","landallotementtype":"ALLOTTED","allotmentid":"YEA012004","village_name":"Rampur Bangar","khasra_no":"188","longitude":77.56962279999999,"latitude":28.30507123,"authority":"YEIDA","category":"residential","execution_stage":"allotted"}},{"type":"Feature","geometry":{"type":"Polygon","coordinates":[[[77.56949,28.304912],[77.569493,28.30502],[77.569238,28.305026],[77.569235,28.304918],[77.56949,28.304912]]]},"properties":{"objectid":7225,"uniqueplotid":"PLNGRESIDENTIAL7225","plotmap_id":"SECTOR-18_754_2B_RESI","plotidentificationnumber":"754","plotno":"754","industrysector":"SECTOR-18","block":"2B","plotsize":"300 SQMT","plotsize_at_the_time_of_allotme":"300 SQMT","landuse_type":"RESIDENTIAL","landuse_subcategory":"RESIDENTIAL","scheme_cod":"RES01","investment":0,"employment":0,"plotstatus":"Allotted","landallotementstatus":"SOLD","landallotementtype":"ALLOTTED","allotmentid":"YEA007025","village_name":"Rampur Bangar","khasra_no":"188","longitude":77.56936412,"latitude":28.3049688,"authority":"YEIDA","category":"residential","execution_stage":"allotted"}},{"type":"Feature","geometry":{"type":"Polygon","coordinates":[[[77.569745,28.304906],[77.569749,28.305014],[77.569493,28.30502],[77.56949,28.304912],[77.569745,28.304906]]]},"properties":{"objectid":7226,"uniqueplotid":"PLNGRESIDENTIAL7226","plotmap_id":"SECTOR-18_723_2B_RESI","plotidentificationnumber":"723","plotno":"723","industrysector":"SECTOR-18","block":"2B","plotsize":"300 SQMT","plotsize_at_the_time_of_allotme":"300 SQMT","landuse_type":"RESIDENTIAL","landuse_subcategory":"RESIDENTIAL","scheme_cod":"RES01","investment":0,"employment":0,"plotstatus":"Allotted","landallotementstatus":"SOLD","landallotementtype":"ALLOTTED","allotmentid":"YEA008927","village_name":"Rampur Bangar","khasra_no":"186,187,188","longitude":77.56961935,"latitude":28.30496298,"authority":"YEIDA","category":"residential","execution_stage":"allotted"}},{"type":"Feature","geometry":{"type":"Polygon","coordinates":[[[77.569486,28.304795],[77.56949,28.304912],[77.569235,28.304918],[77.569231,28.304801],[77.569486,28.304795]]]},"properties":{"objectid":7227,"uniqueplotid":"PLNGRESIDENTIAL7227","plotmap_id":"SECTOR-18_755_2B_RESI","plotidentificationnumber":"755","plotno":"755","industrysector":"SECTOR-18","block":"2B","plotsize":"300 SQMT","plotsize_at_the_time_of_allotme":"300 SQMT","landuse_type":"RESIDENTIAL","landuse_subcategory":"RESIDENTIAL","scheme_cod":"RES01","investment":0,"employment":0,"plotstatus":"Allotted","landallotementstatus":"SOLD","landallotementtype":"ALLOTTED","allotmentid":"YEA020226","village_name":"Rampur Bangar","khasra_no":"142,175,188","longitude":77.56936054,"latitude":28.30485637,"authority":"YEIDA","category":"residential","execution_stage":"allotted"}}]}
