{"type":"FeatureCollection","features":[{"type":"Feature","geometry":{"type":"Polygon","coordinates":[[[77.53532,28.302377],[77.5352,28.302477],[77.535146,28.302429],[77.535267,28.302328],[77.53532,28.302377]]]},"properties":{"objectid":5276,"uniqueplotid":"PLNGRESIDENTIAL5276","plotmap_id":"SECTOR-22D_257_D_RESI","plotidentificationnumber":"257","plotno":"257","industrysector":"SECTOR-22D","block":"D","plotsize":"120 SQMT","plotsize_at_the_time_of_allotme":"120 SQMT","landuse_type":"RESIDENTIAL","landuse_subcategory":"RESIDENTIAL","scheme_cod":"RRPS04","investment":0,"employment":0,"plotstatus":"Allotted","landallotementstatus":"SOLD","landallotementtype":"ALLOTTED","allotmentid":"RRPS041002","village_name":"Kherli Bhav","khasra_no":"131","longitude":77.53523321,"latitude":28.302402869999998,"authority":"YEIDA","category":"residential","execution_stage":"allotted"}},{"type":"Feature","geometry":{"type":"Polygon","coordinates":[[[77.535267,28.302328],[77.535146,28.302429],[77.535093,28.30238],[77.535213,28.30228],[77.535267,28.302328]]]},"properties":{"objectid":5277,"uniqueplotid":"PLNGRESIDENTIAL5277","plotmap_id":"SECTOR-22D_258_D_RESI","plotidentificationnumber":"258","plotno":"258","industrysector":"SECTOR-22D","block":"D","plotsize":"120 SQMT","plotsize_at_the_time_of_allotme":"120 SQMT","landuse_type":"RESIDENTIAL","landuse_subcategory":"RESIDENTIAL","scheme_cod":"RRPS04","investment":0,"employment":0,"plotstatus":"Allotted","landallotementstatus":"SOLD","landallotementtype":"ALLOTTED","allotmentid":"RRPS041016","village_name":"Kherli Bhav","khasra_no":"131","longitude":77.53517977,"latitude":28.30235427,"authority":"YEIDA","category":"residential","execution_stage":"allotted"}},{"type":"Feature","geometry":{"type":"Polygon","coordinates":[[[77.535213,28.30228],[77.535093,28.30238],[77.535039,28.302331],[77.53516,28.302231],[77.535213,28.30228]]]},"properties":{"objectid":5278,"uniqueplotid":"PLNGRESIDENTIAL5278","plotmap_id":"SECTOR-22D_259_D_RESI","plotidentificationnumber":"259","plotno":"259","industrysector":"SECTOR-22D","block":"D","plotsize":"120 SQMT","plotsize_at_the_time_of_allotme":"120 SQMT","landuse_type":"RESIDENTIAL","landuse_subcategory":"RESIDENTIAL","scheme_cod":"RRPS04","investment":0,"employment":0,"plotstatus":"Allotted","landallotementstatus":"SOLD","landallotementtype":"ALLOTTED","allotmentid":"RRPS041303","village_name":"Kherli Bhav","khasra_no":"131","longitude":77.53512636,"latitude":28.30230564,"authority":"YEIDA","category":"residential","execution_stage":"allotted"}},{"type":"Feature","geometry":{"type":"Polygon","coordinates":[[[77.53516,28.302231],[77.535039,28.302331],[77.534986,28.302283],[77.535107,28.302183],[77.53516,28.302231]]]},"properties":{"objectid":5279,"uniqueplotid":"PLNGRESIDENTIAL5279","plotmap_id":"SECTOR-22D_260_D_RESI","plotidentificationnumber":"260","plotno":"260","industrysector":"SECTOR-22D","block":"D","plotsize":"120 SQMT","plotsize_at_the_time_of_allotme":"120 SQMT","landuse_type":"RESIDENTIAL","landuse_subcategory":"RESIDENTIAL","scheme_cod":"RRPS04","investment":0,"employment":0,"plotstatus":"Allotted","landallotementstatus":"SOLD","landallotementtype":"ALLOTTED","allotmentid":"RRPS041267","village_name":"Kherli Bhav","khasra_no":"131,133,758","longitude":77.53507291999999,"latitude":28.302257049999998,"authority":"YEIDA","category":"residential","execution_stage":"allotted"}},{"type":"Feature","geometry":{"type":"Polygon","coordinates":[[[77.535107,28.302183],[77.534986,28.302283],[77.534932,28.302234],[77.535053,28.302134],[77.535107,28.302183]]]},"properties":{"objectid":5280,"uniqueplotid":"PLNGRESIDENTIAL5280","plotmap_id":"SECTOR-22D_261_D_RESI","plotidentificationnumber":"261","plotno":"261","industrysector":"SECTOR-22D","block":"D","plotsize":"120 SQMT","plotsize_at_the_time_of_allotme":"120 SQMT","landuse_type":"RESIDENTIAL","landuse_subcategory":"RESIDENTIAL","scheme_cod":"RRPS04","investment":0,"employment":0,"plotstatus":"Allotted","landallotementstatus":"SOLD","landallotementtype":"ALLOTTED","allotmentid":"RRPS041109","village_name":"Kherli Bhav","khasra_no":"133,758","longitude":77.53501951,"latitude":28.302208399999998,"authority":"YEIDA","category":"residential","execution_stage":"allotted"}},{"type":"Feature","geometry":{"type":"Polygon","coordinates":[[[77.53512,28.301985],[77.535,28.302085],[77.534946,28.302037],[77.535067,28.301937],[77.53512,28.301985]]]},"properties":{"objectid":5290,"uniqueplotid":"PLNGRESIDENTIAL5290","plotmap_id":"SECTOR-22D_421_D_RESI","plotidentificationnumber":"421","plotno":"421","industrysector":"SECTOR-22D","block":"D","plotsize":"120 SQMT","plotsize_at_the_time_of_allotme":"120 SQMT","landuse_type":"RESIDENTIAL","landuse_subcategory":"RESIDENTIAL","scheme_cod":"RRPS04","investment":0,"employment":0,"plotstatus":"Allotted","landallotementstatus":"SOLD","landallotementtype":"ALLOTTED","allotmentid":"RRPS041288","village_name":"Kherli Bhav","khasra_no":"758","longitude":77.5350333,"latitude":28.30201107,"authority":"YEIDA","category":"residential","execution_stage":"allotted"}},{"type":"Feature","geometry":{"type":"Polygon","coordinates":[[[77.535174,28.302034],[77.535053,28.302134],[77.535,28.302085],[77.53512,28.301985],[77.535174,28.302034]]]},"properties":{"objectid":5291,"uniqueplotid":"PLNGRESIDENTIAL5291","plotmap_id":"SECTOR-22D_422_D_RESI","plotidentificationnumber":"422","plotno":"422","industrysector":"SECTOR-22D","block":"D","plotsize":"120 SQMT","plotsize_at_the_time_of_allotme":"120 SQMT","landuse_type":"RESIDENTIAL","landuse_subcategory":"RESIDENTIAL","scheme_cod":"RRPS04","investment":0,"employment":0,"plotstatus":"Allotted","landallotementstatus":"SOLD","landallotementtype":"ALLOTTED","allotmentid":"RRPS041050","village_name":"Kherli Bhav","khasra_no":"758","longitude":77.5350867,"latitude":28.30205972,"authority":"YEIDA","category":"residential","execution_stage":"allotted"}},{"type":"Feature","geometry":{"type":"Polygon","coordinates":[[[77.535227,28.302083],[77.535107,28.302183],[77.535053,28.302134],[77.535174,28.302034],[77.535227,28.302083]]]},"properties":{"objectid":5292,"uniqueplotid":"PLNGRESIDENTIAL5292","plotmap_id":"SECTOR-22D_423_D_RESI","plotidentificationnumber":"423","plotno":"423","industrysector":"SECTOR-22D","block":"D","plotsize":"120 SQMT","plotsize_at_the_time_of_allotme":"120 SQMT","landuse_type":"RESIDENTIAL","landuse_subcategory":"RESIDENTIAL","scheme_cod":"RRPS04","investment":0,"employment":0,"plotstatus":"Allotted","landallotementstatus":"SOLD","landallotementtype":"ALLOTTED","allotmentid":"RRPS041019","village_name":"Kherli Bhav","khasra_no":"133,758","longitude":77.53514016,"latitude":28.30210832,"authority":"YEIDA","category":"residential","execution_stage":"allotted"}},{"type":"Feature","geometry":{"type":"Polygon","coordinates":[[[77.53528,28.302131],[77.53516,28.302231],[77.535107,28.302183],[77.535227,28.302083],[77.53528,28.302131]]]},"properties":{"objectid":5293,"uniqueplotid":"PLNGRESIDENTIAL5293","plotmap_id":"SECTOR-22D_424_D_RESI","plotidentificationnumber":"424","plotno":"424","industrysector":"SECTOR-22D","block":"D","plotsize":"120 SQMT","plotsize_at_the_time_of_allotme":"120 SQMT","landuse_type":"RESIDENTIAL","landuse_subcategory":"RESIDENTIAL","scheme_cod":"RRPS04","investment":0,"employment":0,"plotstatus":"Allotted","landallotementstatus":"SOLD","landallotementtype":"ALLOTTED","allotmentid":"RRPS041047","village_name":"Kherli Bhav","khasra_no":"131,133","longitude":77.53519356,"latitude":28.30215697,"authority":"YEIDA","category":"residential","execution_stage":"allotted"}},{"type":"Feature","geometry":{"type":"Polygon","coordinates":[[[77.535334,28.30218],[77.535213,28.30228],[77.53516,28.302231],[77.53528,28.302131],[77.535334,28.30218]]]},"properties":{"objectid":5294,"uniqueplotid":"PLNGRESIDENTIAL5294","plotmap_id":"SECTOR-22D_425_D_RESI","plotidentificationnumber":"425","plotno":"425","industrysector":"SECTOR-22D","block":"D","plotsize":"120 SQMT","plotsize_at_the_time_of_allotme":"120 SQMT","landuse_type":"RESIDENTIAL","landuse_subcategory":"RESIDENTIAL","scheme_cod":"RRPS04","investment":0,"employment":0,"plotstatus":"Allotted","landallotementstatus":"SOLD","landallotementtype":"ALLOTTED","allotmentid":"RRPS041138","village_name":"Kherli Bhav","khasra_no":"131","longitude":77.53524698,"latitude":28.30220555,"authority":"YEIDA","category":"residential","execution_stage":"allotted"}},{"type":"Feature","geometry":{"type":"Polygon","coordinates":[[[77.535387,28.302228],[77.535267,28.302328],[77.535213,28.30228],[77.535334,28.30218],[77.535387,28.302228]]]},"properties":{"objectid":5295,"uniqueplotid":"PLNGRESIDENTIAL5295","plotmap_id":"SECTOR-22D_426_D_RESI","plotidentificationnumber":"426","plotno":"426","industrysector":"SECTOR-22D","block":"D","plotsize":"120 SQMT","plotsize_at_the_time_of_allotme":"120 SQMT","landuse_type":"RESIDENTIAL","landuse_subcategory":"RESIDENTIAL","scheme_cod":"RPS06","investment":0,"employment":0,"plotstatus":"Allotted","landallotementstatus":"SOLD","landallotementtype":"ALLOTTED","allotmentid":"RPS061297","village_name":"Kherli Bhav","khasra_no":"131","longitude":77.53530037,"latitude":28.302254169999998,"authority":"YEIDA","category":"residential","execution_stage":"allotted"}},{"type":"Feature","geometry":{"type":"Polygon","coordinates":[[[77.535441,28.302277],[77.53532,28.302377],[77.535267,28.302328],[77.535387,28.302228],[77.535441,28.302277]]]},"properties":{"objectid":5296,"uniqueplotid":"PLNGRESIDENTIAL5296","plotmap_id":"SECTOR-22D_427_D_RESI","plotidentificationnumber":"427","plotno":"427","industrysector":"SECTOR-22D","block":"D","plotsize":"120 SQMT","plotsize_at_the_time_of_allotme":"120 SQMT","landuse_type":"RESIDENTIAL","landuse_subcategory":"RESIDENTIAL","scheme_cod":"RRPS04","investment":0,"employment":0,"plotstatus":"Allotted","landallotementstatus":"SOLD","landallotementtype":"ALLOTTED","allotmentid":"RRPS041388","village_name":"Kherli Bhav","khasra_no":"131","longitude":77.53535379,"latitude":28.302302769999997,"authority":"YEIDA","category":"residential","execution_stage":"allotted"}},{"type":"Feature","geometry":{"type":"Polygon","coordinates":[[[77.535494,28.302326],[77.535374,28.302426],[77.53532,28.302377],[77.535441,28.302277],[77.535494,28.302326]]]},"properties":{"objectid":5297,"uniqueplotid":"PLNGRESIDENTIAL5297","plotmap_id":"SECTOR-22D_428_D_RESI","plotidentificationnumber":"428","plotno":"428","industrysector":"SECTOR-22D","block":"D","plotsize":"120 SQMT","plotsize_at_the_time_of_allotme":"120 SQMT","landuse_type":"RESIDENTIAL","landuse_subcategory":"RESIDENTIAL","scheme_cod":"RRPS04","investment":0,"employment":0,"plotstatus":"Allotted","landallotementstatus":"SOLD","landallotementtype":"ALLOTTED","allotmentid":"RRPS041252","village_name":"Kherli Bhav","khasra_no":"131","longitude":77.53540728,"latitude":28.302351419999997,"authority":"YEIDA","category":"residential","execution_stage":"allotted"}},{"type":"Feature","geometry":{"type":"Polygon","coordinates":[[[77.535535,28.302363],[77.535409,28.302458],[77.535374,28.302426],[77.535494,28.302326],[77.535535,28.302363]]]},"properties":{"objectid":5298,"uniqueplotid":"PLNGRESIDENTIAL5298","plotmap_id":"SECTOR-22D_429_D_RESI","plotidentificationnumber":"429","plotno":"429","industrysector":"SECTOR-22D","block":"D","plotsize":"120 SQMT","plotsize_at_the_time_of_allotme":"120 SQMT","landuse_type":"RESIDENTIAL","landuse_subcategory":"RESIDENTIAL","scheme_cod":"RRPS04","investment":0,"employment":0,"plotstatus":"Allotted","landallotementstatus":"SOLD","landallotementtype":"ALLOTTED","allotmentid":"RRPS041358","village_name":"Kherli Bhav","khasra_no":"131","longitude":77.53545342999999,"latitude":28.3023922,"authority":"YEIDA","category":"residential","execution_stage":"allotted"}},{"type":"Feature","geometry":{"type":"Polygon","coordinates":[[[77.535409,28.302458],[77.535283,28.302553],[77.5352,28.302477],[77.53532,28.302377],[77.535409,28.302458]]]},"properties":{"objectid":5305,"uniqueplotid":"PLNGRESIDENTIAL5305","plotmap_id":"SECTOR-22D_256_D_RESI","plotidentificationnumber":"256","plotno":"256","industrysector":"SECTOR-22D","block":"D","plotsize":"120 SQMT","plotsize_at_the_time_of_allotme":"120 SQMT","landuse_type":"RESIDENTIAL","landuse_subcategory":"RESIDENTIAL","scheme_cod":"RRPS04","investment":0,"employment":0,"plotstatus":"Allotted","landallotementstatus":"SOLD","landallotementtype":"ALLOTTED","allotmentid":"RRPS041244","village_name":"Kherli Bhav","khasra_no":"131","longitude":77.53530954,"latitude":28.30246128,"authority":"YEIDA","category":"residential","execution_stage":"allotted"}},{"type":"Feature","geometry":{"type":"Polygon","coordinates":[[[77.534508,28.305969],[77.534459,28.304111],[77.535143,28.304071],[77.536506,28.30305],[77.538474,28.304836],[77.536045,28.306854],[77.535052,28.305951],[77.534508,28.305969]]]},"properties":{"objectid":5306,"uniqueplotid":"PLNGRESIDENTIAL5306","plotmap_id":"SECTOR-22D_GH-4_GROUP HOUSING_RESI","plotidentificationnumber":"GH-4","plotno":"GH-4","industrysector":"SECTOR-22D","block":"GROUP HOUSING","plotsize":"93490 SQMT","landuse_type":"RESIDENTIAL","landuse_subcategory":"RESIDENTIAL","investment":0,"employment":0,"landallotementstatus":"VACANT","landallotementtype":"VACANT","village_name":"Kherli Bhav,Munjkheda","khasra_no":"122,87,845,841,829,839,840,835,838,834,837,843,827,842,847,844,828,833,831,826,832,665,664,836","longitude":77.53623891,"latitude":28.30501915,"authority":"YEIDA","category":"residential","execution_stage":"vacant"}}]}
