{"type":"FeatureCollection","features":[{"type":"Feature","geometry":{"type":"Polygon","coordinates":[[[77.579088,28.339959],[77.578966,28.339962],[77.578959,28.339736],[77.579081,28.339733],[77.579088,28.339959]]]},"properties":{"objectid":18572,"uniqueplotid":"PLNGRESIDENTIAL18572","plotmap_id":"SECTOR-18_345_7C_RESI","plotidentificationnumber":"345","plotno":"345","industrysector":"SECTOR-18","block":"7C","plotsize":"300 SQMT","plotsize_at_the_time_of_allotme":"300 SQMT","landuse_type":"RESIDENTIAL","landuse_subcategory":"RESIDENTIAL","scheme_cod":"RES01","investment":0,"employment":0,"plotstatus":"Allotted","landallotementstatus":"SOLD","landallotementtype":"ALLOTTED","allotmentid":"YEA009452","village_name":"Mohamadpur Gujar","khasra_no":"281,282","longitude":77.57902356,"latitude":28.3398474,"authority":"YEIDA","category":"residential","execution_stage":"allotted"}},{"type":"Feature","geometry":{"type":"Polygon","coordinates":[[[77.579211,28.339956],[77.579088,28.339959],[77.579081,28.339733],[77.579204,28.33973],[77.579211,28.339956]]]},"properties":{"objectid":18573,"uniqueplotid":"PLNGRESIDENTIAL18573","plotmap_id":"SECTOR-18_346_7C_RESI","plotidentificationnumber":"346","plotno":"346","industrysector":"SECTOR-18","block":"7C","plotsize":"300 SQMT","plotsize_at_the_time_of_allotme":"300 SQMT","landuse_type":"RESIDENTIAL","landuse_subcategory":"RESIDENTIAL","scheme_cod":"RES01","investment":0,"employment":0,"plotstatus":"Allotted","landallotementstatus":"SOLD","landallotementtype":"ALLOTTED","allotmentid":"YEA010915","village_name":"Mohamadpur Gujar","khasra_no":"281,282,262,263","longitude":77.57914607,"latitude":28.3398446,"authority":"YEIDA","category":"residential","execution_stage":"allotted"}},{"type":"Feature","geometry":{"type":"Polygon","coordinates":[[[77.579333,28.339953],[77.579211,28.339956],[77.579204,28.33973],[77.579326,28.339728],[77.579333,28.339953]]]},"properties":{"objectid":18574,"uniqueplotid":"PLNGRESIDENTIAL18574","plotmap_id":"SECTOR-18_347_7C_RESI","plotidentificationnumber":"347","plotno":"347","industrysector":"SECTOR-18","block":"7C","plotsize":"300 SQMT","plotsize_at_the_time_of_allotme":"300 SQMT","landuse_type":"RESIDENTIAL","landuse_subcategory":"RESIDENTIAL","scheme_cod":"RES01","investment":0,"employment":0,"plotstatus":"Allotted","landallotementstatus":"SOLD","landallotementtype":"ALLOTTED","allotmentid":"YEA016114","village_name":"Mohamadpur Gujar","khasra_no":"281,262","longitude":77.57926858,"latitude":28.33984181,"authority":"YEIDA","category":"residential","execution_stage":"allotted"}},{"type":"Feature","geometry":{"type":"Polygon","coordinates":[[[77.579456,28.33995],[77.579333,28.339953],[77.579326,28.339728],[77.579449,28.339725],[77.579456,28.33995]]]},"properties":{"objectid":18575,"uniqueplotid":"PLNGRESIDENTIAL18575","plotmap_id":"SECTOR-18_348_7C_RESI","plotidentificationnumber":"348","plotno":"348","industrysector":"SECTOR-18","block":"7C","plotsize":"300 SQMT","plotsize_at_the_time_of_allotme":"300 SQMT","landuse_type":"RESIDENTIAL","landuse_subcategory":"RESIDENTIAL","scheme_cod":"RES01","investment":0,"employment":0,"plotstatus":"Allotted","landallotementstatus":"SOLD","landallotementtype":"ALLOTTED","allotmentid":"YEA017215","village_name":"Mohamadpur Gujar","khasra_no":"262","longitude":77.57939109,"latitude":28.33983901,"authority":"YEIDA","category":"residential","execution_stage":"allotted"}},{"type":"Feature","geometry":{"type":"Polygon","coordinates":[[[77.579701,28.339945],[77.579578,28.339948],[77.579571,28.339722],[77.579694,28.339719],[77.579701,28.339945]]]},"properties":{"objectid":18576,"uniqueplotid":"PLNGRESIDENTIAL18576","plotmap_id":"SECTOR-18_350_7C_RESI","plotidentificationnumber":"350","plotno":"350","industrysector":"SECTOR-18","block":"7C","plotsize":"300 SQMT","plotsize_at_the_time_of_allotme":"300 SQMT","landuse_type":"RESIDENTIAL","landuse_subcategory":"RESIDENTIAL","scheme_cod":"RES01","investment":0,"employment":0,"plotstatus":"Allotted","landallotementstatus":"SOLD","landallotementtype":"ALLOTTED","allotmentid":"YEA005768","lease_deed":"Y","lease_deed_date":1744828200000,"village_name":"Mohamadpur Gujar","khasra_no":"261,262","longitude":77.57963612,"latitude":28.33983342,"authority":"YEIDA","category":"residential","execution_stage":"lease-recorded"}},{"type":"Feature","geometry":{"type":"Polygon","coordinates":[[[77.579823,28.339942],[77.579701,28.339945],[77.579694,28.339719],[77.579816,28.339717],[77.579823,28.339942]]]},"properties":{"objectid":18577,"uniqueplotid":"PLNGRESIDENTIAL18577","plotmap_id":"SECTOR-18_351_7C_RESI","plotidentificationnumber":"351","plotno":"351","industrysector":"SECTOR-18","block":"7C","plotsize":"300 SQMT","plotsize_at_the_time_of_allotme":"300 SQMT","landuse_type":"RESIDENTIAL","landuse_subcategory":"RESIDENTIAL","scheme_cod":"RRPS03","investment":0,"employment":0,"plotstatus":"Allotted","landallotementstatus":"SOLD","landallotementtype":"ALLOTTED","allotmentid":"RRPS031573","village_name":"Mohamadpur Gujar","khasra_no":"261,262","longitude":77.57975863,"latitude":28.33983063,"authority":"YEIDA","category":"residential","execution_stage":"allotted"}},{"type":"Feature","geometry":{"type":"Polygon","coordinates":[[[77.579946,28.339939],[77.579823,28.339942],[77.579816,28.339717],[77.579939,28.339714],[77.579946,28.339939]]]},"properties":{"objectid":18578,"uniqueplotid":"PLNGRESIDENTIAL18578","plotmap_id":"SECTOR-18_352_7C_RESI","plotidentificationnumber":"352","plotno":"352","industrysector":"SECTOR-18","block":"7C","plotsize":"300 SQMT","plotsize_at_the_time_of_allotme":"300 SQMT","landuse_type":"RESIDENTIAL","landuse_subcategory":"RESIDENTIAL","scheme_cod":"RES01","investment":0,"employment":0,"plotstatus":"Allotted","landallotementstatus":"SOLD","landallotementtype":"ALLOTTED","allotmentid":"YEA007535","village_name":"Mohamadpur Gujar","khasra_no":"261,267,266,262","longitude":77.57988114000001,"latitude":28.33982783,"authority":"YEIDA","category":"residential","execution_stage":"allotted"}},{"type":"Feature","geometry":{"type":"Polygon","coordinates":[[[77.580068,28.339936],[77.579946,28.339939],[77.579939,28.339714],[77.580061,28.339711],[77.580068,28.339936]]]},"properties":{"objectid":18579,"uniqueplotid":"PLNGRESIDENTIAL18579","plotmap_id":"SECTOR-18_353_7C_RESI","plotidentificationnumber":"353","plotno":"353","industrysector":"SECTOR-18","block":"7C","plotsize":"300 SQMT","plotsize_at_the_time_of_allotme":"300 SQMT","landuse_type":"RESIDENTIAL","landuse_subcategory":"RESIDENTIAL","scheme_cod":"RES01","investment":0,"employment":0,"plotstatus":"Allotted","landallotementstatus":"SOLD","landallotementtype":"ALLOTTED","allotmentid":"YEA012157","village_name":"Mohamadpur Gujar","khasra_no":"261,267,266","longitude":77.58000365,"latitude":28.33982504,"authority":"YEIDA","category":"residential","execution_stage":"allotted"}},{"type":"Feature","geometry":{"type":"Polygon","coordinates":[[[77.580191,28.339934],[77.580068,28.339936],[77.580061,28.339711],[77.580184,28.339708],[77.580191,28.339934]]]},"properties":{"objectid":18580,"uniqueplotid":"PLNGRESIDENTIAL18580","plotmap_id":"SECTOR-18_354_7C_RESI","plotidentificationnumber":"354","plotno":"354","industrysector":"SECTOR-18","block":"7C","plotsize":"300 SQMT","plotsize_at_the_time_of_allotme":"300 SQMT","landuse_type":"RESIDENTIAL","landuse_subcategory":"RESIDENTIAL","scheme_cod":"RES01","investment":0,"employment":0,"plotstatus":"Allotted","landallotementstatus":"SOLD","landallotementtype":"ALLOTTED","allotmentid":"YEA017002","village_name":"Mohamadpur Gujar","khasra_no":"261,267","longitude":77.58012616,"latitude":28.33982224,"authority":"YEIDA","category":"residential","execution_stage":"allotted"}},{"type":"Feature","geometry":{"type":"Polygon","coordinates":[[[77.578721,28.339967],[77.578598,28.33997],[77.578591,28.339744],[77.578714,28.339742],[77.578721,28.339967]]]},"properties":{"objectid":18581,"uniqueplotid":"PLNGRESIDENTIAL18581","plotmap_id":"SECTOR-18_342_7C_RESI","plotidentificationnumber":"342","plotno":"342","industrysector":"SECTOR-18","block":"7C","plotsize":"300 SQMT","plotsize_at_the_time_of_allotme":"300 SQMT","landuse_type":"RESIDENTIAL","landuse_subcategory":"RESIDENTIAL","scheme_cod":"RES01","investment":0,"employment":0,"plotstatus":"Allotted","landallotementstatus":"SOLD","landallotementtype":"ALLOTTED","allotmentid":"YEA011457","village_name":"Mohamadpur Gujar","khasra_no":"288,282,285,286","longitude":77.57865602,"latitude":28.33985578,"authority":"YEIDA","category":"residential","execution_stage":"allotted"}},{"type":"Feature","geometry":{"type":"Polygon","coordinates":[[[77.578843,28.339964],[77.578721,28.339967],[77.578714,28.339742],[77.578836,28.339739],[77.578843,28.339964]]]},"properties":{"objectid":18582,"uniqueplotid":"PLNGRESIDENTIAL18582","plotmap_id":"SECTOR-18_343_7C_RESI","plotidentificationnumber":"343","plotno":"343","industrysector":"SECTOR-18","block":"7C","plotsize":"300 SQMT","plotsize_at_the_time_of_allotme":"300 SQMT","landuse_type":"RESIDENTIAL","landuse_subcategory":"RESIDENTIAL","scheme_cod":"RES01","investment":0,"employment":0,"plotstatus":"Allotted","landallotementstatus":"SOLD","landallotementtype":"ALLOTTED","allotmentid":"YEA006120","lease_deed":"Y","lease_deed_date":1745173800000,"village_name":"Mohamadpur Gujar","khasra_no":"282,285,286","longitude":77.57877853,"latitude":28.33985298,"authority":"YEIDA","category":"residential","execution_stage":"lease-recorded"}},{"type":"Feature","geometry":{"type":"Polygon","coordinates":[[[77.578966,28.339962],[77.578843,28.339964],[77.578836,28.339739],[77.578959,28.339736],[77.578966,28.339962]]]},"properties":{"objectid":18583,"uniqueplotid":"PLNGRESIDENTIAL18583","plotmap_id":"SECTOR-18_344_7C_RESI","plotidentificationnumber":"344","plotno":"344","industrysector":"SECTOR-18","block":"7C","plotsize":"300 SQMT","plotsize_at_the_time_of_allotme":"300 SQMT","landuse_type":"RESIDENTIAL","landuse_subcategory":"RESIDENTIAL","scheme_cod":"RES01","investment":0,"employment":0,"plotstatus":"Allotted","landallotementstatus":"SOLD","landallotementtype":"ALLOTTED","allotmentid":"YEA007904","village_name":"Mohamadpur Gujar","khasra_no":"282","longitude":77.57890104,"latitude":28.33985019,"authority":"YEIDA","category":"residential","execution_stage":"allotted"}},{"type":"Feature","geometry":{"type":"Polygon","coordinates":[[[77.579088,28.339959],[77.579096,28.340184],[77.578973,28.340187],[77.578966,28.339962],[77.579088,28.339959]]]},"properties":{"objectid":18584,"uniqueplotid":"PLNGRESIDENTIAL18584","plotmap_id":"SECTOR-18_338_7C_RESI","plotidentificationnumber":"338","plotno":"338","industrysector":"SECTOR-18","block":"7C","plotsize":"300 SQMT","plotsize_at_the_time_of_allotme":"300 SQMT","landuse_type":"RESIDENTIAL","landuse_subcategory":"RESIDENTIAL","scheme_cod":"RES01","investment":0,"employment":0,"plotstatus":"Allotted","landallotementstatus":"SOLD","landallotementtype":"ALLOTTED","allotmentid":"YEA010534","village_name":"Mohamadpur Gujar","khasra_no":"282","longitude":77.57903074,"latitude":28.34007284,"authority":"YEIDA","category":"residential","execution_stage":"allotted"}},{"type":"Feature","geometry":{"type":"Polygon","coordinates":[[[77.579211,28.339956],[77.579218,28.340181],[77.579096,28.340184],[77.579088,28.339959],[77.579211,28.339956]]]},"properties":{"objectid":18585,"uniqueplotid":"PLNGRESIDENTIAL18585","plotmap_id":"SECTOR-18_337_7C_RESI","plotidentificationnumber":"337","plotno":"337","industrysector":"SECTOR-18","block":"7C","plotsize":"300 SQMT","plotsize_at_the_time_of_allotme":"300 SQMT","landuse_type":"RESIDENTIAL","landuse_subcategory":"RESIDENTIAL","scheme_cod":"RES01","investment":0,"employment":0,"plotstatus":"Allotted","landallotementstatus":"SOLD","landallotementtype":"ALLOTTED","allotmentid":"YEA015916","village_name":"Mohamadpur Gujar","khasra_no":"281,282","longitude":77.57915324999999,"latitude":28.34007005,"authority":"YEIDA","category":"residential","execution_stage":"allotted"}},{"type":"Feature","geometry":{"type":"Polygon","coordinates":[[[77.579333,28.339953],[77.579341,28.340179],[77.579218,28.340181],[77.579211,28.339956],[77.579333,28.339953]]]},"properties":{"objectid":18586,"uniqueplotid":"PLNGRESIDENTIAL18586","plotmap_id":"SECTOR-18_336_7C_RESI","plotidentificationnumber":"336","plotno":"336","industrysector":"SECTOR-18","block":"7C","plotsize":"300 SQMT","plotsize_at_the_time_of_allotme":"300 SQMT","landuse_type":"RESIDENTIAL","landuse_subcategory":"RESIDENTIAL","scheme_cod":"RES01","investment":0,"employment":0,"plotstatus":"Allotted","landallotementstatus":"SOLD","landallotementtype":"ALLOTTED","allotmentid":"YEA012548","village_name":"Mohamadpur Gujar","khasra_no":"281,282,262","longitude":77.57927577,"latitude":28.34006725,"authority":"YEIDA","category":"residential","execution_stage":"allotted"}},{"type":"Feature","geometry":{"type":"Polygon","coordinates":[[[77.579456,28.33995],[77.579463,28.340176],[77.579341,28.340179],[77.579333,28.339953],[77.579456,28.33995]]]},"properties":{"objectid":18587,"uniqueplotid":"PLNGRESIDENTIAL18587","plotmap_id":"SECTOR-18_335_7C_RESI","plotidentificationnumber":"335","plotno":"335","industrysector":"SECTOR-18","block":"7C","plotsize":"300 SQMT","plotsize_at_the_time_of_allotme":"300 SQMT","landuse_type":"RESIDENTIAL","landuse_subcategory":"RESIDENTIAL","scheme_cod":"RES01","investment":0,"employment":0,"plotstatus":"Allotted","landallotementstatus":"SOLD","landallotementtype":"ALLOTTED","allotmentid":"YEA012921","village_name":"Mohamadpur Gujar","khasra_no":"261,281,262","longitude":77.57939828,"latitude":28.34006446,"authority":"YEIDA","category":"residential","execution_stage":"allotted"}},{"type":"Feature","geometry":{"type":"Polygon","coordinates":[[[77.579578,28.339948],[77.579586,28.340173],[77.579463,28.340176],[77.579456,28.33995],[77.579578,28.339948]]]},"properties":{"objectid":18588,"uniqueplotid":"PLNGRESIDENTIAL18588","plotmap_id":"SECTOR-18_334_7C_RESI","plotidentificationnumber":"334","plotno":"334","industrysector":"SECTOR-18","block":"7C","plotsize":"300 SQMT","plotsize_at_the_time_of_allotme":"300 SQMT","landuse_type":"RESIDENTIAL","landuse_subcategory":"RESIDENTIAL","scheme_cod":"RES01","investment":0,"employment":0,"plotstatus":"Allotted","landallotementstatus":"SOLD","landallotementtype":"ALLOTTED","allotmentid":"YEA008910","village_name":"Mohamadpur Gujar","khasra_no":"261,262","longitude":77.57952078999999,"latitude":28.34006166,"authority":"YEIDA","category":"residential","execution_stage":"allotted"}},{"type":"Feature","geometry":{"type":"Polygon","coordinates":[[[77.579946,28.339939],[77.579953,28.340165],[77.579831,28.340167],[77.579823,28.339942],[77.579946,28.339939]]]},"properties":{"objectid":18589,"uniqueplotid":"PLNGRESIDENTIAL18589","plotmap_id":"SECTOR-18_331_7C_RESI","plotidentificationnumber":"331","plotno":"331","industrysector":"SECTOR-18","block":"7C","plotsize":"300 SQMT","plotsize_at_the_time_of_allotme":"300 SQMT","landuse_type":"RESIDENTIAL","landuse_subcategory":"RESIDENTIAL","scheme_cod":"RES01","investment":0,"employment":0,"plotstatus":"Allotted","landallotementstatus":"SOLD","landallotementtype":"ALLOTTED","allotmentid":"YEA006715","village_name":"Mohamadpur Gujar","khasra_no":"261","longitude":77.57988833,"latitude":28.34005328,"authority":"YEIDA","category":"residential","execution_stage":"allotted"}},{"type":"Feature","geometry":{"type":"Polygon","coordinates":[[[77.580068,28.339936],[77.580076,28.340162],[77.579953,28.340165],[77.579946,28.339939],[77.580068,28.339936]]]},"properties":{"objectid":18590,"uniqueplotid":"PLNGRESIDENTIAL18590","plotmap_id":"SECTOR-18_330_7C_RESI","plotidentificationnumber":"330","plotno":"330","industrysector":"SECTOR-18","block":"7C","plotsize":"300 SQMT","plotsize_at_the_time_of_allotme":"300 SQMT","landuse_type":"RESIDENTIAL","landuse_subcategory":"RESIDENTIAL","scheme_cod":"RES01","investment":0,"employment":0,"plotstatus":"Allotted","landallotementstatus":"SOLD","landallotementtype":"ALLOTTED","allotmentid":"YEA005908","village_name":"Mohamadpur Gujar","khasra_no":"261,267","longitude":77.58001084,"latitude":28.34005049,"authority":"YEIDA","category":"residential","execution_stage":"allotted"}},{"type":"Feature","geometry":{"type":"Polygon","coordinates":[[[77.580198,28.340159],[77.580076,28.340162],[77.580068,28.339936],[77.580191,28.339934],[77.580198,28.340159]]]},"properties":{"objectid":18591,"uniqueplotid":"PLNGRESIDENTIAL18591","plotmap_id":"SECTOR-18_329_7C_RESI","plotidentificationnumber":"329","plotno":"329","industrysector":"SECTOR-18","block":"7C","plotsize":"300 SQMT","plotsize_at_the_time_of_allotme":"300 SQMT","landuse_type":"RESIDENTIAL","landuse_subcategory":"RESIDENTIAL","scheme_cod":"RES01","investment":0,"employment":0,"plotstatus":"Allotted","landallotementstatus":"SOLD","landallotementtype":"ALLOTTED","allotmentid":"YEA011723","village_name":"Mohamadpur Gujar","khasra_no":"261,267","longitude":77.58013335,"latitude":28.34004769,"authority":"YEIDA","category":"residential","execution_stage":"allotted"}},{"type":"Feature","geometry":{"type":"Polygon","coordinates":[[[77.578721,28.339967],[77.578728,28.340193],[77.578606,28.340195],[77.578598,28.33997],[77.578721,28.339967]]]},"properties":{"objectid":18592,"uniqueplotid":"PLNGRESIDENTIAL18592","plotmap_id":"SECTOR-18_341_7C_RESI","plotidentificationnumber":"341","plotno":"341","industrysector":"SECTOR-18","block":"7C","plotsize":"300 SQMT","plotsize_at_the_time_of_allotme":"300 SQMT","landuse_type":"RESIDENTIAL","landuse_subcategory":"RESIDENTIAL","scheme_cod":"RES01","investment":0,"employment":0,"plotstatus":"Allotted","landallotementstatus":"SOLD","landallotementtype":"ALLOTTED","allotmentid":"YEA012421","village_name":"Mohamadpur Gujar","khasra_no":"284,285,286","longitude":77.57866320999999,"latitude":28.34008123,"authority":"YEIDA","category":"residential","execution_stage":"allotted"}},{"type":"Feature","geometry":{"type":"Polygon","coordinates":[[[77.578843,28.339964],[77.578851,28.34019],[77.578728,28.340193],[77.578721,28.339967],[77.578843,28.339964]]]},"properties":{"objectid":18593,"uniqueplotid":"PLNGRESIDENTIAL18593","plotmap_id":"SECTOR-18_340_7C_RESI","plotidentificationnumber":"340","plotno":"340","industrysector":"SECTOR-18","block":"7C","plotsize":"300 SQMT","plotsize_at_the_time_of_allotme":"300 SQMT","landuse_type":"RESIDENTIAL","landuse_subcategory":"RESIDENTIAL","scheme_cod":"RES01","investment":0,"employment":0,"plotstatus":"Allotted","landallotementstatus":"SOLD","landallotementtype":"ALLOTTED","allotmentid":"YEA019772","lease_deed":"Y","lease_deed_date":1742409000000,"village_name":"Mohamadpur Gujar","khasra_no":"282,284,285","longitude":77.57878572,"latitude":28.34007843,"authority":"YEIDA","category":"residential","execution_stage":"lease-recorded"}},{"type":"Feature","geometry":{"type":"Polygon","coordinates":[[[77.581531,28.339677],[77.581539,28.339903],[77.581416,28.339906],[77.581409,28.33968],[77.581531,28.339677]]]},"properties":{"objectid":18594,"uniqueplotid":"PLNGRESIDENTIAL18594","plotmap_id":"SECTOR-18_312_7C_RESI","plotidentificationnumber":"312","plotno":"312","industrysector":"SECTOR-18","block":"7C","plotsize":"300 SQMT","plotsize_at_the_time_of_allotme":"300 SQMT","landuse_type":"RESIDENTIAL","landuse_subcategory":"RESIDENTIAL","scheme_cod":"RES01","investment":0,"employment":0,"plotstatus":"Allotted","landallotementstatus":"SOLD","landallotementtype":"ALLOTTED","allotmentid":"YEA017349","village_name":"Mohamadpur Gujar","khasra_no":"269","longitude":77.58147379,"latitude":28.3397915,"authority":"YEIDA","category":"residential","execution_stage":"allotted"}},{"type":"Feature","geometry":{"type":"Polygon","coordinates":[[[77.581164,28.339686],[77.581171,28.339911],[77.581049,28.339914],[77.581041,28.339689],[77.581164,28.339686]]]},"properties":{"objectid":18595,"uniqueplotid":"PLNGRESIDENTIAL18595","plotmap_id":"SECTOR-18_309_7C_RESI","plotidentificationnumber":"309","plotno":"309","industrysector":"SECTOR-18","block":"7C","plotsize":"300 SQMT","plotsize_at_the_time_of_allotme":"300 SQMT","landuse_type":"RESIDENTIAL","landuse_subcategory":"RESIDENTIAL","scheme_cod":"RES01","investment":0,"employment":0,"plotstatus":"Allotted","landallotementstatus":"SOLD","landallotementtype":"ALLOTTED","allotmentid":"YEA004855","lease_deed":"Y","lease_deed_date":1692124200000,"village_name":"Mohamadpur Gujar","khasra_no":"268","longitude":77.58110626000001,"latitude":28.339799890000002,"authority":"YEIDA","category":"residential","execution_stage":"lease-recorded"}},{"type":"Feature","geometry":{"type":"Polygon","coordinates":[[[77.581041,28.339689],[77.581049,28.339914],[77.580926,28.339917],[77.580919,28.339691],[77.581041,28.339689]]]},"properties":{"objectid":18596,"uniqueplotid":"PLNGRESIDENTIAL18596","plotmap_id":"SECTOR-18_308_7C_RESI","plotidentificationnumber":"308","plotno":"308","industrysector":"SECTOR-18","block":"7C","plotsize":"300 SQMT","plotsize_at_the_time_of_allotme":"300 SQMT","landuse_type":"RESIDENTIAL","landuse_subcategory":"RESIDENTIAL","scheme_cod":"RES01","investment":0,"employment":0,"plotstatus":"Allotted","landallotementstatus":"SOLD","landallotementtype":"ALLOTTED","allotmentid":"YEA011649","lease_deed":"Y","lease_deed_date":1694111400000,"village_name":"Mohamadpur Gujar","khasra_no":"268","longitude":77.58098375,"latitude":28.339802680000002,"authority":"YEIDA","category":"residential","execution_stage":"lease-recorded"}},{"type":"Feature","geometry":{"type":"Polygon","coordinates":[[[77.580919,28.339691],[77.580926,28.339917],[77.580804,28.33992],[77.580796,28.339694],[77.580919,28.339691]]]},"properties":{"objectid":18597,"uniqueplotid":"PLNGRESIDENTIAL18597","plotmap_id":"SECTOR-18_307_7C_RESI","plotidentificationnumber":"307","plotno":"307","industrysector":"SECTOR-18","block":"7C","plotsize":"300 SQMT","plotsize_at_the_time_of_allotme":"300 SQMT","landuse_type":"RESIDENTIAL","landuse_subcategory":"RESIDENTIAL","scheme_cod":"RES01","investment":0,"employment":0,"plotstatus":"Allotted","landallotementstatus":"SOLD","landallotementtype":"ALLOTTED","allotmentid":"YEA007581","village_name":"Mohamadpur Gujar","khasra_no":"268","longitude":77.58086123,"latitude":28.33980548,"authority":"YEIDA","category":"residential","execution_stage":"allotted"}},{"type":"Feature","geometry":{"type":"Polygon","coordinates":[[[77.580796,28.339694],[77.580804,28.33992],[77.580681,28.339922],[77.580674,28.339697],[77.580796,28.339694]]]},"properties":{"objectid":18598,"uniqueplotid":"PLNGRESIDENTIAL18598","plotmap_id":"SECTOR-18_306_7C_RESI","plotidentificationnumber":"306","plotno":"306","industrysector":"SECTOR-18","block":"7C","plotsize":"300 SQMT","plotsize_at_the_time_of_allotme":"300 SQMT","landuse_type":"RESIDENTIAL","landuse_subcategory":"RESIDENTIAL","scheme_cod":"RES01","investment":0,"employment":0,"plotstatus":"Allotted","landallotementstatus":"SOLD","landallotementtype":"ALLOTTED","allotmentid":"YEA016290","village_name":"Mohamadpur Gujar","khasra_no":"268","longitude":77.58073872,"latitude":28.33980827,"authority":"YEIDA","category":"residential","execution_stage":"allotted"}},{"type":"Feature","geometry":{"type":"Polygon","coordinates":[[[77.580674,28.339697],[77.580681,28.339922],[77.580559,28.339925],[77.580551,28.3397],[77.580674,28.339697]]]},"properties":{"objectid":18599,"uniqueplotid":"PLNGRESIDENTIAL18599","plotmap_id":"SECTOR-18_305_7C_RESI","plotidentificationnumber":"305","plotno":"305","industrysector":"SECTOR-18","block":"7C","plotsize":"300 SQMT","plotsize_at_the_time_of_allotme":"300 SQMT","landuse_type":"RESIDENTIAL","landuse_subcategory":"RESIDENTIAL","scheme_cod":"RES01","investment":0,"employment":0,"plotstatus":"Allotted","landallotementstatus":"SOLD","landallotementtype":"ALLOTTED","allotmentid":"YEA004490","village_name":"Mohamadpur Gujar","khasra_no":"261,268,271","longitude":77.58061621,"latitude":28.33981107,"authority":"YEIDA","category":"residential","execution_stage":"allotted"}},{"type":"Feature","geometry":{"type":"Polygon","coordinates":[[[77.580551,28.3397],[77.580559,28.339925],[77.580436,28.339928],[77.580429,28.339703],[77.580551,28.3397]]]},"properties":{"objectid":18600,"uniqueplotid":"PLNGRESIDENTIAL18600","plotmap_id":"SECTOR-18_304_7C_RESI","plotidentificationnumber":"304","plotno":"304","industrysector":"SECTOR-18","block":"7C","plotsize":"300 SQMT","plotsize_at_the_time_of_allotme":"300 SQMT","landuse_type":"RESIDENTIAL","landuse_subcategory":"RESIDENTIAL","scheme_cod":"RES01","investment":0,"employment":0,"plotstatus":"Allotted","landallotementstatus":"SOLD","landallotementtype":"ALLOTTED","allotmentid":"YEA017795","lease_deed":"Y","lease_deed_date":1695666600000,"village_name":"Mohamadpur Gujar","khasra_no":"261,267,268,271","longitude":77.58049369999999,"latitude":28.33981386,"authority":"YEIDA","category":"residential","execution_stage":"lease-recorded"}},{"type":"Feature","geometry":{"type":"Polygon","coordinates":[[[77.580436,28.339928],[77.580314,28.339931],[77.580306,28.339705],[77.580429,28.339703],[77.580436,28.339928]]]},"properties":{"objectid":18601,"uniqueplotid":"PLNGRESIDENTIAL18601","plotmap_id":"SECTOR-18_303_7C_RESI","plotidentificationnumber":"303","plotno":"303","industrysector":"SECTOR-18","block":"7C","plotsize":"300 SQMT","plotsize_at_the_time_of_allotme":"300 SQMT","landuse_type":"RESIDENTIAL","landuse_subcategory":"RESIDENTIAL","scheme_cod":"RES01","investment":0,"employment":0,"plotstatus":"Allotted","landallotementstatus":"SOLD","landallotementtype":"ALLOTTED","allotmentid":"YEA009647","village_name":"Mohamadpur Gujar","khasra_no":"261,267","longitude":77.58037119,"latitude":28.33981666,"authority":"YEIDA","category":"residential","execution_stage":"allotted"}},{"type":"Feature","geometry":{"type":"Polygon","coordinates":[[[77.581899,28.339669],[77.581906,28.339894],[77.581784,28.339897],[77.581776,28.339672],[77.581899,28.339669]]]},"properties":{"objectid":18602,"uniqueplotid":"PLNGRESIDENTIAL18602","plotmap_id":"SECTOR-18_315_7C_RESI","plotidentificationnumber":"315","plotno":"315","industrysector":"SECTOR-18","block":"7C","plotsize":"300 SQMT","plotsize_at_the_time_of_allotme":"300 SQMT","landuse_type":"RESIDENTIAL","landuse_subcategory":"RESIDENTIAL","scheme_cod":"RES01","investment":0,"employment":0,"plotstatus":"Allotted","landallotementstatus":"SOLD","landallotementtype":"ALLOTTED","allotmentid":"YEA018778","lease_deed":"Y","lease_deed_date":1734287400000,"village_name":"Mohamadpur Gujar","khasra_no":"269","longitude":77.58184133,"latitude":28.33978312,"authority":"YEIDA","category":"residential","execution_stage":"lease-recorded"}},{"type":"Feature","geometry":{"type":"Polygon","coordinates":[[[77.581776,28.339672],[77.581784,28.339897],[77.581661,28.3399],[77.581654,28.339675],[77.581776,28.339672]]]},"properties":{"objectid":18603,"uniqueplotid":"PLNGRESIDENTIAL18603","plotmap_id":"SECTOR-18_314_7C_RESI","plotidentificationnumber":"314","plotno":"314","industrysector":"SECTOR-18","block":"7C","plotsize":"300 SQMT","plotsize_at_the_time_of_allotme":"300 SQMT","landuse_type":"RESIDENTIAL","landuse_subcategory":"RESIDENTIAL","scheme_cod":"RES01","investment":0,"employment":0,"plotstatus":"Allotted","landallotementstatus":"SOLD","landallotementtype":"ALLOTTED","allotmentid":"YEA016577","lease_deed":"Y","lease_deed_date":1691087400000,"village_name":"Mohamadpur Gujar","khasra_no":"269","longitude":77.58171881999999,"latitude":28.33978591,"authority":"YEIDA","category":"residential","execution_stage":"lease-recorded"}},{"type":"Feature","geometry":{"type":"Polygon","coordinates":[[[77.581654,28.339675],[77.581661,28.3399],[77.581539,28.339903],[77.581531,28.339677],[77.581654,28.339675]]]},"properties":{"objectid":18604,"uniqueplotid":"PLNGRESIDENTIAL18604","plotmap_id":"SECTOR-18_313_7C_RESI","plotidentificationnumber":"313","plotno":"313","industrysector":"SECTOR-18","block":"7C","plotsize":"300 SQMT","plotsize_at_the_time_of_allotme":"300 SQMT","landuse_type":"RESIDENTIAL","landuse_subcategory":"RESIDENTIAL","scheme_cod":"RES01","investment":0,"employment":0,"plotstatus":"Allotted","landallotementstatus":"SOLD","landallotementtype":"ALLOTTED","allotmentid":"YEA008651","village_name":"Mohamadpur Gujar","khasra_no":"269","longitude":77.5815963,"latitude":28.33978871,"authority":"YEIDA","category":"residential","execution_stage":"allotted"}},{"type":"Feature","geometry":{"type":"Polygon","coordinates":[[[77.581539,28.339903],[77.581546,28.340128],[77.581423,28.340131],[77.581416,28.339906],[77.581539,28.339903]]]},"properties":{"objectid":18605,"uniqueplotid":"PLNGRESIDENTIAL18605","plotmap_id":"SECTOR-18_319_7C_RESI","plotidentificationnumber":"319","plotno":"319","industrysector":"SECTOR-18","block":"7C","plotsize":"300 SQMT","plotsize_at_the_time_of_allotme":"300 SQMT","landuse_type":"RESIDENTIAL","landuse_subcategory":"RESIDENTIAL","scheme_cod":"RES01","investment":0,"employment":0,"plotstatus":"Allotted","landallotementstatus":"SOLD","landallotementtype":"ALLOTTED","allotmentid":"YEA018810","village_name":"Mohamadpur Gujar","khasra_no":"269,268","longitude":77.58148098000001,"latitude":28.34001695,"authority":"YEIDA","category":"residential","execution_stage":"allotted"}},{"type":"Feature","geometry":{"type":"Polygon","coordinates":[[[77.581416,28.339906],[77.581423,28.340131],[77.581301,28.340134],[77.581294,28.339908],[77.581416,28.339906]]]},"properties":{"objectid":18606,"uniqueplotid":"PLNGRESIDENTIAL18606","plotmap_id":"SECTOR-18_320_7C_RESI","plotidentificationnumber":"320","plotno":"320","industrysector":"SECTOR-18","block":"7C","plotsize":"300 SQMT","plotsize_at_the_time_of_allotme":"300 SQMT","landuse_type":"RESIDENTIAL","landuse_subcategory":"RESIDENTIAL","scheme_cod":"RES01","investment":0,"employment":0,"plotstatus":"Allotted","landallotementstatus":"SOLD","landallotementtype":"ALLOTTED","allotmentid":"YEA018790","village_name":"Mohamadpur Gujar","khasra_no":"269,268","longitude":77.58135847,"latitude":28.34001975,"authority":"YEIDA","category":"residential","execution_stage":"allotted"}},{"type":"Feature","geometry":{"type":"Polygon","coordinates":[[[77.581294,28.339908],[77.581301,28.340134],[77.581178,28.340137],[77.581171,28.339911],[77.581294,28.339908]]]},"properties":{"objectid":18607,"uniqueplotid":"PLNGRESIDENTIAL18607","plotmap_id":"SECTOR-18_321_7C_RESI","plotidentificationnumber":"321","plotno":"321","industrysector":"SECTOR-18","block":"7C","plotsize":"300 SQMT","plotsize_at_the_time_of_allotme":"300 SQMT","landuse_type":"RESIDENTIAL","landuse_subcategory":"RESIDENTIAL","scheme_cod":"RES01","investment":0,"employment":0,"plotstatus":"Allotted","landallotementstatus":"SOLD","landallotementtype":"ALLOTTED","allotmentid":"YEA005187","village_name":"Mohamadpur Gujar","khasra_no":"268","longitude":77.58123596,"latitude":28.34002254,"authority":"YEIDA","category":"residential","execution_stage":"allotted"}},{"type":"Feature","geometry":{"type":"Polygon","coordinates":[[[77.581171,28.339911],[77.581178,28.340137],[77.581056,28.340139],[77.581049,28.339914],[77.581171,28.339911]]]},"properties":{"objectid":18608,"uniqueplotid":"PLNGRESIDENTIAL18608","plotmap_id":"SECTOR-18_322_7C_RESI","plotidentificationnumber":"322","plotno":"322","industrysector":"SECTOR-18","block":"7C","plotsize":"300 SQMT","plotsize_at_the_time_of_allotme":"300 SQMT","landuse_type":"RESIDENTIAL","landuse_subcategory":"RESIDENTIAL","scheme_cod":"RES01","investment":0,"employment":0,"plotstatus":"Allotted","landallotementstatus":"SOLD","landallotementtype":"ALLOTTED","allotmentid":"YEA005683","village_name":"Mohamadpur Gujar","khasra_no":"268","longitude":77.58111344000001,"latitude":28.34002534,"authority":"YEIDA","category":"residential","execution_stage":"allotted"}},{"type":"Feature","geometry":{"type":"Polygon","coordinates":[[[77.581049,28.339914],[77.581056,28.340139],[77.580933,28.340142],[77.580926,28.339917],[77.581049,28.339914]]]},"properties":{"objectid":18609,"uniqueplotid":"PLNGRESIDENTIAL18609","plotmap_id":"SECTOR-18_323_7C_RESI","plotidentificationnumber":"323","plotno":"323","industrysector":"SECTOR-18","block":"7C","plotsize":"300 SQMT","plotsize_at_the_time_of_allotme":"300 SQMT","landuse_type":"RESIDENTIAL","landuse_subcategory":"RESIDENTIAL","scheme_cod":"RES01","investment":0,"employment":0,"plotstatus":"Allotted","landallotementstatus":"SOLD","landallotementtype":"ALLOTTED","allotmentid":"YEA010952","village_name":"Mohamadpur Gujar","khasra_no":"268","longitude":77.58099093,"latitude":28.34002813,"authority":"YEIDA","category":"residential","execution_stage":"allotted"}},{"type":"Feature","geometry":{"type":"Polygon","coordinates":[[[77.580926,28.339917],[77.580933,28.340142],[77.580811,28.340145],[77.580804,28.33992],[77.580926,28.339917]]]},"properties":{"objectid":18610,"uniqueplotid":"PLNGRESIDENTIAL18610","plotmap_id":"SECTOR-18_324_7C_RESI","plotidentificationnumber":"324","plotno":"324","industrysector":"SECTOR-18","block":"7C","plotsize":"300 SQMT","plotsize_at_the_time_of_allotme":"300 SQMT","landuse_type":"RESIDENTIAL","landuse_subcategory":"RESIDENTIAL","scheme_cod":"RES01","investment":0,"employment":0,"plotstatus":"Allotted","landallotementstatus":"SOLD","landallotementtype":"ALLOTTED","allotmentid":"YEA010762","village_name":"Mohamadpur Gujar","khasra_no":"268","longitude":77.58086842,"latitude":28.34003092,"authority":"YEIDA","category":"residential","execution_stage":"allotted"}},{"type":"Feature","geometry":{"type":"Polygon","coordinates":[[[77.580681,28.339922],[77.580688,28.340148],[77.580566,28.340151],[77.580559,28.339925],[77.580681,28.339922]]]},"properties":{"objectid":18611,"uniqueplotid":"PLNGRESIDENTIAL18611","plotmap_id":"SECTOR-18_326_7C_RESI","plotidentificationnumber":"326","plotno":"326","industrysector":"SECTOR-18","block":"7C","plotsize":"300 SQMT","plotsize_at_the_time_of_allotme":"300 SQMT","landuse_type":"RESIDENTIAL","landuse_subcategory":"RESIDENTIAL","scheme_cod":"RES01","investment":0,"employment":0,"plotstatus":"Allotted","landallotementstatus":"SOLD","landallotementtype":"ALLOTTED","allotmentid":"YEA016949","village_name":"Mohamadpur Gujar","khasra_no":"260,261,268,271","longitude":77.58062340000001,"latitude":28.34003651,"authority":"YEIDA","category":"residential","execution_stage":"allotted"}},{"type":"Feature","geometry":{"type":"Polygon","coordinates":[[[77.580559,28.339925],[77.580566,28.340151],[77.580443,28.340153],[77.580436,28.339928],[77.580559,28.339925]]]},"properties":{"objectid":18612,"uniqueplotid":"PLNGRESIDENTIAL18612","plotmap_id":"SECTOR-18_327_7C_RESI","plotidentificationnumber":"327","plotno":"327","industrysector":"SECTOR-18","block":"7C","plotsize":"300 SQMT","plotsize_at_the_time_of_allotme":"300 SQMT","landuse_type":"RESIDENTIAL","landuse_subcategory":"RESIDENTIAL","scheme_cod":"RES01","investment":0,"employment":0,"plotstatus":"Allotted","landallotementstatus":"SOLD","landallotementtype":"ALLOTTED","allotmentid":"YEA006438","village_name":"Mohamadpur Gujar","khasra_no":"261","longitude":77.58050088,"latitude":28.340039309999998,"authority":"YEIDA","category":"residential","execution_stage":"allotted"}},{"type":"Feature","geometry":{"type":"Polygon","coordinates":[[[77.580436,28.339928],[77.580443,28.340153],[77.580321,28.340156],[77.580314,28.339931],[77.580436,28.339928]]]},"properties":{"objectid":18613,"uniqueplotid":"PLNGRESIDENTIAL18613","plotmap_id":"SECTOR-18_328_7C_RESI","plotidentificationnumber":"328","plotno":"328","industrysector":"SECTOR-18","block":"7C","plotsize":"300 SQMT","plotsize_at_the_time_of_allotme":"300 SQMT","landuse_type":"RESIDENTIAL","landuse_subcategory":"RESIDENTIAL","scheme_cod":"RES01","investment":0,"employment":0,"plotstatus":"Allotted","landallotementstatus":"SOLD","landallotementtype":"ALLOTTED","allotmentid":"YEA017058","village_name":"Mohamadpur Gujar","khasra_no":"261","longitude":77.58037836999999,"latitude":28.3400421,"authority":"YEIDA","category":"residential","execution_stage":"allotted"}},{"type":"Feature","geometry":{"type":"Polygon","coordinates":[[[77.581784,28.339897],[77.581791,28.340123],[77.581668,28.340125],[77.581661,28.3399],[77.581784,28.339897]]]},"properties":{"objectid":18614,"uniqueplotid":"PLNGRESIDENTIAL18614","plotmap_id":"SECTOR-18_317_7C_RESI","plotidentificationnumber":"317","plotno":"317","industrysector":"SECTOR-18","block":"7C","plotsize":"300 SQMT","plotsize_at_the_time_of_allotme":"300 SQMT","landuse_type":"RESIDENTIAL","landuse_subcategory":"RESIDENTIAL","scheme_cod":"RES01","investment":0,"employment":0,"plotstatus":"Allotted","landallotementstatus":"SOLD","landallotementtype":"ALLOTTED","allotmentid":"YEA011507","village_name":"Mohamadpur Gujar","khasra_no":"269","longitude":77.581726,"latitude":28.34001136,"authority":"YEIDA","category":"residential","execution_stage":"allotted"}},{"type":"Feature","geometry":{"type":"Polygon","coordinates":[[[77.581661,28.3399],[77.581668,28.340125],[77.581546,28.340128],[77.581539,28.339903],[77.581661,28.3399]]]},"properties":{"objectid":18615,"uniqueplotid":"PLNGRESIDENTIAL18615","plotmap_id":"SECTOR-18_318_7C_RESI","plotidentificationnumber":"318","plotno":"318","industrysector":"SECTOR-18","block":"7C","plotsize":"300 SQMT","plotsize_at_the_time_of_allotme":"300 SQMT","landuse_type":"RESIDENTIAL","landuse_subcategory":"RESIDENTIAL","scheme_cod":"RES01","investment":0,"employment":0,"plotstatus":"Allotted","landallotementstatus":"SOLD","landallotementtype":"ALLOTTED","allotmentid":"YEA018987","lease_deed":"Y","lease_deed_date":1744050600000,"village_name":"Mohamadpur Gujar","khasra_no":"269","longitude":77.58160348999999,"latitude":28.34001416,"authority":"YEIDA","category":"residential","execution_stage":"lease-recorded"}},{"type":"Feature","geometry":{"type":"Polygon","coordinates":[[[77.578476,28.339964],[77.578479,28.340072],[77.578224,28.340078],[77.57822,28.339969],[77.578476,28.339964]]]},"properties":{"objectid":18616,"uniqueplotid":"PLNGRESIDENTIAL18616","plotmap_id":"SECTOR-18_356_7C_RESI","plotidentificationnumber":"356","plotno":"356","industrysector":"SECTOR-18","block":"7C","plotsize":"300 SQMT","plotsize_at_the_time_of_allotme":"300 SQMT","landuse_type":"RESIDENTIAL","landuse_subcategory":"RESIDENTIAL","scheme_cod":"RES01","investment":0,"employment":0,"plotstatus":"Allotted","landallotementstatus":"SOLD","landallotementtype":"ALLOTTED","allotmentid":"YEA013588","village_name":"Mohamadpur Gujar","khasra_no":"285,286","longitude":77.57834967,"latitude":28.3400207,"authority":"YEIDA","category":"residential","execution_stage":"allotted"}},{"type":"Feature","geometry":{"type":"Polygon","coordinates":[[[77.57822,28.339969],[77.578224,28.340078],[77.577969,28.340084],[77.577965,28.339975],[77.57822,28.339969]]]},"properties":{"objectid":18617,"uniqueplotid":"PLNGRESIDENTIAL18617","plotmap_id":"SECTOR-18_389_7C_RESI","plotidentificationnumber":"389","plotno":"389","industrysector":"SECTOR-18","block":"7C","plotsize":"300 SQMT","plotsize_at_the_time_of_allotme":"300 SQMT","landuse_type":"RESIDENTIAL","landuse_subcategory":"RESIDENTIAL","scheme_cod":"RES01","investment":0,"employment":0,"plotstatus":"Allotted","landallotementstatus":"SOLD","landallotementtype":"ALLOTTED","allotmentid":"YEA014373","village_name":"Mohamadpur Gujar","khasra_no":"286,287","longitude":77.57809443000001,"latitude":28.34002652,"authority":"YEIDA","category":"residential","execution_stage":"allotted"}},{"type":"Feature","geometry":{"type":"Polygon","coordinates":[[[77.578472,28.339855],[77.578476,28.339964],[77.57822,28.339969],[77.578217,28.339861],[77.578472,28.339855]]]},"properties":{"objectid":18618,"uniqueplotid":"PLNGRESIDENTIAL18618","plotmap_id":"SECTOR-18_357_7C_RESI","plotidentificationnumber":"357","plotno":"357","industrysector":"SECTOR-18","block":"7C","plotsize":"300 SQMT","plotsize_at_the_time_of_allotme":"300 SQMT","landuse_type":"RESIDENTIAL","landuse_subcategory":"RESIDENTIAL","scheme_cod":"RPS06","investment":0,"employment":0,"plotstatus":"Allotted","landallotementstatus":"SOLD","landallotementtype":"ALLOTTED","allotmentid":"RPS061433","village_name":"Mohamadpur Gujar","khasra_no":"288,286,287","longitude":77.57834622,"latitude":28.33991248,"authority":"YEIDA","category":"residential","execution_stage":"allotted"}},{"type":"Feature","geometry":{"type":"Polygon","coordinates":[[[77.578217,28.339861],[77.57822,28.339969],[77.577965,28.339975],[77.577962,28.339867],[77.578217,28.339861]]]},"properties":{"objectid":18619,"uniqueplotid":"PLNGRESIDENTIAL18619","plotmap_id":"SECTOR-18_388_7C_RESI","plotidentificationnumber":"388","plotno":"388","industrysector":"SECTOR-18","block":"7C","plotsize":"300 SQMT","plotsize_at_the_time_of_allotme":"300 SQMT","landuse_type":"RESIDENTIAL","landuse_subcategory":"RESIDENTIAL","scheme_cod":"RES01","investment":0,"employment":0,"plotstatus":"Allotted","landallotementstatus":"SOLD","landallotementtype":"ALLOTTED","allotmentid":"YEA005894","village_name":"Mohamadpur Gujar","khasra_no":"286,287","longitude":77.57809098,"latitude":28.3399183,"authority":"YEIDA","category":"residential","execution_stage":"allotted"}},{"type":"Feature","geometry":{"type":"Polygon","coordinates":[[[77.578469,28.339747],[77.578472,28.339855],[77.578217,28.339861],[77.578213,28.339753],[77.578469,28.339747]]]},"properties":{"objectid":18620,"uniqueplotid":"PLNGRESIDENTIAL18620","plotmap_id":"SECTOR-18_358_7C_RESI","plotidentificationnumber":"358","plotno":"358","industrysector":"SECTOR-18","block":"7C","plotsize":"300 SQMT","plotsize_at_the_time_of_allotme":"300 SQMT","landuse_type":"RESIDENTIAL","landuse_subcategory":"RESIDENTIAL","scheme_cod":"RES01","investment":0,"employment":0,"plotstatus":"Allotted","landallotementstatus":"SOLD","landallotementtype":"ALLOTTED","allotmentid":"YEA016123","village_name":"Mohamadpur Gujar","khasra_no":"288,286,287","longitude":77.57834276999999,"latitude":28.339804270000002,"authority":"YEIDA","category":"residential","execution_stage":"allotted"}},{"type":"Feature","geometry":{"type":"Polygon","coordinates":[[[77.578213,28.339753],[77.578217,28.339861],[77.577962,28.339867],[77.577958,28.339759],[77.578213,28.339753]]]},"properties":{"objectid":18621,"uniqueplotid":"PLNGRESIDENTIAL18621","plotmap_id":"SECTOR-18_387_7C_RESI","plotidentificationnumber":"387","plotno":"387","industrysector":"SECTOR-18","block":"7C","plotsize":"300 SQMT","plotsize_at_the_time_of_allotme":"300 SQMT","landuse_type":"RESIDENTIAL","landuse_subcategory":"RESIDENTIAL","scheme_cod":"RES01","investment":0,"employment":0,"plotstatus":"Allotted","landallotementstatus":"SOLD","landallotementtype":"ALLOTTED","allotmentid":"YEA008217","village_name":"Mohamadpur Gujar","khasra_no":"289,287","longitude":77.57808754,"latitude":28.33981009,"authority":"YEIDA","category":"residential","execution_stage":"allotted"}},{"type":"Feature","geometry":{"type":"Polygon","coordinates":[[[77.578465,28.339639],[77.578469,28.339747],[77.578213,28.339753],[77.57821,28.339645],[77.578465,28.339639]]]},"properties":{"objectid":18622,"uniqueplotid":"PLNGRESIDENTIAL18622","plotmap_id":"SECTOR-18_359_7C_RESI","plotidentificationnumber":"359","plotno":"359","industrysector":"SECTOR-18","block":"7C","plotsize":"300 SQMT","plotsize_at_the_time_of_allotme":"300 SQMT","landuse_type":"RESIDENTIAL","landuse_subcategory":"RESIDENTIAL","scheme_cod":"RES01","investment":0,"employment":0,"plotstatus":"Allotted","landallotementstatus":"SOLD","landallotementtype":"ALLOTTED","allotmentid":"YEA018903","village_name":"Mohamadpur Gujar","khasra_no":"288,287","longitude":77.57833932,"latitude":28.33969605,"authority":"YEIDA","category":"residential","execution_stage":"allotted"}},{"type":"Feature","geometry":{"type":"Polygon","coordinates":[[[77.57821,28.339645],[77.578213,28.339753],[77.577958,28.339759],[77.577955,28.339651],[77.57821,28.339645]]]},"properties":{"objectid":18623,"uniqueplotid":"PLNGRESIDENTIAL18623","plotmap_id":"SECTOR-18_386_7C_RESI","plotidentificationnumber":"386","plotno":"386","industrysector":"SECTOR-18","block":"7C","plotsize":"300 SQMT","plotsize_at_the_time_of_allotme":"300 SQMT","landuse_type":"RESIDENTIAL","landuse_subcategory":"RESIDENTIAL","scheme_cod":"RES01","investment":0,"employment":0,"plotstatus":"Allotted","landallotementstatus":"SOLD","landallotementtype":"ALLOTTED","allotmentid":"YEA017173","village_name":"Mohamadpur Gujar","khasra_no":"289,288,287","longitude":77.57808409,"latitude":28.33970187,"authority":"YEIDA","category":"residential","execution_stage":"allotted"}},{"type":"Feature","geometry":{"type":"Polygon","coordinates":[[[77.578479,28.340072],[77.578482,28.34018],[77.578227,28.340186],[77.578224,28.340078],[77.578479,28.340072]]]},"properties":{"objectid":18624,"uniqueplotid":"PLNGRESIDENTIAL18624","plotmap_id":"SECTOR-18_355_7C_RESI","plotidentificationnumber":"355","plotno":"355","industrysector":"SECTOR-18","block":"7C","plotsize":"300 SQMT","plotsize_at_the_time_of_allotme":"300 SQMT","landuse_type":"RESIDENTIAL","landuse_subcategory":"RESIDENTIAL","scheme_cod":"RES01","investment":0,"employment":0,"plotstatus":"Allotted","landallotementstatus":"SOLD","landallotementtype":"ALLOTTED","allotmentid":"YEA018079","village_name":"Mohamadpur Gujar","khasra_no":"285,286","longitude":77.57835312,"latitude":28.34012891,"authority":"YEIDA","category":"residential","execution_stage":"allotted"}},{"type":"Feature","geometry":{"type":"Polygon","coordinates":[[[77.578224,28.340078],[77.578227,28.340186],[77.577972,28.340192],[77.577969,28.340084],[77.578224,28.340078]]]},"properties":{"objectid":18625,"uniqueplotid":"PLNGRESIDENTIAL18625","plotmap_id":"SECTOR-18_390_7C_RESI","plotidentificationnumber":"390","plotno":"390","industrysector":"SECTOR-18","block":"7C","plotsize":"300 SQMT","plotsize_at_the_time_of_allotme":"300 SQMT","landuse_type":"RESIDENTIAL","landuse_subcategory":"RESIDENTIAL","scheme_cod":"RES01","investment":0,"employment":0,"plotstatus":"Allotted","landallotementstatus":"SOLD","landallotementtype":"ALLOTTED","allotmentid":"YEA019177","village_name":"Mohamadpur Gujar","khasra_no":"286","longitude":77.57809788,"latitude":28.34013473,"authority":"YEIDA","category":"residential","execution_stage":"allotted"}},{"type":"Feature","geometry":{"type":"Polygon","coordinates":[[[77.579578,28.339948],[77.579456,28.33995],[77.579449,28.339725],[77.579571,28.339722],[77.579578,28.339948]]]},"properties":{"objectid":18628,"uniqueplotid":"PLNGRESIDENTIAL18628","plotmap_id":"SECTOR-18_349_7C_RESI","plotidentificationnumber":"349","plotno":"349","industrysector":"SECTOR-18","block":"7C","plotsize":"300 SQMT","plotsize_at_the_time_of_allotme":"300 SQMT","landuse_type":"RESIDENTIAL","landuse_subcategory":"RESIDENTIAL","scheme_cod":"RES01","investment":0,"employment":0,"plotstatus":"Allotted","landallotementstatus":"SOLD","landallotementtype":"ALLOTTED","allotmentid":"YEA009121","village_name":"Mohamadpur Gujar","khasra_no":"262","longitude":77.5795136,"latitude":28.33983622,"authority":"YEIDA","category":"residential","execution_stage":"allotted"}},{"type":"Feature","geometry":{"type":"Polygon","coordinates":[[[77.579701,28.339945],[77.579708,28.34017],[77.579586,28.340173],[77.579578,28.339948],[77.579701,28.339945]]]},"properties":{"objectid":18629,"uniqueplotid":"PLNGRESIDENTIAL18629","plotmap_id":"SECTOR-18_333_7C_RESI","plotidentificationnumber":"333","plotno":"333","industrysector":"SECTOR-18","block":"7C","plotsize":"300 SQMT","plotsize_at_the_time_of_allotme":"300 SQMT","landuse_type":"RESIDENTIAL","landuse_subcategory":"RESIDENTIAL","scheme_cod":"RES01","investment":0,"employment":0,"plotstatus":"Allotted","landallotementstatus":"SOLD","landallotementtype":"ALLOTTED","allotmentid":"YEA019809","village_name":"Mohamadpur Gujar","khasra_no":"261,262","longitude":77.5796433,"latitude":28.34005887,"authority":"YEIDA","category":"residential","execution_stage":"allotted"}},{"type":"Feature","geometry":{"type":"Polygon","coordinates":[[[77.579823,28.339942],[77.579831,28.340167],[77.579708,28.34017],[77.579701,28.339945],[77.579823,28.339942]]]},"properties":{"objectid":18630,"uniqueplotid":"PLNGRESIDENTIAL18630","plotmap_id":"SECTOR-18_332_7C_RESI","plotidentificationnumber":"332","plotno":"332","industrysector":"SECTOR-18","block":"7C","plotsize":"300 SQMT","plotsize_at_the_time_of_allotme":"300 SQMT","landuse_type":"RESIDENTIAL","landuse_subcategory":"RESIDENTIAL","scheme_cod":"RES01","investment":0,"employment":0,"plotstatus":"Allotted","landallotementstatus":"SOLD","landallotementtype":"ALLOTTED","allotmentid":"YEA007803","village_name":"Mohamadpur Gujar","khasra_no":"261","longitude":77.57976581,"latitude":28.34005608,"authority":"YEIDA","category":"residential","execution_stage":"allotted"}},{"type":"Feature","geometry":{"type":"Polygon","coordinates":[[[77.578966,28.339962],[77.578973,28.340187],[77.578851,28.34019],[77.578843,28.339964],[77.578966,28.339962]]]},"properties":{"objectid":18631,"uniqueplotid":"PLNGRESIDENTIAL18631","plotmap_id":"SECTOR-18_339_7C_RESI","plotidentificationnumber":"339","plotno":"339","industrysector":"SECTOR-18","block":"7C","plotsize":"300 SQMT","plotsize_at_the_time_of_allotme":"300 SQMT","landuse_type":"RESIDENTIAL","landuse_subcategory":"RESIDENTIAL","scheme_cod":"RES01","investment":0,"employment":0,"plotstatus":"Allotted","landallotementstatus":"SOLD","landallotementtype":"ALLOTTED","allotmentid":"YEA015534","village_name":"Mohamadpur Gujar","khasra_no":"282,284,285","longitude":77.57890823000001,"latitude":28.34007564,"authority":"YEIDA","category":"residential","execution_stage":"allotted"}},{"type":"Feature","geometry":{"type":"Polygon","coordinates":[[[77.581409,28.33968],[77.581416,28.339906],[77.581294,28.339908],[77.581286,28.339683],[77.581409,28.33968]]]},"properties":{"objectid":18632,"uniqueplotid":"PLNGRESIDENTIAL18632","plotmap_id":"SECTOR-18_311_7C_RESI","plotidentificationnumber":"311","plotno":"311","industrysector":"SECTOR-18","block":"7C","plotsize":"300 SQMT","plotsize_at_the_time_of_allotme":"300 SQMT","landuse_type":"RESIDENTIAL","landuse_subcategory":"RESIDENTIAL","scheme_cod":"RES01","investment":0,"employment":0,"plotstatus":"Allotted","landallotementstatus":"SOLD","landallotementtype":"ALLOTTED","allotmentid":"YEA010987","lease_deed":"Y","lease_deed_date":1698690600000,"village_name":"Mohamadpur Gujar","khasra_no":"269,268","longitude":77.58135127999999,"latitude":28.3397943,"authority":"YEIDA","category":"residential","execution_stage":"lease-recorded"}},{"type":"Feature","geometry":{"type":"Polygon","coordinates":[[[77.581286,28.339683],[77.581294,28.339908],[77.581171,28.339911],[77.581164,28.339686],[77.581286,28.339683]]]},"properties":{"objectid":18633,"uniqueplotid":"PLNGRESIDENTIAL18633","plotmap_id":"SECTOR-18_310_7C_RESI","plotidentificationnumber":"310","plotno":"310","industrysector":"SECTOR-18","block":"7C","plotsize":"300 SQMT","plotsize_at_the_time_of_allotme":"300 SQMT","landuse_type":"RESIDENTIAL","landuse_subcategory":"RESIDENTIAL","scheme_cod":"RES01","investment":0,"employment":0,"plotstatus":"Allotted","landallotementstatus":"SOLD","landallotementtype":"ALLOTTED","allotmentid":"YEA015604","village_name":"Mohamadpur Gujar","khasra_no":"269,268","longitude":77.58122877,"latitude":28.33979709,"authority":"YEIDA","category":"residential","execution_stage":"allotted"}},{"type":"Feature","geometry":{"type":"Polygon","coordinates":[[[77.580804,28.33992],[77.580811,28.340145],[77.580688,28.340148],[77.580681,28.339922],[77.580804,28.33992]]]},"properties":{"objectid":18634,"uniqueplotid":"PLNGRESIDENTIAL18634","plotmap_id":"SECTOR-18_325_7C_RESI","plotidentificationnumber":"325","plotno":"325","industrysector":"SECTOR-18","block":"7C","plotsize":"300 SQMT","plotsize_at_the_time_of_allotme":"300 SQMT","landuse_type":"RESIDENTIAL","landuse_subcategory":"RESIDENTIAL","scheme_cod":"RES01","investment":0,"employment":0,"plotstatus":"Allotted","landallotementstatus":"SOLD","landallotementtype":"ALLOTTED","allotmentid":"YEA004926","village_name":"Mohamadpur Gujar","khasra_no":"260,261,268,271","longitude":77.58074590999999,"latitude":28.34003372,"authority":"YEIDA","category":"residential","execution_stage":"allotted"}},{"type":"Feature","geometry":{"type":"Polygon","coordinates":[[[77.581906,28.339894],[77.581913,28.34012],[77.581791,28.340123],[77.581784,28.339897],[77.581906,28.339894]]]},"properties":{"objectid":18635,"uniqueplotid":"PLNGRESIDENTIAL18635","plotmap_id":"SECTOR-18_316_7C_RESI","plotidentificationnumber":"316","plotno":"316","industrysector":"SECTOR-18","block":"7C","plotsize":"300 SQMT","plotsize_at_the_time_of_allotme":"300 SQMT","landuse_type":"RESIDENTIAL","landuse_subcategory":"RESIDENTIAL","scheme_cod":"RES01","investment":0,"employment":0,"plotstatus":"Allotted","landallotementstatus":"SOLD","landallotementtype":"ALLOTTED","allotmentid":"YEA019589","village_name":"Mohamadpur Gujar","khasra_no":"269","longitude":77.58184851,"latitude":28.34000857,"authority":"YEIDA","category":"residential","execution_stage":"allotted"}}]}
