{"type":"FeatureCollection","features":[{"type":"Feature","geometry":{"type":"Polygon","coordinates":[[[77.594314,28.324852],[77.593651,28.331759],[77.591851,28.331685],[77.592123,28.326216],[77.589961,28.326265],[77.589909,28.324653],[77.589928,28.324653],[77.589933,28.324806],[77.594314,28.324852]]]},"properties":{"objectid":15620,"uniqueplotid":"PLNGRESIDENTIAL15620","plotmap_id":"SECTOR-18_N.A_INFORMAL_RESI","plotidentificationnumber":"N.A","plotno":"N.A","industrysector":"SECTOR-18","block":"INFORMAL","plotsize":"15.00 HACTARE","landuse_type":"RESIDENTIAL","landuse_subcategory":"INFORMAL SECTOR","investment":0,"employment":0,"landallotementstatus":"VACANT","landallotementtype":"VACANT","village_name":"Bhatta,Usmanpur","khasra_no":"48,47,46,45,50,49,112/1,112/2,136,125,147,148,149,141,140,142,145,144,143,114,104,122,117,98,78,99,100,86,128,146,127,123,124,130,160,151,156,171,161,155,154,153,152,150,119,129,139,103","longitude":77.59237395999999,"latitude":28.32794441,"authority":"YEIDA","category":"residential","execution_stage":"vacant"}}]}
