{"type":"FeatureCollection","features":[{"type":"Feature","geometry":{"type":"Polygon","coordinates":[[[77.595961,28.343464],[77.595756,28.343483],[77.595744,28.343366],[77.59595,28.343347],[77.595961,28.343464]]]},"properties":{"objectid":2257,"uniqueplotid":"PLNGRESIDENTIAL2257","plotmap_id":"SECTOR-17_168_A_RESI","plotidentificationnumber":"168","plotno":"168","industrysector":"SECTOR-17","block":"A","plotsize":"200 SQMT","plotsize_at_the_time_of_allotme":"200 SQMT","landuse_type":"RESIDENTIAL","landuse_subcategory":"RESIDENTIAL","scheme_cod":"RPS03","investment":0,"employment":0,"plotstatus":"Allotted","landallotementstatus":"SOLD","landallotementtype":"ALLOTTED","allotmentid":"RPS033261","allotment_date":1464114600000,"rate_of_allotment":15620,"lease_deed":"N","village_name":"Dhanauri","khasra_no":"496","longitude":77.59585283999999,"latitude":28.34341504,"authority":"YEIDA","category":"residential","execution_stage":"allotted"}},{"type":"Feature","geometry":{"type":"Polygon","coordinates":[[[77.59595,28.343347],[77.595744,28.343366],[77.595736,28.343275],[77.595941,28.343256],[77.59595,28.343347]]]},"properties":{"objectid":2258,"uniqueplotid":"PLNGRESIDENTIAL2258","plotmap_id":"SECTOR-17_169_A_RESI","plotidentificationnumber":"169","plotno":"169","industrysector":"SECTOR-17","block":"A","plotsize":"200 SQMT","plotsize_at_the_time_of_allotme":"200 SQMT","landuse_type":"RESIDENTIAL","landuse_subcategory":"RESIDENTIAL","scheme_cod":"RPS07","investment":0,"employment":0,"plotstatus":"Allotted","landallotementstatus":"SOLD","landallotementtype":"ALLOTTED","allotmentid":"RPS071703","allotment_date":1698777000000,"rate_of_allotment":24900,"lease_deed":"N","village_name":"Dhanauri","khasra_no":"500,499,496","longitude":77.59584291,"latitude":28.34331094,"authority":"YEIDA","category":"residential","execution_stage":"allotted"}},{"type":"Feature","geometry":{"type":"Polygon","coordinates":[[[77.595941,28.343256],[77.595736,28.343275],[77.595727,28.343185],[77.595933,28.343166],[77.595941,28.343256]]]},"properties":{"objectid":2259,"uniqueplotid":"PLNGRESIDENTIAL2259","plotmap_id":"SECTOR-17_170_A_RESI","plotidentificationnumber":"170","plotno":"170","industrysector":"SECTOR-17","block":"A","plotsize":"200 SQMT","plotsize_at_the_time_of_allotme":"200 SQMT","landuse_type":"RESIDENTIAL","landuse_subcategory":"RESIDENTIAL","scheme_cod":"RPS07","investment":0,"employment":0,"plotstatus":"Allotted","landallotementstatus":"SOLD","landallotementtype":"ALLOTTED","allotmentid":"RPS071775","allotment_date":1698777000000,"rate_of_allotment":24900,"lease_deed":"N","village_name":"Dhanauri","khasra_no":"569,537,500,499,557,496","longitude":77.59583427,"latitude":28.34322043,"authority":"YEIDA","category":"residential","execution_stage":"allotted"}},{"type":"Feature","geometry":{"type":"Polygon","coordinates":[[[77.595989,28.343754],[77.595866,28.343765],[77.595848,28.343584],[77.595972,28.343573],[77.595989,28.343754]]]},"properties":{"objectid":2266,"uniqueplotid":"PLNGRESIDENTIAL2266","plotmap_id":"SECTOR-17_177_A_RESI","plotidentificationnumber":"177","plotno":"177","industrysector":"SECTOR-17","block":"A","plotsize":"200 SQMT","plotsize_at_the_time_of_allotme":"200 SQMT","landuse_type":"RESIDENTIAL","landuse_subcategory":"RESIDENTIAL","scheme_cod":"RPS03","investment":0,"employment":0,"plotstatus":"Allotted","landallotementstatus":"SOLD","landallotementtype":"ALLOTTED","allotmentid":"RPS033242","allotment_date":1464114600000,"rate_of_allotment":15620,"lease_deed":"N","village_name":"Dhanauri","khasra_no":"497,496","longitude":77.59591855,"latitude":28.343669199999997,"authority":"YEIDA","category":"residential","execution_stage":"allotted"}},{"type":"Feature","geometry":{"type":"Polygon","coordinates":[[[77.596006,28.343935],[77.595883,28.343946],[77.595866,28.343765],[77.595989,28.343754],[77.596006,28.343935]]]},"properties":{"objectid":2300,"uniqueplotid":"PLNGRESIDENTIAL2300","plotmap_id":"SECTOR-17_212_A_RESI","plotidentificationnumber":"212","plotno":"212","industrysector":"SECTOR-17","block":"A","plotsize":"200 SQMT","plotsize_at_the_time_of_allotme":"200 SQMT","landuse_type":"RESIDENTIAL","landuse_subcategory":"RESIDENTIAL","scheme_cod":"RPS03","investment":0,"employment":0,"plotstatus":"Allotted","landallotementstatus":"SOLD","landallotementtype":"ALLOTTED","allotmentid":"RPS033087","allotment_date":1464114600000,"rate_of_allotment":15620,"lease_deed":"N","village_name":"Dhanauri","khasra_no":"497","longitude":77.59593514,"latitude":28.343849400000003,"authority":"YEIDA","category":"residential","execution_stage":"allotted"}},{"type":"Feature","geometry":{"type":"Polygon","coordinates":[[[77.596039,28.344279],[77.595916,28.34429],[77.595898,28.344109],[77.596022,28.344098],[77.596039,28.344279]]]},"properties":{"objectid":2302,"uniqueplotid":"PLNGRESIDENTIAL2302","plotmap_id":"SECTOR-17_213_A_RESI","plotidentificationnumber":"213","plotno":"213","industrysector":"SECTOR-17","block":"A","plotsize":"200 SQMT","plotsize_at_the_time_of_allotme":"200 SQMT","landuse_type":"RESIDENTIAL","landuse_subcategory":"RESIDENTIAL","scheme_cod":"RPS03","investment":0,"employment":0,"plotstatus":"Allotted","landallotementstatus":"SOLD","landallotementtype":"ALLOTTED","allotmentid":"RPS033160","allotment_date":1464114600000,"rate_of_allotment":15620,"lease_deed":"N","village_name":"Dhanauri","khasra_no":"498,497","longitude":77.59596995,"latitude":28.34419575,"authority":"YEIDA","category":"residential","execution_stage":"allotted"}},{"type":"Feature","geometry":{"type":"Polygon","coordinates":[[[77.595916,28.34429],[77.595813,28.3443],[77.595796,28.344119],[77.595898,28.344109],[77.595916,28.34429]]]},"properties":{"objectid":2303,"uniqueplotid":"PLNGRESIDENTIAL2303","plotmap_id":"SECTOR-17_214_A_RESI","plotidentificationnumber":"214","plotno":"214","industrysector":"SECTOR-17","block":"A","plotsize":"200 SQMT","plotsize_at_the_time_of_allotme":"200 SQMT","landuse_type":"RESIDENTIAL","landuse_subcategory":"RESIDENTIAL","scheme_cod":"RPS03","investment":0,"employment":0,"plotstatus":"Allotted","landallotementstatus":"SOLD","landallotementtype":"ALLOTTED","allotmentid":"RPS033186","allotment_date":1464114600000,"rate_of_allotment":15620,"lease_deed":"N","village_name":"Dhanauri","khasra_no":"497","longitude":77.59585563,"latitude":28.34420464,"authority":"YEIDA","category":"residential","execution_stage":"allotted"}},{"type":"Feature","geometry":{"type":"Polygon","coordinates":[[[77.595933,28.344471],[77.59583,28.344481],[77.595813,28.3443],[77.595916,28.34429],[77.595933,28.344471]]]},"properties":{"objectid":2336,"uniqueplotid":"PLNGRESIDENTIAL2336","plotmap_id":"SECTOR-17_247_A_RESI","plotidentificationnumber":"247","plotno":"247","industrysector":"SECTOR-17","block":"A","plotsize":"200 SQMT","plotsize_at_the_time_of_allotme":"200 SQMT","landuse_type":"RESIDENTIAL","landuse_subcategory":"RESIDENTIAL","scheme_cod":"RPS03","investment":0,"employment":0,"plotstatus":"Allotted","landallotementstatus":"SOLD","landallotementtype":"ALLOTTED","allotmentid":"RPS033306","allotment_date":1464114600000,"rate_of_allotment":15620,"lease_deed":"N","village_name":"Dhanauri","khasra_no":"498,495,497","longitude":77.5958729,"latitude":28.34438567,"authority":"YEIDA","category":"residential","execution_stage":"allotted"}},{"type":"Feature","geometry":{"type":"Polygon","coordinates":[[[77.596056,28.34446],[77.595933,28.344471],[77.595916,28.34429],[77.596039,28.344279],[77.596056,28.34446]]]},"properties":{"objectid":2337,"uniqueplotid":"PLNGRESIDENTIAL2337","plotmap_id":"SECTOR-17_248_A_RESI","plotidentificationnumber":"248","plotno":"248","industrysector":"SECTOR-17","block":"A","plotsize":"200 SQMT","plotsize_at_the_time_of_allotme":"200 SQMT","landuse_type":"RESIDENTIAL","landuse_subcategory":"RESIDENTIAL","scheme_cod":"RPS03","investment":0,"employment":0,"plotstatus":"Allotted","landallotementstatus":"SOLD","landallotementtype":"ALLOTTED","allotmentid":"RPS033091","allotment_date":1464114600000,"rate_of_allotment":15620,"lease_deed":"N","village_name":"Dhanauri","khasra_no":"498,497","longitude":77.59598302,"latitude":28.34437172,"authority":"YEIDA","category":"residential","execution_stage":"allotted"}},{"type":"Feature","geometry":{"type":"Polygon","coordinates":[[[77.596075,28.344659],[77.59587,28.344678],[77.595861,28.344588],[77.596067,28.344569],[77.596075,28.344659]]]},"properties":{"objectid":2338,"uniqueplotid":"PLNGRESIDENTIAL2338","plotmap_id":"SECTOR-17_249_A_RESI","plotidentificationnumber":"249","plotno":"249","industrysector":"SECTOR-17","block":"A","plotsize":"200 SQMT","plotsize_at_the_time_of_allotme":"200 SQMT","landuse_type":"RESIDENTIAL","landuse_subcategory":"RESIDENTIAL","scheme_cod":"RPS03","investment":0,"employment":0,"plotstatus":"Allotted","landallotementstatus":"SOLD","landallotementtype":"ALLOTTED","allotmentid":"RPS033015","allotment_date":1464114600000,"rate_of_allotment":15620,"lease_deed":"N","village_name":"Dhanauri","khasra_no":"498,495","longitude":77.59596121,"latitude":28.34462109,"authority":"YEIDA","category":"residential","execution_stage":"allotted"}},{"type":"Feature","geometry":{"type":"Polygon","coordinates":[[[77.596084,28.34475],[77.595878,28.344769],[77.59587,28.344678],[77.596075,28.344659],[77.596084,28.34475]]]},"properties":{"objectid":2339,"uniqueplotid":"PLNGRESIDENTIAL2339","plotmap_id":"SECTOR-17_250_A_RESI","plotidentificationnumber":"250","plotno":"250","industrysector":"SECTOR-17","block":"A","plotsize":"200 SQMT","plotsize_at_the_time_of_allotme":"200 SQMT","landuse_type":"RESIDENTIAL","landuse_subcategory":"RESIDENTIAL","scheme_cod":"RPS03","investment":0,"employment":0,"plotstatus":"Allotted","landallotementstatus":"SOLD","landallotementtype":"ALLOTTED","allotmentid":"RPS033074","allotment_date":1464114600000,"rate_of_allotment":15620,"lease_deed":"N","village_name":"Dhanauri","khasra_no":"498,495","longitude":77.59597678,"latitude":28.34471391,"authority":"YEIDA","category":"residential","execution_stage":"allotted"}},{"type":"Feature","geometry":{"type":"Polygon","coordinates":[[[77.596092,28.34484],[77.595887,28.344859],[77.595878,28.344769],[77.596084,28.34475],[77.596092,28.34484]]]},"properties":{"objectid":2340,"uniqueplotid":"PLNGRESIDENTIAL2340","plotmap_id":"SECTOR-17_251_A_RESI","plotidentificationnumber":"251","plotno":"251","industrysector":"SECTOR-17","block":"A","plotsize":"200 SQMT","plotsize_at_the_time_of_allotme":"200 SQMT","landuse_type":"RESIDENTIAL","landuse_subcategory":"RESIDENTIAL","scheme_cod":"RPS03","investment":0,"employment":0,"plotstatus":"Allotted","landallotementstatus":"SOLD","landallotementtype":"ALLOTTED","allotmentid":"RPS033284","allotment_date":1464114600000,"rate_of_allotment":15620,"lease_deed":"N","village_name":"Dhanauri","khasra_no":"495","longitude":77.59598542,"latitude":28.34480443,"authority":"YEIDA","category":"residential","execution_stage":"allotted"}},{"type":"Feature","geometry":{"type":"Polygon","coordinates":[[[77.596101,28.344931],[77.595896,28.34495],[77.595887,28.344859],[77.596092,28.34484],[77.596101,28.344931]]]},"properties":{"objectid":2341,"uniqueplotid":"PLNGRESIDENTIAL2341","plotmap_id":"SECTOR-17_252_A_RESI","plotidentificationnumber":"252","plotno":"252","industrysector":"SECTOR-17","block":"A","plotsize":"200 SQMT","plotsize_at_the_time_of_allotme":"200 SQMT","landuse_type":"RESIDENTIAL","landuse_subcategory":"RESIDENTIAL","scheme_cod":"RPS07","investment":0,"employment":0,"plotstatus":"Allotted","landallotementstatus":"SOLD","landallotementtype":"ALLOTTED","allotmentid":"RPS071485","allotment_date":1698777000000,"rate_of_allotment":24900,"lease_deed":"N","village_name":"Dhanauri","khasra_no":"495","longitude":77.59599405,"latitude":28.34489494,"authority":"YEIDA","category":"residential","execution_stage":"allotted"}},{"type":"Feature","geometry":{"type":"Polygon","coordinates":[[[77.59611,28.345021],[77.595904,28.34504],[77.595896,28.34495],[77.596101,28.344931],[77.59611,28.345021]]]},"properties":{"objectid":2342,"uniqueplotid":"PLNGRESIDENTIAL2342","plotmap_id":"SECTOR-17_253_A_RESI","plotidentificationnumber":"253","plotno":"253","industrysector":"SECTOR-17","block":"A","plotsize":"200 SQMT","plotsize_at_the_time_of_allotme":"200 SQMT","landuse_type":"RESIDENTIAL","landuse_subcategory":"RESIDENTIAL","scheme_cod":"RPS07","investment":0,"employment":0,"plotstatus":"Allotted","landallotementstatus":"SOLD","landallotementtype":"ALLOTTED","allotmentid":"RPS071467","allotment_date":1698777000000,"rate_of_allotment":24900,"lease_deed":"N","village_name":"Dhanauri","khasra_no":"495","longitude":77.59600269,"latitude":28.34498546,"authority":"YEIDA","category":"residential","execution_stage":"allotted"}},{"type":"Feature","geometry":{"type":"Polygon","coordinates":[[[77.596118,28.345112],[77.595913,28.345131],[77.595904,28.34504],[77.59611,28.345021],[77.596118,28.345112]]]},"properties":{"objectid":2343,"uniqueplotid":"PLNGRESIDENTIAL2343","plotmap_id":"SECTOR-17_254_A_RESI","plotidentificationnumber":"254","plotno":"254","industrysector":"SECTOR-17","block":"A","plotsize":"200 SQMT","plotsize_at_the_time_of_allotme":"200 SQMT","landuse_type":"RESIDENTIAL","landuse_subcategory":"RESIDENTIAL","scheme_cod":"RPS07","investment":0,"employment":0,"plotstatus":"Allotted","landallotementstatus":"SOLD","landallotementtype":"ALLOTTED","allotmentid":"RPS071770","allotment_date":1698777000000,"rate_of_allotment":24900,"lease_deed":"N","village_name":"Dhanauri","khasra_no":"495,504,503","longitude":77.59601133000001,"latitude":28.34507597,"authority":"YEIDA","category":"residential","execution_stage":"allotted"}},{"type":"Feature","geometry":{"type":"Polygon","coordinates":[[[77.596127,28.345202],[77.595922,28.345221],[77.595913,28.345131],[77.596118,28.345112],[77.596127,28.345202]]]},"properties":{"objectid":2344,"uniqueplotid":"PLNGRESIDENTIAL2344","plotmap_id":"SECTOR-17_255_A_RESI","plotidentificationnumber":"255","plotno":"255","industrysector":"SECTOR-17","block":"A","plotsize":"200 SQMT","plotsize_at_the_time_of_allotme":"200 SQMT","landuse_type":"RESIDENTIAL","landuse_subcategory":"RESIDENTIAL","scheme_cod":"RPS07","investment":0,"employment":0,"plotstatus":"Allotted","landallotementstatus":"SOLD","landallotementtype":"ALLOTTED","allotmentid":"RPS071885","allotment_date":1698777000000,"rate_of_allotment":24900,"lease_deed":"N","village_name":"Dhanauri","khasra_no":"495,504,503","longitude":77.59601997,"latitude":28.34516648,"authority":"YEIDA","category":"residential","execution_stage":"allotted"}},{"type":"Feature","geometry":{"type":"Polygon","coordinates":[[[77.596136,28.345293],[77.59593,28.345312],[77.595922,28.345221],[77.596127,28.345202],[77.596136,28.345293]]]},"properties":{"objectid":2345,"uniqueplotid":"PLNGRESIDENTIAL2345","plotmap_id":"SECTOR-17_256_A_RESI","plotidentificationnumber":"256","plotno":"256","industrysector":"SECTOR-17","block":"A","plotsize":"200 SQMT","plotsize_at_the_time_of_allotme":"200 SQMT","landuse_type":"RESIDENTIAL","landuse_subcategory":"RESIDENTIAL","scheme_cod":"RRPS04","investment":0,"employment":0,"plotstatus":"Allotted","landallotementstatus":"SOLD","landallotementtype":"ALLOTTED","allotmentid":"RRPS041672","allotment_date":1605205800000,"rate_of_allotment":16870,"lease_deed":"N","village_name":"Dhanauri","khasra_no":"504","longitude":77.5960286,"latitude":28.345257,"authority":"YEIDA","category":"residential","execution_stage":"allotted"}},{"type":"Feature","geometry":{"type":"Polygon","coordinates":[[[77.596144,28.345383],[77.595939,28.345402],[77.59593,28.345312],[77.596136,28.345293],[77.596144,28.345383]]]},"properties":{"objectid":2346,"uniqueplotid":"PLNGRESIDENTIAL2346","plotmap_id":"SECTOR-17_257_A_RESI","plotidentificationnumber":"257","plotno":"257","industrysector":"SECTOR-17","block":"A","plotsize":"200 SQMT","plotsize_at_the_time_of_allotme":"200 SQMT","landuse_type":"RESIDENTIAL","landuse_subcategory":"RESIDENTIAL","scheme_cod":"RRPS04","investment":0,"employment":0,"plotstatus":"Allotted","landallotementstatus":"SOLD","landallotementtype":"ALLOTTED","allotmentid":"RRPS041681","allotment_date":1605205800000,"rate_of_allotment":16870,"lease_deed":"N","village_name":"Dhanauri","khasra_no":"504,494","longitude":77.5960194,"latitude":28.34534155,"authority":"YEIDA","category":"residential","execution_stage":"allotted"}},{"type":"Feature","geometry":{"type":"Polygon","coordinates":[[[77.595939,28.345402],[77.595733,28.345421],[77.595725,28.345331],[77.59593,28.345312],[77.595939,28.345402]]]},"properties":{"objectid":2347,"uniqueplotid":"PLNGRESIDENTIAL2347","plotmap_id":"SECTOR-17_258_A_RESI","plotidentificationnumber":"258","plotno":"258","industrysector":"SECTOR-17","block":"A","plotsize":"200 SQMT","plotsize_at_the_time_of_allotme":"200 SQMT","landuse_type":"RESIDENTIAL","landuse_subcategory":"RESIDENTIAL","scheme_cod":"RRPS04","investment":0,"employment":0,"plotstatus":"Allotted","landallotementstatus":"SOLD","landallotementtype":"ALLOTTED","allotmentid":"RRPS041671","allotment_date":1605205800000,"rate_of_allotment":16870,"lease_deed":"N","village_name":"Dhanauri","khasra_no":"493,504,494","longitude":77.59583175,"latitude":28.345366520000002,"authority":"YEIDA","category":"residential","execution_stage":"allotted"}},{"type":"Feature","geometry":{"type":"Polygon","coordinates":[[[77.595946,28.345694],[77.595843,28.345703],[77.595826,28.345522],[77.595929,28.345513],[77.595946,28.345694]]]},"properties":{"objectid":2389,"uniqueplotid":"PLNGRESIDENTIAL2389","plotmap_id":"SECTOR-17_300_A_RESI","plotidentificationnumber":"300","plotno":"300","industrysector":"SECTOR-17","block":"A","plotsize":"200 SQMT","plotsize_at_the_time_of_allotme":"200 SQMT","landuse_type":"RESIDENTIAL","landuse_subcategory":"RESIDENTIAL","scheme_cod":"RRPS04","investment":0,"employment":0,"plotstatus":"Allotted","landallotementstatus":"SOLD","landallotementtype":"ALLOTTED","allotmentid":"RRPS041691","allotment_date":1605205800000,"rate_of_allotment":16870,"lease_deed":"N","village_name":"Dhanauri","khasra_no":"493","longitude":77.5958859,"latitude":28.345608050000003,"authority":"YEIDA","category":"residential","execution_stage":"allotted"}},{"type":"Feature","geometry":{"type":"Polygon","coordinates":[[[77.596049,28.345684],[77.595946,28.345694],[77.595929,28.345513],[77.596031,28.345503],[77.596049,28.345684]]]},"properties":{"objectid":2390,"uniqueplotid":"PLNGRESIDENTIAL2390","plotmap_id":"SECTOR-17_301_A_RESI","plotidentificationnumber":"301","plotno":"301","industrysector":"SECTOR-17","block":"A","plotsize":"200 SQMT","plotsize_at_the_time_of_allotme":"200 SQMT","landuse_type":"RESIDENTIAL","landuse_subcategory":"RESIDENTIAL","scheme_cod":"RRPS04","investment":0,"employment":0,"plotstatus":"Allotted","landallotementstatus":"SOLD","landallotementtype":"ALLOTTED","allotmentid":"RRPS041700","allotment_date":1605205800000,"rate_of_allotment":16870,"lease_deed":"N","village_name":"Dhanauri","khasra_no":"493,494","longitude":77.59598864,"latitude":28.345598550000002,"authority":"YEIDA","category":"residential","execution_stage":"allotted"}},{"type":"Feature","geometry":{"type":"Polygon","coordinates":[[[77.596172,28.345673],[77.596049,28.345684],[77.596031,28.345503],[77.596155,28.345492],[77.596172,28.345673]]]},"properties":{"objectid":2391,"uniqueplotid":"PLNGRESIDENTIAL2391","plotmap_id":"SECTOR-17_302_A_RESI","plotidentificationnumber":"302","plotno":"302","industrysector":"SECTOR-17","block":"A","plotsize":"200 SQMT","plotsize_at_the_time_of_allotme":"200 SQMT","landuse_type":"RESIDENTIAL","landuse_subcategory":"RESIDENTIAL","scheme_cod":"RRPS04","investment":0,"employment":0,"plotstatus":"Allotted","landallotementstatus":"SOLD","landallotementtype":"ALLOTTED","allotmentid":"RRPS041701","allotment_date":1605205800000,"rate_of_allotment":16870,"lease_deed":"N","village_name":"Dhanauri","khasra_no":"493,504,494","longitude":77.59610166,"latitude":28.34558809,"authority":"YEIDA","category":"residential","execution_stage":"allotted"}},{"type":"Feature","geometry":{"type":"Polygon","coordinates":[[[77.596189,28.345854],[77.596066,28.345865],[77.596049,28.345684],[77.596172,28.345673],[77.596189,28.345854]]]},"properties":{"objectid":2392,"uniqueplotid":"PLNGRESIDENTIAL2392","plotmap_id":"SECTOR-17_303_A_RESI","plotidentificationnumber":"303","plotno":"303","industrysector":"SECTOR-17","block":"A","plotsize":"200 SQMT","plotsize_at_the_time_of_allotme":"200 SQMT","landuse_type":"RESIDENTIAL","landuse_subcategory":"RESIDENTIAL","scheme_cod":"RPS07","investment":0,"employment":0,"plotstatus":"Allotted","landallotementstatus":"SOLD","landallotementtype":"ALLOTTED","allotmentid":"RPS071472","allotment_date":1698777000000,"rate_of_allotment":24900,"lease_deed":"N","village_name":"Dhanauri","khasra_no":"493,494","longitude":77.59611893,"latitude":28.34576912,"authority":"YEIDA","category":"residential","execution_stage":"allotted"}},{"type":"Feature","geometry":{"type":"Polygon","coordinates":[[[77.596066,28.345865],[77.595963,28.345875],[77.595946,28.345694],[77.596049,28.345684],[77.596066,28.345865]]]},"properties":{"objectid":2393,"uniqueplotid":"PLNGRESIDENTIAL2393","plotmap_id":"SECTOR-17_304_A_RESI","plotidentificationnumber":"304","plotno":"304","industrysector":"SECTOR-17","block":"A","plotsize":"200 SQMT","plotsize_at_the_time_of_allotme":"200 SQMT","landuse_type":"RESIDENTIAL","landuse_subcategory":"RESIDENTIAL","scheme_cod":"RRPS04","investment":0,"employment":0,"plotstatus":"Allotted","landallotementstatus":"SOLD","landallotementtype":"ALLOTTED","allotmentid":"RRPS041668","allotment_date":1605205800000,"rate_of_allotment":16870,"lease_deed":"N","village_name":"Dhanauri","khasra_no":"493","longitude":77.59600591,"latitude":28.34577957,"authority":"YEIDA","category":"residential","execution_stage":"allotted"}},{"type":"Feature","geometry":{"type":"Polygon","coordinates":[[[77.595963,28.345875],[77.59586,28.345884],[77.595843,28.345703],[77.595946,28.345694],[77.595963,28.345875]]]},"properties":{"objectid":2394,"uniqueplotid":"PLNGRESIDENTIAL2394","plotmap_id":"SECTOR-17_305_A_RESI","plotidentificationnumber":"305","plotno":"305","industrysector":"SECTOR-17","block":"A","plotsize":"200 SQMT","plotsize_at_the_time_of_allotme":"200 SQMT","landuse_type":"RESIDENTIAL","landuse_subcategory":"RESIDENTIAL","scheme_cod":"RRPS04","investment":0,"employment":0,"plotstatus":"Allotted","landallotementstatus":"SOLD","landallotementtype":"ALLOTTED","allotmentid":"RRPS041704","allotment_date":1605205800000,"rate_of_allotment":16870,"lease_deed":"Y","village_name":"Dhanauri","khasra_no":"493,492","longitude":77.59590317,"latitude":28.34578908,"authority":"YEIDA","category":"residential","execution_stage":"lease-recorded"}},{"type":"Feature","geometry":{"type":"Polygon","coordinates":[[[77.596258,28.346571],[77.596052,28.34659],[77.59604,28.346467],[77.596246,28.346448],[77.596258,28.346571]]]},"properties":{"objectid":2416,"uniqueplotid":"PLNGRESIDENTIAL2416","plotmap_id":"SECTOR-17_327_A_RESI","plotidentificationnumber":"327","plotno":"327","industrysector":"SECTOR-17","block":"A","plotsize":"200 SQMT","plotsize_at_the_time_of_allotme":"200 SQMT","landuse_type":"RESIDENTIAL","landuse_subcategory":"RESIDENTIAL","scheme_cod":"RPS03","investment":0,"employment":0,"plotstatus":"Allotted","landallotementstatus":"SOLD","landallotementtype":"ALLOTTED","allotmentid":"RPS033002","allotment_date":1464114600000,"rate_of_allotment":15620,"lease_deed":"N","village_name":"Dhanauri","khasra_no":"357,359","longitude":77.59614899,"latitude":28.34651861,"authority":"YEIDA","category":"residential","execution_stage":"allotted"}},{"type":"Feature","geometry":{"type":"Polygon","coordinates":[[[77.596246,28.346448],[77.59604,28.346467],[77.596032,28.346376],[77.596237,28.346357],[77.596246,28.346448]]]},"properties":{"objectid":2417,"uniqueplotid":"PLNGRESIDENTIAL2417","plotmap_id":"SECTOR-17_328_A_RESI","plotidentificationnumber":"328","plotno":"328","industrysector":"SECTOR-17","block":"A","plotsize":"200 SQMT","plotsize_at_the_time_of_allotme":"200 SQMT","landuse_type":"RESIDENTIAL","landuse_subcategory":"RESIDENTIAL","scheme_cod":"RPS03","investment":0,"employment":0,"plotstatus":"Allotted","landallotementstatus":"SOLD","landallotementtype":"ALLOTTED","allotmentid":"RPS033151","allotment_date":1464114600000,"rate_of_allotment":15620,"lease_deed":"N","village_name":"Dhanauri","khasra_no":"357,359","longitude":77.5961388,"latitude":28.34641185,"authority":"YEIDA","category":"residential","execution_stage":"allotted"}},{"type":"Feature","geometry":{"type":"Polygon","coordinates":[[[77.596237,28.346357],[77.596032,28.346376],[77.596023,28.346286],[77.596229,28.346267],[77.596237,28.346357]]]},"properties":{"objectid":2418,"uniqueplotid":"PLNGRESIDENTIAL2418","plotmap_id":"SECTOR-17_329_A_RESI","plotidentificationnumber":"329","plotno":"329","industrysector":"SECTOR-17","block":"A","plotsize":"200 SQMT","plotsize_at_the_time_of_allotme":"200 SQMT","landuse_type":"RESIDENTIAL","landuse_subcategory":"RESIDENTIAL","scheme_cod":"RPS03","investment":0,"employment":0,"plotstatus":"Allotted","landallotementstatus":"SOLD","landallotementtype":"ALLOTTED","allotmentid":"RPS033147","allotment_date":1464114600000,"rate_of_allotment":15620,"lease_deed":"N","village_name":"Dhanauri","khasra_no":"357,359","longitude":77.59613017000001,"latitude":28.34632134,"authority":"YEIDA","category":"residential","execution_stage":"allotted"}},{"type":"Feature","geometry":{"type":"Polygon","coordinates":[[[77.596229,28.346267],[77.596023,28.346286],[77.596014,28.346195],[77.59622,28.346176],[77.596229,28.346267]]]},"properties":{"objectid":2419,"uniqueplotid":"PLNGRESIDENTIAL2419","plotmap_id":"SECTOR-17_330_A_RESI","plotidentificationnumber":"330","plotno":"330","industrysector":"SECTOR-17","block":"A","plotsize":"200 SQMT","plotsize_at_the_time_of_allotme":"200 SQMT","landuse_type":"RESIDENTIAL","landuse_subcategory":"RESIDENTIAL","scheme_cod":"RPS03","investment":0,"employment":0,"plotstatus":"Allotted","landallotementstatus":"SOLD","landallotementtype":"ALLOTTED","allotmentid":"RPS033195","allotment_date":1464114600000,"rate_of_allotment":15620,"lease_deed":"N","village_name":"Dhanauri","khasra_no":"357,359","longitude":77.59612153,"latitude":28.34623082,"authority":"YEIDA","category":"residential","execution_stage":"allotted"}},{"type":"Feature","geometry":{"type":"Polygon","coordinates":[[[77.59622,28.346176],[77.596014,28.346195],[77.596006,28.346105],[77.596211,28.346086],[77.59622,28.346176]]]},"properties":{"objectid":2420,"uniqueplotid":"PLNGRESIDENTIAL2420","plotmap_id":"SECTOR-17_331_A_RESI","plotidentificationnumber":"331","plotno":"331","industrysector":"SECTOR-17","block":"A","plotsize":"200 SQMT","plotsize_at_the_time_of_allotme":"200 SQMT","landuse_type":"RESIDENTIAL","landuse_subcategory":"RESIDENTIAL","scheme_cod":"RPS03","investment":0,"employment":0,"plotstatus":"Allotted","landallotementstatus":"SOLD","landallotementtype":"ALLOTTED","allotmentid":"RPS033308","allotment_date":1464114600000,"rate_of_allotment":15620,"lease_deed":"N","village_name":"Dhanauri","khasra_no":"357,360,359","longitude":77.59611289,"latitude":28.34614031,"authority":"YEIDA","category":"residential","execution_stage":"allotted"}},{"type":"Feature","geometry":{"type":"Polygon","coordinates":[[[77.596211,28.346086],[77.596006,28.346105],[77.595994,28.345982],[77.5962,28.345963],[77.596211,28.346086]]]},"properties":{"objectid":2421,"uniqueplotid":"PLNGRESIDENTIAL2421","plotmap_id":"SECTOR-17_332_A_RESI","plotidentificationnumber":"332","plotno":"332","industrysector":"SECTOR-17","block":"A","plotsize":"200 SQMT","plotsize_at_the_time_of_allotme":"200 SQMT","landuse_type":"RESIDENTIAL","landuse_subcategory":"RESIDENTIAL","scheme_cod":"RPS03","investment":0,"employment":0,"plotstatus":"Allotted","landallotementstatus":"SOLD","landallotementtype":"ALLOTTED","allotmentid":"RPS033146","allotment_date":1464114600000,"rate_of_allotment":15620,"lease_deed":"N","village_name":"Dhanauri","khasra_no":"493,492,360","longitude":77.5961027,"latitude":28.34603355,"authority":"YEIDA","category":"residential","execution_stage":"allotted"}},{"type":"Feature","geometry":{"type":"Polygon","coordinates":[[[77.596473,28.345353],[77.596268,28.345372],[77.596257,28.345263],[77.596463,28.345244],[77.596473,28.345353]]]},"properties":{"objectid":2458,"uniqueplotid":"PLNGRESIDENTIAL2458","plotmap_id":"SECTOR-17_369_A_RESI","plotidentificationnumber":"369","plotno":"369","industrysector":"SECTOR-17","block":"A","plotsize":"200 SQMT","plotsize_at_the_time_of_allotme":"200 SQMT","landuse_type":"RESIDENTIAL","landuse_subcategory":"RESIDENTIAL","scheme_cod":"RRPS04","investment":0,"employment":0,"plotstatus":"Allotted","landallotementstatus":"SOLD","landallotementtype":"ALLOTTED","allotmentid":"RRPS041676","allotment_date":1605205800000,"rate_of_allotment":16870,"lease_deed":"N","village_name":"Dhanauri","khasra_no":"504","longitude":77.59637151,"latitude":28.345310660000003,"authority":"YEIDA","category":"residential","execution_stage":"allotted"}},{"type":"Feature","geometry":{"type":"Polygon","coordinates":[[[77.596463,28.345244],[77.596257,28.345263],[77.596249,28.345173],[77.596454,28.345154],[77.596463,28.345244]]]},"properties":{"objectid":2459,"uniqueplotid":"PLNGRESIDENTIAL2459","plotmap_id":"SECTOR-17_370_A_RESI","plotidentificationnumber":"370","plotno":"370","industrysector":"SECTOR-17","block":"A","plotsize":"200 SQMT","plotsize_at_the_time_of_allotme":"200 SQMT","landuse_type":"RESIDENTIAL","landuse_subcategory":"RESIDENTIAL","scheme_cod":"RPS03","investment":0,"employment":0,"plotstatus":"Allotted","landallotementstatus":"SOLD","landallotementtype":"ALLOTTED","allotmentid":"RPS033305","allotment_date":1464114600000,"rate_of_allotment":15620,"lease_deed":"N","village_name":"Dhanauri","khasra_no":"504","longitude":77.59635569,"latitude":28.34520847,"authority":"YEIDA","category":"residential","execution_stage":"allotted"}},{"type":"Feature","geometry":{"type":"Polygon","coordinates":[[[77.596454,28.345154],[77.596249,28.345173],[77.59624,28.345082],[77.596445,28.345063],[77.596454,28.345154]]]},"properties":{"objectid":2460,"uniqueplotid":"PLNGRESIDENTIAL2460","plotmap_id":"SECTOR-17_371_A_RESI","plotidentificationnumber":"371","plotno":"371","industrysector":"SECTOR-17","block":"A","plotsize":"200 SQMT","plotsize_at_the_time_of_allotme":"200 SQMT","landuse_type":"RESIDENTIAL","landuse_subcategory":"RESIDENTIAL","scheme_cod":"RPS03","investment":0,"employment":0,"plotstatus":"Allotted","landallotementstatus":"SOLD","landallotementtype":"ALLOTTED","allotmentid":"RPS033161","allotment_date":1464114600000,"rate_of_allotment":15620,"lease_deed":"N","village_name":"Dhanauri","khasra_no":"504","longitude":77.59634705,"latitude":28.34511796,"authority":"YEIDA","category":"residential","execution_stage":"allotted"}},{"type":"Feature","geometry":{"type":"Polygon","coordinates":[[[77.596445,28.345063],[77.59624,28.345082],[77.596231,28.344992],[77.596437,28.344973],[77.596445,28.345063]]]},"properties":{"objectid":2461,"uniqueplotid":"PLNGRESIDENTIAL2461","plotmap_id":"SECTOR-17_372_A_RESI","plotidentificationnumber":"372","plotno":"372","industrysector":"SECTOR-17","block":"A","plotsize":"200 SQMT","plotsize_at_the_time_of_allotme":"200 SQMT","landuse_type":"RESIDENTIAL","landuse_subcategory":"RESIDENTIAL","scheme_cod":"RPS03","investment":0,"employment":0,"plotstatus":"Allotted","landallotementstatus":"SOLD","landallotementtype":"ALLOTTED","allotmentid":"RPS033098","allotment_date":1464114600000,"rate_of_allotment":15620,"lease_deed":"N","village_name":"Dhanauri","khasra_no":"504","longitude":77.59633842,"latitude":28.34502745,"authority":"YEIDA","category":"residential","execution_stage":"allotted"}},{"type":"Feature","geometry":{"type":"Polygon","coordinates":[[[77.596437,28.344973],[77.596231,28.344992],[77.596223,28.344901],[77.596428,28.344882],[77.596437,28.344973]]]},"properties":{"objectid":2462,"uniqueplotid":"PLNGRESIDENTIAL2462","plotmap_id":"SECTOR-17_373_A_RESI","plotidentificationnumber":"373","plotno":"373","industrysector":"SECTOR-17","block":"A","plotsize":"200 SQMT","plotsize_at_the_time_of_allotme":"200 SQMT","landuse_type":"RESIDENTIAL","landuse_subcategory":"RESIDENTIAL","scheme_cod":"RPS03","investment":0,"employment":0,"plotstatus":"Allotted","landallotementstatus":"SOLD","landallotementtype":"ALLOTTED","allotmentid":"RPS033126","allotment_date":1464114600000,"rate_of_allotment":15620,"lease_deed":"N","village_name":"Dhanauri","khasra_no":"498,495,504,503","longitude":77.59632978,"latitude":28.34493693,"authority":"YEIDA","category":"residential","execution_stage":"allotted"}},{"type":"Feature","geometry":{"type":"Polygon","coordinates":[[[77.596428,28.344882],[77.596223,28.344901],[77.596214,28.344811],[77.59642,28.344792],[77.596428,28.344882]]]},"properties":{"objectid":2463,"uniqueplotid":"PLNGRESIDENTIAL2463","plotmap_id":"SECTOR-17_374_A_RESI","plotidentificationnumber":"374","plotno":"374","industrysector":"SECTOR-17","block":"A","plotsize":"200 SQMT","plotsize_at_the_time_of_allotme":"200 SQMT","landuse_type":"RESIDENTIAL","landuse_subcategory":"RESIDENTIAL","scheme_cod":"RPS03","investment":0,"employment":0,"plotstatus":"Allotted","landallotementstatus":"SOLD","landallotementtype":"ALLOTTED","allotmentid":"RPS033113","allotment_date":1464114600000,"rate_of_allotment":15620,"lease_deed":"N","village_name":"Dhanauri","khasra_no":"498,495,504,503","longitude":77.59632114,"latitude":28.34484642,"authority":"YEIDA","category":"residential","execution_stage":"allotted"}},{"type":"Feature","geometry":{"type":"Polygon","coordinates":[[[77.59642,28.344792],[77.596214,28.344811],[77.596205,28.34472],[77.596411,28.344701],[77.59642,28.344792]]]},"properties":{"objectid":2464,"uniqueplotid":"PLNGRESIDENTIAL2464","plotmap_id":"SECTOR-17_375_A_RESI","plotidentificationnumber":"375","plotno":"375","industrysector":"SECTOR-17","block":"A","plotsize":"200 SQMT","plotsize_at_the_time_of_allotme":"200 SQMT","landuse_type":"RESIDENTIAL","landuse_subcategory":"RESIDENTIAL","scheme_cod":"RPS03","investment":0,"employment":0,"plotstatus":"Allotted","landallotementstatus":"SOLD","landallotementtype":"ALLOTTED","allotmentid":"RPS033164","allotment_date":1464114600000,"rate_of_allotment":15620,"lease_deed":"N","village_name":"Dhanauri","khasra_no":"498","longitude":77.59631614999999,"latitude":28.34475712,"authority":"YEIDA","category":"residential","execution_stage":"allotted"}},{"type":"Feature","geometry":{"type":"Polygon","coordinates":[[[77.596411,28.344701],[77.596205,28.34472],[77.596197,28.34463],[77.596402,28.344611],[77.596411,28.344701]]]},"properties":{"objectid":2465,"uniqueplotid":"PLNGRESIDENTIAL2465","plotmap_id":"SECTOR-17_376_A_RESI","plotidentificationnumber":"376","plotno":"376","industrysector":"SECTOR-17","block":"A","plotsize":"200 SQMT","plotsize_at_the_time_of_allotme":"200 SQMT","landuse_type":"RESIDENTIAL","landuse_subcategory":"RESIDENTIAL","scheme_cod":"RPS03","investment":0,"employment":0,"plotstatus":"Allotted","landallotementstatus":"SOLD","landallotementtype":"ALLOTTED","allotmentid":"RPS033152","allotment_date":1464114600000,"rate_of_allotment":15620,"lease_deed":"N","village_name":"Dhanauri","khasra_no":"498","longitude":77.59630722,"latitude":28.34466651,"authority":"YEIDA","category":"residential","execution_stage":"allotted"}},{"type":"Feature","geometry":{"type":"Polygon","coordinates":[[[77.596402,28.344611],[77.596197,28.34463],[77.596188,28.344539],[77.596394,28.34452],[77.596402,28.344611]]]},"properties":{"objectid":2466,"uniqueplotid":"PLNGRESIDENTIAL2466","plotmap_id":"SECTOR-17_377_A_RESI","plotidentificationnumber":"377","plotno":"377","industrysector":"SECTOR-17","block":"A","plotsize":"200 SQMT","plotsize_at_the_time_of_allotme":"200 SQMT","landuse_type":"RESIDENTIAL","landuse_subcategory":"RESIDENTIAL","scheme_cod":"RPS03","investment":0,"employment":0,"plotstatus":"Allotted","landallotementstatus":"SOLD","landallotementtype":"ALLOTTED","allotmentid":"RPS033304","allotment_date":1464114600000,"rate_of_allotment":15620,"lease_deed":"N","village_name":"Dhanauri","khasra_no":"498","longitude":77.59629523,"latitude":28.34457488,"authority":"YEIDA","category":"residential","execution_stage":"allotted"}},{"type":"Feature","geometry":{"type":"Polygon","coordinates":[[[77.596394,28.34452],[77.596188,28.344539],[77.59618,28.344449],[77.596385,28.34443],[77.596394,28.34452]]]},"properties":{"objectid":2467,"uniqueplotid":"PLNGRESIDENTIAL2467","plotmap_id":"SECTOR-17_378_A_RESI","plotidentificationnumber":"378","plotno":"378","industrysector":"SECTOR-17","block":"A","plotsize":"200 SQMT","plotsize_at_the_time_of_allotme":"200 SQMT","landuse_type":"RESIDENTIAL","landuse_subcategory":"RESIDENTIAL","scheme_cod":"RPS03","investment":0,"employment":0,"plotstatus":"Allotted","landallotementstatus":"SOLD","landallotementtype":"ALLOTTED","allotmentid":"RPS033287","allotment_date":1464114600000,"rate_of_allotment":15620,"lease_deed":"N","village_name":"Dhanauri","khasra_no":"498","longitude":77.5962866,"latitude":28.34448437,"authority":"YEIDA","category":"residential","execution_stage":"allotted"}},{"type":"Feature","geometry":{"type":"Polygon","coordinates":[[[77.596385,28.34443],[77.59618,28.344449],[77.596171,28.344358],[77.596376,28.344339],[77.596385,28.34443]]]},"properties":{"objectid":2468,"uniqueplotid":"PLNGRESIDENTIAL2468","plotmap_id":"SECTOR-17_379_A_RESI","plotidentificationnumber":"379","plotno":"379","industrysector":"SECTOR-17","block":"A","plotsize":"200 SQMT","plotsize_at_the_time_of_allotme":"200 SQMT","landuse_type":"RESIDENTIAL","landuse_subcategory":"RESIDENTIAL","scheme_cod":"RPS03","investment":0,"employment":0,"plotstatus":"Allotted","landallotementstatus":"SOLD","landallotementtype":"ALLOTTED","allotmentid":"RPS033096","allotment_date":1464114600000,"rate_of_allotment":15620,"lease_deed":"N","village_name":"Dhanauri","khasra_no":"498","longitude":77.59627796,"latitude":28.34439385,"authority":"YEIDA","category":"residential","execution_stage":"allotted"}},{"type":"Feature","geometry":{"type":"Polygon","coordinates":[[[77.596376,28.344339],[77.596171,28.344358],[77.596162,28.344268],[77.596368,28.344249],[77.596376,28.344339]]]},"properties":{"objectid":2469,"uniqueplotid":"PLNGRESIDENTIAL2469","plotmap_id":"SECTOR-17_380_A_RESI","plotidentificationnumber":"380","plotno":"380","industrysector":"SECTOR-17","block":"A","plotsize":"200 SQMT","plotsize_at_the_time_of_allotme":"200 SQMT","landuse_type":"RESIDENTIAL","landuse_subcategory":"RESIDENTIAL","scheme_cod":"RPS03","investment":0,"employment":0,"plotstatus":"Allotted","landallotementstatus":"SOLD","landallotementtype":"ALLOTTED","allotmentid":"RPS033029","allotment_date":1464114600000,"rate_of_allotment":15620,"lease_deed":"N","village_name":"Dhanauri","khasra_no":"498","longitude":77.59626931999999,"latitude":28.34430334,"authority":"YEIDA","category":"residential","execution_stage":"allotted"}},{"type":"Feature","geometry":{"type":"Polygon","coordinates":[[[77.596368,28.344249],[77.596162,28.344268],[77.596154,28.344177],[77.596359,28.344158],[77.596368,28.344249]]]},"properties":{"objectid":2470,"uniqueplotid":"PLNGRESIDENTIAL2470","plotmap_id":"SECTOR-17_381_A_RESI","plotidentificationnumber":"381","plotno":"381","industrysector":"SECTOR-17","block":"A","plotsize":"200 SQMT","plotsize_at_the_time_of_allotme":"200 SQMT","landuse_type":"RESIDENTIAL","landuse_subcategory":"RESIDENTIAL","scheme_cod":"RPS03","investment":0,"employment":0,"plotstatus":"Allotted","landallotementstatus":"SOLD","landallotementtype":"ALLOTTED","allotmentid":"RPS033141","allotment_date":1464114600000,"rate_of_allotment":15620,"lease_deed":"N","village_name":"Dhanauri","khasra_no":"498","longitude":77.59626068,"latitude":28.34421283,"authority":"YEIDA","category":"residential","execution_stage":"allotted"}},{"type":"Feature","geometry":{"type":"Polygon","coordinates":[[[77.596359,28.344158],[77.596154,28.344177],[77.596145,28.344087],[77.59635,28.344068],[77.596359,28.344158]]]},"properties":{"objectid":2471,"uniqueplotid":"PLNGRESIDENTIAL2471","plotmap_id":"SECTOR-17_382_A_RESI","plotidentificationnumber":"382","plotno":"382","industrysector":"SECTOR-17","block":"A","plotsize":"200 SQMT","plotsize_at_the_time_of_allotme":"200 SQMT","landuse_type":"RESIDENTIAL","landuse_subcategory":"RESIDENTIAL","scheme_cod":"RPS03","investment":0,"employment":0,"plotstatus":"Allotted","landallotementstatus":"SOLD","landallotementtype":"ALLOTTED","allotmentid":"RPS033049","allotment_date":1464114600000,"rate_of_allotment":15620,"lease_deed":"N","village_name":"Dhanauri","khasra_no":"498,497","longitude":77.59625206999999,"latitude":28.34412232,"authority":"YEIDA","category":"residential","execution_stage":"allotted"}},{"type":"Feature","geometry":{"type":"Polygon","coordinates":[[[77.596335,28.343905],[77.596129,28.343924],[77.596121,28.343833],[77.596326,28.343814],[77.596335,28.343905]]]},"properties":{"objectid":2472,"uniqueplotid":"PLNGRESIDENTIAL2472","plotmap_id":"SECTOR-17_383_A_RESI","plotidentificationnumber":"383","plotno":"383","industrysector":"SECTOR-17","block":"A","plotsize":"200 SQMT","plotsize_at_the_time_of_allotme":"200 SQMT","landuse_type":"RESIDENTIAL","landuse_subcategory":"RESIDENTIAL","scheme_cod":"RPS03","investment":0,"employment":0,"plotstatus":"Allotted","landallotementstatus":"SOLD","landallotementtype":"ALLOTTED","allotmentid":"RPS033079","allotment_date":1464114600000,"rate_of_allotment":15620,"lease_deed":"N","village_name":"Dhanauri","khasra_no":"497","longitude":77.59623395,"latitude":28.34387092,"authority":"YEIDA","category":"residential","execution_stage":"allotted"}},{"type":"Feature","geometry":{"type":"Polygon","coordinates":[[[77.596326,28.343814],[77.596121,28.343833],[77.596112,28.343743],[77.596318,28.343724],[77.596326,28.343814]]]},"properties":{"objectid":2473,"uniqueplotid":"PLNGRESIDENTIAL2473","plotmap_id":"SECTOR-17_384_A_RESI","plotidentificationnumber":"384","plotno":"384","industrysector":"SECTOR-17","block":"A","plotsize":"200 SQMT","plotsize_at_the_time_of_allotme":"200 SQMT","landuse_type":"RESIDENTIAL","landuse_subcategory":"RESIDENTIAL","scheme_cod":"RPS03","investment":0,"employment":0,"plotstatus":"Allotted","landallotementstatus":"SOLD","landallotementtype":"ALLOTTED","allotmentid":"RPS033017","allotment_date":1464114600000,"rate_of_allotment":15620,"lease_deed":"N","village_name":"Dhanauri","khasra_no":"499,497","longitude":77.59621919,"latitude":28.343778359999998,"authority":"YEIDA","category":"residential","execution_stage":"allotted"}},{"type":"Feature","geometry":{"type":"Polygon","coordinates":[[[77.596318,28.343724],[77.596112,28.343743],[77.596103,28.343652],[77.596309,28.343633],[77.596318,28.343724]]]},"properties":{"objectid":2474,"uniqueplotid":"PLNGRESIDENTIAL2474","plotmap_id":"SECTOR-17_385_A_RESI","plotidentificationnumber":"385","plotno":"385","industrysector":"SECTOR-17","block":"A","plotsize":"200 SQMT","plotsize_at_the_time_of_allotme":"200 SQMT","landuse_type":"RESIDENTIAL","landuse_subcategory":"RESIDENTIAL","scheme_cod":"RPS03","investment":0,"employment":0,"plotstatus":"Allotted","landallotementstatus":"SOLD","landallotementtype":"ALLOTTED","allotmentid":"RPS033239","allotment_date":1464114600000,"rate_of_allotment":15620,"lease_deed":"N","village_name":"Dhanauri","khasra_no":"500,499,497","longitude":77.59621055,"latitude":28.34368785,"authority":"YEIDA","category":"residential","execution_stage":"allotted"}},{"type":"Feature","geometry":{"type":"Polygon","coordinates":[[[77.596309,28.343633],[77.596103,28.343652],[77.596095,28.343562],[77.5963,28.343543],[77.596309,28.343633]]]},"properties":{"objectid":2475,"uniqueplotid":"PLNGRESIDENTIAL2475","plotmap_id":"SECTOR-17_386_A_RESI","plotidentificationnumber":"386","plotno":"386","industrysector":"SECTOR-17","block":"A","plotsize":"200 SQMT","plotsize_at_the_time_of_allotme":"200 SQMT","landuse_type":"RESIDENTIAL","landuse_subcategory":"RESIDENTIAL","scheme_cod":"RPS03","investment":0,"employment":0,"plotstatus":"Allotted","landallotementstatus":"SOLD","landallotementtype":"ALLOTTED","allotmentid":"RPS033137","allotment_date":1464114600000,"rate_of_allotment":15620,"lease_deed":"N","village_name":"Dhanauri","khasra_no":"500,499,497","longitude":77.59620190999999,"latitude":28.343597329999998,"authority":"YEIDA","category":"residential","execution_stage":"allotted"}},{"type":"Feature","geometry":{"type":"Polygon","coordinates":[[[77.5963,28.343543],[77.596095,28.343562],[77.596086,28.343471],[77.596292,28.343452],[77.5963,28.343543]]]},"properties":{"objectid":2476,"uniqueplotid":"PLNGRESIDENTIAL2476","plotmap_id":"SECTOR-17_387_A_RESI","plotidentificationnumber":"387","plotno":"387","industrysector":"SECTOR-17","block":"A","plotsize":"200 SQMT","plotsize_at_the_time_of_allotme":"200 SQMT","landuse_type":"RESIDENTIAL","landuse_subcategory":"RESIDENTIAL","scheme_cod":"RPS03","investment":0,"employment":0,"plotstatus":"Allotted","landallotementstatus":"SOLD","landallotementtype":"ALLOTTED","allotmentid":"RPS033041","allotment_date":1464114600000,"rate_of_allotment":15620,"lease_deed":"N","village_name":"Dhanauri","khasra_no":"500,499,497,496","longitude":77.59619328000001,"latitude":28.343506819999998,"authority":"YEIDA","category":"residential","execution_stage":"allotted"}},{"type":"Feature","geometry":{"type":"Polygon","coordinates":[[[77.596292,28.343452],[77.596086,28.343471],[77.596078,28.343381],[77.596283,28.343362],[77.596292,28.343452]]]},"properties":{"objectid":2477,"uniqueplotid":"PLNGRESIDENTIAL2477","plotmap_id":"SECTOR-17_388_A_RESI","plotidentificationnumber":"388","plotno":"388","industrysector":"SECTOR-17","block":"A","plotsize":"200 SQMT","plotsize_at_the_time_of_allotme":"200 SQMT","landuse_type":"RESIDENTIAL","landuse_subcategory":"RESIDENTIAL","scheme_cod":"RPS03","investment":0,"employment":0,"plotstatus":"Allotted","landallotementstatus":"SOLD","landallotementtype":"ALLOTTED","allotmentid":"RPS033081","allotment_date":1464114600000,"rate_of_allotment":15620,"lease_deed":"N","village_name":"Dhanauri","khasra_no":"500,499","longitude":77.59618464,"latitude":28.343416299999998,"authority":"YEIDA","category":"residential","execution_stage":"allotted"}},{"type":"Feature","geometry":{"type":"Polygon","coordinates":[[[77.596283,28.343362],[77.596078,28.343381],[77.596069,28.34329],[77.596274,28.343271],[77.596283,28.343362]]]},"properties":{"objectid":2478,"uniqueplotid":"PLNGRESIDENTIAL2478","plotmap_id":"SECTOR-17_389_A_RESI","plotidentificationnumber":"389","plotno":"389","industrysector":"SECTOR-17","block":"A","plotsize":"200 SQMT","plotsize_at_the_time_of_allotme":"200 SQMT","landuse_type":"RESIDENTIAL","landuse_subcategory":"RESIDENTIAL","scheme_cod":"RPS03","investment":0,"employment":0,"plotstatus":"Allotted","landallotementstatus":"SOLD","landallotementtype":"ALLOTTED","allotmentid":"RPS033282","allotment_date":1464114600000,"rate_of_allotment":15620,"lease_deed":"N","village_name":"Dhanauri","khasra_no":"500","longitude":77.59617600000001,"latitude":28.343325789999998,"authority":"YEIDA","category":"residential","execution_stage":"allotted"}},{"type":"Feature","geometry":{"type":"Polygon","coordinates":[[[77.596274,28.343271],[77.596069,28.34329],[77.59606,28.3432],[77.596266,28.343181],[77.596274,28.343271]]]},"properties":{"objectid":2479,"uniqueplotid":"PLNGRESIDENTIAL2479","plotmap_id":"SECTOR-17_390_A_RESI","plotidentificationnumber":"390","plotno":"390","industrysector":"SECTOR-17","block":"A","plotsize":"200 SQMT","plotsize_at_the_time_of_allotme":"200 SQMT","landuse_type":"RESIDENTIAL","landuse_subcategory":"RESIDENTIAL","scheme_cod":"RPS03","investment":0,"employment":0,"plotstatus":"Allotted","landallotementstatus":"SOLD","landallotementtype":"ALLOTTED","allotmentid":"RPS033280","allotment_date":1464114600000,"rate_of_allotment":15620,"lease_deed":"N","village_name":"Dhanauri","khasra_no":"500","longitude":77.59616736000001,"latitude":28.34323527,"authority":"YEIDA","category":"residential","execution_stage":"allotted"}},{"type":"Feature","geometry":{"type":"Polygon","coordinates":[[[77.596266,28.343181],[77.59606,28.3432],[77.596052,28.343109],[77.596257,28.34309],[77.596266,28.343181]]]},"properties":{"objectid":2480,"uniqueplotid":"PLNGRESIDENTIAL2480","plotmap_id":"SECTOR-17_391_A_RESI","plotidentificationnumber":"391","plotno":"391","industrysector":"SECTOR-17","block":"A","plotsize":"200 SQMT","plotsize_at_the_time_of_allotme":"200 SQMT","landuse_type":"RESIDENTIAL","landuse_subcategory":"RESIDENTIAL","scheme_cod":"RPS03","investment":0,"employment":0,"plotstatus":"Allotted","landallotementstatus":"SOLD","landallotementtype":"ALLOTTED","allotmentid":"RPS033196","allotment_date":1464114600000,"rate_of_allotment":15620,"lease_deed":"N","village_name":"Dhanauri","khasra_no":"500","longitude":77.59615873000001,"latitude":28.34314476,"authority":"YEIDA","category":"residential","execution_stage":"allotted"}},{"type":"Feature","geometry":{"type":"Polygon","coordinates":[[[77.596257,28.34309],[77.596052,28.343109],[77.596043,28.343018],[77.596249,28.342999],[77.596257,28.34309]]]},"properties":{"objectid":2481,"uniqueplotid":"PLNGRESIDENTIAL2481","plotmap_id":"SECTOR-17_392_A_RESI","plotidentificationnumber":"392","plotno":"392","industrysector":"SECTOR-17","block":"A","plotsize":"200 SQMT","plotsize_at_the_time_of_allotme":"200 SQMT","landuse_type":"RESIDENTIAL","landuse_subcategory":"RESIDENTIAL","scheme_cod":"RRPS01","investment":0,"employment":0,"plotstatus":"Allotted","landallotementstatus":"SOLD","landallotementtype":"ALLOTTED","allotmentid":"RRPS012532","allotment_date":1546453800000,"rate_of_allotment":15620,"lease_deed":"N","village_name":"Dhanauri","khasra_no":"537,500","longitude":77.59615009000001,"latitude":28.34305424,"authority":"YEIDA","category":"residential","execution_stage":"allotted"}},{"type":"Feature","geometry":{"type":"Polygon","coordinates":[[[77.596249,28.342999],[77.596043,28.343018],[77.596034,28.342928],[77.59624,28.342909],[77.596249,28.342999]]]},"properties":{"objectid":2482,"uniqueplotid":"PLNGRESIDENTIAL2482","plotmap_id":"SECTOR-17_393_A_RESI","plotidentificationnumber":"393","plotno":"393","industrysector":"SECTOR-17","block":"A","plotsize":"200 SQMT","plotsize_at_the_time_of_allotme":"200 SQMT","landuse_type":"RESIDENTIAL","landuse_subcategory":"RESIDENTIAL","scheme_cod":"RPS03","investment":0,"employment":0,"plotstatus":"Allotted","landallotementstatus":"SOLD","landallotementtype":"ALLOTTED","allotmentid":"RPS033071","allotment_date":1464114600000,"rate_of_allotment":15620,"lease_deed":"N","village_name":"Dhanauri","khasra_no":"570,537,500","longitude":77.59614145,"latitude":28.34296373,"authority":"YEIDA","category":"residential","execution_stage":"allotted"}},{"type":"Feature","geometry":{"type":"Polygon","coordinates":[[[77.59624,28.342909],[77.596034,28.342928],[77.596026,28.342837],[77.596231,28.342818],[77.59624,28.342909]]]},"properties":{"objectid":2483,"uniqueplotid":"PLNGRESIDENTIAL2483","plotmap_id":"SECTOR-17_394_A_RESI","plotidentificationnumber":"394","plotno":"394","industrysector":"SECTOR-17","block":"A","plotsize":"200 SQMT","plotsize_at_the_time_of_allotme":"200 SQMT","landuse_type":"RESIDENTIAL","landuse_subcategory":"RESIDENTIAL","scheme_cod":"RPS03","investment":0,"employment":0,"plotstatus":"Allotted","landallotementstatus":"SOLD","landallotementtype":"ALLOTTED","allotmentid":"RPS033227","allotment_date":1464114600000,"rate_of_allotment":15620,"lease_deed":"N","village_name":"Dhanauri","khasra_no":"570,537,500","longitude":77.59613282000001,"latitude":28.34287321,"authority":"YEIDA","category":"residential","execution_stage":"allotted"}},{"type":"Feature","geometry":{"type":"Polygon","coordinates":[[[77.596231,28.342818],[77.596026,28.342837],[77.596017,28.342747],[77.596223,28.342728],[77.596231,28.342818]]]},"properties":{"objectid":2484,"uniqueplotid":"PLNGRESIDENTIAL2484","plotmap_id":"SECTOR-17_395_A_RESI","plotidentificationnumber":"395","plotno":"395","industrysector":"SECTOR-17","block":"A","plotsize":"200 SQMT","plotsize_at_the_time_of_allotme":"200 SQMT","landuse_type":"RESIDENTIAL","landuse_subcategory":"RESIDENTIAL","scheme_cod":"RPS03","investment":0,"employment":0,"plotstatus":"Allotted","landallotementstatus":"SOLD","landallotementtype":"ALLOTTED","allotmentid":"RPS033166","allotment_date":1464114600000,"rate_of_allotment":15620,"lease_deed":"N","village_name":"Dhanauri","khasra_no":"570","longitude":77.59612418,"latitude":28.3427827,"authority":"YEIDA","category":"residential","execution_stage":"allotted"}},{"type":"Feature","geometry":{"type":"Polygon","coordinates":[[[77.596223,28.342728],[77.596017,28.342747],[77.596008,28.342656],[77.596214,28.342637],[77.596223,28.342728]]]},"properties":{"objectid":2485,"uniqueplotid":"PLNGRESIDENTIAL2485","plotmap_id":"SECTOR-17_396_A_RESI","plotidentificationnumber":"396","plotno":"396","industrysector":"SECTOR-17","block":"A","plotsize":"200 SQMT","plotsize_at_the_time_of_allotme":"200 SQMT","landuse_type":"RESIDENTIAL","landuse_subcategory":"RESIDENTIAL","scheme_cod":"RPS03","investment":0,"employment":0,"plotstatus":"Allotted","landallotementstatus":"SOLD","landallotementtype":"ALLOTTED","allotmentid":"RPS033092","allotment_date":1464114600000,"rate_of_allotment":15620,"lease_deed":"N","village_name":"Dhanauri","khasra_no":"570","longitude":77.59611554000001,"latitude":28.34269218,"authority":"YEIDA","category":"residential","execution_stage":"allotted"}},{"type":"Feature","geometry":{"type":"Polygon","coordinates":[[[77.596214,28.342637],[77.596008,28.342656],[77.596,28.342566],[77.596205,28.342547],[77.596214,28.342637]]]},"properties":{"objectid":2486,"uniqueplotid":"PLNGRESIDENTIAL2486","plotmap_id":"SECTOR-17_397_A_RESI","plotidentificationnumber":"397","plotno":"397","industrysector":"SECTOR-17","block":"A","plotsize":"200 SQMT","plotsize_at_the_time_of_allotme":"200 SQMT","landuse_type":"RESIDENTIAL","landuse_subcategory":"RESIDENTIAL","scheme_cod":"RPS03","investment":0,"employment":0,"plotstatus":"Allotted","landallotementstatus":"SOLD","landallotementtype":"ALLOTTED","allotmentid":"RPS033208","allotment_date":1464114600000,"rate_of_allotment":15620,"lease_deed":"N","village_name":"Dhanauri","khasra_no":"570,571","longitude":77.59610691,"latitude":28.34260167,"authority":"YEIDA","category":"residential","execution_stage":"allotted"}},{"type":"Feature","geometry":{"type":"Polygon","coordinates":[[[77.596205,28.342547],[77.596,28.342566],[77.595991,28.342475],[77.596197,28.342456],[77.596205,28.342547]]]},"properties":{"objectid":2487,"uniqueplotid":"PLNGRESIDENTIAL2487","plotmap_id":"SECTOR-17_398_A_RESI","plotidentificationnumber":"398","plotno":"398","industrysector":"SECTOR-17","block":"A","plotsize":"200 SQMT","plotsize_at_the_time_of_allotme":"200 SQMT","landuse_type":"RESIDENTIAL","landuse_subcategory":"RESIDENTIAL","scheme_cod":"RPS03","investment":0,"employment":0,"plotstatus":"Allotted","landallotementstatus":"SOLD","landallotementtype":"ALLOTTED","allotmentid":"RPS033173","allotment_date":1464114600000,"rate_of_allotment":15620,"lease_deed":"N","village_name":"Dhanauri","khasra_no":"570,571","longitude":77.59609827,"latitude":28.34251115,"authority":"YEIDA","category":"residential","execution_stage":"allotted"}},{"type":"Feature","geometry":{"type":"Polygon","coordinates":[[[77.596197,28.342456],[77.595991,28.342475],[77.595983,28.342385],[77.596188,28.342366],[77.596197,28.342456]]]},"properties":{"objectid":2488,"uniqueplotid":"PLNGRESIDENTIAL2488","plotmap_id":"SECTOR-17_399_A_RESI","plotidentificationnumber":"399","plotno":"399","industrysector":"SECTOR-17","block":"A","plotsize":"200 SQMT","plotsize_at_the_time_of_allotme":"200 SQMT","landuse_type":"RESIDENTIAL","landuse_subcategory":"RESIDENTIAL","scheme_cod":"RPS03","investment":0,"employment":0,"plotstatus":"Allotted","landallotementstatus":"SOLD","landallotementtype":"ALLOTTED","allotmentid":"RPS033097","allotment_date":1464114600000,"rate_of_allotment":15620,"lease_deed":"N","village_name":"Dhanauri","khasra_no":"570,571","longitude":77.59608963000001,"latitude":28.34242064,"authority":"YEIDA","category":"residential","execution_stage":"allotted"}},{"type":"Feature","geometry":{"type":"Polygon","coordinates":[[[77.596188,28.342366],[77.595983,28.342385],[77.595974,28.342294],[77.596179,28.342275],[77.596188,28.342366]]]},"properties":{"objectid":2489,"uniqueplotid":"PLNGRESIDENTIAL2489","plotmap_id":"SECTOR-17_400_A_RESI","plotidentificationnumber":"400","plotno":"400","industrysector":"SECTOR-17","block":"A","plotsize":"200 SQMT","plotsize_at_the_time_of_allotme":"200 SQMT","landuse_type":"RESIDENTIAL","landuse_subcategory":"RESIDENTIAL","scheme_cod":"RPS03","investment":0,"employment":0,"plotstatus":"Allotted","landallotementstatus":"SOLD","landallotementtype":"ALLOTTED","allotmentid":"RPS033128","allotment_date":1464114600000,"rate_of_allotment":15620,"lease_deed":"N","village_name":"Dhanauri","khasra_no":"570,571","longitude":77.596081,"latitude":28.342330120000003,"authority":"YEIDA","category":"residential","execution_stage":"allotted"}},{"type":"Feature","geometry":{"type":"Polygon","coordinates":[[[77.596179,28.342275],[77.595974,28.342294],[77.595965,28.342204],[77.596171,28.342185],[77.596179,28.342275]]]},"properties":{"objectid":2490,"uniqueplotid":"PLNGRESIDENTIAL2490","plotmap_id":"SECTOR-17_401_A_RESI","plotidentificationnumber":"401","plotno":"401","industrysector":"SECTOR-17","block":"A","plotsize":"200 SQMT","plotsize_at_the_time_of_allotme":"200 SQMT","landuse_type":"RESIDENTIAL","landuse_subcategory":"RESIDENTIAL","scheme_cod":"RPS03","investment":0,"employment":0,"plotstatus":"Allotted","landallotementstatus":"SOLD","landallotementtype":"ALLOTTED","allotmentid":"RPS033142","allotment_date":1464114600000,"rate_of_allotment":15620,"lease_deed":"N","village_name":"Dhanauri","khasra_no":"571","longitude":77.59607236000001,"latitude":28.34223961,"authority":"YEIDA","category":"residential","execution_stage":"allotted"}},{"type":"Feature","geometry":{"type":"Polygon","coordinates":[[[77.596171,28.342185],[77.595965,28.342204],[77.595957,28.342113],[77.596162,28.342094],[77.596171,28.342185]]]},"properties":{"objectid":2491,"uniqueplotid":"PLNGRESIDENTIAL2491","plotmap_id":"SECTOR-17_402_A_RESI","plotidentificationnumber":"402","plotno":"402","industrysector":"SECTOR-17","block":"A","plotsize":"200 SQMT","plotsize_at_the_time_of_allotme":"200 SQMT","landuse_type":"RESIDENTIAL","landuse_subcategory":"RESIDENTIAL","scheme_cod":"RPS03","investment":0,"employment":0,"plotstatus":"Allotted","landallotementstatus":"SOLD","landallotementtype":"ALLOTTED","allotmentid":"RPS033174","allotment_date":1464114600000,"rate_of_allotment":15620,"lease_deed":"N","village_name":"Dhanauri","khasra_no":"571","longitude":77.59606895,"latitude":28.342150829999998,"authority":"YEIDA","category":"residential","execution_stage":"allotted"}},{"type":"Feature","geometry":{"type":"Polygon","coordinates":[[[77.596376,28.342166],[77.596171,28.342185],[77.596162,28.342094],[77.596368,28.342075],[77.596376,28.342166]]]},"properties":{"objectid":2492,"uniqueplotid":"PLNGRESIDENTIAL2492","plotmap_id":"SECTOR-17_403_A_RESI","plotidentificationnumber":"403","plotno":"403","industrysector":"SECTOR-17","block":"A","plotsize":"200 SQMT","plotsize_at_the_time_of_allotme":"200 SQMT","landuse_type":"RESIDENTIAL","landuse_subcategory":"RESIDENTIAL","scheme_cod":"RRPS01","investment":0,"employment":0,"plotstatus":"Allotted","landallotementstatus":"SOLD","landallotementtype":"ALLOTTED","allotmentid":"RRPS012539","allotment_date":1546453800000,"rate_of_allotment":15620,"lease_deed":"N","village_name":"Dhanauri","khasra_no":"571","longitude":77.59626544,"latitude":28.34212882,"authority":"YEIDA","category":"residential","execution_stage":"allotted"}},{"type":"Feature","geometry":{"type":"Polygon","coordinates":[[[77.596385,28.342256],[77.596179,28.342275],[77.596171,28.342185],[77.596376,28.342166],[77.596385,28.342256]]]},"properties":{"objectid":2493,"uniqueplotid":"PLNGRESIDENTIAL2493","plotmap_id":"SECTOR-17_404_A_RESI","plotidentificationnumber":"404","plotno":"404","industrysector":"SECTOR-17","block":"A","plotsize":"200 SQMT","plotsize_at_the_time_of_allotme":"200 SQMT","landuse_type":"RESIDENTIAL","landuse_subcategory":"RESIDENTIAL","scheme_cod":"RPS03","investment":0,"employment":0,"plotstatus":"Allotted","landallotementstatus":"SOLD","landallotementtype":"ALLOTTED","allotmentid":"RPS033130","allotment_date":1464114600000,"rate_of_allotment":15620,"lease_deed":"N","village_name":"Dhanauri","khasra_no":"571","longitude":77.59627784,"latitude":28.342220599999997,"authority":"YEIDA","category":"residential","execution_stage":"allotted"}},{"type":"Feature","geometry":{"type":"Polygon","coordinates":[[[77.596394,28.342347],[77.596188,28.342366],[77.596179,28.342275],[77.596385,28.342256],[77.596394,28.342347]]]},"properties":{"objectid":2494,"uniqueplotid":"PLNGRESIDENTIAL2494","plotmap_id":"SECTOR-17_405_A_RESI","plotidentificationnumber":"405","plotno":"405","industrysector":"SECTOR-17","block":"A","plotsize":"200 SQMT","plotsize_at_the_time_of_allotme":"200 SQMT","landuse_type":"RESIDENTIAL","landuse_subcategory":"RESIDENTIAL","scheme_cod":"RPS03","investment":0,"employment":0,"plotstatus":"Allotted","landallotementstatus":"SOLD","landallotementtype":"ALLOTTED","allotmentid":"RPS033185","allotment_date":1464114600000,"rate_of_allotment":15620,"lease_deed":"N","village_name":"Dhanauri","khasra_no":"571","longitude":77.59628647999999,"latitude":28.34231111,"authority":"YEIDA","category":"residential","execution_stage":"allotted"}},{"type":"Feature","geometry":{"type":"Polygon","coordinates":[[[77.596402,28.342437],[77.596197,28.342456],[77.596188,28.342366],[77.596394,28.342347],[77.596402,28.342437]]]},"properties":{"objectid":2495,"uniqueplotid":"PLNGRESIDENTIAL2495","plotmap_id":"SECTOR-17_406_A_RESI","plotidentificationnumber":"406","plotno":"406","industrysector":"SECTOR-17","block":"A","plotsize":"200 SQMT","plotsize_at_the_time_of_allotme":"200 SQMT","landuse_type":"RESIDENTIAL","landuse_subcategory":"RESIDENTIAL","scheme_cod":"RPS07","investment":0,"employment":0,"plotstatus":"Allotted","landallotementstatus":"SOLD","landallotementtype":"ALLOTTED","allotmentid":"RPS071633","allotment_date":1698777000000,"rate_of_allotment":24900,"lease_deed":"N","village_name":"Dhanauri","khasra_no":"571","longitude":77.59629512,"latitude":28.34240163,"authority":"YEIDA","category":"residential","execution_stage":"allotted"}},{"type":"Feature","geometry":{"type":"Polygon","coordinates":[[[77.596411,28.342528],[77.596205,28.342547],[77.596197,28.342456],[77.596402,28.342437],[77.596411,28.342528]]]},"properties":{"objectid":2496,"uniqueplotid":"PLNGRESIDENTIAL2496","plotmap_id":"SECTOR-17_407_A_RESI","plotidentificationnumber":"407","plotno":"407","industrysector":"SECTOR-17","block":"A","plotsize":"200 SQMT","plotsize_at_the_time_of_allotme":"200 SQMT","landuse_type":"RESIDENTIAL","landuse_subcategory":"RESIDENTIAL","scheme_cod":"RPS03","investment":0,"employment":0,"plotstatus":"Allotted","landallotementstatus":"SOLD","landallotementtype":"ALLOTTED","allotmentid":"RPS033182","allotment_date":1464114600000,"rate_of_allotment":15620,"lease_deed":"N","village_name":"Dhanauri","khasra_no":"571","longitude":77.59630375,"latitude":28.34249214,"authority":"YEIDA","category":"residential","execution_stage":"allotted"}},{"type":"Feature","geometry":{"type":"Polygon","coordinates":[[[77.596419,28.342618],[77.596214,28.342637],[77.596205,28.342547],[77.596411,28.342528],[77.596419,28.342618]]]},"properties":{"objectid":2497,"uniqueplotid":"PLNGRESIDENTIAL2497","plotmap_id":"SECTOR-17_408_A_RESI","plotidentificationnumber":"408","plotno":"408","industrysector":"SECTOR-17","block":"A","plotsize":"200 SQMT","plotsize_at_the_time_of_allotme":"200 SQMT","landuse_type":"RESIDENTIAL","landuse_subcategory":"RESIDENTIAL","scheme_cod":"RPS03","investment":0,"employment":0,"plotstatus":"Allotted","landallotementstatus":"SOLD","landallotementtype":"ALLOTTED","allotmentid":"RPS033207","allotment_date":1464114600000,"rate_of_allotment":15620,"lease_deed":"N","village_name":"Dhanauri","khasra_no":"570,571","longitude":77.59631239,"latitude":28.34258266,"authority":"YEIDA","category":"residential","execution_stage":"allotted"}},{"type":"Feature","geometry":{"type":"Polygon","coordinates":[[[77.596428,28.342709],[77.596223,28.342728],[77.596214,28.342637],[77.596419,28.342618],[77.596428,28.342709]]]},"properties":{"objectid":2498,"uniqueplotid":"PLNGRESIDENTIAL2498","plotmap_id":"SECTOR-17_409_A_RESI","plotidentificationnumber":"409","plotno":"409","industrysector":"SECTOR-17","block":"A","plotsize":"200 SQMT","plotsize_at_the_time_of_allotme":"200 SQMT","landuse_type":"RESIDENTIAL","landuse_subcategory":"RESIDENTIAL","scheme_cod":"RPS03","investment":0,"employment":0,"plotstatus":"Allotted","landallotementstatus":"SOLD","landallotementtype":"ALLOTTED","allotmentid":"RPS033311","allotment_date":1464114600000,"rate_of_allotment":15620,"lease_deed":"N","village_name":"Dhanauri","khasra_no":"570,571","longitude":77.59632103,"latitude":28.34267317,"authority":"YEIDA","category":"residential","execution_stage":"allotted"}},{"type":"Feature","geometry":{"type":"Polygon","coordinates":[[[77.596437,28.342799],[77.596231,28.342818],[77.596223,28.342728],[77.596428,28.342709],[77.596437,28.342799]]]},"properties":{"objectid":2499,"uniqueplotid":"PLNGRESIDENTIAL2499","plotmap_id":"SECTOR-17_410_A_RESI","plotidentificationnumber":"410","plotno":"410","industrysector":"SECTOR-17","block":"A","plotsize":"200 SQMT","plotsize_at_the_time_of_allotme":"200 SQMT","landuse_type":"RESIDENTIAL","landuse_subcategory":"RESIDENTIAL","scheme_cod":"RRPS04","investment":0,"employment":0,"plotstatus":"Allotted","landallotementstatus":"SOLD","landallotementtype":"ALLOTTED","allotmentid":"RRPS041670","allotment_date":1605205800000,"rate_of_allotment":16870,"lease_deed":"N","village_name":"Dhanauri","khasra_no":"570,537,500,571","longitude":77.59632967,"latitude":28.34276369,"authority":"YEIDA","category":"residential","execution_stage":"allotted"}},{"type":"Feature","geometry":{"type":"Polygon","coordinates":[[[77.596445,28.34289],[77.59624,28.342909],[77.596231,28.342818],[77.596437,28.342799],[77.596445,28.34289]]]},"properties":{"objectid":2500,"uniqueplotid":"PLNGRESIDENTIAL2500","plotmap_id":"SECTOR-17_411_A_RESI","plotidentificationnumber":"411","plotno":"411","industrysector":"SECTOR-17","block":"A","plotsize":"200 SQMT","plotsize_at_the_time_of_allotme":"200 SQMT","landuse_type":"RESIDENTIAL","landuse_subcategory":"RESIDENTIAL","scheme_cod":"RPS03","investment":0,"employment":0,"plotstatus":"Allotted","landallotementstatus":"SOLD","landallotementtype":"ALLOTTED","allotmentid":"RPS033085","allotment_date":1464114600000,"rate_of_allotment":15620,"lease_deed":"N","village_name":"Dhanauri","khasra_no":"570,537,500","longitude":77.5963383,"latitude":28.3428542,"authority":"YEIDA","category":"residential","execution_stage":"allotted"}},{"type":"Feature","geometry":{"type":"Polygon","coordinates":[[[77.596454,28.34298],[77.596249,28.342999],[77.59624,28.342909],[77.596445,28.34289],[77.596454,28.34298]]]},"properties":{"objectid":2501,"uniqueplotid":"PLNGRESIDENTIAL2501","plotmap_id":"SECTOR-17_412_A_RESI","plotidentificationnumber":"412","plotno":"412","industrysector":"SECTOR-17","block":"A","plotsize":"200 SQMT","plotsize_at_the_time_of_allotme":"200 SQMT","landuse_type":"RESIDENTIAL","landuse_subcategory":"RESIDENTIAL","scheme_cod":"RPS03","investment":0,"employment":0,"plotstatus":"Allotted","landallotementstatus":"SOLD","landallotementtype":"ALLOTTED","allotmentid":"RPS033031","allotment_date":1464114600000,"rate_of_allotment":15620,"lease_deed":"N","village_name":"Dhanauri","khasra_no":"500","longitude":77.59634694,"latitude":28.342944720000002,"authority":"YEIDA","category":"residential","execution_stage":"allotted"}},{"type":"Feature","geometry":{"type":"Polygon","coordinates":[[[77.596463,28.343071],[77.596257,28.34309],[77.596249,28.342999],[77.596454,28.34298],[77.596463,28.343071]]]},"properties":{"objectid":2502,"uniqueplotid":"PLNGRESIDENTIAL2502","plotmap_id":"SECTOR-17_413_A_RESI","plotidentificationnumber":"413","plotno":"413","industrysector":"SECTOR-17","block":"A","plotsize":"200 SQMT","plotsize_at_the_time_of_allotme":"200 SQMT","landuse_type":"RESIDENTIAL","landuse_subcategory":"RESIDENTIAL","scheme_cod":"RPS03","investment":0,"employment":0,"plotstatus":"Allotted","landallotementstatus":"SOLD","landallotementtype":"ALLOTTED","allotmentid":"RPS033012","allotment_date":1464114600000,"rate_of_allotment":15620,"lease_deed":"N","village_name":"Dhanauri","khasra_no":"500","longitude":77.59635558,"latitude":28.34303523,"authority":"YEIDA","category":"residential","execution_stage":"allotted"}},{"type":"Feature","geometry":{"type":"Polygon","coordinates":[[[77.596471,28.343162],[77.596266,28.343181],[77.596257,28.34309],[77.596463,28.343071],[77.596471,28.343162]]]},"properties":{"objectid":2503,"uniqueplotid":"PLNGRESIDENTIAL2503","plotmap_id":"SECTOR-17_414_A_RESI","plotidentificationnumber":"414","plotno":"414","industrysector":"SECTOR-17","block":"A","plotsize":"200 SQMT","plotsize_at_the_time_of_allotme":"200 SQMT","landuse_type":"RESIDENTIAL","landuse_subcategory":"RESIDENTIAL","scheme_cod":"RPS03","investment":0,"employment":0,"plotstatus":"Allotted","landallotementstatus":"SOLD","landallotementtype":"ALLOTTED","allotmentid":"RPS033106","allotment_date":1464114600000,"rate_of_allotment":15620,"lease_deed":"N","village_name":"Dhanauri","khasra_no":"500","longitude":77.59636421,"latitude":28.34312575,"authority":"YEIDA","category":"residential","execution_stage":"allotted"}},{"type":"Feature","geometry":{"type":"Polygon","coordinates":[[[77.59648,28.343252],[77.596274,28.343271],[77.596266,28.343181],[77.596471,28.343162],[77.59648,28.343252]]]},"properties":{"objectid":2504,"uniqueplotid":"PLNGRESIDENTIAL2504","plotmap_id":"SECTOR-17_415_A_RESI","plotidentificationnumber":"415","plotno":"415","industrysector":"SECTOR-17","block":"A","plotsize":"200 SQMT","plotsize_at_the_time_of_allotme":"200 SQMT","landuse_type":"RESIDENTIAL","landuse_subcategory":"RESIDENTIAL","scheme_cod":"RRPS01","investment":0,"employment":0,"plotstatus":"Allotted","landallotementstatus":"SOLD","landallotementtype":"ALLOTTED","allotmentid":"RRPS012553","allotment_date":1546453800000,"rate_of_allotment":15620,"lease_deed":"N","village_name":"Dhanauri","khasra_no":"500","longitude":77.59637285,"latitude":28.34321626,"authority":"YEIDA","category":"residential","execution_stage":"allotted"}},{"type":"Feature","geometry":{"type":"Polygon","coordinates":[[[77.596489,28.343343],[77.596283,28.343362],[77.596274,28.343271],[77.59648,28.343252],[77.596489,28.343343]]]},"properties":{"objectid":2505,"uniqueplotid":"PLNGRESIDENTIAL2505","plotmap_id":"SECTOR-17_416_A_RESI","plotidentificationnumber":"416","plotno":"416","industrysector":"SECTOR-17","block":"A","plotsize":"200 SQMT","plotsize_at_the_time_of_allotme":"200 SQMT","landuse_type":"RESIDENTIAL","landuse_subcategory":"RESIDENTIAL","scheme_cod":"RPS03","investment":0,"employment":0,"plotstatus":"Allotted","landallotementstatus":"SOLD","landallotementtype":"ALLOTTED","allotmentid":"RPS033263","allotment_date":1464114600000,"rate_of_allotment":15620,"lease_deed":"N","village_name":"Dhanauri","khasra_no":"500","longitude":77.59638149,"latitude":28.34330678,"authority":"YEIDA","category":"residential","execution_stage":"allotted"}},{"type":"Feature","geometry":{"type":"Polygon","coordinates":[[[77.596497,28.343433],[77.596292,28.343452],[77.596283,28.343362],[77.596489,28.343343],[77.596497,28.343433]]]},"properties":{"objectid":2506,"uniqueplotid":"PLNGRESIDENTIAL2506","plotmap_id":"SECTOR-17_417_A_RESI","plotidentificationnumber":"417","plotno":"417","industrysector":"SECTOR-17","block":"A","plotsize":"200 SQMT","plotsize_at_the_time_of_allotme":"200 SQMT","landuse_type":"RESIDENTIAL","landuse_subcategory":"RESIDENTIAL","scheme_cod":"RPS03","investment":0,"employment":0,"plotstatus":"Allotted","landallotementstatus":"SOLD","landallotementtype":"ALLOTTED","allotmentid":"RPS033056","allotment_date":1464114600000,"rate_of_allotment":15620,"lease_deed":"N","village_name":"Dhanauri","khasra_no":"500","longitude":77.59639012,"latitude":28.34339729,"authority":"YEIDA","category":"residential","execution_stage":"allotted"}},{"type":"Feature","geometry":{"type":"Polygon","coordinates":[[[77.596506,28.343524],[77.5963,28.343543],[77.596292,28.343452],[77.596497,28.343433],[77.596506,28.343524]]]},"properties":{"objectid":2507,"uniqueplotid":"PLNGRESIDENTIAL2507","plotmap_id":"SECTOR-17_418_A_RESI","plotidentificationnumber":"418","plotno":"418","industrysector":"SECTOR-17","block":"A","plotsize":"200 SQMT","plotsize_at_the_time_of_allotme":"200 SQMT","landuse_type":"RESIDENTIAL","landuse_subcategory":"RESIDENTIAL","scheme_cod":"RPS03","investment":0,"employment":0,"plotstatus":"Allotted","landallotementstatus":"SOLD","landallotementtype":"ALLOTTED","allotmentid":"RPS033073","allotment_date":1464114600000,"rate_of_allotment":15620,"lease_deed":"N","village_name":"Dhanauri","khasra_no":"500","longitude":77.59639876,"latitude":28.34348781,"authority":"YEIDA","category":"residential","execution_stage":"allotted"}},{"type":"Feature","geometry":{"type":"Polygon","coordinates":[[[77.596514,28.343614],[77.596309,28.343633],[77.5963,28.343543],[77.596506,28.343524],[77.596514,28.343614]]]},"properties":{"objectid":2508,"uniqueplotid":"PLNGRESIDENTIAL2508","plotmap_id":"SECTOR-17_419_A_RESI","plotidentificationnumber":"419","plotno":"419","industrysector":"SECTOR-17","block":"A","plotsize":"200 SQMT","plotsize_at_the_time_of_allotme":"200 SQMT","landuse_type":"RESIDENTIAL","landuse_subcategory":"RESIDENTIAL","scheme_cod":"RPS03","investment":0,"employment":0,"plotstatus":"Allotted","landallotementstatus":"SOLD","landallotementtype":"ALLOTTED","allotmentid":"RPS033148","allotment_date":1464114600000,"rate_of_allotment":15620,"lease_deed":"N","village_name":"Dhanauri","khasra_no":"500","longitude":77.5964074,"latitude":28.34357832,"authority":"YEIDA","category":"residential","execution_stage":"allotted"}},{"type":"Feature","geometry":{"type":"Polygon","coordinates":[[[77.596523,28.343705],[77.596318,28.343724],[77.596309,28.343633],[77.596514,28.343614],[77.596523,28.343705]]]},"properties":{"objectid":2509,"uniqueplotid":"PLNGRESIDENTIAL2509","plotmap_id":"SECTOR-17_420_A_RESI","plotidentificationnumber":"420","plotno":"420","industrysector":"SECTOR-17","block":"A","plotsize":"200 SQMT","plotsize_at_the_time_of_allotme":"200 SQMT","landuse_type":"RESIDENTIAL","landuse_subcategory":"RESIDENTIAL","scheme_cod":"RPS03","investment":0,"employment":0,"plotstatus":"Allotted","landallotementstatus":"SOLD","landallotementtype":"ALLOTTED","allotmentid":"RPS033286","allotment_date":1464114600000,"rate_of_allotment":15620,"lease_deed":"N","village_name":"Dhanauri","khasra_no":"502,500,499","longitude":77.59641603,"latitude":28.34366884,"authority":"YEIDA","category":"residential","execution_stage":"allotted"}},{"type":"Feature","geometry":{"type":"Polygon","coordinates":[[[77.596532,28.343795],[77.596326,28.343814],[77.596318,28.343724],[77.596523,28.343705],[77.596532,28.343795]]]},"properties":{"objectid":2510,"uniqueplotid":"PLNGRESIDENTIAL2510","plotmap_id":"SECTOR-17_421_A_RESI","plotidentificationnumber":"421","plotno":"421","industrysector":"SECTOR-17","block":"A","plotsize":"200 SQMT","plotsize_at_the_time_of_allotme":"200 SQMT","landuse_type":"RESIDENTIAL","landuse_subcategory":"RESIDENTIAL","scheme_cod":"RPS03","investment":0,"employment":0,"plotstatus":"Allotted","landallotementstatus":"SOLD","landallotementtype":"ALLOTTED","allotmentid":"RPS033043","allotment_date":1464114600000,"rate_of_allotment":15620,"lease_deed":"N","village_name":"Dhanauri","khasra_no":"502,500,499,497","longitude":77.59642467,"latitude":28.34375935,"authority":"YEIDA","category":"residential","execution_stage":"allotted"}},{"type":"Feature","geometry":{"type":"Polygon","coordinates":[[[77.59654,28.343886],[77.596335,28.343905],[77.596326,28.343814],[77.596532,28.343795],[77.59654,28.343886]]]},"properties":{"objectid":2511,"uniqueplotid":"PLNGRESIDENTIAL2511","plotmap_id":"SECTOR-17_422_A_RESI","plotidentificationnumber":"422","plotno":"422","industrysector":"SECTOR-17","block":"A","plotsize":"200 SQMT","plotsize_at_the_time_of_allotme":"200 SQMT","landuse_type":"RESIDENTIAL","landuse_subcategory":"RESIDENTIAL","scheme_cod":"RPS03","investment":0,"employment":0,"plotstatus":"Allotted","landallotementstatus":"SOLD","landallotementtype":"ALLOTTED","allotmentid":"RPS033084","allotment_date":1464114600000,"rate_of_allotment":15620,"lease_deed":"N","village_name":"Dhanauri","khasra_no":"502,499,497","longitude":77.59642736,"latitude":28.343847880000002,"authority":"YEIDA","category":"residential","execution_stage":"allotted"}},{"type":"Feature","geometry":{"type":"Polygon","coordinates":[[[77.596565,28.344139],[77.596359,28.344158],[77.59635,28.344068],[77.596556,28.344049],[77.596565,28.344139]]]},"properties":{"objectid":2512,"uniqueplotid":"PLNGRESIDENTIAL2512","plotmap_id":"SECTOR-17_423_A_RESI","plotidentificationnumber":"423","plotno":"423","industrysector":"SECTOR-17","block":"A","plotsize":"200 SQMT","plotsize_at_the_time_of_allotme":"200 SQMT","landuse_type":"RESIDENTIAL","landuse_subcategory":"RESIDENTIAL","scheme_cod":"RRPS01","investment":0,"employment":0,"plotstatus":"Allotted","landallotementstatus":"SOLD","landallotementtype":"ALLOTTED","allotmentid":"RRPS012548","allotment_date":1546453800000,"rate_of_allotment":15620,"lease_deed":"N","village_name":"Dhanauri","khasra_no":"498","longitude":77.59645376,"latitude":28.34410204,"authority":"YEIDA","category":"residential","execution_stage":"allotted"}},{"type":"Feature","geometry":{"type":"Polygon","coordinates":[[[77.596573,28.34423],[77.596368,28.344249],[77.596359,28.344158],[77.596565,28.344139],[77.596573,28.34423]]]},"properties":{"objectid":2513,"uniqueplotid":"PLNGRESIDENTIAL2513","plotmap_id":"SECTOR-17_424_A_RESI","plotidentificationnumber":"424","plotno":"424","industrysector":"SECTOR-17","block":"A","plotsize":"200 SQMT","plotsize_at_the_time_of_allotme":"200 SQMT","landuse_type":"RESIDENTIAL","landuse_subcategory":"RESIDENTIAL","scheme_cod":"RPS03","investment":0,"employment":0,"plotstatus":"Allotted","landallotementstatus":"SOLD","landallotementtype":"ALLOTTED","allotmentid":"RPS033267","allotment_date":1464114600000,"rate_of_allotment":15620,"lease_deed":"N","village_name":"Dhanauri","khasra_no":"498","longitude":77.59646617,"latitude":28.34419382,"authority":"YEIDA","category":"residential","execution_stage":"allotted"}},{"type":"Feature","geometry":{"type":"Polygon","coordinates":[[[77.596582,28.34432],[77.596376,28.344339],[77.596368,28.344249],[77.596573,28.34423],[77.596582,28.34432]]]},"properties":{"objectid":2514,"uniqueplotid":"PLNGRESIDENTIAL2514","plotmap_id":"SECTOR-17_425_A_RESI","plotidentificationnumber":"425","plotno":"425","industrysector":"SECTOR-17","block":"A","plotsize":"200 SQMT","plotsize_at_the_time_of_allotme":"200 SQMT","landuse_type":"RESIDENTIAL","landuse_subcategory":"RESIDENTIAL","scheme_cod":"RRPS04","investment":0,"employment":0,"plotstatus":"Allotted","landallotementstatus":"SOLD","landallotementtype":"ALLOTTED","allotmentid":"RRPS041693","allotment_date":1605205800000,"rate_of_allotment":16870,"lease_deed":"N","village_name":"Dhanauri","khasra_no":"498","longitude":77.59647481,"latitude":28.34428433,"authority":"YEIDA","category":"residential","execution_stage":"allotted"}},{"type":"Feature","geometry":{"type":"Polygon","coordinates":[[[77.596591,28.344411],[77.596385,28.34443],[77.596376,28.344339],[77.596582,28.34432],[77.596591,28.344411]]]},"properties":{"objectid":2515,"uniqueplotid":"PLNGRESIDENTIAL2515","plotmap_id":"SECTOR-17_426_A_RESI","plotidentificationnumber":"426","plotno":"426","industrysector":"SECTOR-17","block":"A","plotsize":"200 SQMT","plotsize_at_the_time_of_allotme":"200 SQMT","landuse_type":"RESIDENTIAL","landuse_subcategory":"RESIDENTIAL","scheme_cod":"RPS03","investment":0,"employment":0,"plotstatus":"Allotted","landallotementstatus":"SOLD","landallotementtype":"ALLOTTED","allotmentid":"RPS033111","allotment_date":1464114600000,"rate_of_allotment":15620,"lease_deed":"N","village_name":"Dhanauri","khasra_no":"498","longitude":77.59648344,"latitude":28.34437484,"authority":"YEIDA","category":"residential","execution_stage":"allotted"}},{"type":"Feature","geometry":{"type":"Polygon","coordinates":[[[77.596599,28.344501],[77.596394,28.34452],[77.596385,28.34443],[77.596591,28.344411],[77.596599,28.344501]]]},"properties":{"objectid":2516,"uniqueplotid":"PLNGRESIDENTIAL2516","plotmap_id":"SECTOR-17_427_A_RESI","plotidentificationnumber":"427","plotno":"427","industrysector":"SECTOR-17","block":"A","plotsize":"200 SQMT","plotsize_at_the_time_of_allotme":"200 SQMT","landuse_type":"RESIDENTIAL","landuse_subcategory":"RESIDENTIAL","scheme_cod":"RRPS04","investment":0,"employment":0,"plotstatus":"Allotted","landallotementstatus":"SOLD","landallotementtype":"ALLOTTED","allotmentid":"RRPS041699","allotment_date":1605205800000,"rate_of_allotment":16870,"lease_deed":"N","village_name":"Dhanauri","khasra_no":"498","longitude":77.59649208,"latitude":28.34446536,"authority":"YEIDA","category":"residential","execution_stage":"allotted"}},{"type":"Feature","geometry":{"type":"Polygon","coordinates":[[[77.596608,28.344592],[77.596402,28.344611],[77.596394,28.34452],[77.596599,28.344501],[77.596608,28.344592]]]},"properties":{"objectid":2517,"uniqueplotid":"PLNGRESIDENTIAL2517","plotmap_id":"SECTOR-17_428_A_RESI","plotidentificationnumber":"428","plotno":"428","industrysector":"SECTOR-17","block":"A","plotsize":"200 SQMT","plotsize_at_the_time_of_allotme":"200 SQMT","landuse_type":"RESIDENTIAL","landuse_subcategory":"RESIDENTIAL","scheme_cod":"RRPS04","investment":0,"employment":0,"plotstatus":"Allotted","landallotementstatus":"SOLD","landallotementtype":"ALLOTTED","allotmentid":"RRPS041696","allotment_date":1605205800000,"rate_of_allotment":16870,"lease_deed":"N","village_name":"Dhanauri","khasra_no":"498","longitude":77.59650072000001,"latitude":28.34455587,"authority":"YEIDA","category":"residential","execution_stage":"allotted"}},{"type":"Feature","geometry":{"type":"Polygon","coordinates":[[[77.596616,28.344682],[77.596411,28.344701],[77.596402,28.344611],[77.596608,28.344592],[77.596616,28.344682]]]},"properties":{"objectid":2518,"uniqueplotid":"PLNGRESIDENTIAL2518","plotmap_id":"SECTOR-17_429_A_RESI","plotidentificationnumber":"429","plotno":"429","industrysector":"SECTOR-17","block":"A","plotsize":"200 SQMT","plotsize_at_the_time_of_allotme":"200 SQMT","landuse_type":"RESIDENTIAL","landuse_subcategory":"RESIDENTIAL","scheme_cod":"RPS03","investment":0,"employment":0,"plotstatus":"Allotted","landallotementstatus":"SOLD","landallotementtype":"ALLOTTED","allotmentid":"RPS033225","allotment_date":1464114600000,"rate_of_allotment":15620,"lease_deed":"N","village_name":"Dhanauri","khasra_no":"498","longitude":77.59650933,"latitude":28.34464638,"authority":"YEIDA","category":"residential","execution_stage":"allotted"}},{"type":"Feature","geometry":{"type":"Polygon","coordinates":[[[77.596625,28.344773],[77.59642,28.344792],[77.596411,28.344701],[77.596616,28.344682],[77.596625,28.344773]]]},"properties":{"objectid":2519,"uniqueplotid":"PLNGRESIDENTIAL2519","plotmap_id":"SECTOR-17_430_A_RESI","plotidentificationnumber":"430","plotno":"430","industrysector":"SECTOR-17","block":"A","plotsize":"200 SQMT","plotsize_at_the_time_of_allotme":"200 SQMT","landuse_type":"RESIDENTIAL","landuse_subcategory":"RESIDENTIAL","scheme_cod":"RPS03","investment":0,"employment":0,"plotstatus":"Allotted","landallotementstatus":"SOLD","landallotementtype":"ALLOTTED","allotmentid":"RPS033034","allotment_date":1464114600000,"rate_of_allotment":15620,"lease_deed":"N","village_name":"Dhanauri","khasra_no":"498,505,503","longitude":77.59651801000001,"latitude":28.344736909999998,"authority":"YEIDA","category":"residential","execution_stage":"allotted"}},{"type":"Feature","geometry":{"type":"Polygon","coordinates":[[[77.596634,28.344863],[77.596428,28.344882],[77.59642,28.344792],[77.596625,28.344773],[77.596634,28.344863]]]},"properties":{"objectid":2520,"uniqueplotid":"PLNGRESIDENTIAL2520","plotmap_id":"SECTOR-17_431_A_RESI","plotidentificationnumber":"431","plotno":"431","industrysector":"SECTOR-17","block":"A","plotsize":"200 SQMT","plotsize_at_the_time_of_allotme":"200 SQMT","landuse_type":"RESIDENTIAL","landuse_subcategory":"RESIDENTIAL","scheme_cod":"RPS03","investment":0,"employment":0,"plotstatus":"Allotted","landallotementstatus":"SOLD","landallotementtype":"ALLOTTED","allotmentid":"RPS033095","allotment_date":1464114600000,"rate_of_allotment":15620,"lease_deed":"N","village_name":"Dhanauri","khasra_no":"498,505,504,503","longitude":77.59652663,"latitude":28.34482741,"authority":"YEIDA","category":"residential","execution_stage":"allotted"}},{"type":"Feature","geometry":{"type":"Polygon","coordinates":[[[77.596642,28.344954],[77.596437,28.344973],[77.596428,28.344882],[77.596634,28.344863],[77.596642,28.344954]]]},"properties":{"objectid":2521,"uniqueplotid":"PLNGRESIDENTIAL2521","plotmap_id":"SECTOR-17_432_A_RESI","plotidentificationnumber":"432","plotno":"432","industrysector":"SECTOR-17","block":"A","plotsize":"200 SQMT","plotsize_at_the_time_of_allotme":"200 SQMT","landuse_type":"RESIDENTIAL","landuse_subcategory":"RESIDENTIAL","scheme_cod":"RPS03","investment":0,"employment":0,"plotstatus":"Allotted","landallotementstatus":"SOLD","landallotementtype":"ALLOTTED","allotmentid":"RPS033093","allotment_date":1464114600000,"rate_of_allotment":15620,"lease_deed":"N","village_name":"Dhanauri","khasra_no":"505,504","longitude":77.59653527,"latitude":28.344917929999998,"authority":"YEIDA","category":"residential","execution_stage":"allotted"}},{"type":"Feature","geometry":{"type":"Polygon","coordinates":[[[77.59666,28.345135],[77.596454,28.345154],[77.596445,28.345063],[77.596651,28.345044],[77.59666,28.345135]]]},"properties":{"objectid":2522,"uniqueplotid":"PLNGRESIDENTIAL2522","plotmap_id":"SECTOR-17_434_A_RESI","plotidentificationnumber":"434","plotno":"434","industrysector":"SECTOR-17","block":"A","plotsize":"200 SQMT","plotsize_at_the_time_of_allotme":"200 SQMT","landuse_type":"RESIDENTIAL","landuse_subcategory":"RESIDENTIAL","scheme_cod":"RRPS04","investment":0,"employment":0,"plotstatus":"Allotted","landallotementstatus":"SOLD","landallotementtype":"ALLOTTED","allotmentid":"RRPS041674","allotment_date":1605205800000,"rate_of_allotment":16870,"lease_deed":"N","village_name":"Dhanauri","khasra_no":"505,504","longitude":77.59655254,"latitude":28.34509895,"authority":"YEIDA","category":"residential","execution_stage":"allotted"}},{"type":"Feature","geometry":{"type":"Polygon","coordinates":[[[77.596668,28.345225],[77.596463,28.345244],[77.596454,28.345154],[77.59666,28.345135],[77.596668,28.345225]]]},"properties":{"objectid":2523,"uniqueplotid":"PLNGRESIDENTIAL2523","plotmap_id":"SECTOR-17_435_A_RESI","plotidentificationnumber":"435","plotno":"435","industrysector":"SECTOR-17","block":"A","plotsize":"200 SQMT","plotsize_at_the_time_of_allotme":"200 SQMT","landuse_type":"RESIDENTIAL","landuse_subcategory":"RESIDENTIAL","scheme_cod":"RPS03","investment":0,"employment":0,"plotstatus":"Allotted","landallotementstatus":"SOLD","landallotementtype":"ALLOTTED","allotmentid":"RPS033076","allotment_date":1464114600000,"rate_of_allotment":15620,"lease_deed":"N","village_name":"Dhanauri","khasra_no":"504","longitude":77.59656118000001,"latitude":28.345189469999998,"authority":"YEIDA","category":"residential","execution_stage":"allotted"}},{"type":"Feature","geometry":{"type":"Polygon","coordinates":[[[77.596679,28.345334],[77.596473,28.345353],[77.596463,28.345244],[77.596668,28.345225],[77.596679,28.345334]]]},"properties":{"objectid":2524,"uniqueplotid":"PLNGRESIDENTIAL2524","plotmap_id":"SECTOR-17_436_A_RESI","plotidentificationnumber":"436","plotno":"436","industrysector":"SECTOR-17","block":"A","plotsize":"200 SQMT","plotsize_at_the_time_of_allotme":"200 SQMT","landuse_type":"RESIDENTIAL","landuse_subcategory":"RESIDENTIAL","scheme_cod":"RPS03","investment":0,"employment":0,"plotstatus":"Allotted","landallotementstatus":"SOLD","landallotementtype":"ALLOTTED","allotmentid":"RPS033025","allotment_date":1464114600000,"rate_of_allotment":15620,"lease_deed":"N","village_name":"Dhanauri","khasra_no":"504","longitude":77.59656469000001,"latitude":28.345286549999997,"authority":"YEIDA","category":"residential","execution_stage":"allotted"}},{"type":"Feature","geometry":{"type":"Polygon","coordinates":[[[77.596651,28.345044],[77.596445,28.345063],[77.596437,28.344973],[77.596642,28.344954],[77.596651,28.345044]]]},"properties":{"objectid":2525,"uniqueplotid":"PLNGRESIDENTIAL2525","plotmap_id":"SECTOR-17_433_A_RESI","plotidentificationnumber":"433","plotno":"433","industrysector":"SECTOR-17","block":"A","plotsize":"200 SQMT","plotsize_at_the_time_of_allotme":"200 SQMT","landuse_type":"RESIDENTIAL","landuse_subcategory":"RESIDENTIAL","scheme_cod":"RRPS01","investment":0,"employment":0,"plotstatus":"Allotted","landallotementstatus":"SOLD","landallotementtype":"ALLOTTED","allotmentid":"RRPS012546","allotment_date":1546453800000,"rate_of_allotment":15620,"lease_deed":"N","village_name":"Dhanauri","khasra_no":"505,504","longitude":77.5965439,"latitude":28.345008439999997,"authority":"YEIDA","category":"residential","execution_stage":"allotted"}}]}
