{"type":"FeatureCollection","features":[{"type":"Feature","geometry":{"type":"Polygon","coordinates":[[[77.605673,28.292581],[77.605928,28.292579],[77.605824,28.294059],[77.604289,28.294099],[77.60425,28.292605],[77.605673,28.292581]]]},"properties":{"objectid":26759,"uniqueplotid":"PLNGRESIDENTIAL26759","plotmap_id":"SECTOR-20_N.A_L_RESI","plotidentificationnumber":"N.A","plotno":"N.A","industrysector":"SECTOR-20","block":"L","plotsize":"2.00 HAC'","landuse_type":"RESIDENTIAL","landuse_subcategory":"RESIDENTIAL","investment":0,"employment":0,"landallotementstatus":"VACANT","landallotementtype":"VACANT","village_name":"Parsaul,Acchepur","khasra_no":"1143,245,246,289,247,299,327,291,291M,290,297,288,250,249,249M,287,324","longitude":77.60508036,"latitude":28.29333054,"authority":"YEIDA","category":"residential","execution_stage":"vacant"}}]}
