{"type":"FeatureCollection","features":[{"type":"Feature","geometry":{"type":"Polygon","coordinates":[[[77.530787,28.298257],[77.530667,28.298357],[77.530613,28.298309],[77.530734,28.298209],[77.530787,28.298257]]]},"properties":{"objectid":4756,"uniqueplotid":"PLNGRESIDENTIAL4756","plotmap_id":"SECTOR-22D_340_D_RESI","plotidentificationnumber":"340","plotno":"340","industrysector":"SECTOR-22D","block":"D","plotsize":"120 SQMT","plotsize_at_the_time_of_allotme":"120 SQMT","landuse_type":"RESIDENTIAL","landuse_subcategory":"RESIDENTIAL","scheme_cod":"RRPS04","investment":0,"employment":0,"plotstatus":"Allotted","landallotementstatus":"SOLD","landallotementtype":"ALLOTTED","allotmentid":"RRPS041202","village_name":"Kherli Bhav","khasra_no":"772","longitude":77.53070024,"latitude":28.29828291,"authority":"YEIDA","category":"residential","execution_stage":"allotted"}},{"type":"Feature","geometry":{"type":"Polygon","coordinates":[[[77.530734,28.298209],[77.530613,28.298309],[77.530532,28.298235],[77.53064,28.298123],[77.530734,28.298209]]]},"properties":{"objectid":4757,"uniqueplotid":"PLNGRESIDENTIAL4757","plotmap_id":"SECTOR-22D_341_D_RESI","plotidentificationnumber":"341","plotno":"341","industrysector":"SECTOR-22D","block":"D","plotsize":"120 SQMT","plotsize_at_the_time_of_allotme":"120 SQMT","landuse_type":"RESIDENTIAL","landuse_subcategory":"RESIDENTIAL","scheme_cod":"RRPS04","investment":0,"employment":0,"plotstatus":"Allotted","landallotementstatus":"SOLD","landallotementtype":"ALLOTTED","allotmentid":"RRPS041280","village_name":"Kherli Bhav","khasra_no":"772,811","longitude":77.53063219,"latitude":28.29821669,"authority":"YEIDA","category":"residential","execution_stage":"allotted"}},{"type":"Feature","geometry":{"type":"Polygon","coordinates":[[[77.5308,28.298054],[77.530857,28.298106],[77.530734,28.298209],[77.530682,28.298161],[77.5308,28.298054]]]},"properties":{"objectid":4758,"uniqueplotid":"PLNGRESIDENTIAL4758","plotmap_id":"SECTOR-22D_343_D_RESI","plotidentificationnumber":"343","plotno":"343","industrysector":"SECTOR-22D","block":"D","plotsize":"120 SQMT","plotsize_at_the_time_of_allotme":"120 SQMT","landuse_type":"RESIDENTIAL","landuse_subcategory":"RESIDENTIAL","scheme_cod":"RRPS04","investment":0,"employment":0,"plotstatus":"Allotted","landallotementstatus":"SOLD","landallotementtype":"ALLOTTED","allotmentid":"RRPS041078","village_name":"Kherli Bhav","khasra_no":"772","longitude":77.53076863,"latitude":28.29813181,"authority":"YEIDA","category":"residential","execution_stage":"allotted"}},{"type":"Feature","geometry":{"type":"Polygon","coordinates":[[[77.53091,28.298155],[77.530787,28.298257],[77.530734,28.298209],[77.530857,28.298106],[77.53091,28.298155]]]},"properties":{"objectid":4759,"uniqueplotid":"PLNGRESIDENTIAL4759","plotmap_id":"SECTOR-22D_344_D_RESI","plotidentificationnumber":"344","plotno":"344","industrysector":"SECTOR-22D","block":"D","plotsize":"120 SQMT","plotsize_at_the_time_of_allotme":"120 SQMT","landuse_type":"RESIDENTIAL","landuse_subcategory":"RESIDENTIAL","scheme_cod":"RRPS04","investment":0,"employment":0,"plotstatus":"Allotted","landallotementstatus":"SOLD","landallotementtype":"ALLOTTED","allotmentid":"RRPS041160","village_name":"Kherli Bhav","khasra_no":"772","longitude":77.53082211,"latitude":28.29818174,"authority":"YEIDA","category":"residential","execution_stage":"allotted"}},{"type":"Feature","geometry":{"type":"Polygon","coordinates":[[[77.530963,28.298203],[77.53084,28.298305],[77.530787,28.298257],[77.53091,28.298155],[77.530963,28.298203]]]},"properties":{"objectid":4760,"uniqueplotid":"PLNGRESIDENTIAL4760","plotmap_id":"SECTOR-22D_345_D_RESI","plotidentificationnumber":"345","plotno":"345","industrysector":"SECTOR-22D","block":"D","plotsize":"120 SQMT","plotsize_at_the_time_of_allotme":"120 SQMT","landuse_type":"RESIDENTIAL","landuse_subcategory":"RESIDENTIAL","scheme_cod":"RRPS04","investment":0,"employment":0,"plotstatus":"Allotted","landallotementstatus":"SOLD","landallotementtype":"ALLOTTED","allotmentid":"RRPS041025","village_name":"Kherli Bhav","khasra_no":"772","longitude":77.53087528,"latitude":28.29823014,"authority":"YEIDA","category":"residential","execution_stage":"allotted"}},{"type":"Feature","geometry":{"type":"Polygon","coordinates":[[[77.531017,28.298252],[77.530894,28.298354],[77.53084,28.298305],[77.530963,28.298203],[77.531017,28.298252]]]},"properties":{"objectid":4761,"uniqueplotid":"PLNGRESIDENTIAL4761","plotmap_id":"SECTOR-22D_346_D_RESI","plotidentificationnumber":"346","plotno":"346","industrysector":"SECTOR-22D","block":"D","plotsize":"120 SQMT","landuse_type":"RESIDENTIAL","landuse_subcategory":"RESIDENTIAL","investment":0,"employment":0,"landallotementstatus":"VACANT","landallotementtype":"VACANT","village_name":"Kherli Bhav","khasra_no":"772","longitude":77.53092871,"latitude":28.29827877,"authority":"YEIDA","category":"residential","execution_stage":"vacant"}},{"type":"Feature","geometry":{"type":"Polygon","coordinates":[[[77.5308,28.298054],[77.530682,28.298161],[77.53064,28.298123],[77.53075,28.298009],[77.5308,28.298054]]]},"properties":{"objectid":6274,"uniqueplotid":"PLNGRESIDENTIAL6274","plotmap_id":"SECTOR-22D_342_D_RESI","plotidentificationnumber":"342","plotno":"342","industrysector":"SECTOR-22D","block":"D","plotsize":"120 SQMT","plotsize_at_the_time_of_allotme":"120 SQMT","landuse_type":"RESIDENTIAL","landuse_subcategory":"RESIDENTIAL","scheme_cod":"RRPS04","investment":0,"employment":0,"plotstatus":"Allotted","landallotementstatus":"SOLD","landallotementtype":"ALLOTTED","allotmentid":"RRPS041353","village_name":"Kherli Bhav","khasra_no":"772,811,810","longitude":77.53071858,"latitude":28.29808567,"authority":"YEIDA","category":"residential","execution_stage":"allotted"}}]}
