{"type":"FeatureCollection","features":[{"type":"Feature","geometry":{"type":"Polygon","coordinates":[[[77.586041,28.335649],[77.586049,28.335874],[77.585926,28.335877],[77.585919,28.335652],[77.586041,28.335649]]]},"properties":{"objectid":16760,"uniqueplotid":"PLNGRESIDENTIAL16760","plotmap_id":"SECTOR-18_44_7D_RESI","plotidentificationnumber":"44","plotno":"44","industrysector":"SECTOR-18","block":"7D","plotsize":"300 SQMT","plotsize_at_the_time_of_allotme":"300 SQMT","landuse_type":"RESIDENTIAL","landuse_subcategory":"RESIDENTIAL","scheme_cod":"RRPS01","investment":0,"employment":0,"plotstatus":"Allotted","landallotementstatus":"SOLD","landallotementtype":"ALLOTTED","allotmentid":"RRPS012596","village_name":"Mohamadpur Gujar","khasra_no":"402,408,417,409","longitude":77.58598377,"latitude":28.3357629,"authority":"YEIDA","category":"residential","execution_stage":"allotted"}},{"type":"Feature","geometry":{"type":"Polygon","coordinates":[[[77.585919,28.335652],[77.585926,28.335877],[77.585804,28.33588],[77.585796,28.335654],[77.585919,28.335652]]]},"properties":{"objectid":16761,"uniqueplotid":"PLNGRESIDENTIAL16761","plotmap_id":"SECTOR-18_43_7D_RESI","plotidentificationnumber":"43","plotno":"43","industrysector":"SECTOR-18","block":"7D","plotsize":"300 SQMT","plotsize_at_the_time_of_allotme":"300 SQMT","landuse_type":"RESIDENTIAL","landuse_subcategory":"RESIDENTIAL","scheme_cod":"RRPS03","investment":0,"employment":0,"plotstatus":"Allotted","landallotementstatus":"SOLD","landallotementtype":"ALLOTTED","allotmentid":"RRPS031691","lease_deed":"Y","lease_deed_date":1701801000000,"village_name":"Mohamadpur Gujar","khasra_no":"402,408,409","longitude":77.58586126,"latitude":28.3357657,"authority":"YEIDA","category":"residential","execution_stage":"lease-recorded"}},{"type":"Feature","geometry":{"type":"Polygon","coordinates":[[[77.585796,28.335654],[77.585804,28.33588],[77.585681,28.335883],[77.585674,28.335657],[77.585796,28.335654]]]},"properties":{"objectid":16762,"uniqueplotid":"PLNGRESIDENTIAL16762","plotmap_id":"SECTOR-18_42_7D_RESI","plotidentificationnumber":"42","plotno":"42","industrysector":"SECTOR-18","block":"7D","plotsize":"300 SQMT","plotsize_at_the_time_of_allotme":"300 SQMT","landuse_type":"RESIDENTIAL","landuse_subcategory":"RESIDENTIAL","scheme_cod":"RRPS02","investment":0,"employment":0,"plotstatus":"Allotted","landallotementstatus":"SOLD","landallotementtype":"ALLOTTED","allotmentid":"RRPS021349","lease_deed":"Y","lease_deed_date":1703701800000,"village_name":"Mohamadpur Gujar","khasra_no":"402","longitude":77.58573875,"latitude":28.33576849,"authority":"YEIDA","category":"residential","execution_stage":"lease-recorded"}},{"type":"Feature","geometry":{"type":"Polygon","coordinates":[[[77.586041,28.335649],[77.585919,28.335652],[77.585912,28.335426],[77.586034,28.335423],[77.586041,28.335649]]]},"properties":{"objectid":16764,"uniqueplotid":"PLNGRESIDENTIAL16764","plotmap_id":"SECTOR-18_1_7D_RESI","plotidentificationnumber":"1","plotno":"1","industrysector":"SECTOR-18","block":"7D","plotsize":"300 SQMT","plotsize_at_the_time_of_allotme":"300 SQMT","landuse_type":"RESIDENTIAL","landuse_subcategory":"RESIDENTIAL","scheme_cod":"RES01","investment":0,"employment":0,"plotstatus":"Allotted","landallotementstatus":"SOLD","landallotementtype":"ALLOTTED","allotmentid":"YEA008576","village_name":"Mohamadpur Gujar","khasra_no":"417,409","longitude":77.58597659,"latitude":28.33553745,"authority":"YEIDA","category":"residential","execution_stage":"allotted"}},{"type":"Feature","geometry":{"type":"Polygon","coordinates":[[[77.585919,28.335652],[77.585796,28.335654],[77.585789,28.335429],[77.585912,28.335426],[77.585919,28.335652]]]},"properties":{"objectid":16765,"uniqueplotid":"PLNGRESIDENTIAL16765","plotmap_id":"SECTOR-18_2_7D_RESI","plotidentificationnumber":"2","plotno":"2","industrysector":"SECTOR-18","block":"7D","plotsize":"300 SQMT","plotsize_at_the_time_of_allotme":"300 SQMT","landuse_type":"RESIDENTIAL","landuse_subcategory":"RESIDENTIAL","scheme_cod":"RES01","investment":0,"employment":0,"plotstatus":"Allotted","landallotementstatus":"SOLD","landallotementtype":"ALLOTTED","allotmentid":"YEA008130","village_name":"Mohamadpur Gujar","khasra_no":"402,408,417,409","longitude":77.58585408,"latitude":28.33554024,"authority":"YEIDA","category":"residential","execution_stage":"allotted"}},{"type":"Feature","geometry":{"type":"Polygon","coordinates":[[[77.585796,28.335654],[77.585674,28.335657],[77.585667,28.335432],[77.585789,28.335429],[77.585796,28.335654]]]},"properties":{"objectid":16937,"uniqueplotid":"PLNGRESIDENTIAL16937","plotmap_id":"SECTOR-18_3_7D_RESI","plotidentificationnumber":"3","plotno":"3","industrysector":"SECTOR-18","block":"7D","plotsize":"300 SQMT","plotsize_at_the_time_of_allotme":"300 SQMT","landuse_type":"RESIDENTIAL","landuse_subcategory":"RESIDENTIAL","scheme_cod":"RES01","investment":0,"employment":0,"plotstatus":"Allotted","landallotementstatus":"SOLD","landallotementtype":"ALLOTTED","allotmentid":"YEA011856","village_name":"Mohamadpur Gujar","khasra_no":"402,408,417,409","longitude":77.58573156,"latitude":28.33554304,"authority":"YEIDA","category":"residential","execution_stage":"allotted"}},{"type":"Feature","geometry":{"type":"Polygon","coordinates":[[[77.586277,28.335977],[77.586279,28.336049],[77.586126,28.336053],[77.586124,28.335981],[77.586277,28.335977]]]},"properties":{"objectid":16979,"uniqueplotid":"PLNGRESIDENTIAL16979","plotmap_id":"SECTOR-18_45_7D_RESI","plotidentificationnumber":"45","plotno":"45","industrysector":"SECTOR-18","block":"7D","plotsize":"120 SQMT","plotsize_at_the_time_of_allotme":"120 SQMT","landuse_type":"RESIDENTIAL","landuse_subcategory":"RESIDENTIAL","scheme_cod":"RRPS02","investment":0,"employment":0,"plotstatus":"Allotted","landallotementstatus":"SOLD","landallotementtype":"ALLOTTED","allotmentid":"RRPS021101","village_name":"Mohamadpur Gujar","khasra_no":"416,417","longitude":77.58620126000001,"latitude":28.336015149999998,"authority":"YEIDA","category":"residential","execution_stage":"allotted"}},{"type":"Feature","geometry":{"type":"Polygon","coordinates":[[[77.586279,28.336049],[77.586281,28.336122],[77.586128,28.336125],[77.586126,28.336053],[77.586279,28.336049]]]},"properties":{"objectid":16980,"uniqueplotid":"PLNGRESIDENTIAL16980","plotmap_id":"SECTOR-18_46_7D_RESI","plotidentificationnumber":"46","plotno":"46","industrysector":"SECTOR-18","block":"7D","plotsize":"120 SQMT","plotsize_at_the_time_of_allotme":"120 SQMT","landuse_type":"RESIDENTIAL","landuse_subcategory":"RESIDENTIAL","scheme_cod":"RRPS02","investment":0,"employment":0,"plotstatus":"Allotted","landallotementstatus":"SOLD","landallotementtype":"ALLOTTED","allotmentid":"RRPS021159","lease_deed":"Y","lease_deed_date":1719253800000,"village_name":"Mohamadpur Gujar","khasra_no":"416","longitude":77.58620356,"latitude":28.3360873,"authority":"YEIDA","category":"residential","execution_stage":"lease-recorded"}},{"type":"Feature","geometry":{"type":"Polygon","coordinates":[[[77.586281,28.336122],[77.586284,28.336194],[77.58613,28.336197],[77.586128,28.336125],[77.586281,28.336122]]]},"properties":{"objectid":16981,"uniqueplotid":"PLNGRESIDENTIAL16981","plotmap_id":"SECTOR-18_47_7D_RESI","plotidentificationnumber":"47","plotno":"47","industrysector":"SECTOR-18","block":"7D","plotsize":"120 SQMT","plotsize_at_the_time_of_allotme":"120 SQMT","landuse_type":"RESIDENTIAL","landuse_subcategory":"RESIDENTIAL","scheme_cod":"RRPS02","investment":0,"employment":0,"plotstatus":"Allotted","landallotementstatus":"SOLD","landallotementtype":"ALLOTTED","allotmentid":"RRPS021102","village_name":"Mohamadpur Gujar","khasra_no":"416","longitude":77.58620586,"latitude":28.33615944,"authority":"YEIDA","category":"residential","execution_stage":"allotted"}},{"type":"Feature","geometry":{"type":"Polygon","coordinates":[[[77.58585,28.336059],[77.585852,28.336131],[77.585699,28.336135],[77.585697,28.336063],[77.58585,28.336059]]]},"properties":{"objectid":16984,"uniqueplotid":"PLNGRESIDENTIAL16984","plotmap_id":"SECTOR-18_138_7D_RESI","plotidentificationnumber":"138","plotno":"138","industrysector":"SECTOR-18","block":"7D","plotsize":"120 SQMT","plotsize_at_the_time_of_allotme":"120 SQMT","landuse_type":"RESIDENTIAL","landuse_subcategory":"RESIDENTIAL","scheme_cod":"RRPS02","investment":0,"employment":0,"plotstatus":"Allotted","landallotementstatus":"SOLD","landallotementtype":"ALLOTTED","allotmentid":"RRPS021179","village_name":"Mohamadpur Gujar","khasra_no":"402,408,416,415,409","longitude":77.58577477,"latitude":28.33609708,"authority":"YEIDA","category":"residential","execution_stage":"allotted"}},{"type":"Feature","geometry":{"type":"Polygon","coordinates":[[[77.585852,28.336131],[77.585855,28.336204],[77.585702,28.336207],[77.585699,28.336135],[77.585852,28.336131]]]},"properties":{"objectid":16985,"uniqueplotid":"PLNGRESIDENTIAL16985","plotmap_id":"SECTOR-18_139_7D_RESI","plotidentificationnumber":"139","plotno":"139","industrysector":"SECTOR-18","block":"7D","plotsize":"120 SQMT","plotsize_at_the_time_of_allotme":"120 SQMT","landuse_type":"RESIDENTIAL","landuse_subcategory":"RESIDENTIAL","scheme_cod":"RRPS02","investment":0,"employment":0,"plotstatus":"Allotted","landallotementstatus":"SOLD","landallotementtype":"ALLOTTED","allotmentid":"RRPS021105","lease_deed":"Y","lease_deed_date":1729535400000,"village_name":"Mohamadpur Gujar","khasra_no":"402,408,416,415,409","longitude":77.58577707,"latitude":28.33616922,"authority":"YEIDA","category":"residential","execution_stage":"lease-recorded"}},{"type":"Feature","geometry":{"type":"Polygon","coordinates":[[[77.586128,28.336125],[77.58613,28.336197],[77.585977,28.336201],[77.585975,28.336129],[77.586128,28.336125]]]},"properties":{"objectid":16990,"uniqueplotid":"PLNGRESIDENTIAL16990","plotmap_id":"SECTOR-18_134_7D_RESI","plotidentificationnumber":"134","plotno":"134","industrysector":"SECTOR-18","block":"7D","plotsize":"120 SQMT","plotsize_at_the_time_of_allotme":"120 SQMT","landuse_type":"RESIDENTIAL","landuse_subcategory":"RESIDENTIAL","scheme_cod":"RRPS02","investment":0,"employment":0,"plotstatus":"Allotted","landallotementstatus":"SOLD","landallotementtype":"ALLOTTED","allotmentid":"RRPS021069","village_name":"Mohamadpur Gujar","khasra_no":"416","longitude":77.58605272,"latitude":28.336162939999998,"authority":"YEIDA","category":"residential","execution_stage":"allotted"}},{"type":"Feature","geometry":{"type":"Polygon","coordinates":[[[77.586126,28.336053],[77.586128,28.336125],[77.585975,28.336129],[77.585973,28.336056],[77.586126,28.336053]]]},"properties":{"objectid":16991,"uniqueplotid":"PLNGRESIDENTIAL16991","plotmap_id":"SECTOR-18_135_7D_RESI","plotidentificationnumber":"135","plotno":"135","industrysector":"SECTOR-18","block":"7D","plotsize":"120 SQMT","plotsize_at_the_time_of_allotme":"120 SQMT","landuse_type":"RESIDENTIAL","landuse_subcategory":"RESIDENTIAL","scheme_cod":"RRPS02","investment":0,"employment":0,"plotstatus":"Allotted","landallotementstatus":"SOLD","landallotementtype":"ALLOTTED","allotmentid":"RRPS021079","village_name":"Mohamadpur Gujar","khasra_no":"416","longitude":77.58605041999999,"latitude":28.33609079,"authority":"YEIDA","category":"residential","execution_stage":"allotted"}},{"type":"Feature","geometry":{"type":"Polygon","coordinates":[[[77.585848,28.335987],[77.58585,28.336059],[77.585697,28.336063],[77.585695,28.335991],[77.585848,28.335987]]]},"properties":{"objectid":16992,"uniqueplotid":"PLNGRESIDENTIAL16992","plotmap_id":"SECTOR-18_137_7D_RESI","plotidentificationnumber":"137","plotno":"137","industrysector":"SECTOR-18","block":"7D","plotsize":"120 SQMT","plotsize_at_the_time_of_allotme":"120 SQMT","landuse_type":"RESIDENTIAL","landuse_subcategory":"RESIDENTIAL","scheme_cod":"RRPS02","investment":0,"employment":0,"plotstatus":"Allotted","landallotementstatus":"SOLD","landallotementtype":"ALLOTTED","allotmentid":"RRPS021091","village_name":"Mohamadpur Gujar","khasra_no":"402","longitude":77.58577247000001,"latitude":28.336024929999997,"authority":"YEIDA","category":"residential","execution_stage":"allotted"}},{"type":"Feature","geometry":{"type":"Polygon","coordinates":[[[77.586124,28.335981],[77.586126,28.336053],[77.585973,28.336056],[77.58597,28.335984],[77.586124,28.335981]]]},"properties":{"objectid":16993,"uniqueplotid":"PLNGRESIDENTIAL16993","plotmap_id":"SECTOR-18_136_7D_RESI","plotidentificationnumber":"136","plotno":"136","industrysector":"SECTOR-18","block":"7D","plotsize":"120 SQMT","plotsize_at_the_time_of_allotme":"120 SQMT","landuse_type":"RESIDENTIAL","landuse_subcategory":"RESIDENTIAL","scheme_cod":"RRPS02","investment":0,"employment":0,"plotstatus":"Allotted","landallotementstatus":"SOLD","landallotementtype":"ALLOTTED","allotmentid":"RRPS021082","village_name":"Mohamadpur Gujar","khasra_no":"402,408,416,409","longitude":77.58604812,"latitude":28.33601864,"authority":"YEIDA","category":"residential","execution_stage":"allotted"}}]}
