{"type":"FeatureCollection","features":[{"type":"Feature","geometry":{"type":"Polygon","coordinates":[[[77.531781,28.301689],[77.531661,28.301814],[77.531589,28.301762],[77.53171,28.301637],[77.531781,28.301689]]]},"properties":{"objectid":4646,"uniqueplotid":"PLNGRESIDENTIAL4646","plotmap_id":"SECTOR-22D_322_C_RESI","plotidentificationnumber":"322","plotno":"322","industrysector":"SECTOR-22D","block":"C","plotsize":"162 SQMT","plotsize_at_the_time_of_allotme":"162 SQMT","landuse_type":"RESIDENTIAL","landuse_subcategory":"RESIDENTIAL","scheme_cod":"RRPS04","investment":0,"employment":0,"plotstatus":"Allotted","landallotementstatus":"SOLD","landallotementtype":"ALLOTTED","allotmentid":"RRPS041438","village_name":"Munjkheda","khasra_no":"1009","longitude":77.53168523,"latitude":28.30172563,"authority":"YEIDA","category":"residential","execution_stage":"allotted"}},{"type":"Feature","geometry":{"type":"Polygon","coordinates":[[[77.534619,28.301738],[77.534498,28.301839],[77.534444,28.30179],[77.534565,28.30169],[77.534619,28.301738]]]},"properties":{"objectid":4678,"uniqueplotid":"PLNGRESIDENTIAL4678","plotmap_id":"SECTOR-22D_270_D_RESI","plotidentificationnumber":"270","plotno":"270","industrysector":"SECTOR-22D","block":"D","plotsize":"120 SQMT","plotsize_at_the_time_of_allotme":"120 SQMT","landuse_type":"RESIDENTIAL","landuse_subcategory":"RESIDENTIAL","scheme_cod":"RRPS04","investment":0,"employment":0,"plotstatus":"Allotted","landallotementstatus":"SOLD","landallotementtype":"ALLOTTED","allotmentid":"RRPS041362","village_name":"Kherli Bhav","khasra_no":"758","longitude":77.53453146,"latitude":28.301764340000002,"authority":"YEIDA","category":"residential","execution_stage":"allotted"}},{"type":"Feature","geometry":{"type":"Polygon","coordinates":[[[77.534565,28.30169],[77.534444,28.30179],[77.534391,28.301742],[77.534512,28.301641],[77.534565,28.30169]]]},"properties":{"objectid":4679,"uniqueplotid":"PLNGRESIDENTIAL4679","plotmap_id":"SECTOR-22D_271_D_RESI","plotidentificationnumber":"271","plotno":"271","industrysector":"SECTOR-22D","block":"D","plotsize":"120 SQMT","plotsize_at_the_time_of_allotme":"120 SQMT","landuse_type":"RESIDENTIAL","landuse_subcategory":"RESIDENTIAL","scheme_cod":"RRPS04","investment":0,"employment":0,"plotstatus":"Allotted","landallotementstatus":"SOLD","landallotementtype":"ALLOTTED","allotmentid":"RRPS041212","village_name":"Kherli Bhav","khasra_no":"758","longitude":77.53447804000001,"latitude":28.30171572,"authority":"YEIDA","category":"residential","execution_stage":"allotted"}},{"type":"Feature","geometry":{"type":"Polygon","coordinates":[[[77.534512,28.301641],[77.534391,28.301742],[77.534337,28.301693],[77.534458,28.301593],[77.534512,28.301641]]]},"properties":{"objectid":4680,"uniqueplotid":"PLNGRESIDENTIAL4680","plotmap_id":"SECTOR-22D_272_D_RESI","plotidentificationnumber":"272","plotno":"272","industrysector":"SECTOR-22D","block":"D","plotsize":"120 SQMT","plotsize_at_the_time_of_allotme":"120 SQMT","landuse_type":"RESIDENTIAL","landuse_subcategory":"RESIDENTIAL","scheme_cod":"RRPS04","investment":0,"employment":0,"plotstatus":"Allotted","landallotementstatus":"SOLD","landallotementtype":"ALLOTTED","allotmentid":"RRPS041359","village_name":"Kherli Bhav","khasra_no":"758","longitude":77.53442460000001,"latitude":28.301667090000002,"authority":"YEIDA","category":"residential","execution_stage":"allotted"}},{"type":"Feature","geometry":{"type":"Polygon","coordinates":[[[77.534458,28.301593],[77.534337,28.301693],[77.534284,28.301644],[77.534405,28.301544],[77.534458,28.301593]]]},"properties":{"objectid":4681,"uniqueplotid":"PLNGRESIDENTIAL4681","plotmap_id":"SECTOR-22D_273_D_RESI","plotidentificationnumber":"273","plotno":"273","industrysector":"SECTOR-22D","block":"D","plotsize":"120 SQMT","plotsize_at_the_time_of_allotme":"120 SQMT","landuse_type":"RESIDENTIAL","landuse_subcategory":"RESIDENTIAL","scheme_cod":"RRPS04","investment":0,"employment":0,"plotstatus":"Allotted","landallotementstatus":"SOLD","landallotementtype":"ALLOTTED","allotmentid":"RRPS041339","village_name":"Kherli Bhav","khasra_no":"758","longitude":77.53437115,"latitude":28.30161842,"authority":"YEIDA","category":"residential","execution_stage":"allotted"}},{"type":"Feature","geometry":{"type":"Polygon","coordinates":[[[77.534405,28.301544],[77.534284,28.301644],[77.53423,28.301596],[77.534351,28.301495],[77.534405,28.301544]]]},"properties":{"objectid":4682,"uniqueplotid":"PLNGRESIDENTIAL4682","plotmap_id":"SECTOR-22D_274_D_RESI","plotidentificationnumber":"274","plotno":"274","industrysector":"SECTOR-22D","block":"D","plotsize":"120 SQMT","plotsize_at_the_time_of_allotme":"120 SQMT","landuse_type":"RESIDENTIAL","landuse_subcategory":"RESIDENTIAL","scheme_cod":"RRPS04","investment":0,"employment":0,"plotstatus":"Allotted","landallotementstatus":"SOLD","landallotementtype":"ALLOTTED","allotmentid":"RRPS041008","village_name":"Kherli Bhav","khasra_no":"758","longitude":77.53431766,"latitude":28.30156967,"authority":"YEIDA","category":"residential","execution_stage":"allotted"}},{"type":"Feature","geometry":{"type":"Polygon","coordinates":[[[77.534351,28.301495],[77.53423,28.301596],[77.534177,28.301547],[77.534298,28.301447],[77.534351,28.301495]]]},"properties":{"objectid":4683,"uniqueplotid":"PLNGRESIDENTIAL4683","plotmap_id":"SECTOR-22D_275_D_RESI","plotidentificationnumber":"275","plotno":"275","industrysector":"SECTOR-22D","block":"D","plotsize":"120 SQMT","plotsize_at_the_time_of_allotme":"120 SQMT","landuse_type":"RESIDENTIAL","landuse_subcategory":"RESIDENTIAL","scheme_cod":"RRPS04","investment":0,"employment":0,"plotstatus":"Allotted","landallotementstatus":"SOLD","landallotementtype":"ALLOTTED","allotmentid":"RRPS041332","village_name":"Kherli Bhav","khasra_no":"758","longitude":77.53426409,"latitude":28.30152122,"authority":"YEIDA","category":"residential","execution_stage":"allotted"}},{"type":"Feature","geometry":{"type":"Polygon","coordinates":[[[77.534298,28.301447],[77.534177,28.301547],[77.534124,28.301499],[77.534245,28.301398],[77.534298,28.301447]]]},"properties":{"objectid":4684,"uniqueplotid":"PLNGRESIDENTIAL4684","plotmap_id":"SECTOR-22D_276_D_RESI","plotidentificationnumber":"276","plotno":"276","industrysector":"SECTOR-22D","block":"D","plotsize":"120 SQMT","plotsize_at_the_time_of_allotme":"120 SQMT","landuse_type":"RESIDENTIAL","landuse_subcategory":"RESIDENTIAL","scheme_cod":"RPS05","investment":0,"employment":0,"plotstatus":"Allotted","landallotementstatus":"SOLD","landallotementtype":"ALLOTTED","allotmentid":"RPS051198","village_name":"Kherli Bhav","khasra_no":"758","longitude":77.53421087,"latitude":28.301472620000002,"authority":"YEIDA","category":"residential","execution_stage":"allotted"}},{"type":"Feature","geometry":{"type":"Polygon","coordinates":[[[77.534245,28.301398],[77.534124,28.301499],[77.53407,28.30145],[77.534191,28.301349],[77.534245,28.301398]]]},"properties":{"objectid":4685,"uniqueplotid":"PLNGRESIDENTIAL4685","plotmap_id":"SECTOR-22D_277_D_RESI","plotidentificationnumber":"277","plotno":"277","industrysector":"SECTOR-22D","block":"D","plotsize":"120 SQMT","plotsize_at_the_time_of_allotme":"120 SQMT","landuse_type":"RESIDENTIAL","landuse_subcategory":"RESIDENTIAL","scheme_cod":"RRPS04","investment":0,"employment":0,"plotstatus":"Allotted","landallotementstatus":"SOLD","landallotementtype":"ALLOTTED","allotmentid":"RRPS041113","village_name":"Kherli Bhav","khasra_no":"758","longitude":77.53415744,"latitude":28.30142399,"authority":"YEIDA","category":"residential","execution_stage":"allotted"}},{"type":"Feature","geometry":{"type":"Polygon","coordinates":[[[77.534191,28.301349],[77.53407,28.30145],[77.534017,28.301401],[77.534138,28.301301],[77.534191,28.301349]]]},"properties":{"objectid":4686,"uniqueplotid":"PLNGRESIDENTIAL4686","plotmap_id":"SECTOR-22D_278_D_RESI","plotidentificationnumber":"278","plotno":"278","industrysector":"SECTOR-22D","block":"D","plotsize":"120 SQMT","plotsize_at_the_time_of_allotme":"120 SQMT","landuse_type":"RESIDENTIAL","landuse_subcategory":"RESIDENTIAL","scheme_cod":"RRPS04","investment":0,"employment":0,"plotstatus":"Allotted","landallotementstatus":"SOLD","landallotementtype":"ALLOTTED","allotmentid":"RRPS041377","village_name":"Kherli Bhav","khasra_no":"758","longitude":77.53410398,"latitude":28.30137535,"authority":"YEIDA","category":"residential","execution_stage":"allotted"}},{"type":"Feature","geometry":{"type":"Polygon","coordinates":[[[77.534138,28.301301],[77.534017,28.301401],[77.533963,28.301353],[77.534085,28.301252],[77.534138,28.301301]]]},"properties":{"objectid":4687,"uniqueplotid":"PLNGRESIDENTIAL4687","plotmap_id":"SECTOR-22D_279_D_RESI","plotidentificationnumber":"279","plotno":"279","industrysector":"SECTOR-22D","block":"D","plotsize":"120 SQMT","plotsize_at_the_time_of_allotme":"120 SQMT","landuse_type":"RESIDENTIAL","landuse_subcategory":"RESIDENTIAL","scheme_cod":"RRPS04","investment":0,"employment":0,"plotstatus":"Allotted","landallotementstatus":"SOLD","landallotementtype":"ALLOTTED","allotmentid":"RRPS041272","village_name":"Kherli Bhav","khasra_no":"758","longitude":77.53405056000001,"latitude":28.30132675,"authority":"YEIDA","category":"residential","execution_stage":"allotted"}},{"type":"Feature","geometry":{"type":"Polygon","coordinates":[[[77.534085,28.301252],[77.533963,28.301353],[77.53391,28.301304],[77.534031,28.301204],[77.534085,28.301252]]]},"properties":{"objectid":4688,"uniqueplotid":"PLNGRESIDENTIAL4688","plotmap_id":"SECTOR-22D_280_D_RESI","plotidentificationnumber":"280","plotno":"280","industrysector":"SECTOR-22D","block":"D","plotsize":"120 SQMT","plotsize_at_the_time_of_allotme":"120 SQMT","landuse_type":"RESIDENTIAL","landuse_subcategory":"RESIDENTIAL","scheme_cod":"RRPS04","investment":0,"employment":0,"plotstatus":"Allotted","landallotementstatus":"SOLD","landallotementtype":"ALLOTTED","allotmentid":"RRPS041297","village_name":"Kherli Bhav","khasra_no":"758,761","longitude":77.53399714,"latitude":28.30127814,"authority":"YEIDA","category":"residential","execution_stage":"allotted"}},{"type":"Feature","geometry":{"type":"Polygon","coordinates":[[[77.534031,28.301204],[77.53391,28.301304],[77.533856,28.301256],[77.533978,28.301155],[77.534031,28.301204]]]},"properties":{"objectid":4689,"uniqueplotid":"PLNGRESIDENTIAL4689","plotmap_id":"SECTOR-22D_281_D_RESI","plotidentificationnumber":"281","plotno":"281","industrysector":"SECTOR-22D","block":"D","plotsize":"120 SQMT","plotsize_at_the_time_of_allotme":"120 SQMT","landuse_type":"RESIDENTIAL","landuse_subcategory":"RESIDENTIAL","scheme_cod":"RRPS04","investment":0,"employment":0,"plotstatus":"Allotted","landallotementstatus":"SOLD","landallotementtype":"ALLOTTED","allotmentid":"RRPS041028","village_name":"Kherli Bhav","khasra_no":"758,761","longitude":77.53394373,"latitude":28.30122953,"authority":"YEIDA","category":"residential","execution_stage":"allotted"}},{"type":"Feature","geometry":{"type":"Polygon","coordinates":[[[77.533978,28.301155],[77.533856,28.301256],[77.533803,28.301207],[77.533924,28.301106],[77.533978,28.301155]]]},"properties":{"objectid":4690,"uniqueplotid":"PLNGRESIDENTIAL4690","plotmap_id":"SECTOR-22D_282_D_RESI","plotidentificationnumber":"282","plotno":"282","industrysector":"SECTOR-22D","block":"D","plotsize":"120 SQMT","plotsize_at_the_time_of_allotme":"120 SQMT","landuse_type":"RESIDENTIAL","landuse_subcategory":"RESIDENTIAL","scheme_cod":"RRPS04","investment":0,"employment":0,"plotstatus":"Allotted","landallotementstatus":"SOLD","landallotementtype":"ALLOTTED","allotmentid":"RRPS041236","village_name":"Kherli Bhav","khasra_no":"758,761","longitude":77.53388828,"latitude":28.30118152,"authority":"YEIDA","category":"residential","execution_stage":"allotted"}},{"type":"Feature","geometry":{"type":"Polygon","coordinates":[[[77.533924,28.301106],[77.533803,28.301207],[77.533749,28.301158],[77.533871,28.301058],[77.533924,28.301106]]]},"properties":{"objectid":4691,"uniqueplotid":"PLNGRESIDENTIAL4691","plotmap_id":"SECTOR-22D_283_D_RESI","plotidentificationnumber":"283","plotno":"283","industrysector":"SECTOR-22D","block":"D","plotsize":"120 SQMT","plotsize_at_the_time_of_allotme":"120 SQMT","landuse_type":"RESIDENTIAL","landuse_subcategory":"RESIDENTIAL","scheme_cod":"RPS06","investment":0,"employment":0,"plotstatus":"Allotted","landallotementstatus":"SOLD","landallotementtype":"ALLOTTED","allotmentid":"RPS061295","village_name":"Kherli Bhav","khasra_no":"758,761","longitude":77.53383141,"latitude":28.301133880000002,"authority":"YEIDA","category":"residential","execution_stage":"allotted"}},{"type":"Feature","geometry":{"type":"Polygon","coordinates":[[[77.533871,28.301058],[77.533749,28.301158],[77.533696,28.30111],[77.533817,28.301009],[77.533871,28.301058]]]},"properties":{"objectid":4692,"uniqueplotid":"PLNGRESIDENTIAL4692","plotmap_id":"SECTOR-22D_284_D_RESI","plotidentificationnumber":"284","plotno":"284","industrysector":"SECTOR-22D","block":"D","plotsize":"120 SQMT","plotsize_at_the_time_of_allotme":"120 SQMT","landuse_type":"RESIDENTIAL","landuse_subcategory":"RESIDENTIAL","scheme_cod":"RRPS04","investment":0,"employment":0,"plotstatus":"Allotted","landallotementstatus":"SOLD","landallotementtype":"ALLOTTED","allotmentid":"RRPS041291","village_name":"Kherli Bhav","khasra_no":"758,761","longitude":77.53378344,"latitude":28.30108366,"authority":"YEIDA","category":"residential","execution_stage":"allotted"}},{"type":"Feature","geometry":{"type":"Polygon","coordinates":[[[77.533817,28.301009],[77.533696,28.30111],[77.533643,28.301061],[77.533764,28.30096],[77.533817,28.301009]]]},"properties":{"objectid":4693,"uniqueplotid":"PLNGRESIDENTIAL4693","plotmap_id":"SECTOR-22D_285_D_RESI","plotidentificationnumber":"285","plotno":"285","industrysector":"SECTOR-22D","block":"D","plotsize":"120 SQMT","plotsize_at_the_time_of_allotme":"120 SQMT","landuse_type":"RESIDENTIAL","landuse_subcategory":"RESIDENTIAL","scheme_cod":"RRPS04","investment":0,"employment":0,"plotstatus":"Allotted","landallotementstatus":"SOLD","landallotementtype":"ALLOTTED","allotmentid":"RRPS041294","village_name":"Kherli Bhav","khasra_no":"758,761","longitude":77.53373001,"latitude":28.30103508,"authority":"YEIDA","category":"residential","execution_stage":"allotted"}},{"type":"Feature","geometry":{"type":"Polygon","coordinates":[[[77.533764,28.30096],[77.533643,28.301061],[77.533589,28.301012],[77.533711,28.300912],[77.533764,28.30096]]]},"properties":{"objectid":4694,"uniqueplotid":"PLNGRESIDENTIAL4694","plotmap_id":"SECTOR-22D_286_D_RESI","plotidentificationnumber":"286","plotno":"286","industrysector":"SECTOR-22D","block":"D","plotsize":"120 SQMT","plotsize_at_the_time_of_allotme":"120 SQMT","landuse_type":"RESIDENTIAL","landuse_subcategory":"RESIDENTIAL","scheme_cod":"RRPS04","investment":0,"employment":0,"plotstatus":"Allotted","landallotementstatus":"SOLD","landallotementtype":"ALLOTTED","allotmentid":"RRPS041079","village_name":"Kherli Bhav","khasra_no":"758,761","longitude":77.53367653000001,"latitude":28.30098641,"authority":"YEIDA","category":"residential","execution_stage":"allotted"}},{"type":"Feature","geometry":{"type":"Polygon","coordinates":[[[77.533711,28.300912],[77.533589,28.301012],[77.533536,28.300964],[77.533657,28.300863],[77.533711,28.300912]]]},"properties":{"objectid":4695,"uniqueplotid":"PLNGRESIDENTIAL4695","plotmap_id":"SECTOR-22D_287_D_RESI","plotidentificationnumber":"287","plotno":"287","industrysector":"SECTOR-22D","block":"D","plotsize":"120 SQMT","plotsize_at_the_time_of_allotme":"120 SQMT","landuse_type":"RESIDENTIAL","landuse_subcategory":"RESIDENTIAL","scheme_cod":"RRPS04","investment":0,"employment":0,"plotstatus":"Allotted","landallotementstatus":"SOLD","landallotementtype":"ALLOTTED","allotmentid":"RRPS041020","village_name":"Kherli Bhav","khasra_no":"758,761","longitude":77.53362315000001,"latitude":28.300937819999998,"authority":"YEIDA","category":"residential","execution_stage":"allotted"}},{"type":"Feature","geometry":{"type":"Polygon","coordinates":[[[77.533657,28.300863],[77.533536,28.300964],[77.533482,28.300915],[77.533604,28.300814],[77.533657,28.300863]]]},"properties":{"objectid":4696,"uniqueplotid":"PLNGRESIDENTIAL4696","plotmap_id":"SECTOR-22D_288_D_RESI","plotidentificationnumber":"288","plotno":"288","industrysector":"SECTOR-22D","block":"D","plotsize":"120 SQMT","plotsize_at_the_time_of_allotme":"120 SQMT","landuse_type":"RESIDENTIAL","landuse_subcategory":"RESIDENTIAL","scheme_cod":"RRPS04","investment":0,"employment":0,"plotstatus":"Allotted","landallotementstatus":"SOLD","landallotementtype":"ALLOTTED","allotmentid":"RRPS041024","village_name":"Kherli Bhav","khasra_no":"758,761","longitude":77.53356971000001,"latitude":28.300889209999998,"authority":"YEIDA","category":"residential","execution_stage":"allotted"}},{"type":"Feature","geometry":{"type":"Polygon","coordinates":[[[77.533604,28.300814],[77.533482,28.300915],[77.533429,28.300867],[77.53355,28.300766],[77.533604,28.300814]]]},"properties":{"objectid":4697,"uniqueplotid":"PLNGRESIDENTIAL4697","plotmap_id":"SECTOR-22D_289_D_RESI","plotidentificationnumber":"289","plotno":"289","industrysector":"SECTOR-22D","block":"D","plotsize":"120 SQMT","plotsize_at_the_time_of_allotme":"120 SQMT","landuse_type":"RESIDENTIAL","landuse_subcategory":"RESIDENTIAL","scheme_cod":"RRPS04","investment":0,"employment":0,"plotstatus":"Allotted","landallotementstatus":"SOLD","landallotementtype":"ALLOTTED","allotmentid":"RRPS041094","village_name":"Kherli Bhav","khasra_no":"758,761","longitude":77.53351629000001,"latitude":28.30084058,"authority":"YEIDA","category":"residential","execution_stage":"allotted"}},{"type":"Feature","geometry":{"type":"Polygon","coordinates":[[[77.53355,28.300766],[77.533429,28.300867],[77.533375,28.300818],[77.533497,28.300717],[77.53355,28.300766]]]},"properties":{"objectid":4698,"uniqueplotid":"PLNGRESIDENTIAL4698","plotmap_id":"SECTOR-22D_290_D_RESI","plotidentificationnumber":"290","plotno":"290","industrysector":"SECTOR-22D","block":"D","plotsize":"120 SQMT","plotsize_at_the_time_of_allotme":"120 SQMT","landuse_type":"RESIDENTIAL","landuse_subcategory":"RESIDENTIAL","scheme_cod":"RRPS04","investment":0,"employment":0,"plotstatus":"Allotted","landallotementstatus":"SOLD","landallotementtype":"ALLOTTED","allotmentid":"RRPS041269","village_name":"Kherli Bhav","khasra_no":"758,761","longitude":77.53346287,"latitude":28.30079199,"authority":"YEIDA","category":"residential","execution_stage":"allotted"}},{"type":"Feature","geometry":{"type":"Polygon","coordinates":[[[77.533497,28.300717],[77.533375,28.300818],[77.533322,28.30077],[77.533444,28.300669],[77.533497,28.300717]]]},"properties":{"objectid":4699,"uniqueplotid":"PLNGRESIDENTIAL4699","plotmap_id":"SECTOR-22D_291_D_RESI","plotidentificationnumber":"291","plotno":"291","industrysector":"SECTOR-22D","block":"D","plotsize":"120 SQMT","plotsize_at_the_time_of_allotme":"120 SQMT","landuse_type":"RESIDENTIAL","landuse_subcategory":"RESIDENTIAL","scheme_cod":"RRPS04","investment":0,"employment":0,"plotstatus":"Allotted","landallotementstatus":"SOLD","landallotementtype":"ALLOTTED","allotmentid":"RRPS041151","village_name":"Kherli Bhav","khasra_no":"758,761","longitude":77.53340943,"latitude":28.30074336,"authority":"YEIDA","category":"residential","execution_stage":"allotted"}},{"type":"Feature","geometry":{"type":"Polygon","coordinates":[[[77.533444,28.300669],[77.533322,28.30077],[77.533268,28.300721],[77.53339,28.30062],[77.533444,28.300669]]]},"properties":{"objectid":4700,"uniqueplotid":"PLNGRESIDENTIAL4700","plotmap_id":"SECTOR-22D_292_D_RESI","plotidentificationnumber":"292","plotno":"292","industrysector":"SECTOR-22D","block":"D","plotsize":"120 SQMT","plotsize_at_the_time_of_allotme":"120 SQMT","landuse_type":"RESIDENTIAL","landuse_subcategory":"RESIDENTIAL","scheme_cod":"RRPS04","investment":0,"employment":0,"plotstatus":"Allotted","landallotementstatus":"SOLD","landallotementtype":"ALLOTTED","allotmentid":"RRPS041233","village_name":"Kherli Bhav","khasra_no":"758,761","longitude":77.53335600999999,"latitude":28.30069474,"authority":"YEIDA","category":"residential","execution_stage":"allotted"}},{"type":"Feature","geometry":{"type":"Polygon","coordinates":[[[77.53339,28.30062],[77.533268,28.300721],[77.533215,28.300672],[77.533337,28.300571],[77.53339,28.30062]]]},"properties":{"objectid":4701,"uniqueplotid":"PLNGRESIDENTIAL4701","plotmap_id":"SECTOR-22D_293_D_RESI","plotidentificationnumber":"293","plotno":"293","industrysector":"SECTOR-22D","block":"D","plotsize":"120 SQMT","plotsize_at_the_time_of_allotme":"120 SQMT","landuse_type":"RESIDENTIAL","landuse_subcategory":"RESIDENTIAL","scheme_cod":"RRPS04","investment":0,"employment":0,"plotstatus":"Allotted","landallotementstatus":"SOLD","landallotementtype":"ALLOTTED","allotmentid":"RRPS041142","village_name":"Kherli Bhav","khasra_no":"758,761","longitude":77.53330251999999,"latitude":28.30064609,"authority":"YEIDA","category":"residential","execution_stage":"allotted"}},{"type":"Feature","geometry":{"type":"Polygon","coordinates":[[[77.533337,28.300571],[77.533215,28.300672],[77.533162,28.300624],[77.533283,28.300523],[77.533337,28.300571]]]},"properties":{"objectid":4702,"uniqueplotid":"PLNGRESIDENTIAL4702","plotmap_id":"SECTOR-22D_294_D_RESI","plotidentificationnumber":"294","plotno":"294","industrysector":"SECTOR-22D","block":"D","plotsize":"120 SQMT","plotsize_at_the_time_of_allotme":"120 SQMT","landuse_type":"RESIDENTIAL","landuse_subcategory":"RESIDENTIAL","scheme_cod":"RRPS04","investment":0,"employment":0,"plotstatus":"Allotted","landallotementstatus":"SOLD","landallotementtype":"ALLOTTED","allotmentid":"RRPS041382","village_name":"Kherli Bhav","khasra_no":"758,761","longitude":77.53324905,"latitude":28.30059737,"authority":"YEIDA","category":"residential","execution_stage":"allotted"}},{"type":"Feature","geometry":{"type":"Polygon","coordinates":[[[77.533283,28.300523],[77.533162,28.300624],[77.533108,28.300575],[77.53323,28.300474],[77.533283,28.300523]]]},"properties":{"objectid":4703,"uniqueplotid":"PLNGRESIDENTIAL4703","plotmap_id":"SECTOR-22D_295_D_RESI","plotidentificationnumber":"295","plotno":"295","industrysector":"SECTOR-22D","block":"D","plotsize":"120 SQMT","plotsize_at_the_time_of_allotme":"120 SQMT","landuse_type":"RESIDENTIAL","landuse_subcategory":"RESIDENTIAL","scheme_cod":"RRPS04","investment":0,"employment":0,"plotstatus":"Allotted","landallotementstatus":"SOLD","landallotementtype":"ALLOTTED","allotmentid":"RRPS041092","village_name":"Kherli Bhav","khasra_no":"758,761","longitude":77.5331956,"latitude":28.30054879,"authority":"YEIDA","category":"residential","execution_stage":"allotted"}},{"type":"Feature","geometry":{"type":"Polygon","coordinates":[[[77.53323,28.300474],[77.533108,28.300575],[77.533055,28.300526],[77.533176,28.300425],[77.53323,28.300474]]]},"properties":{"objectid":4704,"uniqueplotid":"PLNGRESIDENTIAL4704","plotmap_id":"SECTOR-22D_296_D_RESI","plotidentificationnumber":"296","plotno":"296","industrysector":"SECTOR-22D","block":"D","plotsize":"120 SQMT","plotsize_at_the_time_of_allotme":"120 SQMT","landuse_type":"RESIDENTIAL","landuse_subcategory":"RESIDENTIAL","scheme_cod":"RRPS04","investment":0,"employment":0,"plotstatus":"Allotted","landallotementstatus":"SOLD","landallotementtype":"ALLOTTED","allotmentid":"RRPS041373","village_name":"Kherli Bhav","khasra_no":"758,761","longitude":77.53314221000001,"latitude":28.30050025,"authority":"YEIDA","category":"residential","execution_stage":"allotted"}},{"type":"Feature","geometry":{"type":"Polygon","coordinates":[[[77.533176,28.300425],[77.533055,28.300526],[77.533001,28.300478],[77.533123,28.300377],[77.533176,28.300425]]]},"properties":{"objectid":4705,"uniqueplotid":"PLNGRESIDENTIAL4705","plotmap_id":"SECTOR-22D_297_D_RESI","plotidentificationnumber":"297","plotno":"297","industrysector":"SECTOR-22D","block":"D","plotsize":"120 SQMT","plotsize_at_the_time_of_allotme":"120 SQMT","landuse_type":"RESIDENTIAL","landuse_subcategory":"RESIDENTIAL","scheme_cod":"RRPS04","investment":0,"employment":0,"plotstatus":"Allotted","landallotementstatus":"SOLD","landallotementtype":"ALLOTTED","allotmentid":"RRPS041009","village_name":"Kherli Bhav","khasra_no":"759,758,761","longitude":77.53308878,"latitude":28.30045154,"authority":"YEIDA","category":"residential","execution_stage":"allotted"}},{"type":"Feature","geometry":{"type":"Polygon","coordinates":[[[77.533123,28.300377],[77.533001,28.300478],[77.532941,28.300423],[77.533063,28.300322],[77.533123,28.300377]]]},"properties":{"objectid":4706,"uniqueplotid":"PLNGRESIDENTIAL4706","plotmap_id":"SECTOR-22D_298_D_RESI","plotidentificationnumber":"298","plotno":"298","industrysector":"SECTOR-22D","block":"D","plotsize":"120 SQMT","plotsize_at_the_time_of_allotme":"120 SQMT","landuse_type":"RESIDENTIAL","landuse_subcategory":"RESIDENTIAL","scheme_cod":"RRPS04","investment":0,"employment":0,"plotstatus":"Allotted","landallotementstatus":"SOLD","landallotementtype":"ALLOTTED","allotmentid":"RRPS041174","village_name":"Kherli Bhav","khasra_no":"759,761","longitude":77.5330318,"latitude":28.30039978,"authority":"YEIDA","category":"residential","execution_stage":"allotted"}},{"type":"Feature","geometry":{"type":"Polygon","coordinates":[[[77.533063,28.300322],[77.532941,28.300423],[77.532887,28.300374],[77.533009,28.300273],[77.533063,28.300322]]]},"properties":{"objectid":4707,"uniqueplotid":"PLNGRESIDENTIAL4707","plotmap_id":"SECTOR-22D_299_D_RESI","plotidentificationnumber":"299","plotno":"299","industrysector":"SECTOR-22D","block":"D","plotsize":"120 SQMT","plotsize_at_the_time_of_allotme":"120 SQMT","landuse_type":"RESIDENTIAL","landuse_subcategory":"RESIDENTIAL","scheme_cod":"RRPS04","investment":0,"employment":0,"plotstatus":"Allotted","landallotementstatus":"SOLD","landallotementtype":"ALLOTTED","allotmentid":"RRPS041017","village_name":"Kherli Bhav","khasra_no":"759,761","longitude":77.53297491,"latitude":28.30034797,"authority":"YEIDA","category":"residential","execution_stage":"allotted"}},{"type":"Feature","geometry":{"type":"Polygon","coordinates":[[[77.533009,28.300273],[77.532887,28.300374],[77.532834,28.300326],[77.532956,28.300225],[77.533009,28.300273]]]},"properties":{"objectid":4708,"uniqueplotid":"PLNGRESIDENTIAL4708","plotmap_id":"SECTOR-22D_300_D_RESI","plotidentificationnumber":"300","plotno":"300","industrysector":"SECTOR-22D","block":"D","plotsize":"120 SQMT","plotsize_at_the_time_of_allotme":"120 SQMT","landuse_type":"RESIDENTIAL","landuse_subcategory":"RESIDENTIAL","scheme_cod":"RRPS04","investment":0,"employment":0,"plotstatus":"Allotted","landallotementstatus":"SOLD","landallotementtype":"ALLOTTED","allotmentid":"RRPS041209","village_name":"Kherli Bhav","khasra_no":"760,759,761","longitude":77.53292152,"latitude":28.30029936,"authority":"YEIDA","category":"residential","execution_stage":"allotted"}},{"type":"Feature","geometry":{"type":"Polygon","coordinates":[[[77.532956,28.300225],[77.532834,28.300326],[77.53278,28.300277],[77.532902,28.300176],[77.532956,28.300225]]]},"properties":{"objectid":4709,"uniqueplotid":"PLNGRESIDENTIAL4709","plotmap_id":"SECTOR-22D_301_D_RESI","plotidentificationnumber":"301","plotno":"301","industrysector":"SECTOR-22D","block":"D","plotsize":"120 SQMT","plotsize_at_the_time_of_allotme":"120 SQMT","landuse_type":"RESIDENTIAL","landuse_subcategory":"RESIDENTIAL","scheme_cod":"RRPS04","investment":0,"employment":0,"plotstatus":"Allotted","landallotementstatus":"SOLD","landallotementtype":"ALLOTTED","allotmentid":"RRPS041260","village_name":"Kherli Bhav","khasra_no":"760,761","longitude":77.53286804999999,"latitude":28.30025077,"authority":"YEIDA","category":"residential","execution_stage":"allotted"}},{"type":"Feature","geometry":{"type":"Polygon","coordinates":[[[77.532902,28.300176],[77.53278,28.300277],[77.532727,28.300228],[77.532849,28.300127],[77.532902,28.300176]]]},"properties":{"objectid":4710,"uniqueplotid":"PLNGRESIDENTIAL4710","plotmap_id":"SECTOR-22D_302_D_RESI","plotidentificationnumber":"302","plotno":"302","industrysector":"SECTOR-22D","block":"D","plotsize":"120 SQMT","plotsize_at_the_time_of_allotme":"120 SQMT","landuse_type":"RESIDENTIAL","landuse_subcategory":"RESIDENTIAL","scheme_cod":"RRPS04","investment":0,"employment":0,"plotstatus":"Allotted","landallotementstatus":"SOLD","landallotementtype":"ALLOTTED","allotmentid":"RRPS041114","village_name":"Kherli Bhav","khasra_no":"760,773,761,775","longitude":77.53281446,"latitude":28.30020197,"authority":"YEIDA","category":"residential","execution_stage":"allotted"}},{"type":"Feature","geometry":{"type":"Polygon","coordinates":[[[77.532849,28.300127],[77.532727,28.300228],[77.532673,28.30018],[77.532795,28.300079],[77.532849,28.300127]]]},"properties":{"objectid":4711,"uniqueplotid":"PLNGRESIDENTIAL4711","plotmap_id":"SECTOR-22D_303_D_RESI","plotidentificationnumber":"303","plotno":"303","industrysector":"SECTOR-22D","block":"D","plotsize":"120 SQMT","plotsize_at_the_time_of_allotme":"120 SQMT","landuse_type":"RESIDENTIAL","landuse_subcategory":"RESIDENTIAL","scheme_cod":"RRPS04","investment":0,"employment":0,"plotstatus":"Allotted","landallotementstatus":"SOLD","landallotementtype":"ALLOTTED","allotmentid":"RRPS041070","village_name":"Kherli Bhav","khasra_no":"773,775","longitude":77.53276103,"latitude":28.30015336,"authority":"YEIDA","category":"residential","execution_stage":"allotted"}},{"type":"Feature","geometry":{"type":"Polygon","coordinates":[[[77.532795,28.300079],[77.532673,28.30018],[77.53262,28.300131],[77.532742,28.30003],[77.532795,28.300079]]]},"properties":{"objectid":4712,"uniqueplotid":"PLNGRESIDENTIAL4712","plotmap_id":"SECTOR-22D_304_D_RESI","plotidentificationnumber":"304","plotno":"304","industrysector":"SECTOR-22D","block":"D","plotsize":"120 SQMT","plotsize_at_the_time_of_allotme":"120 SQMT","landuse_type":"RESIDENTIAL","landuse_subcategory":"RESIDENTIAL","scheme_cod":"RRPS04","investment":0,"employment":0,"plotstatus":"Allotted","landallotementstatus":"SOLD","landallotementtype":"ALLOTTED","allotmentid":"RRPS041125","village_name":"Kherli Bhav","khasra_no":"775","longitude":77.53270764000001,"latitude":28.30010478,"authority":"YEIDA","category":"residential","execution_stage":"allotted"}},{"type":"Feature","geometry":{"type":"Polygon","coordinates":[[[77.532742,28.30003],[77.53262,28.300131],[77.532567,28.300082],[77.532689,28.299981],[77.532742,28.30003]]]},"properties":{"objectid":4713,"uniqueplotid":"PLNGRESIDENTIAL4713","plotmap_id":"SECTOR-22D_305_D_RESI","plotidentificationnumber":"305","plotno":"305","industrysector":"SECTOR-22D","block":"D","plotsize":"120 SQMT","plotsize_at_the_time_of_allotme":"120 SQMT","landuse_type":"RESIDENTIAL","landuse_subcategory":"RESIDENTIAL","scheme_cod":"RRPS04","investment":0,"employment":0,"plotstatus":"Allotted","landallotementstatus":"SOLD","landallotementtype":"ALLOTTED","allotmentid":"RRPS041264","village_name":"Kherli Bhav","khasra_no":"775","longitude":77.53265422,"latitude":28.30005615,"authority":"YEIDA","category":"residential","execution_stage":"allotted"}},{"type":"Feature","geometry":{"type":"Polygon","coordinates":[[[77.532689,28.299981],[77.532567,28.300082],[77.532513,28.300034],[77.532635,28.299932],[77.532689,28.299981]]]},"properties":{"objectid":4714,"uniqueplotid":"PLNGRESIDENTIAL4714","plotmap_id":"SECTOR-22D_306_D_RESI","plotidentificationnumber":"306","plotno":"306","industrysector":"SECTOR-22D","block":"D","plotsize":"120 SQMT","plotsize_at_the_time_of_allotme":"120 SQMT","landuse_type":"RESIDENTIAL","landuse_subcategory":"RESIDENTIAL","scheme_cod":"RPS05","investment":0,"employment":0,"plotstatus":"Allotted","landallotementstatus":"SOLD","landallotementtype":"ALLOTTED","allotmentid":"RPS051199","village_name":"Kherli Bhav","khasra_no":"775","longitude":77.53260071,"latitude":28.30000747,"authority":"YEIDA","category":"residential","execution_stage":"allotted"}},{"type":"Feature","geometry":{"type":"Polygon","coordinates":[[[77.532635,28.299932],[77.532513,28.300034],[77.53246,28.299985],[77.532582,28.299884],[77.532635,28.299932]]]},"properties":{"objectid":4715,"uniqueplotid":"PLNGRESIDENTIAL4715","plotmap_id":"SECTOR-22D_307_D_RESI","plotidentificationnumber":"307","plotno":"307","industrysector":"SECTOR-22D","block":"D","plotsize":"120 SQMT","plotsize_at_the_time_of_allotme":"120 SQMT","landuse_type":"RESIDENTIAL","landuse_subcategory":"RESIDENTIAL","scheme_cod":"RRPS04","investment":0,"employment":0,"plotstatus":"Allotted","landallotementstatus":"SOLD","landallotementtype":"ALLOTTED","allotmentid":"RRPS041270","village_name":"Kherli Bhav","khasra_no":"775","longitude":77.53254727,"latitude":28.299958840000002,"authority":"YEIDA","category":"residential","execution_stage":"allotted"}},{"type":"Feature","geometry":{"type":"Polygon","coordinates":[[[77.532582,28.299884],[77.53246,28.299985],[77.532406,28.299937],[77.532528,28.299835],[77.532582,28.299884]]]},"properties":{"objectid":4716,"uniqueplotid":"PLNGRESIDENTIAL4716","plotmap_id":"SECTOR-22D_308_D_RESI","plotidentificationnumber":"308","plotno":"308","industrysector":"SECTOR-22D","block":"D","plotsize":"120 SQMT","plotsize_at_the_time_of_allotme":"120 SQMT","landuse_type":"RESIDENTIAL","landuse_subcategory":"RESIDENTIAL","scheme_cod":"RRPS04","investment":0,"employment":0,"plotstatus":"Allotted","landallotementstatus":"SOLD","landallotementtype":"ALLOTTED","allotmentid":"RRPS041235","village_name":"Kherli Bhav","khasra_no":"775","longitude":77.53249398,"latitude":28.299910320000002,"authority":"YEIDA","category":"residential","execution_stage":"allotted"}},{"type":"Feature","geometry":{"type":"Polygon","coordinates":[[[77.532528,28.299835],[77.532406,28.299937],[77.532353,28.299888],[77.532475,28.299787],[77.532528,28.299835]]]},"properties":{"objectid":4717,"uniqueplotid":"PLNGRESIDENTIAL4717","plotmap_id":"SECTOR-22D_309_D_RESI","plotidentificationnumber":"309","plotno":"309","industrysector":"SECTOR-22D","block":"D","plotsize":"120 SQMT","plotsize_at_the_time_of_allotme":"120 SQMT","landuse_type":"RESIDENTIAL","landuse_subcategory":"RESIDENTIAL","scheme_cod":"RRPS04","investment":0,"employment":0,"plotstatus":"Allotted","landallotementstatus":"SOLD","landallotementtype":"ALLOTTED","allotmentid":"RRPS041164","village_name":"Kherli Bhav","khasra_no":"775","longitude":77.53244045,"latitude":28.2998617,"authority":"YEIDA","category":"residential","execution_stage":"allotted"}},{"type":"Feature","geometry":{"type":"Polygon","coordinates":[[[77.532475,28.299787],[77.532353,28.299888],[77.532299,28.299839],[77.532421,28.299738],[77.532475,28.299787]]]},"properties":{"objectid":4718,"uniqueplotid":"PLNGRESIDENTIAL4718","plotmap_id":"SECTOR-22D_310_D_RESI","plotidentificationnumber":"310","plotno":"310","industrysector":"SECTOR-22D","block":"D","plotsize":"120 SQMT","plotsize_at_the_time_of_allotme":"120 SQMT","landuse_type":"RESIDENTIAL","landuse_subcategory":"RESIDENTIAL","scheme_cod":"RRPS04","investment":0,"employment":0,"plotstatus":"Allotted","landallotementstatus":"SOLD","landallotementtype":"ALLOTTED","allotmentid":"RRPS041098","village_name":"Kherli Bhav","khasra_no":"775","longitude":77.53238705000001,"latitude":28.299813020000002,"authority":"YEIDA","category":"residential","execution_stage":"allotted"}},{"type":"Feature","geometry":{"type":"Polygon","coordinates":[[[77.532421,28.299738],[77.532299,28.299839],[77.532246,28.299791],[77.532368,28.299689],[77.532421,28.299738]]]},"properties":{"objectid":4719,"uniqueplotid":"PLNGRESIDENTIAL4719","plotmap_id":"SECTOR-22D_311_D_RESI","plotidentificationnumber":"311","plotno":"311","industrysector":"SECTOR-22D","block":"D","plotsize":"120 SQMT","plotsize_at_the_time_of_allotme":"120 SQMT","landuse_type":"RESIDENTIAL","landuse_subcategory":"RESIDENTIAL","scheme_cod":"RRPS04","investment":0,"employment":0,"plotstatus":"Allotted","landallotementstatus":"SOLD","landallotementtype":"ALLOTTED","allotmentid":"RRPS041041","village_name":"Kherli Bhav","khasra_no":"775","longitude":77.5323336,"latitude":28.299764380000003,"authority":"YEIDA","category":"residential","execution_stage":"allotted"}},{"type":"Feature","geometry":{"type":"Polygon","coordinates":[[[77.532368,28.299689],[77.532246,28.299791],[77.532193,28.299742],[77.532315,28.299641],[77.532368,28.299689]]]},"properties":{"objectid":4720,"uniqueplotid":"PLNGRESIDENTIAL4720","plotmap_id":"SECTOR-22D_312_D_RESI","plotidentificationnumber":"312","plotno":"312","industrysector":"SECTOR-22D","block":"D","plotsize":"120 SQMT","plotsize_at_the_time_of_allotme":"120 SQMT","landuse_type":"RESIDENTIAL","landuse_subcategory":"RESIDENTIAL","scheme_cod":"RRPS04","investment":0,"employment":0,"plotstatus":"Allotted","landallotementstatus":"SOLD","landallotementtype":"ALLOTTED","allotmentid":"RRPS041349","village_name":"Kherli Bhav","khasra_no":"775","longitude":77.53228024,"latitude":28.299715850000002,"authority":"YEIDA","category":"residential","execution_stage":"allotted"}},{"type":"Feature","geometry":{"type":"Polygon","coordinates":[[[77.532315,28.299641],[77.532193,28.299742],[77.532139,28.299693],[77.532261,28.299592],[77.532315,28.299641]]]},"properties":{"objectid":4721,"uniqueplotid":"PLNGRESIDENTIAL4721","plotmap_id":"SECTOR-22D_313_D_RESI","plotidentificationnumber":"313","plotno":"313","industrysector":"SECTOR-22D","block":"D","plotsize":"120 SQMT","plotsize_at_the_time_of_allotme":"120 SQMT","landuse_type":"RESIDENTIAL","landuse_subcategory":"RESIDENTIAL","scheme_cod":"RRPS04","investment":0,"employment":0,"plotstatus":"Allotted","landallotementstatus":"SOLD","landallotementtype":"ALLOTTED","allotmentid":"RRPS041205","village_name":"Kherli Bhav","khasra_no":"775","longitude":77.5322268,"latitude":28.29966727,"authority":"YEIDA","category":"residential","execution_stage":"allotted"}},{"type":"Feature","geometry":{"type":"Polygon","coordinates":[[[77.532261,28.299592],[77.532139,28.299693],[77.532085,28.299645],[77.532208,28.299543],[77.532261,28.299592]]]},"properties":{"objectid":4722,"uniqueplotid":"PLNGRESIDENTIAL4722","plotmap_id":"SECTOR-22D_314_D_RESI","plotidentificationnumber":"314","plotno":"314","industrysector":"SECTOR-22D","block":"D","plotsize":"120 SQMT","plotsize_at_the_time_of_allotme":"120 SQMT","landuse_type":"RESIDENTIAL","landuse_subcategory":"RESIDENTIAL","scheme_cod":"RRPS04","investment":0,"employment":0,"plotstatus":"Allotted","landallotementstatus":"SOLD","landallotementtype":"ALLOTTED","allotmentid":"RRPS041105","village_name":"Kherli Bhav","khasra_no":"775","longitude":77.53217324,"latitude":28.29961845,"authority":"YEIDA","category":"residential","execution_stage":"allotted"}},{"type":"Feature","geometry":{"type":"Polygon","coordinates":[[[77.532208,28.299543],[77.532085,28.299645],[77.532032,28.299596],[77.532154,28.299495],[77.532208,28.299543]]]},"properties":{"objectid":4723,"uniqueplotid":"PLNGRESIDENTIAL4723","plotmap_id":"SECTOR-22D_315_D_RESI","plotidentificationnumber":"315","plotno":"315","industrysector":"SECTOR-22D","block":"D","plotsize":"120 SQMT","plotsize_at_the_time_of_allotme":"120 SQMT","landuse_type":"RESIDENTIAL","landuse_subcategory":"RESIDENTIAL","scheme_cod":"RRPS04","investment":0,"employment":0,"plotstatus":"Allotted","landallotementstatus":"SOLD","landallotementtype":"ALLOTTED","allotmentid":"RRPS041196","village_name":"Kherli Bhav","khasra_no":"775","longitude":77.53211983,"latitude":28.299569939999998,"authority":"YEIDA","category":"residential","execution_stage":"allotted"}},{"type":"Feature","geometry":{"type":"Polygon","coordinates":[[[77.532101,28.299446],[77.531979,28.299548],[77.531925,28.299499],[77.532047,28.299398],[77.532101,28.299446]]]},"properties":{"objectid":4724,"uniqueplotid":"PLNGRESIDENTIAL4724","plotmap_id":"SECTOR-22D_317_D_RESI","plotidentificationnumber":"317","plotno":"317","industrysector":"SECTOR-22D","block":"D","plotsize":"120 SQMT","plotsize_at_the_time_of_allotme":"120 SQMT","landuse_type":"RESIDENTIAL","landuse_subcategory":"RESIDENTIAL","scheme_cod":"RRPS04","investment":0,"employment":0,"plotstatus":"Allotted","landallotementstatus":"SOLD","landallotementtype":"ALLOTTED","allotmentid":"RRPS041387","village_name":"Kherli Bhav","khasra_no":"775","longitude":77.53201306999999,"latitude":28.29947274,"authority":"YEIDA","category":"residential","execution_stage":"allotted"}},{"type":"Feature","geometry":{"type":"Polygon","coordinates":[[[77.532047,28.299398],[77.531925,28.299499],[77.531872,28.299451],[77.531994,28.299349],[77.532047,28.299398]]]},"properties":{"objectid":4725,"uniqueplotid":"PLNGRESIDENTIAL4725","plotmap_id":"SECTOR-22D_318_D_RESI","plotidentificationnumber":"318","plotno":"318","industrysector":"SECTOR-22D","block":"D","plotsize":"120 SQMT","plotsize_at_the_time_of_allotme":"120 SQMT","landuse_type":"RESIDENTIAL","landuse_subcategory":"RESIDENTIAL","scheme_cod":"RRPS04","investment":0,"employment":0,"plotstatus":"Allotted","landallotementstatus":"SOLD","landallotementtype":"ALLOTTED","allotmentid":"RRPS041179","village_name":"Kherli Bhav","khasra_no":"772,775","longitude":77.53195964999999,"latitude":28.299424119999998,"authority":"YEIDA","category":"residential","execution_stage":"allotted"}},{"type":"Feature","geometry":{"type":"Polygon","coordinates":[[[77.531994,28.299349],[77.531872,28.299451],[77.531818,28.299402],[77.531941,28.2993],[77.531994,28.299349]]]},"properties":{"objectid":4726,"uniqueplotid":"PLNGRESIDENTIAL4726","plotmap_id":"SECTOR-22D_319_D_RESI","plotidentificationnumber":"319","plotno":"319","industrysector":"SECTOR-22D","block":"D","plotsize":"120 SQMT","plotsize_at_the_time_of_allotme":"120 SQMT","landuse_type":"RESIDENTIAL","landuse_subcategory":"RESIDENTIAL","scheme_cod":"RRPS04","investment":0,"employment":0,"plotstatus":"Allotted","landallotementstatus":"SOLD","landallotementtype":"ALLOTTED","allotmentid":"RRPS041238","village_name":"Kherli Bhav","khasra_no":"772","longitude":77.5319062,"latitude":28.299375509999997,"authority":"YEIDA","category":"residential","execution_stage":"allotted"}},{"type":"Feature","geometry":{"type":"Polygon","coordinates":[[[77.531941,28.2993],[77.531818,28.299402],[77.531765,28.299353],[77.531887,28.299252],[77.531941,28.2993]]]},"properties":{"objectid":4727,"uniqueplotid":"PLNGRESIDENTIAL4727","plotmap_id":"SECTOR-22D_320_D_RESI","plotidentificationnumber":"320","plotno":"320","industrysector":"SECTOR-22D","block":"D","plotsize":"120 SQMT","plotsize_at_the_time_of_allotme":"120 SQMT","landuse_type":"RESIDENTIAL","landuse_subcategory":"RESIDENTIAL","scheme_cod":"RRPS04","investment":0,"employment":0,"plotstatus":"Allotted","landallotementstatus":"SOLD","landallotementtype":"ALLOTTED","allotmentid":"RRPS041327","village_name":"Kherli Bhav","khasra_no":"772","longitude":77.53185275,"latitude":28.299326859999997,"authority":"YEIDA","category":"residential","execution_stage":"allotted"}},{"type":"Feature","geometry":{"type":"Polygon","coordinates":[[[77.531887,28.299252],[77.531765,28.299353],[77.531711,28.299305],[77.531834,28.299203],[77.531887,28.299252]]]},"properties":{"objectid":4728,"uniqueplotid":"PLNGRESIDENTIAL4728","plotmap_id":"SECTOR-22D_321_D_RESI","plotidentificationnumber":"321","plotno":"321","industrysector":"SECTOR-22D","block":"D","plotsize":"120 SQMT","plotsize_at_the_time_of_allotme":"120 SQMT","landuse_type":"RESIDENTIAL","landuse_subcategory":"RESIDENTIAL","scheme_cod":"RRPS04","investment":0,"employment":0,"plotstatus":"Allotted","landallotementstatus":"SOLD","landallotementtype":"ALLOTTED","allotmentid":"RRPS041226","village_name":"Kherli Bhav","khasra_no":"772","longitude":77.53179932,"latitude":28.29927825,"authority":"YEIDA","category":"residential","execution_stage":"allotted"}},{"type":"Feature","geometry":{"type":"Polygon","coordinates":[[[77.531834,28.299203],[77.531711,28.299305],[77.531658,28.299256],[77.53178,28.299154],[77.531834,28.299203]]]},"properties":{"objectid":4729,"uniqueplotid":"PLNGRESIDENTIAL4729","plotmap_id":"SECTOR-22D_322_D_RESI","plotidentificationnumber":"322","plotno":"322","industrysector":"SECTOR-22D","block":"D","plotsize":"120 SQMT","plotsize_at_the_time_of_allotme":"120 SQMT","landuse_type":"RESIDENTIAL","landuse_subcategory":"RESIDENTIAL","scheme_cod":"RRPS04","investment":0,"employment":0,"plotstatus":"Allotted","landallotementstatus":"SOLD","landallotementtype":"ALLOTTED","allotmentid":"RRPS041240","village_name":"Kherli Bhav","khasra_no":"772","longitude":77.53174585000001,"latitude":28.29922958,"authority":"YEIDA","category":"residential","execution_stage":"allotted"}},{"type":"Feature","geometry":{"type":"Polygon","coordinates":[[[77.53178,28.299154],[77.531658,28.299256],[77.531605,28.299207],[77.531727,28.299106],[77.53178,28.299154]]]},"properties":{"objectid":4730,"uniqueplotid":"PLNGRESIDENTIAL4730","plotmap_id":"SECTOR-22D_323_D_RESI","plotidentificationnumber":"323","plotno":"323","industrysector":"SECTOR-22D","block":"D","plotsize":"120 SQMT","plotsize_at_the_time_of_allotme":"120 SQMT","landuse_type":"RESIDENTIAL","landuse_subcategory":"RESIDENTIAL","scheme_cod":"RRPS04","investment":0,"employment":0,"plotstatus":"Allotted","landallotementstatus":"SOLD","landallotementtype":"ALLOTTED","allotmentid":"RRPS041231","village_name":"Kherli Bhav","khasra_no":"772","longitude":77.53169240999999,"latitude":28.29918095,"authority":"YEIDA","category":"residential","execution_stage":"allotted"}},{"type":"Feature","geometry":{"type":"Polygon","coordinates":[[[77.531727,28.299106],[77.531605,28.299207],[77.531567,28.299173],[77.531676,28.299059],[77.531727,28.299106]]]},"properties":{"objectid":4731,"uniqueplotid":"PLNGRESIDENTIAL4731","plotmap_id":"SECTOR-22D_324_D_RESI","plotidentificationnumber":"324","plotno":"324","industrysector":"SECTOR-22D","block":"D","plotsize":"120 SQMT","plotsize_at_the_time_of_allotme":"120 SQMT","landuse_type":"RESIDENTIAL","landuse_subcategory":"RESIDENTIAL","scheme_cod":"RRPS04","investment":0,"employment":0,"plotstatus":"Allotted","landallotementstatus":"SOLD","landallotementtype":"ALLOTTED","allotmentid":"RRPS041306","village_name":"Kherli Bhav","khasra_no":"772","longitude":77.53164466,"latitude":28.29913443,"authority":"YEIDA","category":"residential","execution_stage":"allotted"}},{"type":"Feature","geometry":{"type":"Polygon","coordinates":[[[77.5319,28.299055],[77.53178,28.299154],[77.531727,28.299106],[77.531846,28.299007],[77.5319,28.299055]]]},"properties":{"objectid":4733,"uniqueplotid":"PLNGRESIDENTIAL4733","plotmap_id":"SECTOR-22D_361_D_RESI","plotidentificationnumber":"361","plotno":"361","industrysector":"SECTOR-22D","block":"D","plotsize":"120 SQMT","plotsize_at_the_time_of_allotme":"120 SQMT","landuse_type":"RESIDENTIAL","landuse_subcategory":"RESIDENTIAL","scheme_cod":"RRPS04","investment":0,"employment":0,"plotstatus":"Allotted","landallotementstatus":"SOLD","landallotementtype":"ALLOTTED","allotmentid":"RRPS041300","village_name":"Kherli Bhav","khasra_no":"772,776","longitude":77.53181334,"latitude":28.29908056,"authority":"YEIDA","category":"residential","execution_stage":"allotted"}},{"type":"Feature","geometry":{"type":"Polygon","coordinates":[[[77.531953,28.299104],[77.531834,28.299203],[77.53178,28.299154],[77.5319,28.299055],[77.531953,28.299104]]]},"properties":{"objectid":4734,"uniqueplotid":"PLNGRESIDENTIAL4734","plotmap_id":"SECTOR-22D_362_D_RESI","plotidentificationnumber":"362","plotno":"362","industrysector":"SECTOR-22D","block":"D","plotsize":"120 SQMT","plotsize_at_the_time_of_allotme":"120 SQMT","landuse_type":"RESIDENTIAL","landuse_subcategory":"RESIDENTIAL","scheme_cod":"RRPS04","investment":0,"employment":0,"plotstatus":"Allotted","landallotementstatus":"SOLD","landallotementtype":"ALLOTTED","allotmentid":"RRPS041348","village_name":"Kherli Bhav","khasra_no":"772,776","longitude":77.53186678,"latitude":28.2991292,"authority":"YEIDA","category":"residential","execution_stage":"allotted"}},{"type":"Feature","geometry":{"type":"Polygon","coordinates":[[[77.532007,28.299153],[77.531887,28.299252],[77.531834,28.299203],[77.531953,28.299104],[77.532007,28.299153]]]},"properties":{"objectid":4735,"uniqueplotid":"PLNGRESIDENTIAL4735","plotmap_id":"SECTOR-22D_363_D_RESI","plotidentificationnumber":"363","plotno":"363","industrysector":"SECTOR-22D","block":"D","plotsize":"120 SQMT","plotsize_at_the_time_of_allotme":"120 SQMT","landuse_type":"RESIDENTIAL","landuse_subcategory":"RESIDENTIAL","scheme_cod":"RRPS04","investment":0,"employment":0,"plotstatus":"Allotted","landallotementstatus":"SOLD","landallotementtype":"ALLOTTED","allotmentid":"RRPS041369","village_name":"Kherli Bhav","khasra_no":"772,776","longitude":77.53192023999999,"latitude":28.29917786,"authority":"YEIDA","category":"residential","execution_stage":"allotted"}},{"type":"Feature","geometry":{"type":"Polygon","coordinates":[[[77.53206,28.299201],[77.531941,28.2993],[77.531887,28.299252],[77.532007,28.299153],[77.53206,28.299201]]]},"properties":{"objectid":4736,"uniqueplotid":"PLNGRESIDENTIAL4736","plotmap_id":"SECTOR-22D_364_D_RESI","plotidentificationnumber":"364","plotno":"364","industrysector":"SECTOR-22D","block":"D","plotsize":"120 SQMT","plotsize_at_the_time_of_allotme":"120 SQMT","landuse_type":"RESIDENTIAL","landuse_subcategory":"RESIDENTIAL","scheme_cod":"RRPS04","investment":0,"employment":0,"plotstatus":"Allotted","landallotementstatus":"SOLD","landallotementtype":"ALLOTTED","allotmentid":"RRPS041211","village_name":"Kherli Bhav","khasra_no":"772,776","longitude":77.53197365,"latitude":28.29922647,"authority":"YEIDA","category":"residential","execution_stage":"allotted"}},{"type":"Feature","geometry":{"type":"Polygon","coordinates":[[[77.532114,28.29925],[77.531994,28.299349],[77.531941,28.2993],[77.53206,28.299201],[77.532114,28.29925]]]},"properties":{"objectid":4737,"uniqueplotid":"PLNGRESIDENTIAL4737","plotmap_id":"SECTOR-22D_365_D_RESI","plotidentificationnumber":"365","plotno":"365","industrysector":"SECTOR-22D","block":"D","plotsize":"120 SQMT","plotsize_at_the_time_of_allotme":"120 SQMT","landuse_type":"RESIDENTIAL","landuse_subcategory":"RESIDENTIAL","scheme_cod":"RRPS04","investment":0,"employment":0,"plotstatus":"Allotted","landallotementstatus":"SOLD","landallotementtype":"ALLOTTED","allotmentid":"RRPS041304","village_name":"Kherli Bhav","khasra_no":"772,776","longitude":77.53202707999999,"latitude":28.29927511,"authority":"YEIDA","category":"residential","execution_stage":"allotted"}},{"type":"Feature","geometry":{"type":"Polygon","coordinates":[[[77.532167,28.299298],[77.532047,28.299398],[77.531994,28.299349],[77.532114,28.29925],[77.532167,28.299298]]]},"properties":{"objectid":4738,"uniqueplotid":"PLNGRESIDENTIAL4738","plotmap_id":"SECTOR-22D_366_D_RESI","plotidentificationnumber":"366","plotno":"366","industrysector":"SECTOR-22D","block":"D","plotsize":"120 SQMT","plotsize_at_the_time_of_allotme":"120 SQMT","landuse_type":"RESIDENTIAL","landuse_subcategory":"RESIDENTIAL","scheme_cod":"RRPS04","investment":0,"employment":0,"plotstatus":"Allotted","landallotementstatus":"SOLD","landallotementtype":"ALLOTTED","allotmentid":"RRPS041139","village_name":"Kherli Bhav","khasra_no":"772,775,776","longitude":77.53208054,"latitude":28.29932374,"authority":"YEIDA","category":"residential","execution_stage":"allotted"}},{"type":"Feature","geometry":{"type":"Polygon","coordinates":[[[77.532221,28.299347],[77.532101,28.299446],[77.532047,28.299398],[77.532167,28.299298],[77.532221,28.299347]]]},"properties":{"objectid":4739,"uniqueplotid":"PLNGRESIDENTIAL4739","plotmap_id":"SECTOR-22D_367_D_RESI","plotidentificationnumber":"367","plotno":"367","industrysector":"SECTOR-22D","block":"D","plotsize":"120 SQMT","plotsize_at_the_time_of_allotme":"120 SQMT","landuse_type":"RESIDENTIAL","landuse_subcategory":"RESIDENTIAL","scheme_cod":"RRPS04","investment":0,"employment":0,"plotstatus":"Allotted","landallotementstatus":"SOLD","landallotementtype":"ALLOTTED","allotmentid":"RRPS041203","village_name":"Kherli Bhav","khasra_no":"775","longitude":77.53213397,"latitude":28.299372379999998,"authority":"YEIDA","category":"residential","execution_stage":"allotted"}},{"type":"Feature","geometry":{"type":"Polygon","coordinates":[[[77.532274,28.299396],[77.532154,28.299495],[77.532101,28.299446],[77.532221,28.299347],[77.532274,28.299396]]]},"properties":{"objectid":4740,"uniqueplotid":"PLNGRESIDENTIAL4740","plotmap_id":"SECTOR-22D_368_D_RESI","plotidentificationnumber":"368","plotno":"368","industrysector":"SECTOR-22D","block":"D","plotsize":"120 SQMT","plotsize_at_the_time_of_allotme":"120 SQMT","landuse_type":"RESIDENTIAL","landuse_subcategory":"RESIDENTIAL","scheme_cod":"RRPS04","investment":0,"employment":0,"plotstatus":"Allotted","landallotementstatus":"SOLD","landallotementtype":"ALLOTTED","allotmentid":"RRPS041367","village_name":"Kherli Bhav","khasra_no":"775","longitude":77.5321874,"latitude":28.29942101,"authority":"YEIDA","category":"residential","execution_stage":"allotted"}},{"type":"Feature","geometry":{"type":"Polygon","coordinates":[[[77.532327,28.299444],[77.532208,28.299543],[77.532154,28.299495],[77.532274,28.299396],[77.532327,28.299444]]]},"properties":{"objectid":4741,"uniqueplotid":"PLNGRESIDENTIAL4741","plotmap_id":"SECTOR-22D_369_D_RESI","plotidentificationnumber":"369","plotno":"369","industrysector":"SECTOR-22D","block":"D","plotsize":"120 SQMT","plotsize_at_the_time_of_allotme":"120 SQMT","landuse_type":"RESIDENTIAL","landuse_subcategory":"RESIDENTIAL","scheme_cod":"RRPS04","investment":0,"employment":0,"plotstatus":"Allotted","landallotementstatus":"SOLD","landallotementtype":"ALLOTTED","allotmentid":"RRPS041051","village_name":"Kherli Bhav","khasra_no":"775","longitude":77.53224067000001,"latitude":28.29946953,"authority":"YEIDA","category":"residential","execution_stage":"allotted"}},{"type":"Feature","geometry":{"type":"Polygon","coordinates":[[[77.531846,28.299007],[77.531727,28.299106],[77.531676,28.299059],[77.531782,28.298948],[77.531846,28.299007]]]},"properties":{"objectid":4775,"uniqueplotid":"PLNGRESIDENTIAL4775","plotmap_id":"SECTOR-22D_360_D_RESI","plotidentificationnumber":"360","plotno":"360","industrysector":"SECTOR-22D","block":"D","plotsize":"120 SQMT","plotsize_at_the_time_of_allotme":"120 SQMT","landuse_type":"RESIDENTIAL","landuse_subcategory":"RESIDENTIAL","scheme_cod":"RRPS04","investment":0,"employment":0,"plotstatus":"Allotted","landallotementstatus":"SOLD","landallotementtype":"ALLOTTED","allotmentid":"RRPS041225","village_name":"Kherli Bhav","khasra_no":"772,776","longitude":77.53175905,"latitude":28.29902814,"authority":"YEIDA","category":"residential","execution_stage":"allotted"}},{"type":"Feature","geometry":{"type":"Polygon","coordinates":[[[77.532381,28.299493],[77.532261,28.299592],[77.532208,28.299543],[77.532327,28.299444],[77.532381,28.299493]]]},"properties":{"objectid":4776,"uniqueplotid":"PLNGRESIDENTIAL4776","plotmap_id":"SECTOR-22D_370_D_RESI","plotidentificationnumber":"370","plotno":"370","industrysector":"SECTOR-22D","block":"D","plotsize":"120 SQMT","plotsize_at_the_time_of_allotme":"120 SQMT","landuse_type":"RESIDENTIAL","landuse_subcategory":"RESIDENTIAL","scheme_cod":"RRPS04","investment":0,"employment":0,"plotstatus":"Allotted","landallotementstatus":"SOLD","landallotementtype":"ALLOTTED","allotmentid":"RRPS041207","village_name":"Kherli Bhav","khasra_no":"775","longitude":77.53229411000001,"latitude":28.29951808,"authority":"YEIDA","category":"residential","execution_stage":"allotted"}},{"type":"Feature","geometry":{"type":"Polygon","coordinates":[[[77.532434,28.299542],[77.532315,28.299641],[77.532261,28.299592],[77.532381,28.299493],[77.532434,28.299542]]]},"properties":{"objectid":4777,"uniqueplotid":"PLNGRESIDENTIAL4777","plotmap_id":"SECTOR-22D_371_D_RESI","plotidentificationnumber":"371","plotno":"371","industrysector":"SECTOR-22D","block":"D","plotsize":"120 SQMT","plotsize_at_the_time_of_allotme":"120 SQMT","landuse_type":"RESIDENTIAL","landuse_subcategory":"RESIDENTIAL","scheme_cod":"RRPS04","investment":0,"employment":0,"plotstatus":"Allotted","landallotementstatus":"SOLD","landallotementtype":"ALLOTTED","allotmentid":"RRPS041171","village_name":"Kherli Bhav","khasra_no":"775","longitude":77.53234766000001,"latitude":28.2995669,"authority":"YEIDA","category":"residential","execution_stage":"allotted"}},{"type":"Feature","geometry":{"type":"Polygon","coordinates":[[[77.532487,28.29959],[77.532368,28.299689],[77.532315,28.299641],[77.532434,28.299542],[77.532487,28.29959]]]},"properties":{"objectid":4778,"uniqueplotid":"PLNGRESIDENTIAL4778","plotmap_id":"SECTOR-22D_372_D_RESI","plotidentificationnumber":"372","plotno":"372","industrysector":"SECTOR-22D","block":"D","plotsize":"120 SQMT","plotsize_at_the_time_of_allotme":"120 SQMT","landuse_type":"RESIDENTIAL","landuse_subcategory":"RESIDENTIAL","scheme_cod":"RRPS04","investment":0,"employment":0,"plotstatus":"Allotted","landallotementstatus":"SOLD","landallotementtype":"ALLOTTED","allotmentid":"RRPS041186","village_name":"Kherli Bhav","khasra_no":"775","longitude":77.53240101,"latitude":28.29961541,"authority":"YEIDA","category":"residential","execution_stage":"allotted"}},{"type":"Feature","geometry":{"type":"Polygon","coordinates":[[[77.532541,28.299639],[77.532421,28.299738],[77.532368,28.299689],[77.532487,28.29959],[77.532541,28.299639]]]},"properties":{"objectid":4779,"uniqueplotid":"PLNGRESIDENTIAL4779","plotmap_id":"SECTOR-22D_373_D_RESI","plotidentificationnumber":"373","plotno":"373","industrysector":"SECTOR-22D","block":"D","plotsize":"120 SQMT","plotsize_at_the_time_of_allotme":"120 SQMT","landuse_type":"RESIDENTIAL","landuse_subcategory":"RESIDENTIAL","scheme_cod":"RRPS04","investment":0,"employment":0,"plotstatus":"Allotted","landallotementstatus":"SOLD","landallotementtype":"ALLOTTED","allotmentid":"RRPS041100","lease_deed":"Y","lease_deed_date":1655404200000,"village_name":"Kherli Bhav","khasra_no":"775","longitude":77.53245441,"latitude":28.299663980000002,"authority":"YEIDA","category":"residential","execution_stage":"lease-recorded"}},{"type":"Feature","geometry":{"type":"Polygon","coordinates":[[[77.532595,28.299687],[77.532475,28.299787],[77.532421,28.299738],[77.532541,28.299639],[77.532595,28.299687]]]},"properties":{"objectid":4780,"uniqueplotid":"PLNGRESIDENTIAL4780","plotmap_id":"SECTOR-22D_374_D_RESI","plotidentificationnumber":"374","plotno":"374","industrysector":"SECTOR-22D","block":"D","plotsize":"120 SQMT","plotsize_at_the_time_of_allotme":"120 SQMT","landuse_type":"RESIDENTIAL","landuse_subcategory":"RESIDENTIAL","scheme_cod":"RRPS04","investment":0,"employment":0,"plotstatus":"Allotted","landallotementstatus":"SOLD","landallotementtype":"ALLOTTED","allotmentid":"RRPS041180","village_name":"Kherli Bhav","khasra_no":"775","longitude":77.53250793,"latitude":28.2997127,"authority":"YEIDA","category":"residential","execution_stage":"allotted"}},{"type":"Feature","geometry":{"type":"Polygon","coordinates":[[[77.532648,28.299736],[77.532528,28.299835],[77.532475,28.299787],[77.532595,28.299687],[77.532648,28.299736]]]},"properties":{"objectid":4781,"uniqueplotid":"PLNGRESIDENTIAL4781","plotmap_id":"SECTOR-22D_375_D_RESI","plotidentificationnumber":"375","plotno":"375","industrysector":"SECTOR-22D","block":"D","plotsize":"120 SQMT","plotsize_at_the_time_of_allotme":"120 SQMT","landuse_type":"RESIDENTIAL","landuse_subcategory":"RESIDENTIAL","scheme_cod":"RRPS04","investment":0,"employment":0,"plotstatus":"Allotted","landallotementstatus":"SOLD","landallotementtype":"ALLOTTED","allotmentid":"RRPS041299","village_name":"Kherli Bhav","khasra_no":"775","longitude":77.53256128,"latitude":28.29976135,"authority":"YEIDA","category":"residential","execution_stage":"allotted"}},{"type":"Feature","geometry":{"type":"Polygon","coordinates":[[[77.532701,28.299785],[77.532582,28.299884],[77.532528,28.299835],[77.532648,28.299736],[77.532701,28.299785]]]},"properties":{"objectid":4782,"uniqueplotid":"PLNGRESIDENTIAL4782","plotmap_id":"SECTOR-22D_376_D_RESI","plotidentificationnumber":"376","plotno":"376","industrysector":"SECTOR-22D","block":"D","plotsize":"120 SQMT","plotsize_at_the_time_of_allotme":"120 SQMT","landuse_type":"RESIDENTIAL","landuse_subcategory":"RESIDENTIAL","scheme_cod":"RRPS04","investment":0,"employment":0,"plotstatus":"Allotted","landallotementstatus":"SOLD","landallotementtype":"ALLOTTED","allotmentid":"RRPS041356","village_name":"Kherli Bhav","khasra_no":"775","longitude":77.53261477000001,"latitude":28.299809940000003,"authority":"YEIDA","category":"residential","execution_stage":"allotted"}},{"type":"Feature","geometry":{"type":"Polygon","coordinates":[[[77.532755,28.299833],[77.532635,28.299932],[77.532582,28.299884],[77.532701,28.299785],[77.532755,28.299833]]]},"properties":{"objectid":4783,"uniqueplotid":"PLNGRESIDENTIAL4783","plotmap_id":"SECTOR-22D_377_D_RESI","plotidentificationnumber":"377","plotno":"377","industrysector":"SECTOR-22D","block":"D","plotsize":"120 SQMT","plotsize_at_the_time_of_allotme":"120 SQMT","landuse_type":"RESIDENTIAL","landuse_subcategory":"RESIDENTIAL","scheme_cod":"RRPS04","investment":0,"employment":0,"plotstatus":"Allotted","landallotementstatus":"SOLD","landallotementtype":"ALLOTTED","allotmentid":"RRPS041054","village_name":"Kherli Bhav","khasra_no":"775","longitude":77.53266812,"latitude":28.29985851,"authority":"YEIDA","category":"residential","execution_stage":"allotted"}},{"type":"Feature","geometry":{"type":"Polygon","coordinates":[[[77.532808,28.299882],[77.532689,28.299981],[77.532635,28.299932],[77.532755,28.299833],[77.532808,28.299882]]]},"properties":{"objectid":4784,"uniqueplotid":"PLNGRESIDENTIAL4784","plotmap_id":"SECTOR-22D_378_D_RESI","plotidentificationnumber":"378","plotno":"378","industrysector":"SECTOR-22D","block":"D","plotsize":"120 SQMT","plotsize_at_the_time_of_allotme":"120 SQMT","landuse_type":"RESIDENTIAL","landuse_subcategory":"RESIDENTIAL","scheme_cod":"RRPS04","investment":0,"employment":0,"plotstatus":"Allotted","landallotementstatus":"SOLD","landallotementtype":"ALLOTTED","allotmentid":"RRPS041004","village_name":"Kherli Bhav","khasra_no":"775","longitude":77.53272156,"latitude":28.29990715,"authority":"YEIDA","category":"residential","execution_stage":"allotted"}},{"type":"Feature","geometry":{"type":"Polygon","coordinates":[[[77.532862,28.29993],[77.532742,28.30003],[77.532689,28.299981],[77.532808,28.299882],[77.532862,28.29993]]]},"properties":{"objectid":4785,"uniqueplotid":"PLNGRESIDENTIAL4785","plotmap_id":"SECTOR-22D_379_D_RESI","plotidentificationnumber":"379","plotno":"379","industrysector":"SECTOR-22D","block":"D","plotsize":"120 SQMT","plotsize_at_the_time_of_allotme":"120 SQMT","landuse_type":"RESIDENTIAL","landuse_subcategory":"RESIDENTIAL","scheme_cod":"RRPS04","investment":0,"employment":0,"plotstatus":"Allotted","landallotementstatus":"SOLD","landallotementtype":"ALLOTTED","allotmentid":"RRPS041045","village_name":"Kherli Bhav","khasra_no":"775","longitude":77.53277508000001,"latitude":28.29995586,"authority":"YEIDA","category":"residential","execution_stage":"allotted"}},{"type":"Feature","geometry":{"type":"Polygon","coordinates":[[[77.532915,28.299979],[77.532795,28.300079],[77.532742,28.30003],[77.532862,28.29993],[77.532915,28.299979]]]},"properties":{"objectid":4786,"uniqueplotid":"PLNGRESIDENTIAL4786","plotmap_id":"SECTOR-22D_380_D_RESI","plotidentificationnumber":"380","plotno":"380","industrysector":"SECTOR-22D","block":"D","plotsize":"120 SQMT","plotsize_at_the_time_of_allotme":"120 SQMT","landuse_type":"RESIDENTIAL","landuse_subcategory":"RESIDENTIAL","scheme_cod":"RRPS04","investment":0,"employment":0,"plotstatus":"Allotted","landallotementstatus":"SOLD","landallotementtype":"ALLOTTED","allotmentid":"RRPS041150","village_name":"Kherli Bhav","khasra_no":"775","longitude":77.5328285,"latitude":28.3000045,"authority":"YEIDA","category":"residential","execution_stage":"allotted"}},{"type":"Feature","geometry":{"type":"Polygon","coordinates":[[[77.532968,28.300028],[77.532849,28.300127],[77.532795,28.300079],[77.532915,28.299979],[77.532968,28.300028]]]},"properties":{"objectid":4787,"uniqueplotid":"PLNGRESIDENTIAL4787","plotmap_id":"SECTOR-22D_381_D_RESI","plotidentificationnumber":"381","plotno":"381","industrysector":"SECTOR-22D","block":"D","plotsize":"120 SQMT","plotsize_at_the_time_of_allotme":"120 SQMT","landuse_type":"RESIDENTIAL","landuse_subcategory":"RESIDENTIAL","scheme_cod":"RRPS04","investment":0,"employment":0,"plotstatus":"Allotted","landallotementstatus":"SOLD","landallotementtype":"ALLOTTED","allotmentid":"RRPS041117","village_name":"Kherli Bhav","khasra_no":"775","longitude":77.53288185,"latitude":28.300053050000002,"authority":"YEIDA","category":"residential","execution_stage":"allotted"}},{"type":"Feature","geometry":{"type":"Polygon","coordinates":[[[77.533022,28.300076],[77.532902,28.300176],[77.532849,28.300127],[77.532968,28.300028],[77.533022,28.300076]]]},"properties":{"objectid":4788,"uniqueplotid":"PLNGRESIDENTIAL4788","plotmap_id":"SECTOR-22D_382_D_RESI","plotidentificationnumber":"382","plotno":"382","industrysector":"SECTOR-22D","block":"D","plotsize":"120 SQMT","plotsize_at_the_time_of_allotme":"120 SQMT","landuse_type":"RESIDENTIAL","landuse_subcategory":"RESIDENTIAL","scheme_cod":"RRPS04","investment":0,"employment":0,"plotstatus":"Allotted","landallotementstatus":"SOLD","landallotementtype":"ALLOTTED","allotmentid":"RRPS041275","village_name":"Kherli Bhav","khasra_no":"760,773,775","longitude":77.53293527,"latitude":28.30010166,"authority":"YEIDA","category":"residential","execution_stage":"allotted"}},{"type":"Feature","geometry":{"type":"Polygon","coordinates":[[[77.533075,28.300125],[77.532956,28.300225],[77.532902,28.300176],[77.533022,28.300076],[77.533075,28.300125]]]},"properties":{"objectid":4789,"uniqueplotid":"PLNGRESIDENTIAL4789","plotmap_id":"SECTOR-22D_383_D_RESI","plotidentificationnumber":"383","plotno":"383","industrysector":"SECTOR-22D","block":"D","plotsize":"120 SQMT","plotsize_at_the_time_of_allotme":"120 SQMT","landuse_type":"RESIDENTIAL","landuse_subcategory":"RESIDENTIAL","scheme_cod":"RRPS04","investment":0,"employment":0,"plotstatus":"Allotted","landallotementstatus":"SOLD","landallotementtype":"ALLOTTED","allotmentid":"RRPS041120","village_name":"Kherli Bhav","khasra_no":"760","longitude":77.53298880999999,"latitude":28.30015042,"authority":"YEIDA","category":"residential","execution_stage":"allotted"}},{"type":"Feature","geometry":{"type":"Polygon","coordinates":[[[77.533129,28.300174],[77.533009,28.300273],[77.532956,28.300225],[77.533075,28.300125],[77.533129,28.300174]]]},"properties":{"objectid":4790,"uniqueplotid":"PLNGRESIDENTIAL4790","plotmap_id":"SECTOR-22D_384_D_RESI","plotidentificationnumber":"384","plotno":"384","industrysector":"SECTOR-22D","block":"D","plotsize":"120 SQMT","plotsize_at_the_time_of_allotme":"120 SQMT","landuse_type":"RESIDENTIAL","landuse_subcategory":"RESIDENTIAL","scheme_cod":"RRPS04","investment":0,"employment":0,"plotstatus":"Allotted","landallotementstatus":"SOLD","landallotementtype":"ALLOTTED","allotmentid":"RRPS041136","village_name":"Kherli Bhav","khasra_no":"760,759","longitude":77.53304228,"latitude":28.30019902,"authority":"YEIDA","category":"residential","execution_stage":"allotted"}},{"type":"Feature","geometry":{"type":"Polygon","coordinates":[[[77.533182,28.300222],[77.533063,28.300322],[77.533009,28.300273],[77.533129,28.300174],[77.533182,28.300222]]]},"properties":{"objectid":4791,"uniqueplotid":"PLNGRESIDENTIAL4791","plotmap_id":"SECTOR-22D_385_D_RESI","plotidentificationnumber":"385","plotno":"385","industrysector":"SECTOR-22D","block":"D","plotsize":"120 SQMT","plotsize_at_the_time_of_allotme":"120 SQMT","landuse_type":"RESIDENTIAL","landuse_subcategory":"RESIDENTIAL","scheme_cod":"RRPS04","investment":0,"employment":0,"plotstatus":"Allotted","landallotementstatus":"SOLD","landallotementtype":"ALLOTTED","allotmentid":"RRPS041058","village_name":"Kherli Bhav","khasra_no":"759","longitude":77.53309572,"latitude":28.30024769,"authority":"YEIDA","category":"residential","execution_stage":"allotted"}},{"type":"Feature","geometry":{"type":"Polygon","coordinates":[[[77.533243,28.300277],[77.533123,28.300377],[77.533063,28.300322],[77.533182,28.300222],[77.533243,28.300277]]]},"properties":{"objectid":4792,"uniqueplotid":"PLNGRESIDENTIAL4792","plotmap_id":"SECTOR-22D_386_D_RESI","plotidentificationnumber":"386","plotno":"386","industrysector":"SECTOR-22D","block":"D","plotsize":"120 SQMT","plotsize_at_the_time_of_allotme":"120 SQMT","landuse_type":"RESIDENTIAL","landuse_subcategory":"RESIDENTIAL","scheme_cod":"RRPS04","investment":0,"employment":0,"plotstatus":"Allotted","landallotementstatus":"SOLD","landallotementtype":"ALLOTTED","allotmentid":"RRPS041295","village_name":"Kherli Bhav","khasra_no":"759","longitude":77.53315256,"latitude":28.30029945,"authority":"YEIDA","category":"residential","execution_stage":"allotted"}},{"type":"Feature","geometry":{"type":"Polygon","coordinates":[[[77.533296,28.300326],[77.533176,28.300425],[77.533123,28.300377],[77.533243,28.300277],[77.533296,28.300326]]]},"properties":{"objectid":4793,"uniqueplotid":"PLNGRESIDENTIAL4793","plotmap_id":"SECTOR-22D_387_D_RESI","plotidentificationnumber":"387","plotno":"387","industrysector":"SECTOR-22D","block":"D","plotsize":"120 SQMT","plotsize_at_the_time_of_allotme":"120 SQMT","landuse_type":"RESIDENTIAL","landuse_subcategory":"RESIDENTIAL","scheme_cod":"RRPS04","investment":0,"employment":0,"plotstatus":"Allotted","landallotementstatus":"SOLD","landallotementtype":"ALLOTTED","allotmentid":"RRPS041334","village_name":"Kherli Bhav","khasra_no":"759,758","longitude":77.53320953,"latitude":28.30035122,"authority":"YEIDA","category":"residential","execution_stage":"allotted"}},{"type":"Feature","geometry":{"type":"Polygon","coordinates":[[[77.53335,28.300374],[77.53323,28.300474],[77.533176,28.300425],[77.533296,28.300326],[77.53335,28.300374]]]},"properties":{"objectid":4794,"uniqueplotid":"PLNGRESIDENTIAL4794","plotmap_id":"SECTOR-22D_388_D_RESI","plotidentificationnumber":"388","plotno":"388","industrysector":"SECTOR-22D","block":"D","plotsize":"120 SQMT","plotsize_at_the_time_of_allotme":"120 SQMT","landuse_type":"RESIDENTIAL","landuse_subcategory":"RESIDENTIAL","scheme_cod":"RRPS04","investment":0,"employment":0,"plotstatus":"Allotted","landallotementstatus":"SOLD","landallotementtype":"ALLOTTED","allotmentid":"RRPS041116","village_name":"Kherli Bhav","khasra_no":"758","longitude":77.53326295,"latitude":28.30039993,"authority":"YEIDA","category":"residential","execution_stage":"allotted"}},{"type":"Feature","geometry":{"type":"Polygon","coordinates":[[[77.533403,28.300423],[77.533283,28.300523],[77.53323,28.300474],[77.53335,28.300374],[77.533403,28.300423]]]},"properties":{"objectid":4795,"uniqueplotid":"PLNGRESIDENTIAL4795","plotmap_id":"SECTOR-22D_389_D_RESI","plotidentificationnumber":"389","plotno":"389","industrysector":"SECTOR-22D","block":"D","plotsize":"120 SQMT","plotsize_at_the_time_of_allotme":"120 SQMT","landuse_type":"RESIDENTIAL","landuse_subcategory":"RESIDENTIAL","scheme_cod":"RRPS04","investment":0,"employment":0,"plotstatus":"Allotted","landallotementstatus":"SOLD","landallotementtype":"ALLOTTED","allotmentid":"RRPS041379","village_name":"Kherli Bhav","khasra_no":"758","longitude":77.53331628,"latitude":28.30044842,"authority":"YEIDA","category":"residential","execution_stage":"allotted"}},{"type":"Feature","geometry":{"type":"Polygon","coordinates":[[[77.533457,28.300472],[77.533337,28.300571],[77.533283,28.300523],[77.533403,28.300423],[77.533457,28.300472]]]},"properties":{"objectid":4796,"uniqueplotid":"PLNGRESIDENTIAL4796","plotmap_id":"SECTOR-22D_390_D_RESI","plotidentificationnumber":"390","plotno":"390","industrysector":"SECTOR-22D","block":"D","plotsize":"120 SQMT","plotsize_at_the_time_of_allotme":"120 SQMT","landuse_type":"RESIDENTIAL","landuse_subcategory":"RESIDENTIAL","scheme_cod":"RRPS04","investment":0,"employment":0,"plotstatus":"Allotted","landallotementstatus":"SOLD","landallotementtype":"ALLOTTED","allotmentid":"RRPS041341","village_name":"Kherli Bhav","khasra_no":"758","longitude":77.5333698,"latitude":28.30049707,"authority":"YEIDA","category":"residential","execution_stage":"allotted"}},{"type":"Feature","geometry":{"type":"Polygon","coordinates":[[[77.53351,28.30052],[77.53339,28.30062],[77.533337,28.300571],[77.533457,28.300472],[77.53351,28.30052]]]},"properties":{"objectid":4797,"uniqueplotid":"PLNGRESIDENTIAL4797","plotmap_id":"SECTOR-22D_391_D_RESI","plotidentificationnumber":"391","plotno":"391","industrysector":"SECTOR-22D","block":"D","plotsize":"120 SQMT","plotsize_at_the_time_of_allotme":"120 SQMT","landuse_type":"RESIDENTIAL","landuse_subcategory":"RESIDENTIAL","scheme_cod":"RRPS04","investment":0,"employment":0,"plotstatus":"Allotted","landallotementstatus":"SOLD","landallotementtype":"ALLOTTED","allotmentid":"RRPS041068","village_name":"Kherli Bhav","khasra_no":"758","longitude":77.53342331,"latitude":28.30054585,"authority":"YEIDA","category":"residential","execution_stage":"allotted"}},{"type":"Feature","geometry":{"type":"Polygon","coordinates":[[[77.533564,28.300569],[77.533444,28.300669],[77.53339,28.30062],[77.53351,28.30052],[77.533564,28.300569]]]},"properties":{"objectid":4798,"uniqueplotid":"PLNGRESIDENTIAL4798","plotmap_id":"SECTOR-22D_392_D_RESI","plotidentificationnumber":"392","plotno":"392","industrysector":"SECTOR-22D","block":"D","plotsize":"120 SQMT","plotsize_at_the_time_of_allotme":"120 SQMT","landuse_type":"RESIDENTIAL","landuse_subcategory":"RESIDENTIAL","scheme_cod":"RRPS04","investment":0,"employment":0,"plotstatus":"Allotted","landallotementstatus":"SOLD","landallotementtype":"ALLOTTED","allotmentid":"RRPS041329","village_name":"Kherli Bhav","khasra_no":"758","longitude":77.53347678,"latitude":28.300594489999998,"authority":"YEIDA","category":"residential","execution_stage":"allotted"}},{"type":"Feature","geometry":{"type":"Polygon","coordinates":[[[77.533617,28.300618],[77.533497,28.300717],[77.533444,28.300669],[77.533564,28.300569],[77.533617,28.300618]]]},"properties":{"objectid":4799,"uniqueplotid":"PLNGRESIDENTIAL4799","plotmap_id":"SECTOR-22D_393_D_RESI","plotidentificationnumber":"393","plotno":"393","industrysector":"SECTOR-22D","block":"D","plotsize":"120 SQMT","plotsize_at_the_time_of_allotme":"120 SQMT","landuse_type":"RESIDENTIAL","landuse_subcategory":"RESIDENTIAL","scheme_cod":"RRPS04","investment":0,"employment":0,"plotstatus":"Allotted","landallotementstatus":"SOLD","landallotementtype":"ALLOTTED","allotmentid":"RRPS041072","village_name":"Kherli Bhav","khasra_no":"758","longitude":77.53353021000001,"latitude":28.30064312,"authority":"YEIDA","category":"residential","execution_stage":"allotted"}},{"type":"Feature","geometry":{"type":"Polygon","coordinates":[[[77.53367,28.300666],[77.53355,28.300766],[77.533497,28.300717],[77.533617,28.300618],[77.53367,28.300666]]]},"properties":{"objectid":4800,"uniqueplotid":"PLNGRESIDENTIAL4800","plotmap_id":"SECTOR-22D_394_D_RESI","plotidentificationnumber":"394","plotno":"394","industrysector":"SECTOR-22D","block":"D","plotsize":"120 SQMT","plotsize_at_the_time_of_allotme":"120 SQMT","landuse_type":"RESIDENTIAL","landuse_subcategory":"RESIDENTIAL","scheme_cod":"RRPS04","investment":0,"employment":0,"plotstatus":"Allotted","landallotementstatus":"SOLD","landallotementtype":"ALLOTTED","allotmentid":"RRPS041165","village_name":"Kherli Bhav","khasra_no":"758","longitude":77.53358362,"latitude":28.300691739999998,"authority":"YEIDA","category":"residential","execution_stage":"allotted"}},{"type":"Feature","geometry":{"type":"Polygon","coordinates":[[[77.533724,28.300715],[77.533604,28.300814],[77.53355,28.300766],[77.53367,28.300666],[77.533724,28.300715]]]},"properties":{"objectid":4801,"uniqueplotid":"PLNGRESIDENTIAL4801","plotmap_id":"SECTOR-22D_395_D_RESI","plotidentificationnumber":"395","plotno":"395","industrysector":"SECTOR-22D","block":"D","plotsize":"120 SQMT","plotsize_at_the_time_of_allotme":"120 SQMT","landuse_type":"RESIDENTIAL","landuse_subcategory":"RESIDENTIAL","scheme_cod":"RRPS04","investment":0,"employment":0,"plotstatus":"Allotted","landallotementstatus":"SOLD","landallotementtype":"ALLOTTED","allotmentid":"RRPS041381","village_name":"Kherli Bhav","khasra_no":"758","longitude":77.53363705000001,"latitude":28.30074034,"authority":"YEIDA","category":"residential","execution_stage":"allotted"}},{"type":"Feature","geometry":{"type":"Polygon","coordinates":[[[77.533777,28.300763],[77.533657,28.300863],[77.533604,28.300814],[77.533724,28.300715],[77.533777,28.300763]]]},"properties":{"objectid":4802,"uniqueplotid":"PLNGRESIDENTIAL4802","plotmap_id":"SECTOR-22D_396_D_RESI","plotidentificationnumber":"396","plotno":"396","industrysector":"SECTOR-22D","block":"D","plotsize":"120 SQMT","plotsize_at_the_time_of_allotme":"120 SQMT","landuse_type":"RESIDENTIAL","landuse_subcategory":"RESIDENTIAL","scheme_cod":"RRPS04","investment":0,"employment":0,"plotstatus":"Allotted","landallotementstatus":"SOLD","landallotementtype":"ALLOTTED","allotmentid":"RRPS041022","village_name":"Kherli Bhav","khasra_no":"758","longitude":77.53369048,"latitude":28.300788989999997,"authority":"YEIDA","category":"residential","execution_stage":"allotted"}},{"type":"Feature","geometry":{"type":"Polygon","coordinates":[[[77.533831,28.300812],[77.533711,28.300912],[77.533657,28.300863],[77.533777,28.300763],[77.533831,28.300812]]]},"properties":{"objectid":4803,"uniqueplotid":"PLNGRESIDENTIAL4803","plotmap_id":"SECTOR-22D_397_D_RESI","plotidentificationnumber":"397","plotno":"397","industrysector":"SECTOR-22D","block":"D","plotsize":"120 SQMT","plotsize_at_the_time_of_allotme":"120 SQMT","landuse_type":"RESIDENTIAL","landuse_subcategory":"RESIDENTIAL","scheme_cod":"RRPS04","investment":0,"employment":0,"plotstatus":"Allotted","landallotementstatus":"SOLD","landallotementtype":"ALLOTTED","allotmentid":"RRPS041268","village_name":"Kherli Bhav","khasra_no":"758","longitude":77.53374391,"latitude":28.30083761,"authority":"YEIDA","category":"residential","execution_stage":"allotted"}},{"type":"Feature","geometry":{"type":"Polygon","coordinates":[[[77.533884,28.300861],[77.533764,28.30096],[77.533711,28.300912],[77.533831,28.300812],[77.533884,28.300861]]]},"properties":{"objectid":4804,"uniqueplotid":"PLNGRESIDENTIAL4804","plotmap_id":"SECTOR-22D_398_D_RESI","plotidentificationnumber":"398","plotno":"398","industrysector":"SECTOR-22D","block":"D","plotsize":"120 SQMT","plotsize_at_the_time_of_allotme":"120 SQMT","landuse_type":"RESIDENTIAL","landuse_subcategory":"RESIDENTIAL","scheme_cod":"RRPS04","investment":0,"employment":0,"plotstatus":"Allotted","landallotementstatus":"SOLD","landallotementtype":"ALLOTTED","allotmentid":"RRPS041061","village_name":"Kherli Bhav","khasra_no":"758","longitude":77.53379731,"latitude":28.300886209999998,"authority":"YEIDA","category":"residential","execution_stage":"allotted"}},{"type":"Feature","geometry":{"type":"Polygon","coordinates":[[[77.533938,28.300909],[77.533817,28.301009],[77.533764,28.30096],[77.533884,28.300861],[77.533938,28.300909]]]},"properties":{"objectid":4805,"uniqueplotid":"PLNGRESIDENTIAL4805","plotmap_id":"SECTOR-22D_399_D_RESI","plotidentificationnumber":"399","plotno":"399","industrysector":"SECTOR-22D","block":"D","plotsize":"120 SQMT","plotsize_at_the_time_of_allotme":"120 SQMT","landuse_type":"RESIDENTIAL","landuse_subcategory":"RESIDENTIAL","scheme_cod":"RRPS04","investment":0,"employment":0,"plotstatus":"Allotted","landallotementstatus":"SOLD","landallotementtype":"ALLOTTED","allotmentid":"RRPS041103","village_name":"Kherli Bhav","khasra_no":"758","longitude":77.53385075,"latitude":28.300934859999998,"authority":"YEIDA","category":"residential","execution_stage":"allotted"}},{"type":"Feature","geometry":{"type":"Polygon","coordinates":[[[77.533991,28.300958],[77.533871,28.301058],[77.533817,28.301009],[77.533938,28.300909],[77.533991,28.300958]]]},"properties":{"objectid":4806,"uniqueplotid":"PLNGRESIDENTIAL4806","plotmap_id":"SECTOR-22D_400_D_RESI","plotidentificationnumber":"400","plotno":"400","industrysector":"SECTOR-22D","block":"D","plotsize":"120 SQMT","plotsize_at_the_time_of_allotme":"120 SQMT","landuse_type":"RESIDENTIAL","landuse_subcategory":"RESIDENTIAL","scheme_cod":"RRPS04","investment":0,"employment":0,"plotstatus":"Allotted","landallotementstatus":"SOLD","landallotementtype":"ALLOTTED","allotmentid":"RRPS041155","village_name":"Kherli Bhav","khasra_no":"758","longitude":77.53390418000001,"latitude":28.300983459999998,"authority":"YEIDA","category":"residential","execution_stage":"allotted"}},{"type":"Feature","geometry":{"type":"Polygon","coordinates":[[[77.534044,28.301007],[77.533924,28.301106],[77.533871,28.301058],[77.533991,28.300958],[77.534044,28.301007]]]},"properties":{"objectid":4807,"uniqueplotid":"PLNGRESIDENTIAL4807","plotmap_id":"SECTOR-22D_401_D_RESI","plotidentificationnumber":"401","plotno":"401","industrysector":"SECTOR-22D","block":"D","plotsize":"120 SQMT","plotsize_at_the_time_of_allotme":"120 SQMT","landuse_type":"RESIDENTIAL","landuse_subcategory":"RESIDENTIAL","scheme_cod":"RRPS04","investment":0,"employment":0,"plotstatus":"Allotted","landallotementstatus":"SOLD","landallotementtype":"ALLOTTED","allotmentid":"RRPS041093","village_name":"Kherli Bhav","khasra_no":"758","longitude":77.53395759,"latitude":28.30103209,"authority":"YEIDA","category":"residential","execution_stage":"allotted"}},{"type":"Feature","geometry":{"type":"Polygon","coordinates":[[[77.534098,28.301055],[77.533978,28.301155],[77.533924,28.301106],[77.534044,28.301007],[77.534098,28.301055]]]},"properties":{"objectid":4808,"uniqueplotid":"PLNGRESIDENTIAL4808","plotmap_id":"SECTOR-22D_402_D_RESI","plotidentificationnumber":"402","plotno":"402","industrysector":"SECTOR-22D","block":"D","plotsize":"120 SQMT","plotsize_at_the_time_of_allotme":"120 SQMT","landuse_type":"RESIDENTIAL","landuse_subcategory":"RESIDENTIAL","scheme_cod":"RRPS04","investment":0,"employment":0,"plotstatus":"Allotted","landallotementstatus":"SOLD","landallotementtype":"ALLOTTED","allotmentid":"RRPS041073","village_name":"Kherli Bhav","khasra_no":"758","longitude":77.53401103,"latitude":28.301080719999998,"authority":"YEIDA","category":"residential","execution_stage":"allotted"}},{"type":"Feature","geometry":{"type":"Polygon","coordinates":[[[77.534151,28.301104],[77.534031,28.301204],[77.533978,28.301155],[77.534098,28.301055],[77.534151,28.301104]]]},"properties":{"objectid":4809,"uniqueplotid":"PLNGRESIDENTIAL4809","plotmap_id":"SECTOR-22D_403_D_RESI","plotidentificationnumber":"403","plotno":"403","industrysector":"SECTOR-22D","block":"D","plotsize":"120 SQMT","plotsize_at_the_time_of_allotme":"120 SQMT","landuse_type":"RESIDENTIAL","landuse_subcategory":"RESIDENTIAL","scheme_cod":"RPS06","investment":0,"employment":0,"plotstatus":"Allotted","landallotementstatus":"SOLD","landallotementtype":"ALLOTTED","allotmentid":"RPS061294","village_name":"Kherli Bhav","khasra_no":"758","longitude":77.53406446000001,"latitude":28.301129340000003,"authority":"YEIDA","category":"residential","execution_stage":"allotted"}},{"type":"Feature","geometry":{"type":"Polygon","coordinates":[[[77.534205,28.301152],[77.534085,28.301252],[77.534031,28.301204],[77.534151,28.301104],[77.534205,28.301152]]]},"properties":{"objectid":4810,"uniqueplotid":"PLNGRESIDENTIAL4810","plotmap_id":"SECTOR-22D_404_D_RESI","plotidentificationnumber":"404","plotno":"404","industrysector":"SECTOR-22D","block":"D","plotsize":"120 SQMT","plotsize_at_the_time_of_allotme":"120 SQMT","landuse_type":"RESIDENTIAL","landuse_subcategory":"RESIDENTIAL","scheme_cod":"RRPS04","investment":0,"employment":0,"plotstatus":"Allotted","landallotementstatus":"SOLD","landallotementtype":"ALLOTTED","allotmentid":"RRPS041286","village_name":"Kherli Bhav","khasra_no":"758","longitude":77.53411788,"latitude":28.30117797,"authority":"YEIDA","category":"residential","execution_stage":"allotted"}},{"type":"Feature","geometry":{"type":"Polygon","coordinates":[[[77.534258,28.301201],[77.534138,28.301301],[77.534085,28.301252],[77.534205,28.301152],[77.534258,28.301201]]]},"properties":{"objectid":4811,"uniqueplotid":"PLNGRESIDENTIAL4811","plotmap_id":"SECTOR-22D_405_D_RESI","plotidentificationnumber":"405","plotno":"405","industrysector":"SECTOR-22D","block":"D","plotsize":"120 SQMT","plotsize_at_the_time_of_allotme":"120 SQMT","landuse_type":"RESIDENTIAL","landuse_subcategory":"RESIDENTIAL","scheme_cod":"RRPS04","investment":0,"employment":0,"plotstatus":"Allotted","landallotementstatus":"SOLD","landallotementtype":"ALLOTTED","allotmentid":"RRPS041246","village_name":"Kherli Bhav","khasra_no":"758","longitude":77.53417128,"latitude":28.30122657,"authority":"YEIDA","category":"residential","execution_stage":"allotted"}},{"type":"Feature","geometry":{"type":"Polygon","coordinates":[[[77.534311,28.30125],[77.534191,28.301349],[77.534138,28.301301],[77.534258,28.301201],[77.534311,28.30125]]]},"properties":{"objectid":4812,"uniqueplotid":"PLNGRESIDENTIAL4812","plotmap_id":"SECTOR-22D_406_D_RESI","plotidentificationnumber":"406","plotno":"406","industrysector":"SECTOR-22D","block":"D","plotsize":"120 SQMT","plotsize_at_the_time_of_allotme":"120 SQMT","landuse_type":"RESIDENTIAL","landuse_subcategory":"RESIDENTIAL","scheme_cod":"RRPS04","investment":0,"employment":0,"plotstatus":"Allotted","landallotementstatus":"SOLD","landallotementtype":"ALLOTTED","allotmentid":"RRPS041038","village_name":"Kherli Bhav","khasra_no":"758","longitude":77.53422468,"latitude":28.30127517,"authority":"YEIDA","category":"residential","execution_stage":"allotted"}},{"type":"Feature","geometry":{"type":"Polygon","coordinates":[[[77.534365,28.301298],[77.534245,28.301398],[77.534191,28.301349],[77.534311,28.30125],[77.534365,28.301298]]]},"properties":{"objectid":4813,"uniqueplotid":"PLNGRESIDENTIAL4813","plotmap_id":"SECTOR-22D_407_D_RESI","plotidentificationnumber":"407","plotno":"407","industrysector":"SECTOR-22D","block":"D","plotsize":"120 SQMT","plotsize_at_the_time_of_allotme":"120 SQMT","landuse_type":"RESIDENTIAL","landuse_subcategory":"RESIDENTIAL","scheme_cod":"RRPS04","investment":0,"employment":0,"plotstatus":"Allotted","landallotementstatus":"SOLD","landallotementtype":"ALLOTTED","allotmentid":"RRPS041003","village_name":"Kherli Bhav","khasra_no":"758","longitude":77.53427814999999,"latitude":28.30132382,"authority":"YEIDA","category":"residential","execution_stage":"allotted"}},{"type":"Feature","geometry":{"type":"Polygon","coordinates":[[[77.534418,28.301347],[77.534298,28.301447],[77.534245,28.301398],[77.534365,28.301298],[77.534418,28.301347]]]},"properties":{"objectid":4814,"uniqueplotid":"PLNGRESIDENTIAL4814","plotmap_id":"SECTOR-22D_408_D_RESI","plotidentificationnumber":"408","plotno":"408","industrysector":"SECTOR-22D","block":"D","plotsize":"120 SQMT","plotsize_at_the_time_of_allotme":"120 SQMT","landuse_type":"RESIDENTIAL","landuse_subcategory":"RESIDENTIAL","scheme_cod":"RRPS04","investment":0,"employment":0,"plotstatus":"Allotted","landallotementstatus":"SOLD","landallotementtype":"ALLOTTED","allotmentid":"RRPS041085","village_name":"Kherli Bhav","khasra_no":"758","longitude":77.53433159000001,"latitude":28.30137247,"authority":"YEIDA","category":"residential","execution_stage":"allotted"}},{"type":"Feature","geometry":{"type":"Polygon","coordinates":[[[77.534471,28.301395],[77.534351,28.301495],[77.534298,28.301447],[77.534418,28.301347],[77.534471,28.301395]]]},"properties":{"objectid":4815,"uniqueplotid":"PLNGRESIDENTIAL4815","plotmap_id":"SECTOR-22D_409_D_RESI","plotidentificationnumber":"409","plotno":"409","industrysector":"SECTOR-22D","block":"D","plotsize":"120 SQMT","plotsize_at_the_time_of_allotme":"120 SQMT","landuse_type":"RESIDENTIAL","landuse_subcategory":"RESIDENTIAL","scheme_cod":"RRPS04","investment":0,"employment":0,"plotstatus":"Allotted","landallotementstatus":"SOLD","landallotementtype":"ALLOTTED","allotmentid":"RRPS041144","village_name":"Kherli Bhav","khasra_no":"758","longitude":77.53438459,"latitude":28.30142087,"authority":"YEIDA","category":"residential","execution_stage":"allotted"}},{"type":"Feature","geometry":{"type":"Polygon","coordinates":[[[77.534525,28.301444],[77.534405,28.301544],[77.534351,28.301495],[77.534471,28.301395],[77.534525,28.301444]]]},"properties":{"objectid":4816,"uniqueplotid":"PLNGRESIDENTIAL4816","plotmap_id":"SECTOR-22D_410_D_RESI","plotidentificationnumber":"410","plotno":"410","industrysector":"SECTOR-22D","block":"D","plotsize":"120 SQMT","plotsize_at_the_time_of_allotme":"120 SQMT","landuse_type":"RESIDENTIAL","landuse_subcategory":"RESIDENTIAL","scheme_cod":"RRPS04","investment":0,"employment":0,"plotstatus":"Allotted","landallotementstatus":"SOLD","landallotementtype":"ALLOTTED","allotmentid":"RRPS041242","village_name":"Kherli Bhav","khasra_no":"758","longitude":77.53443808,"latitude":28.30146926,"authority":"YEIDA","category":"residential","execution_stage":"allotted"}},{"type":"Feature","geometry":{"type":"Polygon","coordinates":[[[77.534579,28.301493],[77.534458,28.301593],[77.534405,28.301544],[77.534525,28.301444],[77.534579,28.301493]]]},"properties":{"objectid":4817,"uniqueplotid":"PLNGRESIDENTIAL4817","plotmap_id":"SECTOR-22D_411_D_RESI","plotidentificationnumber":"411","plotno":"411","industrysector":"SECTOR-22D","block":"D","plotsize":"120 SQMT","plotsize_at_the_time_of_allotme":"120 SQMT","landuse_type":"RESIDENTIAL","landuse_subcategory":"RESIDENTIAL","scheme_cod":"RRPS04","investment":0,"employment":0,"plotstatus":"Allotted","landallotementstatus":"SOLD","landallotementtype":"ALLOTTED","allotmentid":"RRPS041077","village_name":"Kherli Bhav","khasra_no":"758","longitude":77.53449177,"latitude":28.30151821,"authority":"YEIDA","category":"residential","execution_stage":"allotted"}},{"type":"Feature","geometry":{"type":"Polygon","coordinates":[[[77.534632,28.301541],[77.534512,28.301641],[77.534458,28.301593],[77.534579,28.301493],[77.534632,28.301541]]]},"properties":{"objectid":4818,"uniqueplotid":"PLNGRESIDENTIAL4818","plotmap_id":"SECTOR-22D_412_D_RESI","plotidentificationnumber":"412","plotno":"412","industrysector":"SECTOR-22D","block":"D","plotsize":"120 SQMT","plotsize_at_the_time_of_allotme":"120 SQMT","landuse_type":"RESIDENTIAL","landuse_subcategory":"RESIDENTIAL","scheme_cod":"RRPS04","investment":0,"employment":0,"plotstatus":"Allotted","landallotementstatus":"SOLD","landallotementtype":"ALLOTTED","allotmentid":"RRPS041375","village_name":"Kherli Bhav","khasra_no":"758","longitude":77.53454529,"latitude":28.30156694,"authority":"YEIDA","category":"residential","execution_stage":"allotted"}},{"type":"Feature","geometry":{"type":"Polygon","coordinates":[[[77.534686,28.30159],[77.534565,28.30169],[77.534512,28.301641],[77.534632,28.301541],[77.534686,28.30159]]]},"properties":{"objectid":4819,"uniqueplotid":"PLNGRESIDENTIAL4819","plotmap_id":"SECTOR-22D_413_D_RESI","plotidentificationnumber":"413","plotno":"413","industrysector":"SECTOR-22D","block":"D","plotsize":"120 SQMT","plotsize_at_the_time_of_allotme":"120 SQMT","landuse_type":"RESIDENTIAL","landuse_subcategory":"RESIDENTIAL","scheme_cod":"RRPS04","investment":0,"employment":0,"plotstatus":"Allotted","landallotementstatus":"SOLD","landallotementtype":"ALLOTTED","allotmentid":"RRPS041370","village_name":"Kherli Bhav","khasra_no":"758","longitude":77.53459873,"latitude":28.30161559,"authority":"YEIDA","category":"residential","execution_stage":"allotted"}},{"type":"Feature","geometry":{"type":"Polygon","coordinates":[[[77.534739,28.301639],[77.534619,28.301738],[77.534565,28.30169],[77.534686,28.30159],[77.534739,28.301639]]]},"properties":{"objectid":4820,"uniqueplotid":"PLNGRESIDENTIAL4820","plotmap_id":"SECTOR-22D_414_D_RESI","plotidentificationnumber":"414","plotno":"414","industrysector":"SECTOR-22D","block":"D","plotsize":"120 SQMT","plotsize_at_the_time_of_allotme":"120 SQMT","landuse_type":"RESIDENTIAL","landuse_subcategory":"RESIDENTIAL","scheme_cod":"RRPS04","investment":0,"employment":0,"plotstatus":"Allotted","landallotementstatus":"SOLD","landallotementtype":"ALLOTTED","allotmentid":"RRPS041305","village_name":"Kherli Bhav","khasra_no":"758","longitude":77.53465213,"latitude":28.3016642,"authority":"YEIDA","category":"residential","execution_stage":"allotted"}},{"type":"Feature","geometry":{"type":"Polygon","coordinates":[[[77.5348,28.301694],[77.534679,28.301794],[77.534619,28.301738],[77.534739,28.301639],[77.5348,28.301694]]]},"properties":{"objectid":4821,"uniqueplotid":"PLNGRESIDENTIAL4821","plotmap_id":"SECTOR-22D_415_D_RESI","plotidentificationnumber":"415","plotno":"415","industrysector":"SECTOR-22D","block":"D","plotsize":"120 SQMT","plotsize_at_the_time_of_allotme":"120 SQMT","landuse_type":"RESIDENTIAL","landuse_subcategory":"RESIDENTIAL","scheme_cod":"RRPS04","investment":0,"employment":0,"plotstatus":"Allotted","landallotementstatus":"SOLD","landallotementtype":"ALLOTTED","allotmentid":"RRPS041034","village_name":"Kherli Bhav","khasra_no":"758","longitude":77.53470917,"latitude":28.301716080000002,"authority":"YEIDA","category":"residential","execution_stage":"allotted"}},{"type":"Feature","geometry":{"type":"Polygon","coordinates":[[[77.532154,28.299495],[77.532032,28.299596],[77.531979,28.299548],[77.532101,28.299446],[77.532154,28.299495]]]},"properties":{"objectid":4851,"uniqueplotid":"PLNGRESIDENTIAL4851","plotmap_id":"SECTOR-22D_316_D_RESI","plotidentificationnumber":"316","plotno":"316","industrysector":"SECTOR-22D","block":"D","plotsize":"120 SQMT","plotsize_at_the_time_of_allotme":"120 SQMT","landuse_type":"RESIDENTIAL","landuse_subcategory":"RESIDENTIAL","scheme_cod":"RRPS04","investment":0,"employment":0,"plotstatus":"Allotted","landallotementstatus":"SOLD","landallotementtype":"ALLOTTED","allotmentid":"RRPS041018","village_name":"Kherli Bhav","khasra_no":"775","longitude":77.5320665,"latitude":28.29952136,"authority":"YEIDA","category":"residential","execution_stage":"allotted"}}]}
