{"type":"FeatureCollection","features":[{"type":"Feature","geometry":{"type":"Polygon","coordinates":[[[77.536142,28.270896],[77.531192,28.271931],[77.531622,28.269506],[77.532237,28.266934],[77.53331,28.266222],[77.537064,28.26706],[77.536142,28.270896]]]},"properties":{"objectid":4,"uniqueplotid":"PLNGINDUSTRIAL4","plotmap_id":"SECTOR-24A_(6)_MLU_IND","plotidentificationnumber":"(6)","plotno":"(6)","industrysector":"SECTOR-24A","block":"MLU","plotsize":"263550 SQMT","landuse_type":"INDUSTRIAL","landuse_subcategory":"INDUSTRIAL","investment":0,"employment":0,"landallotementstatus":"VACANT","landallotementtype":"VACANT","village_name":"Kadarpur,Rampur Khadar,Takipur Bangar","khasra_no":"13,6,2,10,15,8,16,7,4,11,5,1,49,48,30,33,50,63,56,35,61,67,47,42,29,31,32,34,52,55,53,54,51,46,26,73,69,60,66,59,45,64,57,44,58,43,65,62,39,27,28,721,851,724,619,706,719,720,718,618,726,722,723,725,620,697","longitude":77.53434082,"latitude":28.26855558,"authority":"YEIDA","category":"industrial","execution_stage":"vacant"}},{"type":"Feature","geometry":{"type":"Polygon","coordinates":[[[77.545494,28.272156],[77.5426,28.280463],[77.529932,28.277324],[77.531109,28.272343],[77.538974,28.270698],[77.545494,28.272156]]]},"properties":{"objectid":5,"uniqueplotid":"PLNGINDUSTRIAL5","plotmap_id":"SECTOR-24A_(1A)_MLU_IND","plotidentificationnumber":"(1A)","plotno":"(1A)","industrysector":"SECTOR-24A","block":"MLU","plotsize":"1213790 SQMT","plotsize_at_the_time_of_allotme":"1213790 SQMT","landuse_type":"INDUSTRIAL","landuse_subcategory":"INDUSTRIAL","scheme_cod":"MLU","investment":0,"employment":0,"plot_total_employment":"4000","projects_cost_in_lacs":92963,"plotstatus":"Allotted","landallotementstatus":"SOLD","landallotementtype":"ALLOTTED","nature_of_allottee":"PVT.LTD","allotmentid":"MLU04-0002","allotment_date":1486319400000,"rate_of_allotment":4124,"lease_deed":"Y","lease_deed_date":1562524200000,"village_name":"Kadarpur,Kherli Bhav","khasra_no":"747,739,743,748,742,737,803,170,763,713,751,650,651,666,662,636,635,593,831,823,827,822,824,807,838,641,642,682,640,837,680,646,643,678,870,727,644,790,789,786,799,788,787,594,685,634,728,684,649,638,637,172","longitude":77.53750525,"latitude":28.27555221,"authority_recorded_allottee":"M/S.PATANJALI FOOD & HARBAL PARK NOIDA PVT. LTD.","authority":"YEIDA","category":"industrial","execution_stage":"lease-recorded"}},{"type":"Feature","geometry":{"type":"Polygon","coordinates":[[[77.547482,28.265848],[77.546997,28.267218],[77.540407,28.265753],[77.54085,28.264223],[77.547482,28.265848]]]},"properties":{"objectid":6,"uniqueplotid":"PLNGINDUSTRIAL6","plotmap_id":"SECTOR-24A_(2)_MLU_IND","plotidentificationnumber":"(2)","plotno":"(2)","industrysector":"SECTOR-24A","block":"MLU","plotsize":"126580 SQMT","landuse_type":"INDUSTRIAL","landuse_subcategory":"INDUSTRIAL","investment":0,"employment":0,"landallotementstatus":"VACANT","landallotementtype":"VACANT","village_name":"Chak Jalalabad,Takipur Bangar","khasra_no":"130,125,129,126,118,119,120,114,128,117,131,127,113,42,44,78,45,47,46,75,41,39,43,67,55,49,52,58,54,48,56,59,50,51,38,57,53,33","longitude":77.54487084,"latitude":28.266089469999997,"authority":"YEIDA","category":"industrial","execution_stage":"vacant"}},{"type":"Feature","geometry":{"type":"Polygon","coordinates":[[[77.521153,28.304875],[77.520488,28.306168],[77.517836,28.304144],[77.518123,28.303584],[77.520962,28.304606],[77.520872,28.304775],[77.521153,28.304875]]]},"properties":{"objectid":7,"uniqueplotid":"PLNGINDUSTRIAL7","plotmap_id":"SECTOR-24_21A_MLU_IND","plotidentificationnumber":"21A","plotno":"21A","industrysector":"SECTOR-24","block":"MLU","plotsize":"40020 SQMT","plotsize_at_the_time_of_allotme":"40020 SQMT","plot_size_as_per_lease_plan":40017,"landuse_type":"INDUSTRIAL","landuse_subcategory":"INDUSTRIAL","scheme_cod":"MLU","investment":0,"employment":0,"plotstatus":"Allotted","landallotementstatus":"SOLD","landallotementtype":"ALLOTTED","allotmentid":"MLU/06/004","allotment_date":1588271400000,"rate_of_allotment":4870,"lease_deed":"Y","possession":"N","village_name":"Munjkheda","khasra_no":"922,945,919,918,897,909,921,898,917,944,901,920,903,902,894","longitude":77.51963716,"latitude":28.30484157,"authority":"YEIDA","category":"industrial","execution_stage":"lease-recorded"}},{"type":"Feature","geometry":{"type":"Polygon","coordinates":[[[77.522321,28.306846],[77.521384,28.306893],[77.521204,28.306859],[77.521072,28.306789],[77.52095,28.30666],[77.520893,28.306521],[77.520889,28.306369],[77.52871,28.291149],[77.530406,28.289795],[77.533554,28.292881],[77.531723,28.294102],[77.530725,28.294708],[77.529973,28.295271],[77.529408,28.295786],[77.528738,28.29651],[77.528328,28.29704],[77.52793,28.297645],[77.527634,28.298177],[77.52738,28.298721],[77.527191,28.299208],[77.527052,28.299637],[77.526912,28.300179],[77.526817,28.300679],[77.526751,28.301195],[77.526718,28.301958],[77.526825,28.303892],[77.526902,28.306608],[77.522321,28.306846]]]},"properties":{"objectid":8,"uniqueplotid":"PLNGINDUSTRIAL8","plotmap_id":"SECTOR-24_8_MLU_IND","plotidentificationnumber":"8","plotno":"8","industrysector":"SECTOR-24","block":"MLU","plotsize":"170 ACRE","plotsize_at_the_time_of_allotme":"170 ACRE","landuse_type":"INDUSTRIAL","landuse_subcategory":"INDUSTRIAL","scheme_cod":"MLU","investment":0,"employment":0,"plot_total_employment":"38000","projects_cost_in_lacs":699000,"plotstatus":"Allotted","landallotementstatus":"SOLD","landallotementtype":"ALLOTTED","nature_of_allottee":"PVT.LTD","allotmentid":"MLU/05/001","allotment_date":1543516200000,"rate_of_allotment":4161.13,"lease_deed":"Y","possession":"N","map_sanctioned_from_planning":"Y","functional_certificate_obtain":"Y","functional_certificate_date":1729449000000,"village_name":"Kherli Bhav,Munjkheda","khasra_no":"22,880,823,862,855,858,856,850,N/F,860,859,874,807,867,731,883,868,872,784,873,861,869,878,866,877,818,851,854,719,821,863,879,881,864,865,820,800,824,809,817,875,819,876,816,978,949,948,914,942,940,922,945,1071,1070,10511088,1027,1065","longitude":77.52698547,"latitude":28.29867329,"authority_recorded_allottee":"M/S. VIVO MOBILE INDIA PVT.LTD.","authority":"YEIDA","category":"industrial","execution_stage":"functional-evidence"}},{"type":"Feature","geometry":{"type":"Polygon","coordinates":[[[77.532634,28.27894],[77.542344,28.281368],[77.541394,28.284158],[77.540855,28.285107],[77.540385,28.285792],[77.540145,28.286105],[77.53968,28.286656],[77.539281,28.287073],[77.538716,28.287843],[77.537614,28.289165],[77.537167,28.289655],[77.53481,28.28737],[77.536802,28.28575],[77.532634,28.27894]]]},"properties":{"objectid":9,"uniqueplotid":"PLNGINDUSTRIAL9","plotmap_id":"SECTOR-24_1A_MLU_IND","plotidentificationnumber":"1A","plotno":"1A","industrysector":"SECTOR-24","block":"MLU","plotsize":"526252 SQMT","plotsize_at_the_time_of_allotme":"526252 SQMT","landuse_type":"INDUSTRIAL","landuse_subcategory":"INDUSTRIAL","scheme_cod":"MLU","investment":0,"employment":0,"plot_total_employment":"4000","projects_cost_in_lacs":73717,"plotstatus":"Allotted","landallotementstatus":"SOLD","landallotementtype":"ALLOTTED","nature_of_allottee":"PVT.LTD","allotmentid":"MLU04-0001","allotment_date":1486319400000,"rate_of_allotment":4187,"lease_deed":"Y","possession":"Y","village_name":"Kadarpur,Kherli Bhav","khasra_no":"07,906,1016,1110,991,1126,987,981,1020,945,938,1000,1022,986,984,908,910,909M,1006,965,939,976,943,996,963,937,1122,980,934,978,1019,1005,997,983,964,977,1017,999,1111,990,1021,905M,942,992,944,994,961,1132,988,955,1128,1002,962,985,1015,956,959","longitude":77.53726174,"latitude":28.28384254,"authority_recorded_allottee":"M/S PATANJALI AYURVED LIMITED","authority":"YEIDA","category":"industrial","execution_stage":"possession-recorded"}},{"type":"Feature","geometry":{"type":"Polygon","coordinates":[[[77.521927,28.311404],[77.521483,28.311564],[77.519714,28.308687],[77.520396,28.307353],[77.520407,28.307352],[77.521928,28.309852],[77.521927,28.311404]]]},"properties":{"objectid":10,"uniqueplotid":"PLNGINDUSTRIAL10","plotmap_id":"SECTOR-24_17A_MLU_IND","plotidentificationnumber":"17A","plotno":"17A","industrysector":"SECTOR-24","block":"MLU","plotsize":"47668 SQMT","plotsize_at_the_time_of_allotme":"47668 SQMT","landuse_type":"INDUSTRIAL","landuse_subcategory":"INDUSTRIAL","scheme_cod":"MLU","investment":0,"employment":0,"plot_total_employment":"3000","projects_cost_in_lacs":3400,"plotstatus":"Allotted","landallotementstatus":"SOLD","landallotementtype":"ALLOTTED","nature_of_allottee":"PVT.LTD","allotmentid":"MLU/05/002","allotment_date":1553625000000,"rate_of_allotment":4675,"lease_deed":"Y","possession":"N","village_name":"Munjkheda","khasra_no":"882,875,890,883,889,874,873,885,884,881,886,872","longitude":77.52093214,"latitude":28.30947848,"authority_recorded_allottee":"M/S XIHI TECHNOLOGY PVT. LTD.","authority":"YEIDA","category":"industrial","execution_stage":"lease-recorded"}},{"type":"Feature","geometry":{"type":"Polygon","coordinates":[[[77.521483,28.311564],[77.520012,28.312096],[77.519898,28.311806],[77.518973,28.310137],[77.519714,28.308687],[77.521483,28.311564]]]},"properties":{"objectid":11,"uniqueplotid":"PLNGINDUSTRIAL11","plotmap_id":"SECTOR-24_17B_MLU_IND","plotidentificationnumber":"17B","plotno":"17B","industrysector":"SECTOR-24","block":"MLU","plotsize":"43812 SQMT","plotsize_at_the_time_of_allotme":"43812 SQMT","landuse_type":"INDUSTRIAL","landuse_subcategory":"INDUSTRIAL","scheme_cod":"MLU","investment":0,"employment":0,"plot_total_employment":"2000","projects_cost_in_lacs":15000,"plotstatus":"Allotted","landallotementstatus":"SOLD","landallotementtype":"ALLOTTED","nature_of_allottee":"PVT.LTD","allotmentid":"MLU/05/003","allotment_date":1545762600000,"rate_of_allotment":4675,"lease_deed":"Y","possession":"N","map_sanctioned_from_planning":"Y","village_name":"Munjkheda","khasra_no":"878,882,875,879,883,887,889,874,885,880,881,886,888","longitude":77.52016545,"latitude":28.31049681,"authority_recorded_allottee":"YINGTONG ELECTRONIC TECHNOLOGY INDIA PVT. LTD.","authority":"YEIDA","category":"industrial","execution_stage":"construction-or-map-approval"}}]}
