{"type":"FeatureCollection","features":[{"type":"Feature","geometry":{"type":"Polygon","coordinates":[[[77.594352,28.256408],[77.582789,28.256675],[77.582822,28.259194],[77.575275,28.259271],[77.575152,28.247128],[77.586823,28.247034],[77.586833,28.247834],[77.587286,28.247825],[77.587282,28.24703],[77.591708,28.246994],[77.591542,28.247203],[77.591422,28.247387],[77.591375,28.247557],[77.591327,28.247836],[77.591159,28.248105],[77.591114,28.248317],[77.591131,28.248395],[77.591172,28.248458],[77.591308,28.24857],[77.591497,28.248658],[77.591707,28.248678],[77.59188,28.248662],[77.592312,28.248585],[77.592576,28.248468],[77.593128,28.248857],[77.593403,28.249086],[77.593318,28.249892],[77.593308,28.250525],[77.593339,28.251068],[77.593393,28.251524],[77.59354,28.252248],[77.593569,28.252565],[77.593571,28.253182],[77.593589,28.253533],[77.593648,28.253842],[77.593815,28.254387],[77.594077,28.255162],[77.594281,28.255962],[77.594352,28.256408]]]},"properties":{"objectid":1,"uniqueplotid":"PLNGINDUSTRIAL1","plotmap_id":"SECTOR-21_FC-01_B_IND","plotidentificationnumber":"FC-01","plotno":"FC-01","industrysector":"SECTOR-21","block":"B","plotsize":"230 ACRE","plotsize_at_the_time_of_allotme":"230 ACRE","landuse_type":"INDUSTRIAL","landuse_subcategory":"INDUSTRIAL","investment":0,"employment":0,"plotstatus":"Allotted","landallotementstatus":"SOLD","landallotementtype":"ALLOTTED","village_name":"Rabupura,Rustampur","khasra_no":"759,769,761,766,780,496,503,493,671,672,620,678,686,687,674,615,531,530,594,809,718,717,374,335,322,275,274,373,379,381,429,431/1,431/2,362/1,362/2,362/3,497,331/1,331M,681/1,681/2,1681,325/1,325M,816/1,816/2,549/1,549/2,328/1,328M,329/1","longitude":77.58641066,"latitude":28.252208229999997,"authority":"YEIDA","category":"industrial","execution_stage":"allotted"}},{"type":"Feature","geometry":{"type":"Polygon","coordinates":[[[77.591822,28.24686],[77.591708,28.246994],[77.587282,28.24703],[77.587231,28.242076],[77.596494,28.242004],[77.596495,28.242595],[77.596459,28.242918],[77.596351,28.243383],[77.596216,28.243744],[77.595904,28.244311],[77.595406,28.244908],[77.595179,28.245112],[77.594577,28.245965],[77.594395,28.246005],[77.593923,28.24618],[77.593523,28.24619],[77.593106,28.246146],[77.592886,28.245957],[77.592804,28.245927],[77.592598,28.245923],[77.592471,28.245978],[77.592284,28.246161],[77.592159,28.246213],[77.592062,28.246282],[77.591934,28.246549],[77.591871,28.246779],[77.591822,28.24686]]]},"properties":{"objectid":2,"uniqueplotid":"PLNGINDUSTRIAL2","plotmap_id":"SECTOR-21_N.A_A_IND","plotidentificationnumber":"N.A","plotno":"N.A","industrysector":"SECTOR-21","block":"A","plotsize":"105 ACRE","landuse_type":"INDUSTRIAL","landuse_subcategory":"INDUSTRIAL","investment":0,"employment":0,"landallotementstatus":"VACANT","landallotementtype":"VACANT","village_name":"Rabupura","khasra_no":"1041,1006,978,1001,1002,1007,998,999,994,974,1009,1008,995,1019,1013,1010,1029,973,1004,1005,1028,1020,1012,1058,1018,1017,1021,1053,1042,1027,1026,1074,1015,1014,1073,679,1023,1024,931,958,1075,972,975,1044,1043,993,1036,1037,1059,1030,1016,1304","longitude":77.59153811,"latitude":28.244572849999997,"authority":"YEIDA","category":"industrial","execution_stage":"vacant"}},{"type":"Feature","geometry":{"type":"Polygon","coordinates":[[[77.586773,28.24208],[77.586823,28.247034],[77.575152,28.247128],[77.575133,28.242169],[77.580736,28.242115],[77.586773,28.24208]]]},"properties":{"objectid":3,"uniqueplotid":"PLNGINDUSTRIAL3","plotmap_id":"SECTOR-21_IFC-01_F (FILM CITY)_IND","plotidentificationnumber":"IFC-01","plotno":"IFC-01","industrysector":"SECTOR-21","block":"F (FILM CITY)","plotsize":"155 ACRE","landuse_type":"INDUSTRIAL","landuse_subcategory":"INDUSTRIAL","investment":0,"employment":0,"landallotementstatus":"VACANT","landallotementtype":"VACANT","village_name":"Rabupura","khasra_no":"926,928,1077,922,836,825,832,833,826,834,838,821,820,851,1084,847,1083,929,845,814,859,911,913,850,853,852,817,696,693,931,695,1076,1075,680,694,691,1022,697,704,601,600,819,815,930,708,831,843,835,841,824,827,823,830,603,812,822,837","longitude":77.58074751999999,"latitude":28.244552709999997,"authority":"YEIDA","category":"industrial","execution_stage":"vacant"}},{"type":"Feature","geometry":{"type":"Polygon","coordinates":[[[77.577097,28.231989],[77.575467,28.231992],[77.575464,28.230865],[77.577093,28.230861],[77.577097,28.231989]]]},"properties":{"objectid":101,"uniqueplotid":"PLNGINDUSTRIAL101","plotmap_id":"SECTOR-28_D-09_Data Center Park_IND","plotidentificationnumber":"D-09","plotno":"D-09","industrysector":"SECTOR-28","block":"Data Center Park","plotsize":"5 ACRE","plotsize_at_the_time_of_allotme":"5 ACRE","landuse_type":"INDUSTRIAL","landuse_subcategory":"INDUSTRIAL","scheme_cod":"YEA/INDDC-PARK(2023)-03","investment":1560,"employment":250,"plotstatus":"Allotted","landallotementstatus":"SOLD","landallotementtype":"ALLOTTED","allotmentid":"YINDDC001","allotment_date":1661106600000,"rate_of_allotment":6670,"lease_deed":"N","village_name":"Rabupura,Bhaipur Brahmnan","khasra_no":"1186,1193,1194,1190,1191,1192,1179,1137,1184,1185,1188,1136,626","longitude":77.57630295,"latitude":28.231442270000002,"authority":"YEIDA","category":"industrial","execution_stage":"allotted"}},{"type":"Feature","geometry":{"type":"Polygon","coordinates":[[[77.578397,28.230858],[77.5784,28.231986],[77.577749,28.231987],[77.577745,28.23086],[77.578397,28.230858]]]},"properties":{"objectid":102,"uniqueplotid":"PLNGINDUSTRIAL102","plotmap_id":"SECTOR-28_E-2_Software Park_IND","plotidentificationnumber":"E-2","plotno":"E-2","industrysector":"SECTOR-28","block":"Software Park","plotsize":"8000 SQMT","landuse_type":"INDUSTRIAL","landuse_subcategory":"INDUSTRIAL","investment":0,"employment":0,"landallotementstatus":"VACANT","landallotementtype":"VACANT","village_name":"Rabupura","khasra_no":"1195,1193,1412,1405,1413,1194,1190,1191,1192,1210","longitude":77.57807277,"latitude":28.23142258,"authority":"YEIDA","category":"industrial","execution_stage":"vacant"}},{"type":"Feature","geometry":{"type":"Polygon","coordinates":[[[77.581942,28.230399],[77.581943,28.230624],[77.581536,28.230625],[77.581535,28.2304],[77.581942,28.230399]]]},"properties":{"objectid":124,"uniqueplotid":"PLNGINDUSTRIAL124","plotmap_id":"SECTOR-28_187_MEDICAL DEVICE PARK_IND","plotidentificationnumber":"187","plotno":"187","industrysector":"SECTOR-28","block":"MEDICAL DEVICE PARK","plotsize":"1000 SQMT","landuse_type":"INDUSTRIAL","landuse_subcategory":"INDUSTRIAL","investment":0,"employment":0,"landallotementstatus":"VACANT","landallotementtype":"VACANT","village_name":"Rabupura","khasra_no":"1475,1469,1417,1405","longitude":77.58173906,"latitude":28.2305121,"authority":"YEIDA","category":"industrial","execution_stage":"vacant"}},{"type":"Feature","geometry":{"type":"Polygon","coordinates":[[[77.58235,28.230398],[77.58235,28.230623],[77.581943,28.230624],[77.581942,28.230399],[77.58235,28.230398]]]},"properties":{"objectid":125,"uniqueplotid":"PLNGINDUSTRIAL125","plotmap_id":"SECTOR-28_180_MEDICAL DEVICE PARK_IND","plotidentificationnumber":"180","plotno":"180","industrysector":"SECTOR-28","block":"MEDICAL DEVICE PARK","plotsize":"1000 SQMT","landuse_type":"INDUSTRIAL","landuse_subcategory":"INDUSTRIAL","investment":0,"employment":0,"landallotementstatus":"VACANT","landallotementtype":"VACANT","village_name":"Rabupura","khasra_no":"1475,1470,1469,1417,1405","longitude":77.58214643,"latitude":28.230511149999998,"authority":"YEIDA","category":"industrial","execution_stage":"vacant"}},{"type":"Feature","geometry":{"type":"Polygon","coordinates":[[[77.581943,28.230624],[77.581944,28.23085],[77.581536,28.230851],[77.581536,28.230625],[77.581943,28.230624]]]},"properties":{"objectid":126,"uniqueplotid":"PLNGINDUSTRIAL126","plotmap_id":"SECTOR-28_188_MEDICAL DEVICE PARK_IND","plotidentificationnumber":"188","plotno":"188","industrysector":"SECTOR-28","block":"MEDICAL DEVICE PARK","plotsize":"1000 SQMT","landuse_type":"INDUSTRIAL","landuse_subcategory":"INDUSTRIAL","investment":0,"employment":0,"landallotementstatus":"VACANT","landallotementtype":"VACANT","village_name":"Rabupura","khasra_no":"1403,1405","longitude":77.58173973,"latitude":28.23073759,"authority":"YEIDA","category":"industrial","execution_stage":"vacant"}},{"type":"Feature","geometry":{"type":"Polygon","coordinates":[[[77.58235,28.230623],[77.582351,28.230849],[77.581944,28.23085],[77.581943,28.230624],[77.58235,28.230623]]]},"properties":{"objectid":127,"uniqueplotid":"PLNGINDUSTRIAL127","plotmap_id":"SECTOR-28_179_MEDICAL DEVICE PARK_IND","plotidentificationnumber":"179","plotno":"179","industrysector":"SECTOR-28","block":"MEDICAL DEVICE PARK","plotsize":"1000 SQMT","landuse_type":"INDUSTRIAL","landuse_subcategory":"INDUSTRIAL","investment":0,"employment":0,"landallotementstatus":"VACANT","landallotementtype":"VACANT","village_name":"Rabupura","khasra_no":"1403,1475,1470,1469,1417,1405","longitude":77.5821471,"latitude":28.230736649999997,"authority":"YEIDA","category":"industrial","execution_stage":"vacant"}},{"type":"Feature","geometry":{"type":"Polygon","coordinates":[[[77.586924,28.230793],[77.586567,28.230794],[77.586566,28.230253],[77.586922,28.230252],[77.586924,28.230793]]]},"properties":{"objectid":128,"uniqueplotid":"PLNGINDUSTRIAL128","plotmap_id":"SECTOR-28_114_MEDICAL DEVICE PARK_IND","plotidentificationnumber":"114","plotno":"114","industrysector":"SECTOR-28","block":"MEDICAL DEVICE PARK","plotsize":"2100 SQMT","landuse_type":"INDUSTRIAL","landuse_subcategory":"INDUSTRIAL","investment":0,"employment":0,"landallotementstatus":"VACANT","landallotementtype":"VACANT","village_name":"Rabupura","khasra_no":"1474,1473,1484,1467","longitude":77.58674468999999,"latitude":28.2305229,"authority":"YEIDA","category":"industrial","execution_stage":"vacant"}},{"type":"Feature","geometry":{"type":"Polygon","coordinates":[[[77.587279,28.230251],[77.58728,28.230792],[77.586924,28.230793],[77.586922,28.230252],[77.587279,28.230251]]]},"properties":{"objectid":129,"uniqueplotid":"PLNGINDUSTRIAL129","plotmap_id":"SECTOR-28_113_MEDICAL DEVICE PARK_IND","plotidentificationnumber":"113","plotno":"113","industrysector":"SECTOR-28","block":"MEDICAL DEVICE PARK","plotsize":"2100 SQMT","plotsize_at_the_time_of_allotme":"2100 SQMT","landuse_type":"INDUSTRIAL","landuse_subcategory":"INDUSTRIAL","scheme_cod":"YEA/IND-MDP(2023)-03","investment":17,"employment":17,"plot_total_employment":"66","projects_cost_in_lacs":870,"plotstatus":"Allotted","landallotementstatus":"SOLD","landallotementtype":"ALLOTTED","nature_of_allottee":"PVT.LTD","allotmentid":"YINDMDP3004","allotment_date":1689791400000,"rate_of_allotment":7010,"lease_deed":"N","possession":"N","village_name":"Rabupura","khasra_no":"1474,1473,1484,1467","longitude":77.58710114,"latitude":28.23052206,"authority_recorded_allottee":"GR BIOURE SURGICAL SYSTEM PVT LTD","authority":"YEIDA","category":"industrial","execution_stage":"allotted"}},{"type":"Feature","geometry":{"type":"Polygon","coordinates":[[[77.587635,28.23025],[77.587637,28.230791],[77.58728,28.230792],[77.587279,28.230251],[77.587635,28.23025]]]},"properties":{"objectid":130,"uniqueplotid":"PLNGINDUSTRIAL130","plotmap_id":"SECTOR-28_112_MEDICAL DEVICE PARK_IND","plotidentificationnumber":"112","plotno":"112","industrysector":"SECTOR-28","block":"MEDICAL DEVICE PARK","plotsize":"2100 SQMT","plotsize_at_the_time_of_allotme":"2100 SQMT","landuse_type":"INDUSTRIAL","landuse_subcategory":"INDUSTRIAL","scheme_cod":"YEA/IND-MDP(2022)-01","investment":14,"employment":14,"plotstatus":"Allotted","landallotementstatus":"SOLD","landallotementtype":"ALLOTTED","allotmentid":"YINDMDP00025","allotment_date":1661106600000,"rate_of_allotment":6670,"lease_deed":"N","possession":"N","village_name":"Rabupura","khasra_no":"1474,1473,1484,1467","longitude":77.58745758,"latitude":28.23052121,"authority":"YEIDA","category":"industrial","execution_stage":"allotted"}},{"type":"Feature","geometry":{"type":"Polygon","coordinates":[[[77.587991,28.230249],[77.587993,28.230791],[77.587637,28.230791],[77.587635,28.23025],[77.587991,28.230249]]]},"properties":{"objectid":131,"uniqueplotid":"PLNGINDUSTRIAL131","plotmap_id":"SECTOR-28_111_MEDICAL DEVICE PARK_IND","plotidentificationnumber":"111","plotno":"111","industrysector":"SECTOR-28","block":"MEDICAL DEVICE PARK","plotsize":"2100 SQMT","plotsize_at_the_time_of_allotme":"2100 SQMT","landuse_type":"INDUSTRIAL","landuse_subcategory":"INDUSTRIAL","scheme_cod":"YEA/IND-MDP(2022)-01","investment":38,"employment":38,"plotstatus":"Allotted","landallotementstatus":"SOLD","landallotementtype":"ALLOTTED","allotmentid":"YINDMDP00012","allotment_date":1661106600000,"rate_of_allotment":6670,"lease_deed":"N","possession":"N","village_name":"Rabupura","khasra_no":"1484","longitude":77.58781403,"latitude":28.23052037,"authority":"YEIDA","category":"industrial","execution_stage":"allotted"}},{"type":"Feature","geometry":{"type":"Polygon","coordinates":[[[77.588348,28.230249],[77.58835,28.23079],[77.587993,28.230791],[77.587991,28.230249],[77.588348,28.230249]]]},"properties":{"objectid":132,"uniqueplotid":"PLNGINDUSTRIAL132","plotmap_id":"SECTOR-28_110_MEDICAL DEVICE PARK_IND","plotidentificationnumber":"110","plotno":"110","industrysector":"SECTOR-28","block":"MEDICAL DEVICE PARK","plotsize":"2100 SQMT","plotsize_at_the_time_of_allotme":"2100 SQMT","landuse_type":"INDUSTRIAL","landuse_subcategory":"INDUSTRIAL","scheme_cod":"YEA/IND-MDP(2023)-03","investment":13,"employment":13,"plot_total_employment":"129","projects_cost_in_lacs":630,"plotstatus":"Allotted","landallotementstatus":"SOLD","landallotementtype":"ALLOTTED","nature_of_allottee":"PVT.LTD","allotmentid":"YINDMDP3005","allotment_date":1692210600000,"rate_of_allotment":6204,"lease_deed":"N","possession":"N","village_name":"Rabupura","khasra_no":"1484","longitude":77.58817048,"latitude":28.230519519999998,"authority_recorded_allottee":"PARAMOUNT SURGIMED LIMITED","authority":"YEIDA","category":"industrial","execution_stage":"allotted"}},{"type":"Feature","geometry":{"type":"Polygon","coordinates":[[[77.588704,28.230248],[77.588706,28.230789],[77.58835,28.23079],[77.588348,28.230249],[77.588704,28.230248]]]},"properties":{"objectid":133,"uniqueplotid":"PLNGINDUSTRIAL133","plotmap_id":"SECTOR-28_109_MEDICAL DEVICE PARK_IND","plotidentificationnumber":"109","plotno":"109","industrysector":"SECTOR-28","block":"MEDICAL DEVICE PARK","plotsize":"2100 SQMT","plotsize_at_the_time_of_allotme":"2100 SQMT","landuse_type":"INDUSTRIAL","landuse_subcategory":"INDUSTRIAL","scheme_cod":"YEA/IND-MDP(2022)-01","investment":13,"employment":13,"plot_total_employment":"24","projects_cost_in_lacs":500,"plotstatus":"Allotted","landallotementstatus":"SOLD","landallotementtype":"ALLOTTED","nature_of_allottee":"PVT.LTD","allotmentid":"YINDMDP0009","allotment_date":1681669800000,"rate_of_allotment":7010,"lease_deed":"N","possession":"N","village_name":"Rabupura","khasra_no":"1484,1487","longitude":77.58852693,"latitude":28.23051867,"authority_recorded_allottee":"S M HEALTHCARE PRODUCTS PVT LTD","authority":"YEIDA","category":"industrial","execution_stage":"allotted"}},{"type":"Feature","geometry":{"type":"Polygon","coordinates":[[[77.589061,28.230247],[77.589062,28.230788],[77.588706,28.230789],[77.588704,28.230248],[77.589061,28.230247]]]},"properties":{"objectid":134,"uniqueplotid":"PLNGINDUSTRIAL134","plotmap_id":"SECTOR-28_108_MEDICAL DEVICE PARK_IND","plotidentificationnumber":"108","plotno":"108","industrysector":"SECTOR-28","block":"MEDICAL DEVICE PARK","plotsize":"2100 SQMT","landuse_type":"INDUSTRIAL","landuse_subcategory":"INDUSTRIAL","investment":0,"employment":0,"landallotementstatus":"VACANT","landallotementtype":"VACANT","village_name":"Rabupura","khasra_no":"1484,1487","longitude":77.58888338000001,"latitude":28.23051782,"authority":"YEIDA","category":"industrial","execution_stage":"vacant"}},{"type":"Feature","geometry":{"type":"Polygon","coordinates":[[[77.589417,28.230246],[77.589419,28.230787],[77.589062,28.230788],[77.589061,28.230247],[77.589417,28.230246]]]},"properties":{"objectid":135,"uniqueplotid":"PLNGINDUSTRIAL135","plotmap_id":"SECTOR-28_107_MEDICAL DEVICE PARK_IND","plotidentificationnumber":"107","plotno":"107","industrysector":"SECTOR-28","block":"MEDICAL DEVICE PARK","plotsize":"2100 SQMT","landuse_type":"INDUSTRIAL","landuse_subcategory":"INDUSTRIAL","investment":13,"employment":13,"landallotementstatus":"VACANT","landallotementtype":"VACANT","village_name":"Rabupura","khasra_no":"1488,1487","longitude":77.58923982,"latitude":28.23051698,"authority":"YEIDA","category":"industrial","execution_stage":"vacant"}},{"type":"Feature","geometry":{"type":"Polygon","coordinates":[[[77.589774,28.230245],[77.589775,28.230786],[77.589419,28.230787],[77.589417,28.230246],[77.589774,28.230245]]]},"properties":{"objectid":136,"uniqueplotid":"PLNGINDUSTRIAL136","plotmap_id":"SECTOR-28_106_MEDICAL DEVICE PARK_IND","plotidentificationnumber":"106","plotno":"106","industrysector":"SECTOR-28","block":"MEDICAL DEVICE PARK","plotsize":"2100 SQMT","landuse_type":"INDUSTRIAL","landuse_subcategory":"INDUSTRIAL","investment":0,"employment":0,"landallotementstatus":"VACANT","landallotementtype":"VACANT","village_name":"Rabupura","khasra_no":"1488,1487","longitude":77.58959627,"latitude":28.230516129999998,"authority":"YEIDA","category":"industrial","execution_stage":"vacant"}},{"type":"Feature","geometry":{"type":"Polygon","coordinates":[[[77.59013,28.230244],[77.590132,28.230785],[77.589775,28.230786],[77.589774,28.230245],[77.59013,28.230244]]]},"properties":{"objectid":137,"uniqueplotid":"PLNGINDUSTRIAL137","plotmap_id":"SECTOR-28_105_MEDICAL DEVICE PARK_IND","plotidentificationnumber":"105","plotno":"105","industrysector":"SECTOR-28","block":"MEDICAL DEVICE PARK","plotsize":"2100 SQMT","plotsize_at_the_time_of_allotme":"2100 SQMT","landuse_type":"INDUSTRIAL","landuse_subcategory":"INDUSTRIAL","scheme_cod":"YEA/IND-MDP(2022)-01","investment":13,"employment":13,"plot_total_employment":"73","projects_cost_in_lacs":523,"plotstatus":"Allotted","landallotementstatus":"SOLD","landallotementtype":"ALLOTTED","nature_of_allottee":"PVT.LTD","allotmentid":"YINDMDP00010","allotment_date":1661106600000,"rate_of_allotment":6670,"lease_deed":"N","possession":"N","village_name":"Rabupura","khasra_no":"1489,1488","longitude":77.58995272,"latitude":28.230515269999998,"authority_recorded_allottee":"AMRAD MEDICAL EQUIPMENTS","authority":"YEIDA","category":"industrial","execution_stage":"allotted"}},{"type":"Feature","geometry":{"type":"Polygon","coordinates":[[[77.590487,28.230424],[77.590488,28.230785],[77.590132,28.230785],[77.59013,28.230244],[77.590487,28.230243],[77.590487,28.230424]]]},"properties":{"objectid":138,"uniqueplotid":"PLNGINDUSTRIAL138","plotmap_id":"SECTOR-28_104_MEDICAL DEVICE PARK_IND","plotidentificationnumber":"104","plotno":"104","industrysector":"SECTOR-28","block":"MEDICAL DEVICE PARK","plotsize":"2100 SQMT","plotsize_at_the_time_of_allotme":"2100 SQMT","plot_size_as_per_lease_plan":2100,"landuse_type":"INDUSTRIAL","landuse_subcategory":"INDUSTRIAL","scheme_cod":"YEA/IND-MDP(2022)-02","investment":11,"employment":11,"plot_total_employment":"47","projects_cost_in_lacs":432,"plotstatus":"Allotted","landallotementstatus":"SOLD","landallotementtype":"ALLOTTED","nature_of_allottee":"PVT.LTD","allotmentid":"YINDMDP2011","allotment_date":1681669800000,"rate_of_allotment":7010,"lease_deed":"N","possession":"Y","village_name":"Rabupura","khasra_no":"1489,1488","longitude":77.59030917,"latitude":28.23051442,"authority_recorded_allottee":"EDUSOFT HEALTHCARE PVT LTD","authority":"YEIDA","category":"industrial","execution_stage":"possession-recorded"}},{"type":"Feature","geometry":{"type":"Polygon","coordinates":[[[77.591149,28.230422],[77.59115,28.230783],[77.590488,28.230785],[77.590487,28.230424],[77.591149,28.230422]]]},"properties":{"objectid":139,"uniqueplotid":"PLNGINDUSTRIAL139","plotmap_id":"SECTOR-28_103_MEDICAL DEVICE PARK_IND","plotidentificationnumber":"103","plotno":"103","industrysector":"SECTOR-28","block":"MEDICAL DEVICE PARK","plotsize":"2600 SQMT","plotsize_at_the_time_of_allotme":"2600 SQMT","landuse_type":"INDUSTRIAL","landuse_subcategory":"INDUSTRIAL","investment":0,"employment":0,"plotstatus":"Allotted","landallotementstatus":"SOLD","landallotementtype":"ALLOTTED","allotmentid":"YINDMDP4018","allotment_date":1739385000000,"rate_of_allotment":7360,"village_name":"Rabupura","khasra_no":"1489","longitude":77.59081865,"latitude":28.2306034,"authority":"YEIDA","category":"industrial","execution_stage":"allotted"}},{"type":"Feature","geometry":{"type":"Polygon","coordinates":[[[77.581944,28.23085],[77.581944,28.231075],[77.581537,28.231076],[77.581536,28.230851],[77.581944,28.23085]]]},"properties":{"objectid":140,"uniqueplotid":"PLNGINDUSTRIAL140","plotmap_id":"SECTOR-28_189_MEDICAL DEVICE PARK_IND","plotidentificationnumber":"189","plotno":"189","industrysector":"SECTOR-28","block":"MEDICAL DEVICE PARK","plotsize":"1000 SQMT","landuse_type":"INDUSTRIAL","landuse_subcategory":"INDUSTRIAL","investment":0,"employment":0,"landallotementstatus":"VACANT","landallotementtype":"VACANT","village_name":"Rabupura","khasra_no":"1403,1405","longitude":77.5817404,"latitude":28.23096309,"authority":"YEIDA","category":"industrial","execution_stage":"vacant"}},{"type":"Feature","geometry":{"type":"Polygon","coordinates":[[[77.582351,28.230849],[77.582352,28.231074],[77.581944,28.231075],[77.581944,28.23085],[77.582351,28.230849]]]},"properties":{"objectid":141,"uniqueplotid":"PLNGINDUSTRIAL141","plotmap_id":"SECTOR-28_178_MEDICAL DEVICE PARK_IND","plotidentificationnumber":"178","plotno":"178","industrysector":"SECTOR-28","block":"MEDICAL DEVICE PARK","plotsize":"1000 SQMT","landuse_type":"INDUSTRIAL","landuse_subcategory":"INDUSTRIAL","investment":0,"employment":0,"landallotementstatus":"VACANT","landallotementtype":"VACANT","village_name":"Rabupura","khasra_no":"1403,1475,1470,1417","longitude":77.58214776999999,"latitude":28.23096214,"authority":"YEIDA","category":"industrial","execution_stage":"vacant"}},{"type":"Feature","geometry":{"type":"Polygon","coordinates":[[[77.581944,28.231075],[77.581945,28.231301],[77.581538,28.231302],[77.581537,28.231076],[77.581944,28.231075]]]},"properties":{"objectid":142,"uniqueplotid":"PLNGINDUSTRIAL142","plotmap_id":"SECTOR-28_190_MEDICAL DEVICE PARK_IND","plotidentificationnumber":"190","plotno":"190","industrysector":"SECTOR-28","block":"MEDICAL DEVICE PARK","plotsize":"1000 SQMT","landuse_type":"INDUSTRIAL","landuse_subcategory":"INDUSTRIAL","investment":0,"employment":0,"landallotementstatus":"VACANT","landallotementtype":"VACANT","village_name":"Rabupura","khasra_no":"1403","longitude":77.58174106999999,"latitude":28.231188590000002,"authority":"YEIDA","category":"industrial","execution_stage":"vacant"}},{"type":"Feature","geometry":{"type":"Polygon","coordinates":[[[77.582352,28.231074],[77.582352,28.2313],[77.581945,28.231301],[77.581944,28.231075],[77.582352,28.231074]]]},"properties":{"objectid":143,"uniqueplotid":"PLNGINDUSTRIAL143","plotmap_id":"SECTOR-28_177_MEDICAL DEVICE PARK_IND","plotidentificationnumber":"177","plotno":"177","industrysector":"SECTOR-28","block":"MEDICAL DEVICE PARK","plotsize":"1000 SQMT","landuse_type":"INDUSTRIAL","landuse_subcategory":"INDUSTRIAL","investment":0,"employment":0,"landallotementstatus":"VACANT","landallotementtype":"VACANT","village_name":"Rabupura","khasra_no":"1403,1475,1417","longitude":77.58214844,"latitude":28.23118764,"authority":"YEIDA","category":"industrial","execution_stage":"vacant"}},{"type":"Feature","geometry":{"type":"Polygon","coordinates":[[[77.586261,28.230489],[77.586263,28.231266],[77.584695,28.23127],[77.584692,28.230493],[77.586261,28.230489]]]},"properties":{"objectid":144,"uniqueplotid":"PLNGINDUSTRIAL144","plotmap_id":"SECTOR-28_169_MEDICAL DEVICE PARK_IND","plotidentificationnumber":"169","plotno":"169","industrysector":"SECTOR-28","block":"MEDICAL DEVICE PARK","plotsize":"3 ACRE APPROX","landuse_type":"INDUSTRIAL","landuse_subcategory":"INDUSTRIAL","investment":0,"employment":0,"landallotementstatus":"VACANT","landallotementtype":"VACANT","village_name":"Rabupura","khasra_no":"1481,1474,1473,1483,1484,1467,1468/4,1468/5,1468/1/2/3","longitude":77.58540477000001,"latitude":28.230811069999998,"authority":"YEIDA","category":"industrial","execution_stage":"vacant"}},{"type":"Feature","geometry":{"type":"Polygon","coordinates":[[[77.581945,28.231301],[77.581946,28.231526],[77.581538,28.231527],[77.581538,28.231302],[77.581945,28.231301]]]},"properties":{"objectid":145,"uniqueplotid":"PLNGINDUSTRIAL145","plotmap_id":"SECTOR-28_191_MEDICAL DEVICE PARK_IND","plotidentificationnumber":"191","plotno":"191","industrysector":"SECTOR-28","block":"MEDICAL DEVICE PARK","plotsize":"1000 SQMT","landuse_type":"INDUSTRIAL","landuse_subcategory":"INDUSTRIAL","investment":0,"employment":0,"landallotementstatus":"VACANT","landallotementtype":"VACANT","village_name":"Rabupura","khasra_no":"1403","longitude":77.58174174,"latitude":28.23141408,"authority":"YEIDA","category":"industrial","execution_stage":"vacant"}},{"type":"Feature","geometry":{"type":"Polygon","coordinates":[[[77.582352,28.2313],[77.582353,28.231525],[77.581946,28.231526],[77.581945,28.231301],[77.582352,28.2313]]]},"properties":{"objectid":146,"uniqueplotid":"PLNGINDUSTRIAL146","plotmap_id":"SECTOR-28_176_MEDICAL DEVICE PARK_IND","plotidentificationnumber":"176","plotno":"176","industrysector":"SECTOR-28","block":"MEDICAL DEVICE PARK","plotsize":"1000 SQMT","landuse_type":"INDUSTRIAL","landuse_subcategory":"INDUSTRIAL","investment":0,"employment":0,"landallotementstatus":"VACANT","landallotementtype":"VACANT","village_name":"Rabupura","khasra_no":"1403","longitude":77.58214911,"latitude":28.23141313,"authority":"YEIDA","category":"industrial","execution_stage":"vacant"}},{"type":"Feature","geometry":{"type":"Polygon","coordinates":[[[77.591151,28.230999],[77.591152,28.23136],[77.59049,28.231362],[77.590489,28.231001],[77.591151,28.230999]]]},"properties":{"objectid":147,"uniqueplotid":"PLNGINDUSTRIAL147","plotmap_id":"SECTOR-28_126_MEDICAL DEVICE PARK_IND","plotidentificationnumber":"126","plotno":"126","industrysector":"SECTOR-28","block":"MEDICAL DEVICE PARK","plotsize":"2600 SQMT","landuse_type":"INDUSTRIAL","landuse_subcategory":"INDUSTRIAL","investment":0,"employment":0,"landallotementstatus":"VACANT","landallotementtype":"VACANT","village_name":"Rabupura","khasra_no":"1489,1490,1488,1491","longitude":77.59082042,"latitude":28.23118066,"authority":"YEIDA","category":"industrial","execution_stage":"vacant"}},{"type":"Feature","geometry":{"type":"Polygon","coordinates":[[[77.586924,28.23101],[77.586926,28.231551],[77.58657,28.231552],[77.586568,28.23101],[77.586924,28.23101]]]},"properties":{"objectid":148,"uniqueplotid":"PLNGINDUSTRIAL148","plotmap_id":"SECTOR-28_115_MEDICAL DEVICE PARK_IND","plotidentificationnumber":"115","plotno":"115","industrysector":"SECTOR-28","block":"MEDICAL DEVICE PARK","plotsize":"2100 SQMT","landuse_type":"INDUSTRIAL","landuse_subcategory":"INDUSTRIAL","investment":0,"employment":0,"landallotementstatus":"VACANT","landallotementtype":"VACANT","village_name":"Rabupura","khasra_no":"1484","longitude":77.58674697,"latitude":28.231280560000002,"authority":"YEIDA","category":"industrial","execution_stage":"vacant"}},{"type":"Feature","geometry":{"type":"Polygon","coordinates":[[[77.587281,28.231009],[77.587282,28.23155],[77.586926,28.231551],[77.586924,28.23101],[77.587281,28.231009]]]},"properties":{"objectid":149,"uniqueplotid":"PLNGINDUSTRIAL149","plotmap_id":"SECTOR-28_116_MEDICAL DEVICE PARK_IND","plotidentificationnumber":"116","plotno":"116","industrysector":"SECTOR-28","block":"MEDICAL DEVICE PARK","plotsize":"2100 SQMT","landuse_type":"INDUSTRIAL","landuse_subcategory":"INDUSTRIAL","investment":0,"employment":0,"landallotementstatus":"VACANT","landallotementtype":"VACANT","village_name":"Rabupura","khasra_no":"1484","longitude":77.58710342,"latitude":28.23127972,"authority":"YEIDA","category":"industrial","execution_stage":"vacant"}},{"type":"Feature","geometry":{"type":"Polygon","coordinates":[[[77.587637,28.231008],[77.587639,28.231549],[77.587282,28.23155],[77.587281,28.231009],[77.587637,28.231008]]]},"properties":{"objectid":150,"uniqueplotid":"PLNGINDUSTRIAL150","plotmap_id":"SECTOR-28_117_MEDICAL DEVICE PARK_IND","plotidentificationnumber":"117","plotno":"117","industrysector":"SECTOR-28","block":"MEDICAL DEVICE PARK","plotsize":"2100 SQMT","plotsize_at_the_time_of_allotme":"2100 SQMT","landuse_type":"INDUSTRIAL","landuse_subcategory":"INDUSTRIAL","scheme_cod":"YEA/IND-MDP(2022)-02","investment":16,"employment":16,"plotstatus":"Allotted","landallotementstatus":"SOLD","landallotementtype":"ALLOTTED","allotmentid":"YINDMDP2019","allotment_date":1687890600000,"rate_of_allotment":7010,"lease_deed":"N","possession":"N","village_name":"Rabupura","khasra_no":"1484","longitude":77.58745987,"latitude":28.23127887,"authority":"YEIDA","category":"industrial","execution_stage":"allotted"}},{"type":"Feature","geometry":{"type":"Polygon","coordinates":[[[77.587994,28.231007],[77.587995,28.231548],[77.587639,28.231549],[77.587637,28.231008],[77.587994,28.231007]]]},"properties":{"objectid":151,"uniqueplotid":"PLNGINDUSTRIAL151","plotmap_id":"SECTOR-28_118_MEDICAL DEVICE PARK_IND","plotidentificationnumber":"118","plotno":"118","industrysector":"SECTOR-28","block":"MEDICAL DEVICE PARK","plotsize":"2100 SQMT","plotsize_at_the_time_of_allotme":"2100 SQMT","landuse_type":"INDUSTRIAL","landuse_subcategory":"INDUSTRIAL","scheme_cod":"YEA/IND-MDP(2022)-01","investment":18,"employment":18,"plotstatus":"Allotted","landallotementstatus":"SOLD","landallotementtype":"ALLOTTED","allotmentid":"YINDMDP00021","allotment_date":1661106600000,"rate_of_allotment":6670,"lease_deed":"N","possession":"N","village_name":"Rabupura","khasra_no":"1484","longitude":77.58781633,"latitude":28.231278030000002,"authority":"YEIDA","category":"industrial","execution_stage":"allotted"}},{"type":"Feature","geometry":{"type":"Polygon","coordinates":[[[77.58835,28.231006],[77.588352,28.231547],[77.587995,28.231548],[77.587994,28.231007],[77.58835,28.231006]]]},"properties":{"objectid":152,"uniqueplotid":"PLNGINDUSTRIAL152","plotmap_id":"SECTOR-28_119_MEDICAL DEVICE PARK_IND","plotidentificationnumber":"119","plotno":"119","industrysector":"SECTOR-28","block":"MEDICAL DEVICE PARK","plotsize":"2100 SQMT","plotsize_at_the_time_of_allotme":"2100 SQMT","landuse_type":"INDUSTRIAL","landuse_subcategory":"INDUSTRIAL","scheme_cod":"YEA/IND-MDP(2022)-01","investment":14,"employment":14,"plot_total_employment":"73","projects_cost_in_lacs":556,"plotstatus":"Allotted","landallotementstatus":"SOLD","landallotementtype":"ALLOTTED","nature_of_allottee":"PVT.LTD","allotmentid":"YINDMDP00026","allotment_date":1661106600000,"rate_of_allotment":6670,"lease_deed":"N","possession":"N","village_name":"Rabupura","khasra_no":"1484","longitude":77.58817278,"latitude":28.231277180000003,"authority_recorded_allottee":"SCEPTRE MEDICAL DEVICES PRIVATE LIMITED","authority":"YEIDA","category":"industrial","execution_stage":"allotted"}},{"type":"Feature","geometry":{"type":"Polygon","coordinates":[[[77.588707,28.231005],[77.588708,28.231547],[77.588352,28.231547],[77.58835,28.231006],[77.588707,28.231005]]]},"properties":{"objectid":153,"uniqueplotid":"PLNGINDUSTRIAL153","plotmap_id":"SECTOR-28_120_MEDICAL DEVICE PARK_IND","plotidentificationnumber":"120","plotno":"120","industrysector":"SECTOR-28","block":"MEDICAL DEVICE PARK","plotsize":"2100 SQMT","landuse_type":"INDUSTRIAL","landuse_subcategory":"INDUSTRIAL","investment":0,"employment":0,"landallotementstatus":"VACANT","landallotementtype":"VACANT","village_name":"Rabupura","khasra_no":"1485,1484","longitude":77.58852922999999,"latitude":28.23127633,"authority":"YEIDA","category":"industrial","execution_stage":"vacant"}},{"type":"Feature","geometry":{"type":"Polygon","coordinates":[[[77.589063,28.231004],[77.589065,28.231546],[77.588708,28.231547],[77.588707,28.231005],[77.589063,28.231004]]]},"properties":{"objectid":154,"uniqueplotid":"PLNGINDUSTRIAL154","plotmap_id":"SECTOR-28_121_MEDICAL DEVICE PARK_IND","plotidentificationnumber":"121","plotno":"121","industrysector":"SECTOR-28","block":"MEDICAL DEVICE PARK","plotsize":"2100 SQMT","plotsize_at_the_time_of_allotme":"2100 SQMT","landuse_type":"INDUSTRIAL","landuse_subcategory":"INDUSTRIAL","scheme_cod":"YEA/IND-MDP(2023)-03","investment":10,"employment":10,"plot_total_employment":"25","projects_cost_in_lacs":510,"plotstatus":"Allotted","landallotementstatus":"SOLD","landallotementtype":"ALLOTTED","nature_of_allottee":"PVT.LTD","allotmentid":"YINDMDP3002","allotment_date":1689791400000,"rate_of_allotment":7010,"lease_deed":"N","possession":"N","village_name":"Rabupura","khasra_no":"1485,1484,1487","longitude":77.58888568,"latitude":28.23127549,"authority_recorded_allottee":"WELDON BIOTECH INDIA PRIVATE LIMITED","authority":"YEIDA","category":"industrial","execution_stage":"allotted"}},{"type":"Feature","geometry":{"type":"Polygon","coordinates":[[[77.58942,28.231004],[77.589421,28.231545],[77.589065,28.231546],[77.589063,28.231004],[77.58942,28.231004]]]},"properties":{"objectid":155,"uniqueplotid":"PLNGINDUSTRIAL155","plotmap_id":"SECTOR-28_122_MEDICAL DEVICE PARK_IND","plotidentificationnumber":"122","plotno":"122","industrysector":"SECTOR-28","block":"MEDICAL DEVICE PARK","plotsize":"2100 SQMT","plotsize_at_the_time_of_allotme":"2100 SQMT","landuse_type":"INDUSTRIAL","landuse_subcategory":"INDUSTRIAL","scheme_cod":"YEA/IND-MDP(2022)-01","investment":6,"employment":6,"plotstatus":"Allotted","landallotementstatus":"SOLD","landallotementtype":"ALLOTTED","allotmentid":"YINDMDP00019","allotment_date":1661106600000,"rate_of_allotment":6670,"lease_deed":"N","possession":"N","village_name":"Rabupura","khasra_no":"1485,1484,1487","longitude":77.58924213,"latitude":28.231274640000002,"authority":"YEIDA","category":"industrial","execution_stage":"allotted"}},{"type":"Feature","geometry":{"type":"Polygon","coordinates":[[[77.589776,28.231003],[77.589778,28.231544],[77.589421,28.231545],[77.58942,28.231004],[77.589776,28.231003]]]},"properties":{"objectid":156,"uniqueplotid":"PLNGINDUSTRIAL156","plotmap_id":"SECTOR-28_123_MEDICAL DEVICE PARK_IND","plotidentificationnumber":"123","plotno":"123","industrysector":"SECTOR-28","block":"MEDICAL DEVICE PARK","plotsize":"2100 SQMT","plotsize_at_the_time_of_allotme":"2100 SQMT","landuse_type":"INDUSTRIAL","landuse_subcategory":"INDUSTRIAL","scheme_cod":"YEA/IND-MDP(2022)-01","investment":34,"employment":34,"plotstatus":"Allotted","landallotementstatus":"SOLD","landallotementtype":"ALLOTTED","allotmentid":"YINDMDP0007","allotment_date":1681669800000,"rate_of_allotment":7010,"lease_deed":"N","possession":"N","village_name":"Rabupura","khasra_no":"1488,1487","longitude":77.58959858,"latitude":28.231273780000002,"authority":"YEIDA","category":"industrial","execution_stage":"allotted"}},{"type":"Feature","geometry":{"type":"Polygon","coordinates":[[[77.590132,28.231002],[77.590134,28.231543],[77.589778,28.231544],[77.589776,28.231003],[77.590132,28.231002]]]},"properties":{"objectid":157,"uniqueplotid":"PLNGINDUSTRIAL157","plotmap_id":"SECTOR-28_124_MEDICAL DEVICE PARK_IND","plotidentificationnumber":"124","plotno":"124","industrysector":"SECTOR-28","block":"MEDICAL DEVICE PARK","plotsize":"2100 SQMT","plotsize_at_the_time_of_allotme":"2100 SQMT","landuse_type":"INDUSTRIAL","landuse_subcategory":"INDUSTRIAL","scheme_cod":"YEA/IND-MDP(2022)-02","investment":63,"employment":63,"plotstatus":"Allotted","landallotementstatus":"SOLD","landallotementtype":"ALLOTTED","allotmentid":"YINDMDP2020","allotment_date":1687890600000,"rate_of_allotment":7010,"lease_deed":"N","possession":"N","village_name":"Rabupura","khasra_no":"1488,1487","longitude":77.58995503,"latitude":28.231272930000003,"authority":"YEIDA","category":"industrial","execution_stage":"allotted"}},{"type":"Feature","geometry":{"type":"Polygon","coordinates":[[[77.59049,28.231362],[77.590491,28.231542],[77.590134,28.231543],[77.590132,28.231002],[77.590489,28.231001],[77.59049,28.231362]]]},"properties":{"objectid":158,"uniqueplotid":"PLNGINDUSTRIAL158","plotmap_id":"SECTOR-28_125_MEDICAL DEVICE PARK_IND","plotidentificationnumber":"125","plotno":"125","industrysector":"SECTOR-28","block":"MEDICAL DEVICE PARK","plotsize":"2100 SQMT","landuse_type":"INDUSTRIAL","landuse_subcategory":"INDUSTRIAL","investment":0,"employment":0,"landallotementstatus":"VACANT","landallotementtype":"VACANT","village_name":"Rabupura","khasra_no":"1489,1488","longitude":77.59031148,"latitude":28.23127208,"authority":"YEIDA","category":"industrial","execution_stage":"vacant"}},{"type":"Feature","geometry":{"type":"Polygon","coordinates":[[[77.581946,28.231526],[77.581946,28.231752],[77.581539,28.231753],[77.581538,28.231527],[77.581946,28.231526]]]},"properties":{"objectid":159,"uniqueplotid":"PLNGINDUSTRIAL159","plotmap_id":"SECTOR-28_192_MEDICAL DEVICE PARK_IND","plotidentificationnumber":"192","plotno":"192","industrysector":"SECTOR-28","block":"MEDICAL DEVICE PARK","plotsize":"1000 SQMT","landuse_type":"INDUSTRIAL","landuse_subcategory":"INDUSTRIAL","investment":0,"employment":0,"landallotementstatus":"VACANT","landallotementtype":"VACANT","village_name":"Rabupura","khasra_no":"1403","longitude":77.5817424,"latitude":28.23163958,"authority":"YEIDA","category":"industrial","execution_stage":"vacant"}},{"type":"Feature","geometry":{"type":"Polygon","coordinates":[[[77.582353,28.231525],[77.582354,28.231751],[77.581946,28.231752],[77.581946,28.231526],[77.582353,28.231525]]]},"properties":{"objectid":160,"uniqueplotid":"PLNGINDUSTRIAL160","plotmap_id":"SECTOR-28_175_MEDICAL DEVICE PARK_IND","plotidentificationnumber":"175","plotno":"175","industrysector":"SECTOR-28","block":"MEDICAL DEVICE PARK","plotsize":"1000 SQMT","plotsize_at_the_time_of_allotme":"1000 SQMT","landuse_type":"INDUSTRIAL","landuse_subcategory":"INDUSTRIAL","scheme_cod":"YEA/IND-MDP(2022)-01","investment":8,"employment":8,"plot_total_employment":"35","projects_cost_in_lacs":302,"plotstatus":"Allotted","landallotementstatus":"SOLD","landallotementtype":"ALLOTTED","nature_of_allottee":"PVT.LTD","allotmentid":"YINDMDP00037","allotment_date":1661106600000,"rate_of_allotment":6670,"lease_deed":"N","possession":"N","village_name":"Rabupura","khasra_no":"1403,1401","longitude":77.58214978,"latitude":28.23163863,"authority_recorded_allottee":"DIVINE MEDITECH PRIVATE LIMITED","authority":"YEIDA","category":"industrial","execution_stage":"allotted"}},{"type":"Feature","geometry":{"type":"Polygon","coordinates":[[[77.591152,28.23136],[77.591153,28.231721],[77.590491,28.231723],[77.59049,28.231362],[77.591152,28.23136]]]},"properties":{"objectid":161,"uniqueplotid":"PLNGINDUSTRIAL161","plotmap_id":"SECTOR-28_127_MEDICAL DEVICE PARK_IND","plotidentificationnumber":"127","plotno":"127","industrysector":"SECTOR-28","block":"MEDICAL DEVICE PARK","plotsize":"2600 SQMT","landuse_type":"INDUSTRIAL","landuse_subcategory":"INDUSTRIAL","investment":0,"employment":0,"landallotementstatus":"VACANT","landallotementtype":"VACANT","village_name":"Rabupura","khasra_no":"1529,1489,1490,1488,1491","longitude":77.59082152,"latitude":28.23154146,"authority":"YEIDA","category":"industrial","execution_stage":"vacant"}},{"type":"Feature","geometry":{"type":"Polygon","coordinates":[[[77.581946,28.231752],[77.581947,28.231977],[77.58154,28.231978],[77.581539,28.231753],[77.581946,28.231752]]]},"properties":{"objectid":162,"uniqueplotid":"PLNGINDUSTRIAL162","plotmap_id":"SECTOR-28_193_MEDICAL DEVICE PARK_IND","plotidentificationnumber":"193","plotno":"193","industrysector":"SECTOR-28","block":"MEDICAL DEVICE PARK","plotsize":"1000 SQMT","landuse_type":"INDUSTRIAL","landuse_subcategory":"INDUSTRIAL","investment":0,"employment":0,"landallotementstatus":"VACANT","landallotementtype":"VACANT","village_name":"Rabupura","khasra_no":"1403,1402","longitude":77.58174307,"latitude":28.23186507,"authority":"YEIDA","category":"industrial","execution_stage":"vacant"}},{"type":"Feature","geometry":{"type":"Polygon","coordinates":[[[77.582354,28.231751],[77.582354,28.231976],[77.581947,28.231977],[77.581946,28.231752],[77.582354,28.231751]]]},"properties":{"objectid":163,"uniqueplotid":"PLNGINDUSTRIAL163","plotmap_id":"SECTOR-28_174_MEDICAL DEVICE PARK_IND","plotidentificationnumber":"174","plotno":"174","industrysector":"SECTOR-28","block":"MEDICAL DEVICE PARK","plotsize":"1000 SQMT","plotsize_at_the_time_of_allotme":"1000 SQMT","landuse_type":"INDUSTRIAL","landuse_subcategory":"INDUSTRIAL","scheme_cod":"YEA/IND-MDP(2022)-02","investment":6,"employment":6,"plot_total_employment":"30","projects_cost_in_lacs":245,"plotstatus":"Allotted","landallotementstatus":"SOLD","landallotementtype":"ALLOTTED","nature_of_allottee":"PVT.LTD","allotmentid":"YINDMDP2004","allotment_date":1681669800000,"rate_of_allotment":7010,"lease_deed":"N","possession":"N","village_name":"Rabupura","khasra_no":"1403,1401,1402","longitude":77.58215045,"latitude":28.23186412,"authority_recorded_allottee":"BETAMED EXIM PVT LTD","authority":"YEIDA","category":"industrial","execution_stage":"allotted"}},{"type":"Feature","geometry":{"type":"Polygon","coordinates":[[[77.586266,28.232043],[77.584697,28.232047],[77.584695,28.23127],[77.586263,28.231266],[77.586266,28.232043]]]},"properties":{"objectid":164,"uniqueplotid":"PLNGINDUSTRIAL164","plotmap_id":"SECTOR-28_170_MEDICAL DEVICE PARK_IND","plotidentificationnumber":"170","plotno":"170","industrysector":"SECTOR-28","block":"MEDICAL DEVICE PARK","plotsize":"3 ACRE APPROX","landuse_type":"INDUSTRIAL","landuse_subcategory":"INDUSTRIAL","investment":0,"employment":0,"landallotementstatus":"VACANT","landallotementtype":"VACANT","village_name":"Rabupura","khasra_no":"1482,1481,1474,1477,1473,1480,1468/4,1468/5,1468/1/2/3","longitude":77.58548015000001,"latitude":28.23165675,"authority":"YEIDA","category":"industrial","execution_stage":"vacant"}},{"type":"Feature","geometry":{"type":"Polygon","coordinates":[[[77.586926,28.231551],[77.586928,28.232092],[77.586571,28.232093],[77.58657,28.231552],[77.586926,28.231551]]]},"properties":{"objectid":165,"uniqueplotid":"PLNGINDUSTRIAL165","plotmap_id":"SECTOR-28_139_MEDICAL DEVICE PARK_IND","plotidentificationnumber":"139","plotno":"139","industrysector":"SECTOR-28","block":"MEDICAL DEVICE PARK","plotsize":"2100 SQMT","landuse_type":"INDUSTRIAL","landuse_subcategory":"INDUSTRIAL","investment":0,"employment":0,"landallotementstatus":"VACANT","landallotementtype":"VACANT","village_name":"Rabupura","khasra_no":"1482,1481,1483,1484","longitude":77.58674860999999,"latitude":28.231821749999998,"authority":"YEIDA","category":"industrial","execution_stage":"vacant"}},{"type":"Feature","geometry":{"type":"Polygon","coordinates":[[[77.587282,28.23155],[77.587284,28.232091],[77.586928,28.232092],[77.586926,28.231551],[77.587282,28.23155]]]},"properties":{"objectid":166,"uniqueplotid":"PLNGINDUSTRIAL166","plotmap_id":"SECTOR-28_138_MEDICAL DEVICE PARK_IND","plotidentificationnumber":"138","plotno":"138","industrysector":"SECTOR-28","block":"MEDICAL DEVICE PARK","plotsize":"2100 SQMT","plotsize_at_the_time_of_allotme":"2100 SQMT","landuse_type":"INDUSTRIAL","landuse_subcategory":"INDUSTRIAL","scheme_cod":"YEA/IND-MDP(2023)-03","investment":13,"employment":13,"plot_total_employment":"85","projects_cost_in_lacs":667,"plotstatus":"Allotted","landallotementstatus":"SOLD","landallotementtype":"ALLOTTED","nature_of_allottee":"PVT.LTD","allotmentid":"YINDMDP3007","allotment_date":1692210600000,"rate_of_allotment":6013.34,"lease_deed":"N","possession":"N","village_name":"Rabupura","khasra_no":"1484","longitude":77.58710506000001,"latitude":28.23182091,"authority_recorded_allottee":"ACCURE MEDICAL PVT. LTD.","authority":"YEIDA","category":"industrial","execution_stage":"allotted"}},{"type":"Feature","geometry":{"type":"Polygon","coordinates":[[[77.587639,28.231549],[77.587641,28.23209],[77.587284,28.232091],[77.587282,28.23155],[77.587639,28.231549]]]},"properties":{"objectid":167,"uniqueplotid":"PLNGINDUSTRIAL167","plotmap_id":"SECTOR-28_137_MEDICAL DEVICE PARK_IND","plotidentificationnumber":"137","plotno":"137","industrysector":"SECTOR-28","block":"MEDICAL DEVICE PARK","plotsize":"2100 SQMT","landuse_type":"INDUSTRIAL","landuse_subcategory":"INDUSTRIAL","investment":0,"employment":0,"landallotementstatus":"VACANT","landallotementtype":"VACANT","village_name":"Rabupura","khasra_no":"1485,1484","longitude":77.58746151,"latitude":28.23182006,"authority":"YEIDA","category":"industrial","execution_stage":"vacant"}},{"type":"Feature","geometry":{"type":"Polygon","coordinates":[[[77.587995,28.231548],[77.587997,28.232089],[77.587641,28.23209],[77.587639,28.231549],[77.587995,28.231548]]]},"properties":{"objectid":168,"uniqueplotid":"PLNGINDUSTRIAL168","plotmap_id":"SECTOR-28_136_MEDICAL DEVICE PARK_IND","plotidentificationnumber":"136","plotno":"136","industrysector":"SECTOR-28","block":"MEDICAL DEVICE PARK","plotsize":"2100 SQMT","landuse_type":"INDUSTRIAL","landuse_subcategory":"INDUSTRIAL","investment":10,"employment":10,"landallotementstatus":"VACANT","landallotementtype":"VACANT","village_name":"Rabupura","khasra_no":"1485,1484","longitude":77.58781796,"latitude":28.23181921,"authority":"YEIDA","category":"industrial","execution_stage":"vacant"}},{"type":"Feature","geometry":{"type":"Polygon","coordinates":[[[77.588352,28.231547],[77.588353,28.232089],[77.587997,28.232089],[77.587995,28.231548],[77.588352,28.231547]]]},"properties":{"objectid":169,"uniqueplotid":"PLNGINDUSTRIAL169","plotmap_id":"SECTOR-28_135_MEDICAL DEVICE PARK_IND","plotidentificationnumber":"135","plotno":"135","industrysector":"SECTOR-28","block":"MEDICAL DEVICE PARK","plotsize":"2100 SQMT","plotsize_at_the_time_of_allotme":"2100 SQMT","landuse_type":"INDUSTRIAL","landuse_subcategory":"INDUSTRIAL","scheme_cod":"YEA/IND-MDP(2022)-01","investment":125,"employment":125,"plot_total_employment":"110","projects_cost_in_lacs":5000,"plotstatus":"Allotted","landallotementstatus":"SOLD","landallotementtype":"ALLOTTED","nature_of_allottee":"PVT.LTD","allotmentid":"YINDMDP00020","allotment_date":1661106600000,"rate_of_allotment":6670,"lease_deed":"N","possession":"N","village_name":"Rabupura","khasra_no":"1485,1484","longitude":77.58817442,"latitude":28.23181837,"authority_recorded_allottee":"NAREENA LIFESCIENCES PVT LTD","authority":"YEIDA","category":"industrial","execution_stage":"allotted"}},{"type":"Feature","geometry":{"type":"Polygon","coordinates":[[[77.588708,28.231547],[77.58871,28.232088],[77.588353,28.232089],[77.588352,28.231547],[77.588708,28.231547]]]},"properties":{"objectid":170,"uniqueplotid":"PLNGINDUSTRIAL170","plotmap_id":"SECTOR-28_134_MEDICAL DEVICE PARK_IND","plotidentificationnumber":"134","plotno":"134","industrysector":"SECTOR-28","block":"MEDICAL DEVICE PARK","plotsize":"2100 SQMT","plotsize_at_the_time_of_allotme":"2100 SQMT","plot_size_as_per_lease_plan":10000,"landuse_type":"INDUSTRIAL","landuse_subcategory":"INDUSTRIAL","scheme_cod":"YEA/IND-MDP(2023)-03","investment":20,"employment":20,"plot_total_employment":"36","projects_cost_in_lacs":1000,"plotstatus":"Allotted","landallotementstatus":"SOLD","landallotementtype":"ALLOTTED","nature_of_allottee":"PVT.LTD","allotmentid":"YINDMDP3008","allotment_date":1710441000000,"rate_of_allotment":6204,"lease_deed":"N","village_name":"Rabupura","khasra_no":"1485,1484","longitude":77.58853087,"latitude":28.23181752,"authority_recorded_allottee":"DIASYS DIAGNOSTICS INDIA PRIVATE LIMITED","authority":"YEIDA","category":"industrial","execution_stage":"allotted"}},{"type":"Feature","geometry":{"type":"Polygon","coordinates":[[[77.589065,28.231546],[77.589066,28.232087],[77.58871,28.232088],[77.588708,28.231547],[77.589065,28.231546]]]},"properties":{"objectid":171,"uniqueplotid":"PLNGINDUSTRIAL171","plotmap_id":"SECTOR-28_133_MEDICAL DEVICE PARK_IND","plotidentificationnumber":"133","plotno":"133","industrysector":"SECTOR-28","block":"MEDICAL DEVICE PARK","plotsize":"2100 SQMT","landuse_type":"INDUSTRIAL","landuse_subcategory":"INDUSTRIAL","investment":0,"employment":0,"landallotementstatus":"VACANT","landallotementtype":"VACANT","village_name":"Rabupura","khasra_no":"1485,1486","longitude":77.58888732000001,"latitude":28.23181667,"authority":"YEIDA","category":"industrial","execution_stage":"vacant"}},{"type":"Feature","geometry":{"type":"Polygon","coordinates":[[[77.589421,28.231545],[77.589423,28.232086],[77.589066,28.232087],[77.589065,28.231546],[77.589421,28.231545]]]},"properties":{"objectid":172,"uniqueplotid":"PLNGINDUSTRIAL172","plotmap_id":"SECTOR-28_132_MEDICAL DEVICE PARK_IND","plotidentificationnumber":"132","plotno":"132","industrysector":"SECTOR-28","block":"MEDICAL DEVICE PARK","plotsize":"2100 SQMT","landuse_type":"INDUSTRIAL","landuse_subcategory":"INDUSTRIAL","investment":0,"employment":0,"landallotementstatus":"VACANT","landallotementtype":"VACANT","village_name":"Rabupura","khasra_no":"1485,1486,1487","longitude":77.58924377000001,"latitude":28.23181582,"authority":"YEIDA","category":"industrial","execution_stage":"vacant"}},{"type":"Feature","geometry":{"type":"Polygon","coordinates":[[[77.589778,28.231544],[77.589779,28.232085],[77.589423,28.232086],[77.589421,28.231545],[77.589778,28.231544]]]},"properties":{"objectid":173,"uniqueplotid":"PLNGINDUSTRIAL173","plotmap_id":"SECTOR-28_131_MEDICAL DEVICE PARK_IND","plotidentificationnumber":"131","plotno":"131","industrysector":"SECTOR-28","block":"MEDICAL DEVICE PARK","plotsize":"2100 SQMT","plotsize_at_the_time_of_allotme":"2100 SQMT","plot_size_as_per_lease_plan":2100,"landuse_type":"INDUSTRIAL","landuse_subcategory":"INDUSTRIAL","scheme_cod":"YEA/IND-MDP(2022)-02","investment":15,"employment":15,"plot_total_employment":"25","projects_cost_in_lacs":585,"plotstatus":"Allotted","landallotementstatus":"SOLD","landallotementtype":"ALLOTTED","nature_of_allottee":"PROPRIETORSHIP","allotmentid":"YINDMDP2016","allotment_date":1681669800000,"rate_of_allotment":7010,"lease_deed":"N","possession":"Y","village_name":"Rabupura","khasra_no":"1486,1490,1499,1487,1491","longitude":77.58960023,"latitude":28.23181497,"authority":"YEIDA","category":"industrial","execution_stage":"possession-recorded"}},{"type":"Feature","geometry":{"type":"Polygon","coordinates":[[[77.590134,28.231543],[77.590136,28.232084],[77.589779,28.232085],[77.589778,28.231544],[77.590134,28.231543]]]},"properties":{"objectid":174,"uniqueplotid":"PLNGINDUSTRIAL174","plotmap_id":"SECTOR-28_130_MEDICAL DEVICE PARK_IND","plotidentificationnumber":"130","plotno":"130","industrysector":"SECTOR-28","block":"MEDICAL DEVICE PARK","plotsize":"2100 SQMT","plotsize_at_the_time_of_allotme":"2100 SQMT","landuse_type":"INDUSTRIAL","landuse_subcategory":"INDUSTRIAL","scheme_cod":"YEA/IND-MDP(2022)-01","investment":8,"employment":8,"plot_total_employment":"445","projects_cost_in_lacs":300,"plotstatus":"Allotted","landallotementstatus":"SOLD","landallotementtype":"ALLOTTED","nature_of_allottee":"PVT.LTD","allotmentid":"YINDMDP00022","allotment_date":1661106600000,"rate_of_allotment":6670,"lease_deed":"N","possession":"N","village_name":"Rabupura","khasra_no":"1528,1490,1488,1499,1487,1491","longitude":77.58995668,"latitude":28.23181412,"authority_recorded_allottee":"MDD MEDICAL SYSTEMS INDIA PVT LTD","authority":"YEIDA","category":"industrial","execution_stage":"allotted"}},{"type":"Feature","geometry":{"type":"Polygon","coordinates":[[[77.590491,28.231723],[77.590492,28.232083],[77.590136,28.232084],[77.590134,28.231543],[77.590491,28.231542],[77.590491,28.231723]]]},"properties":{"objectid":175,"uniqueplotid":"PLNGINDUSTRIAL175","plotmap_id":"SECTOR-28_129_MEDICAL DEVICE PARK_IND","plotidentificationnumber":"129","plotno":"129","industrysector":"SECTOR-28","block":"MEDICAL DEVICE PARK","plotsize":"2100 SQMT","plotsize_at_the_time_of_allotme":"2100 SQMT","landuse_type":"INDUSTRIAL","landuse_subcategory":"INDUSTRIAL","scheme_cod":"YEA/IND-MDP(2022)-01","investment":18,"employment":18,"plot_total_employment":"58","projects_cost_in_lacs":701,"plotstatus":"Allotted","landallotementstatus":"SOLD","landallotementtype":"ALLOTTED","nature_of_allottee":"PROPRIETORSHIP","allotmentid":"YINDMDP00023","allotment_date":1661106600000,"rate_of_allotment":6670,"lease_deed":"N","possession":"N","village_name":"Rabupura","khasra_no":"1529,1528,1490,1525,1488,1499,1491","longitude":77.59031313,"latitude":28.23181327,"authority":"YEIDA","category":"industrial","execution_stage":"allotted"}},{"type":"Feature","geometry":{"type":"Polygon","coordinates":[[[77.591153,28.231721],[77.591154,28.232082],[77.590492,28.232083],[77.590491,28.231723],[77.591153,28.231721]]]},"properties":{"objectid":176,"uniqueplotid":"PLNGINDUSTRIAL176","plotmap_id":"SECTOR-28_128_MEDICAL DEVICE PARK_IND","plotidentificationnumber":"128","plotno":"128","industrysector":"SECTOR-28","block":"MEDICAL DEVICE PARK","plotsize":"2600 SQMT","landuse_type":"INDUSTRIAL","landuse_subcategory":"INDUSTRIAL","investment":0,"employment":0,"landallotementstatus":"VACANT","landallotementtype":"VACANT","village_name":"Rabupura","khasra_no":"1527,1529,1528","longitude":77.59082262,"latitude":28.23190225,"authority":"YEIDA","category":"industrial","execution_stage":"vacant"}},{"type":"Feature","geometry":{"type":"Polygon","coordinates":[[[77.586268,28.23282],[77.584699,28.232824],[77.584697,28.232047],[77.586266,28.232043],[77.586268,28.23282]]]},"properties":{"objectid":177,"uniqueplotid":"PLNGINDUSTRIAL177","plotmap_id":"SECTOR-28_171_MEDICAL DEVICE PARK_IND","plotidentificationnumber":"171","plotno":"171","industrysector":"SECTOR-28","block":"MEDICAL DEVICE PARK","plotsize":"3 ACRE APPROX","landuse_type":"INDUSTRIAL","landuse_subcategory":"INDUSTRIAL","investment":0,"employment":0,"landallotementstatus":"VACANT","landallotementtype":"VACANT","village_name":"Rabupura","khasra_no":"1482,1481,1477,1478,1479,1480","longitude":77.58535169000001,"latitude":28.232404369999998,"authority":"YEIDA","category":"industrial","execution_stage":"vacant"}},{"type":"Feature","geometry":{"type":"Polygon","coordinates":[[[77.584702,28.233601],[77.584028,28.233603],[77.584025,28.232476],[77.584698,28.232474],[77.584702,28.233601]]]},"properties":{"objectid":178,"uniqueplotid":"PLNGINDUSTRIAL178","plotmap_id":"SECTOR-28_173_MEDICAL DEVICE PARK_IND","plotidentificationnumber":"173","plotno":"173","industrysector":"SECTOR-28","block":"MEDICAL DEVICE PARK","plotsize":"2 ACRE APPROX","landuse_type":"INDUSTRIAL","landuse_subcategory":"INDUSTRIAL","investment":0,"employment":0,"landallotementstatus":"VACANT","landallotementtype":"VACANT","village_name":"Rabupura","khasra_no":"1477,1478,1476","longitude":77.58436335,"latitude":28.233038490000002,"authority":"YEIDA","category":"industrial","execution_stage":"vacant"}},{"type":"Feature","geometry":{"type":"Polygon","coordinates":[[[77.586268,28.23282],[77.58627,28.233598],[77.584702,28.233601],[77.584699,28.232824],[77.586268,28.23282]]]},"properties":{"objectid":179,"uniqueplotid":"PLNGINDUSTRIAL179","plotmap_id":"SECTOR-28_172_MEDICAL DEVICE PARK_IND","plotidentificationnumber":"172","plotno":"172","industrysector":"SECTOR-28","block":"MEDICAL DEVICE PARK","plotsize":"3 ACRE APPROX","landuse_type":"INDUSTRIAL","landuse_subcategory":"INDUSTRIAL","investment":0,"employment":0,"landallotementstatus":"VACANT","landallotementtype":"VACANT","village_name":"Rabupura","khasra_no":"1482,1478,1479","longitude":77.58548482,"latitude":28.23321086,"authority":"YEIDA","category":"industrial","execution_stage":"vacant"}},{"type":"Feature","geometry":{"type":"Polygon","coordinates":[[[77.577986,28.234185],[77.577338,28.234187],[77.577337,28.233889],[77.577986,28.233888],[77.577986,28.234185]]]},"properties":{"objectid":180,"uniqueplotid":"PLNGINDUSTRIAL180","plotmap_id":"SECTOR-28_213_MEDICAL DEVICE PARK_IND","plotidentificationnumber":"213","plotno":"213","industrysector":"SECTOR-28","block":"MEDICAL DEVICE PARK","plotsize":"2100 SQMT","landuse_type":"INDUSTRIAL","landuse_subcategory":"INDUSTRIAL","investment":0,"employment":0,"landallotementstatus":"VACANT","landallotementtype":"VACANT","village_name":"Rabupura","khasra_no":"1198/1,1198/2","longitude":77.57764335,"latitude":28.23402888,"authority":"YEIDA","category":"industrial","execution_stage":"vacant"}},{"type":"Feature","geometry":{"type":"Polygon","coordinates":[[[77.577094,28.234287],[77.576168,28.234289],[77.576167,28.233892],[77.577093,28.23389],[77.577094,28.234287]]]},"properties":{"objectid":181,"uniqueplotid":"PLNGINDUSTRIAL181","plotmap_id":"SECTOR-28_214_MEDICAL DEVICE PARK_IND","plotidentificationnumber":"214","plotno":"214","industrysector":"SECTOR-28","block":"MEDICAL DEVICE PARK","plotsize":"4000 SQMT","landuse_type":"INDUSTRIAL","landuse_subcategory":"INDUSTRIAL","investment":0,"employment":0,"landallotementstatus":"VACANT","landallotementtype":"VACANT","village_name":"Rabupura","khasra_no":"1175,1176,1164,1196,1137,1198/1,1198/2,1136","longitude":77.57663067,"latitude":28.234089370000003,"authority":"YEIDA","category":"industrial","execution_stage":"vacant"}},{"type":"Feature","geometry":{"type":"Polygon","coordinates":[[[77.577987,28.234483],[77.577339,28.234485],[77.577338,28.234187],[77.577986,28.234185],[77.577987,28.234483]]]},"properties":{"objectid":182,"uniqueplotid":"PLNGINDUSTRIAL182","plotmap_id":"SECTOR-28_212_MEDICAL DEVICE PARK_IND","plotidentificationnumber":"212","plotno":"212","industrysector":"SECTOR-28","block":"MEDICAL DEVICE PARK","plotsize":"2100 SQMT","landuse_type":"INDUSTRIAL","landuse_subcategory":"INDUSTRIAL","investment":0,"employment":0,"landallotementstatus":"VACANT","landallotementtype":"VACANT","village_name":"Rabupura","khasra_no":"1198/1,1198/2","longitude":77.57766287,"latitude":28.23433504,"authority":"YEIDA","category":"industrial","execution_stage":"vacant"}},{"type":"Feature","geometry":{"type":"Polygon","coordinates":[[[77.582362,28.234473],[77.581445,28.234475],[77.581444,28.23388],[77.58236,28.233878],[77.582362,28.234473]]]},"properties":{"objectid":183,"uniqueplotid":"PLNGINDUSTRIAL183","plotmap_id":"SECTOR-28_198_MEDICAL DEVICE PARK_IND","plotidentificationnumber":"198","plotno":"198","industrysector":"SECTOR-28","block":"MEDICAL DEVICE PARK","plotsize":"5940 SQMT","landuse_type":"INDUSTRIAL","landuse_subcategory":"INDUSTRIAL","investment":0,"employment":0,"landallotementstatus":"VACANT","landallotementtype":"VACANT","village_name":"Rabupura","khasra_no":"1209,1207,1208","longitude":77.5818925,"latitude":28.2341698,"authority":"YEIDA","category":"industrial","execution_stage":"vacant"}},{"type":"Feature","geometry":{"type":"Polygon","coordinates":[[[77.577094,28.234287],[77.577095,28.234684],[77.576169,28.234686],[77.576168,28.234289],[77.577094,28.234287]]]},"properties":{"objectid":184,"uniqueplotid":"PLNGINDUSTRIAL184","plotmap_id":"SECTOR-28_215_MEDICAL DEVICE PARK_IND","plotidentificationnumber":"215","plotno":"215","industrysector":"SECTOR-28","block":"MEDICAL DEVICE PARK","plotsize":"4000 SQMT","landuse_type":"INDUSTRIAL","landuse_subcategory":"INDUSTRIAL","investment":0,"employment":0,"landallotementstatus":"VACANT","landallotementtype":"VACANT","village_name":"Rabupura","khasra_no":"1175,1176,1164,1165","longitude":77.57663183,"latitude":28.234486240000003,"authority":"YEIDA","category":"industrial","execution_stage":"vacant"}},{"type":"Feature","geometry":{"type":"Polygon","coordinates":[[[77.591161,28.234456],[77.590245,28.234458],[77.590243,28.233863],[77.59116,28.233861],[77.591161,28.234456]]]},"properties":{"objectid":185,"uniqueplotid":"PLNGINDUSTRIAL185","plotmap_id":"SECTOR-28_156_MEDICAL DEVICE PARK_IND","plotidentificationnumber":"156","plotno":"156","industrysector":"SECTOR-28","block":"MEDICAL DEVICE PARK","plotsize":"5940 SQMT","landuse_type":"INDUSTRIAL","landuse_subcategory":"INDUSTRIAL","investment":0,"employment":0,"landallotementstatus":"VACANT","landallotementtype":"VACANT","village_name":"Rabupura","khasra_no":"1514,1521,1525","longitude":77.5907066,"latitude":28.23416213,"authority":"YEIDA","category":"industrial","execution_stage":"vacant"}},{"type":"Feature","geometry":{"type":"Polygon","coordinates":[[[77.577988,28.234781],[77.57734,28.234782],[77.577339,28.234485],[77.577987,28.234483],[77.577988,28.234781]]]},"properties":{"objectid":186,"uniqueplotid":"PLNGINDUSTRIAL186","plotmap_id":"SECTOR-28_211_MEDICAL DEVICE PARK_IND","plotidentificationnumber":"211","plotno":"211","industrysector":"SECTOR-28","block":"MEDICAL DEVICE PARK","plotsize":"2100 SQMT","landuse_type":"INDUSTRIAL","landuse_subcategory":"INDUSTRIAL","investment":0,"employment":0,"landallotementstatus":"VACANT","landallotementtype":"VACANT","village_name":"Rabupura","khasra_no":"1164,1163,1137,1198/1,1198/2,1136","longitude":77.57766374,"latitude":28.2346327,"authority":"YEIDA","category":"industrial","execution_stage":"vacant"}},{"type":"Feature","geometry":{"type":"Polygon","coordinates":[[[77.577095,28.234684],[77.577097,28.23508],[77.576171,28.235083],[77.576169,28.234686],[77.577095,28.234684]]]},"properties":{"objectid":187,"uniqueplotid":"PLNGINDUSTRIAL187","plotmap_id":"SECTOR-28_216_MEDICAL DEVICE PARK_IND","plotidentificationnumber":"216","plotno":"216","industrysector":"SECTOR-28","block":"MEDICAL DEVICE PARK","plotsize":"4000 SQMT","landuse_type":"INDUSTRIAL","landuse_subcategory":"INDUSTRIAL","investment":0,"employment":0,"landallotementstatus":"VACANT","landallotementtype":"VACANT","village_name":"Rabupura","khasra_no":"1164,1163,1165","longitude":77.57663299,"latitude":28.23488311,"authority":"YEIDA","category":"industrial","execution_stage":"vacant"}},{"type":"Feature","geometry":{"type":"Polygon","coordinates":[[[77.577989,28.235078],[77.577341,28.23508],[77.57734,28.234782],[77.577988,28.234781],[77.577989,28.235078]]]},"properties":{"objectid":188,"uniqueplotid":"PLNGINDUSTRIAL188","plotmap_id":"SECTOR-28_210_MEDICAL DEVICE PARK_IND","plotidentificationnumber":"210","plotno":"210","industrysector":"SECTOR-28","block":"MEDICAL DEVICE PARK","plotsize":"2100 SQMT","landuse_type":"INDUSTRIAL","landuse_subcategory":"INDUSTRIAL","investment":0,"employment":0,"landallotementstatus":"VACANT","landallotementtype":"VACANT","village_name":"Rabupura","khasra_no":"1164,1163,1137,1198/1,1198/2,1136","longitude":77.57766461,"latitude":28.23493035,"authority":"YEIDA","category":"industrial","execution_stage":"vacant"}},{"type":"Feature","geometry":{"type":"Polygon","coordinates":[[[77.578854,28.235076],[77.577989,28.235078],[77.577986,28.233888],[77.57885,28.233886],[77.578854,28.235076]]]},"properties":{"objectid":189,"uniqueplotid":"PLNGINDUSTRIAL189","plotmap_id":"SECTOR-28_194_MEDICAL DEVICE PARK_IND","plotidentificationnumber":"194","plotno":"194","industrysector":"SECTOR-28","block":"MEDICAL DEVICE PARK","plotsize":"11200 SQMT","landuse_type":"INDUSTRIAL","landuse_subcategory":"INDUSTRIAL","investment":0,"employment":0,"landallotementstatus":"VACANT","landallotementtype":"VACANT","village_name":"Rabupura","khasra_no":"1203,1204,1199,1198/1,1198/2","longitude":77.57839566,"latitude":28.23446978,"authority":"YEIDA","category":"industrial","execution_stage":"vacant"}},{"type":"Feature","geometry":{"type":"Polygon","coordinates":[[[77.580583,28.235072],[77.580586,28.236263],[77.578857,28.236267],[77.57885,28.233886],[77.580579,28.233882],[77.580583,28.235072]]]},"properties":{"objectid":190,"uniqueplotid":"PLNGINDUSTRIAL190","plotmap_id":"SECTOR-28_195_MEDICAL DEVICE PARK_IND","plotidentificationnumber":"195","plotno":"195","industrysector":"SECTOR-28","block":"MEDICAL DEVICE PARK","plotsize":"11 ACRE","plotsize_at_the_time_of_allotme":"11 ACRE","landuse_type":"INDUSTRIAL","landuse_subcategory":"INDUSTRIAL","scheme_cod":"FDI-MDP","investment":0,"employment":0,"plotstatus":"Allotted","landallotementstatus":"SOLD","landallotementtype":"ALLOTTED","allotmentid":"YINDMDPFDI001","allotment_date":1739385000000,"rate_of_allotment":7360,"lease_deed":"Y","lease_deed_date":1737657000000,"village_name":"Rabupura","khasra_no":"1209,1206,1202,1201,1135,1134,1203,1204,1199,1205,1198/1,1198/2","longitude":77.57965246,"latitude":28.23510331,"authority":"YEIDA","category":"industrial","execution_stage":"lease-recorded"}},{"type":"Feature","geometry":{"type":"Polygon","coordinates":[[[77.581447,28.23507],[77.580583,28.235072],[77.580579,28.233882],[77.581444,28.23388],[77.581447,28.23507]]]},"properties":{"objectid":191,"uniqueplotid":"PLNGINDUSTRIAL191","plotmap_id":"SECTOR-28_197_MEDICAL DEVICE PARK_IND","plotidentificationnumber":"197","plotno":"197","industrysector":"SECTOR-28","block":"MEDICAL DEVICE PARK","plotsize":"11200 SQMT","landuse_type":"INDUSTRIAL","landuse_subcategory":"INDUSTRIAL","investment":570,"employment":570,"landallotementstatus":"VACANT","landallotementtype":"VACANT","village_name":"Rabupura","khasra_no":"1209,1206,1207,1203,1204","longitude":77.58104586,"latitude":28.23446376,"authority":"YEIDA","category":"industrial","execution_stage":"vacant"}},{"type":"Feature","geometry":{"type":"Polygon","coordinates":[[[77.582364,28.235068],[77.581447,28.23507],[77.581445,28.234475],[77.582362,28.234473],[77.582364,28.235068]]]},"properties":{"objectid":192,"uniqueplotid":"PLNGINDUSTRIAL192","plotmap_id":"SECTOR-28_199_MEDICAL DEVICE PARK_IND","plotidentificationnumber":"199","plotno":"199","industrysector":"SECTOR-28","block":"MEDICAL DEVICE PARK","plotsize":"5940 SQMT","landuse_type":"INDUSTRIAL","landuse_subcategory":"INDUSTRIAL","investment":0,"employment":0,"landallotementstatus":"VACANT","landallotementtype":"VACANT","village_name":"Rabupura","khasra_no":"1209,1207,1208","longitude":77.58190774,"latitude":28.2347738,"authority":"YEIDA","category":"industrial","execution_stage":"vacant"}},{"type":"Feature","geometry":{"type":"Polygon","coordinates":[[[77.591161,28.234456],[77.591163,28.235051],[77.590247,28.235053],[77.590245,28.234458],[77.591161,28.234456]]]},"properties":{"objectid":193,"uniqueplotid":"PLNGINDUSTRIAL193","plotmap_id":"SECTOR-28_157_MEDICAL DEVICE PARK_IND","plotidentificationnumber":"157","plotno":"157","industrysector":"SECTOR-28","block":"MEDICAL DEVICE PARK","plotsize":"5940 SQMT","landuse_type":"INDUSTRIAL","landuse_subcategory":"INDUSTRIAL","investment":0,"employment":0,"landallotementstatus":"VACANT","landallotementtype":"VACANT","village_name":"Rabupura","khasra_no":"1514,1513,1512,1525","longitude":77.59073712,"latitude":28.23477597,"authority":"YEIDA","category":"industrial","execution_stage":"vacant"}},{"type":"Feature","geometry":{"type":"Polygon","coordinates":[[[77.57799,28.235376],[77.577342,28.235378],[77.577341,28.23508],[77.577989,28.235078],[77.57799,28.235376]]]},"properties":{"objectid":194,"uniqueplotid":"PLNGINDUSTRIAL194","plotmap_id":"SECTOR-28_209_MEDICAL DEVICE PARK_IND","plotidentificationnumber":"209","plotno":"209","industrysector":"SECTOR-28","block":"MEDICAL DEVICE PARK","plotsize":"2100 SQMT","landuse_type":"INDUSTRIAL","landuse_subcategory":"INDUSTRIAL","investment":0,"employment":0,"landallotementstatus":"VACANT","landallotementtype":"VACANT","village_name":"Rabupura","khasra_no":"1203,1204,1163,1137,1198/1,1198/2,1136","longitude":77.57764004,"latitude":28.2352164,"authority":"YEIDA","category":"industrial","execution_stage":"vacant"}},{"type":"Feature","geometry":{"type":"Polygon","coordinates":[[[77.587039,28.235223],[77.586581,28.235224],[77.586577,28.233871],[77.587493,28.233869],[77.587497,28.235222],[77.587039,28.235223]]]},"properties":{"objectid":195,"uniqueplotid":"PLNGINDUSTRIAL195","plotmap_id":"SECTOR-28_152_MEDICAL DEVICE PARK_IND","plotidentificationnumber":"152","plotno":"152","industrysector":"SECTOR-28","block":"MEDICAL DEVICE PARK","plotsize":"13500 SQMT","landuse_type":"INDUSTRIAL","landuse_subcategory":"INDUSTRIAL","investment":0,"employment":0,"landallotementstatus":"VACANT","landallotementtype":"VACANT","village_name":"Rabupura","khasra_no":"1388,1391,1492,1496,1386","longitude":77.58703691000001,"latitude":28.234546860000002,"authority":"YEIDA","category":"industrial","execution_stage":"vacant"}},{"type":"Feature","geometry":{"type":"Polygon","coordinates":[[[77.587956,28.235221],[77.587497,28.235222],[77.587493,28.233869],[77.58841,28.233867],[77.588414,28.23522],[77.587956,28.235221]]]},"properties":{"objectid":196,"uniqueplotid":"PLNGINDUSTRIAL196","plotmap_id":"SECTOR-28_153_MEDICAL DEVICE PARK_IND","plotidentificationnumber":"153","plotno":"153","industrysector":"SECTOR-28","block":"MEDICAL DEVICE PARK","plotsize":"13500 SQMT","landuse_type":"INDUSTRIAL","landuse_subcategory":"INDUSTRIAL","investment":0,"employment":0,"landallotementstatus":"VACANT","landallotementtype":"VACANT","village_name":"Rabupura","khasra_no":"1388,1492,1496,1386","longitude":77.58795353000001,"latitude":28.23454469,"authority":"YEIDA","category":"industrial","execution_stage":"vacant"}},{"type":"Feature","geometry":{"type":"Polygon","coordinates":[[[77.588872,28.235219],[77.588414,28.23522],[77.58841,28.233867],[77.589326,28.233865],[77.589331,28.235218],[77.588872,28.235219]]]},"properties":{"objectid":197,"uniqueplotid":"PLNGINDUSTRIAL197","plotmap_id":"SECTOR-28_154_MEDICAL DEVICE PARK_IND","plotidentificationnumber":"154","plotno":"154","industrysector":"SECTOR-28","block":"MEDICAL DEVICE PARK","plotsize":"13500 SQMT","landuse_type":"INDUSTRIAL","landuse_subcategory":"INDUSTRIAL","investment":0,"employment":0,"landallotementstatus":"VACANT","landallotementtype":"VACANT","village_name":"Rabupura","khasra_no":"1495,1507,1504,1498,1496,1503/1,1503/2","longitude":77.58887014000001,"latitude":28.23454251,"authority":"YEIDA","category":"industrial","execution_stage":"vacant"}},{"type":"Feature","geometry":{"type":"Polygon","coordinates":[[[77.589789,28.235217],[77.589331,28.235218],[77.589326,28.233865],[77.590243,28.233863],[77.590247,28.235216],[77.589789,28.235217]]]},"properties":{"objectid":198,"uniqueplotid":"PLNGINDUSTRIAL198","plotmap_id":"SECTOR-28_155_MEDICAL DEVICE PARK_IND","plotidentificationnumber":"155","plotno":"155","industrysector":"SECTOR-28","block":"MEDICAL DEVICE PARK","plotsize":"13500 SQMT","landuse_type":"INDUSTRIAL","landuse_subcategory":"INDUSTRIAL","investment":0,"employment":0,"landallotementstatus":"VACANT","landallotementtype":"VACANT","village_name":"Rabupura","khasra_no":"1495,1507,1511,1504,1509,1505,1510,1506,1512,1508,1525,1496,1503/1,1503/2","longitude":77.58986804,"latitude":28.234598220000002,"authority":"YEIDA","category":"industrial","execution_stage":"vacant"}},{"type":"Feature","geometry":{"type":"Polygon","coordinates":[[[77.577097,28.23508],[77.577098,28.235477],[77.576172,28.235479],[77.576171,28.235083],[77.577097,28.23508]]]},"properties":{"objectid":199,"uniqueplotid":"PLNGINDUSTRIAL199","plotmap_id":"SECTOR-28_217_MEDICAL DEVICE PARK_IND","plotidentificationnumber":"217","plotno":"217","industrysector":"SECTOR-28","block":"MEDICAL DEVICE PARK","plotsize":"4000 SQMT","landuse_type":"INDUSTRIAL","landuse_subcategory":"INDUSTRIAL","investment":0,"employment":0,"landallotementstatus":"VACANT","landallotementtype":"VACANT","village_name":"Rabupura","khasra_no":"1163,1165","longitude":77.57663415,"latitude":28.235279979999998,"authority":"YEIDA","category":"industrial","execution_stage":"vacant"}},{"type":"Feature","geometry":{"type":"Polygon","coordinates":[[[77.577991,28.235674],[77.577343,28.235675],[77.577342,28.235378],[77.57799,28.235376],[77.577991,28.235674]]]},"properties":{"objectid":200,"uniqueplotid":"PLNGINDUSTRIAL200","plotmap_id":"SECTOR-28_208_MEDICAL DEVICE PARK_IND","plotidentificationnumber":"208","plotno":"208","industrysector":"SECTOR-28","block":"MEDICAL DEVICE PARK","plotsize":"2100 SQMT","landuse_type":"INDUSTRIAL","landuse_subcategory":"INDUSTRIAL","investment":0,"employment":0,"landallotementstatus":"VACANT","landallotementtype":"VACANT","village_name":"Rabupura","khasra_no":"1151,1204,1150,1149,1163,1137,1136","longitude":77.57766632,"latitude":28.235525659999997,"authority":"YEIDA","category":"industrial","execution_stage":"vacant"}},{"type":"Feature","geometry":{"type":"Polygon","coordinates":[[[77.582365,28.235664],[77.581449,28.235666],[77.581447,28.23507],[77.582364,28.235068],[77.582365,28.235664]]]},"properties":{"objectid":201,"uniqueplotid":"PLNGINDUSTRIAL201","plotmap_id":"SECTOR-28_200_MEDICAL DEVICE PARK_IND","plotidentificationnumber":"200","plotno":"200","industrysector":"SECTOR-28","block":"MEDICAL DEVICE PARK","plotsize":"5940 SQMT","landuse_type":"INDUSTRIAL","landuse_subcategory":"INDUSTRIAL","investment":0,"employment":0,"landallotementstatus":"VACANT","landallotementtype":"VACANT","village_name":"Rabupura","khasra_no":"1206,1135,1131,1207,1203,1130","longitude":77.58182971000001,"latitude":28.23531758,"authority":"YEIDA","category":"industrial","execution_stage":"vacant"}},{"type":"Feature","geometry":{"type":"Polygon","coordinates":[[[77.577098,28.235477],[77.577099,28.235874],[77.576173,28.235876],[77.576172,28.235479],[77.577098,28.235477]]]},"properties":{"objectid":202,"uniqueplotid":"PLNGINDUSTRIAL202","plotmap_id":"SECTOR-28_218_MEDICAL DEVICE PARK_IND","plotidentificationnumber":"218","plotno":"218","industrysector":"SECTOR-28","block":"MEDICAL DEVICE PARK","plotsize":"4000 SQMT","landuse_type":"INDUSTRIAL","landuse_subcategory":"INDUSTRIAL","investment":0,"employment":0,"landallotementstatus":"VACANT","landallotementtype":"VACANT","village_name":"Rabupura","khasra_no":"1151,1160,1159,1150,1148,1163,1158","longitude":77.57663531,"latitude":28.23567686,"authority":"YEIDA","category":"industrial","execution_stage":"vacant"}},{"type":"Feature","geometry":{"type":"Polygon","coordinates":[[[77.591163,28.235051],[77.591165,28.235646],[77.590248,28.235649],[77.590247,28.235053],[77.591163,28.235051]]]},"properties":{"objectid":203,"uniqueplotid":"PLNGINDUSTRIAL203","plotmap_id":"SECTOR-28_158_MEDICAL DEVICE PARK_IND","plotidentificationnumber":"158","plotno":"158","industrysector":"SECTOR-28","block":"MEDICAL DEVICE PARK","plotsize":"5940 SQMT","landuse_type":"INDUSTRIAL","landuse_subcategory":"INDUSTRIAL","investment":0,"employment":0,"landallotementstatus":"VACANT","landallotementtype":"VACANT","village_name":"Rabupura","khasra_no":"1514,1513,1512","longitude":77.59063839999999,"latitude":28.23529524,"authority":"YEIDA","category":"industrial","execution_stage":"vacant"}},{"type":"Feature","geometry":{"type":"Polygon","coordinates":[[[77.577991,28.235674],[77.577992,28.235971],[77.577344,28.235973],[77.577343,28.235675],[77.577991,28.235674]]]},"properties":{"objectid":204,"uniqueplotid":"PLNGINDUSTRIAL204","plotmap_id":"SECTOR-28_207_MEDICAL DEVICE PARK_IND","plotidentificationnumber":"207","plotno":"207","industrysector":"SECTOR-28","block":"MEDICAL DEVICE PARK","plotsize":"2100 SQMT","landuse_type":"INDUSTRIAL","landuse_subcategory":"INDUSTRIAL","investment":0,"employment":0,"landallotementstatus":"VACANT","landallotementtype":"VACANT","village_name":"Rabupura","khasra_no":"1151,1150,1149,1163","longitude":77.57766719,"latitude":28.23582331,"authority":"YEIDA","category":"industrial","execution_stage":"vacant"}},{"type":"Feature","geometry":{"type":"Polygon","coordinates":[[[77.577099,28.235874],[77.5771,28.236271],[77.576174,28.236273],[77.576173,28.235876],[77.577099,28.235874]]]},"properties":{"objectid":205,"uniqueplotid":"PLNGINDUSTRIAL205","plotmap_id":"SECTOR-28_219_MEDICAL DEVICE PARK_IND","plotidentificationnumber":"219","plotno":"219","industrysector":"SECTOR-28","block":"MEDICAL DEVICE PARK","plotsize":"4000 SQMT","landuse_type":"INDUSTRIAL","landuse_subcategory":"INDUSTRIAL","investment":0,"employment":0,"landallotementstatus":"VACANT","landallotementtype":"VACANT","village_name":"Rabupura","khasra_no":"1147,1151,1152,1150,1148,1163,1158","longitude":77.57663648,"latitude":28.23607373,"authority":"YEIDA","category":"industrial","execution_stage":"vacant"}},{"type":"Feature","geometry":{"type":"Polygon","coordinates":[[[77.577992,28.235971],[77.577993,28.236269],[77.577344,28.236271],[77.577344,28.235973],[77.577992,28.235971]]]},"properties":{"objectid":206,"uniqueplotid":"PLNGINDUSTRIAL206","plotmap_id":"SECTOR-28_206_MEDICAL DEVICE PARK_IND","plotidentificationnumber":"206","plotno":"206","industrysector":"SECTOR-28","block":"MEDICAL DEVICE PARK","plotsize":"2100 SQMT","landuse_type":"INDUSTRIAL","landuse_subcategory":"INDUSTRIAL","investment":0,"employment":0,"landallotementstatus":"VACANT","landallotementtype":"VACANT","village_name":"Rabupura","khasra_no":"1145,1149,1148","longitude":77.57766807,"latitude":28.23612097,"authority":"YEIDA","category":"industrial","execution_stage":"vacant"}},{"type":"Feature","geometry":{"type":"Polygon","coordinates":[[[77.578857,28.236267],[77.577993,28.236269],[77.577989,28.235078],[77.578854,28.235076],[77.578857,28.236267]]]},"properties":{"objectid":207,"uniqueplotid":"PLNGINDUSTRIAL207","plotmap_id":"SECTOR-28_205_MEDICAL DEVICE PARK_IND","plotidentificationnumber":"205","plotno":"205","industrysector":"SECTOR-28","block":"MEDICAL DEVICE PARK","plotsize":"11200 SQMT","landuse_type":"INDUSTRIAL","landuse_subcategory":"INDUSTRIAL","investment":0,"employment":0,"landallotementstatus":"VACANT","landallotementtype":"VACANT","village_name":"Rabupura","khasra_no":"1203,1204,1205,1145,1149,1137,1198/1,1198/2,1136","longitude":77.57838617,"latitude":28.23556073,"authority":"YEIDA","category":"industrial","execution_stage":"vacant"}},{"type":"Feature","geometry":{"type":"Polygon","coordinates":[[[77.581451,28.236261],[77.580586,28.236263],[77.580583,28.235072],[77.581447,28.23507],[77.581451,28.236261]]]},"properties":{"objectid":208,"uniqueplotid":"PLNGINDUSTRIAL208","plotmap_id":"SECTOR-28_202_MEDICAL DEVICE PARK_IND","plotidentificationnumber":"202","plotno":"202","industrysector":"SECTOR-28","block":"MEDICAL DEVICE PARK","plotsize":"11200 SQMT","landuse_type":"INDUSTRIAL","landuse_subcategory":"INDUSTRIAL","investment":0,"employment":0,"landallotementstatus":"VACANT","landallotementtype":"VACANT","village_name":"Rabupura","khasra_no":"1206,1135,1134,1131,1207,1132,1203","longitude":77.58103186000001,"latitude":28.23563559,"authority":"YEIDA","category":"industrial","execution_stage":"vacant"}},{"type":"Feature","geometry":{"type":"Polygon","coordinates":[[[77.582367,28.236259],[77.581451,28.236261],[77.581449,28.235666],[77.582365,28.235664],[77.582367,28.236259]]]},"properties":{"objectid":209,"uniqueplotid":"PLNGINDUSTRIAL209","plotmap_id":"SECTOR-28_201_MEDICAL DEVICE PARK_IND","plotidentificationnumber":"201","plotno":"201","industrysector":"SECTOR-28","block":"MEDICAL DEVICE PARK","plotsize":"5940 SQMT","landuse_type":"INDUSTRIAL","landuse_subcategory":"INDUSTRIAL","investment":0,"employment":0,"landallotementstatus":"VACANT","landallotementtype":"VACANT","village_name":"Rabupura","khasra_no":"1134,1129,1131,1132,1130","longitude":77.58190802,"latitude":28.23596231,"authority":"YEIDA","category":"industrial","execution_stage":"vacant"}},{"type":"Feature","geometry":{"type":"Polygon","coordinates":[[[77.587042,28.236248],[77.586584,28.236249],[77.586581,28.235224],[77.587039,28.235223],[77.587042,28.236248]]]},"properties":{"objectid":210,"uniqueplotid":"PLNGINDUSTRIAL210","plotmap_id":"SECTOR-28_167_MEDICAL DEVICE PARK_IND","plotidentificationnumber":"167","plotno":"167","industrysector":"SECTOR-28","block":"MEDICAL DEVICE PARK","plotsize":"5112 SQMT","landuse_type":"INDUSTRIAL","landuse_subcategory":"INDUSTRIAL","investment":0,"employment":0,"landallotementstatus":"VACANT","landallotementtype":"VACANT","village_name":"Rabupura","khasra_no":"1388,1391,1389","longitude":77.58681134999999,"latitude":28.235736170000003,"authority":"YEIDA","category":"industrial","execution_stage":"vacant"}},{"type":"Feature","geometry":{"type":"Polygon","coordinates":[[[77.5875,28.236247],[77.587042,28.236248],[77.587039,28.235223],[77.587497,28.235222],[77.5875,28.236247]]]},"properties":{"objectid":211,"uniqueplotid":"PLNGINDUSTRIAL211","plotmap_id":"SECTOR-28_166_MEDICAL DEVICE PARK_IND","plotidentificationnumber":"166","plotno":"166","industrysector":"SECTOR-28","block":"MEDICAL DEVICE PARK","plotsize":"5112 SQMT","landuse_type":"INDUSTRIAL","landuse_subcategory":"INDUSTRIAL","investment":0,"employment":0,"landallotementstatus":"VACANT","landallotementtype":"VACANT","village_name":"Rabupura","khasra_no":"1388,1391,1387,1389","longitude":77.58726965999999,"latitude":28.235735090000002,"authority":"YEIDA","category":"industrial","execution_stage":"vacant"}},{"type":"Feature","geometry":{"type":"Polygon","coordinates":[[[77.587959,28.236246],[77.5875,28.236247],[77.587497,28.235222],[77.587956,28.235221],[77.587959,28.236246]]]},"properties":{"objectid":212,"uniqueplotid":"PLNGINDUSTRIAL212","plotmap_id":"SECTOR-28_165_MEDICAL DEVICE PARK_IND","plotidentificationnumber":"165","plotno":"165","industrysector":"SECTOR-28","block":"MEDICAL DEVICE PARK","plotsize":"5112 SQMT","landuse_type":"INDUSTRIAL","landuse_subcategory":"INDUSTRIAL","investment":0,"employment":0,"landallotementstatus":"VACANT","landallotementtype":"VACANT","village_name":"Rabupura","khasra_no":"1388,1387,1389","longitude":77.58772797,"latitude":28.23573401,"authority":"YEIDA","category":"industrial","execution_stage":"vacant"}},{"type":"Feature","geometry":{"type":"Polygon","coordinates":[[[77.588417,28.236245],[77.587959,28.236246],[77.587956,28.235221],[77.588414,28.23522],[77.588417,28.236245]]]},"properties":{"objectid":213,"uniqueplotid":"PLNGINDUSTRIAL213","plotmap_id":"SECTOR-28_164_MEDICAL DEVICE PARK_IND","plotidentificationnumber":"164","plotno":"164","industrysector":"SECTOR-28","block":"MEDICAL DEVICE PARK","plotsize":"5112 SQMT","landuse_type":"INDUSTRIAL","landuse_subcategory":"INDUSTRIAL","investment":0,"employment":0,"landallotementstatus":"VACANT","landallotementtype":"VACANT","village_name":"Rabupura","khasra_no":"1388,1387,1492,1496,1386","longitude":77.58818628,"latitude":28.23573292,"authority":"YEIDA","category":"industrial","execution_stage":"vacant"}},{"type":"Feature","geometry":{"type":"Polygon","coordinates":[[[77.588875,28.236244],[77.588417,28.236245],[77.588414,28.23522],[77.588872,28.235219],[77.588875,28.236244]]]},"properties":{"objectid":214,"uniqueplotid":"PLNGINDUSTRIAL214","plotmap_id":"SECTOR-28_163_MEDICAL DEVICE PARK_IND","plotidentificationnumber":"163","plotno":"163","industrysector":"SECTOR-28","block":"MEDICAL DEVICE PARK","plotsize":"5112 SQMT","landuse_type":"INDUSTRIAL","landuse_subcategory":"INDUSTRIAL","investment":0,"employment":0,"landallotementstatus":"VACANT","landallotementtype":"VACANT","village_name":"Rabupura","khasra_no":"1495,1387,1492,1496,1386","longitude":77.5886446,"latitude":28.23573182,"authority":"YEIDA","category":"industrial","execution_stage":"vacant"}},{"type":"Feature","geometry":{"type":"Polygon","coordinates":[[[77.589334,28.236242],[77.588875,28.236244],[77.588872,28.235219],[77.589331,28.235218],[77.589334,28.236242]]]},"properties":{"objectid":215,"uniqueplotid":"PLNGINDUSTRIAL215","plotmap_id":"SECTOR-28_162_MEDICAL DEVICE PARK_IND","plotidentificationnumber":"162","plotno":"162","industrysector":"SECTOR-28","block":"MEDICAL DEVICE PARK","plotsize":"5112 SQMT","landuse_type":"INDUSTRIAL","landuse_subcategory":"INDUSTRIAL","investment":0,"employment":0,"landallotementstatus":"VACANT","landallotementtype":"VACANT","village_name":"Rabupura","khasra_no":"1495,1493,1492,1505,1496","longitude":77.58910291000001,"latitude":28.23573073,"authority":"YEIDA","category":"industrial","execution_stage":"vacant"}},{"type":"Feature","geometry":{"type":"Polygon","coordinates":[[[77.589792,28.236241],[77.589334,28.236242],[77.589331,28.235218],[77.589789,28.235217],[77.589792,28.236241]]]},"properties":{"objectid":216,"uniqueplotid":"PLNGINDUSTRIAL216","plotmap_id":"SECTOR-28_161_MEDICAL DEVICE PARK_IND","plotidentificationnumber":"161","plotno":"161","industrysector":"SECTOR-28","block":"MEDICAL DEVICE PARK","plotsize":"5112 SQMT","landuse_type":"INDUSTRIAL","landuse_subcategory":"INDUSTRIAL","investment":0,"employment":0,"landallotementstatus":"VACANT","landallotementtype":"VACANT","village_name":"Rabupura","khasra_no":"1495,1511,1505,1506,1512","longitude":77.58956122000001,"latitude":28.235729640000002,"authority":"YEIDA","category":"industrial","execution_stage":"vacant"}},{"type":"Feature","geometry":{"type":"Polygon","coordinates":[[[77.59025,28.23624],[77.589792,28.236241],[77.589789,28.235217],[77.590247,28.235216],[77.59025,28.23624]]]},"properties":{"objectid":217,"uniqueplotid":"PLNGINDUSTRIAL217","plotmap_id":"SECTOR-28_160_MEDICAL DEVICE PARK_IND","plotidentificationnumber":"160","plotno":"160","industrysector":"SECTOR-28","block":"MEDICAL DEVICE PARK","plotsize":"5112 SQMT","landuse_type":"INDUSTRIAL","landuse_subcategory":"INDUSTRIAL","investment":0,"employment":0,"landallotementstatus":"VACANT","landallotementtype":"VACANT","village_name":"Rabupura","khasra_no":"1495,1511,1505,1506,1512","longitude":77.59009572000001,"latitude":28.23576484,"authority":"YEIDA","category":"industrial","execution_stage":"vacant"}},{"type":"Feature","geometry":{"type":"Polygon","coordinates":[[[77.591165,28.235646],[77.591167,28.236238],[77.59025,28.23624],[77.590248,28.235649],[77.591165,28.235646]]]},"properties":{"objectid":218,"uniqueplotid":"PLNGINDUSTRIAL218","plotmap_id":"SECTOR-28_159_MEDICAL DEVICE PARK_IND","plotidentificationnumber":"159","plotno":"159","industrysector":"SECTOR-28","block":"MEDICAL DEVICE PARK","plotsize":"5940 SQMT","landuse_type":"INDUSTRIAL","landuse_subcategory":"INDUSTRIAL","investment":0,"employment":0,"landallotementstatus":"VACANT","landallotementtype":"VACANT","village_name":"Rabupura","khasra_no":"1511,1513,1512","longitude":77.59070018,"latitude":28.23593856,"authority":"YEIDA","category":"industrial","execution_stage":"vacant"}},{"type":"Feature","geometry":{"type":"Polygon","coordinates":[[[77.576167,28.233892],[77.576168,28.234289],[77.575474,28.23429],[77.575473,28.233894],[77.576167,28.233892]]]},"properties":{"objectid":219,"uniqueplotid":"PLNGINDUSTRIAL219","plotmap_id":"SECTOR-28_225_MEDICAL DEVICE PARK_IND","plotidentificationnumber":"225","plotno":"225","industrysector":"SECTOR-28","block":"MEDICAL DEVICE PARK","plotsize":"3000 SQMT","landuse_type":"INDUSTRIAL","landuse_subcategory":"INDUSTRIAL","investment":0,"employment":0,"landallotementstatus":"VACANT","landallotementtype":"VACANT","village_name":"Rabupura","khasra_no":"1175,1174,1178,1177","longitude":77.57582053,"latitude":28.234091220000003,"authority":"YEIDA","category":"industrial","execution_stage":"vacant"}},{"type":"Feature","geometry":{"type":"Polygon","coordinates":[[[77.576169,28.234686],[77.575475,28.234687],[77.575474,28.23429],[77.576168,28.234289],[77.576169,28.234686]]]},"properties":{"objectid":220,"uniqueplotid":"PLNGINDUSTRIAL220","plotmap_id":"SECTOR-28_224_MEDICAL DEVICE PARK_IND","plotidentificationnumber":"224","plotno":"224","industrysector":"SECTOR-28","block":"MEDICAL DEVICE PARK","plotsize":"3000 SQMT","landuse_type":"INDUSTRIAL","landuse_subcategory":"INDUSTRIAL","investment":0,"employment":0,"landallotementstatus":"VACANT","landallotementtype":"VACANT","village_name":"Rabupura","khasra_no":"1171,1175,1174,1165,1172","longitude":77.57582169,"latitude":28.23448809,"authority":"YEIDA","category":"industrial","execution_stage":"vacant"}},{"type":"Feature","geometry":{"type":"Polygon","coordinates":[[[77.576171,28.235083],[77.575476,28.235084],[77.575475,28.234687],[77.576169,28.234686],[77.576171,28.235083]]]},"properties":{"objectid":221,"uniqueplotid":"PLNGINDUSTRIAL221","plotmap_id":"SECTOR-28_223_MEDICAL DEVICE PARK_IND","plotidentificationnumber":"223","plotno":"223","industrysector":"SECTOR-28","block":"MEDICAL DEVICE PARK","plotsize":"3000 SQMT","landuse_type":"INDUSTRIAL","landuse_subcategory":"INDUSTRIAL","investment":0,"employment":0,"landallotementstatus":"VACANT","landallotementtype":"VACANT","village_name":"Rabupura","khasra_no":"1171,1168,1174,1165,1167","longitude":77.57582284,"latitude":28.23488497,"authority":"YEIDA","category":"industrial","execution_stage":"vacant"}},{"type":"Feature","geometry":{"type":"Polygon","coordinates":[[[77.576172,28.235479],[77.575477,28.235481],[77.575476,28.235084],[77.576171,28.235083],[77.576172,28.235479]]]},"properties":{"objectid":222,"uniqueplotid":"PLNGINDUSTRIAL222","plotmap_id":"SECTOR-28_222_MEDICAL DEVICE PARK_IND","plotidentificationnumber":"222","plotno":"222","industrysector":"SECTOR-28","block":"MEDICAL DEVICE PARK","plotsize":"3000 SQMT","landuse_type":"INDUSTRIAL","landuse_subcategory":"INDUSTRIAL","investment":0,"employment":0,"landallotementstatus":"VACANT","landallotementtype":"VACANT","village_name":"Rabupura","khasra_no":"1163,1165,1162,1167,1166","longitude":77.575824,"latitude":28.23528184,"authority":"YEIDA","category":"industrial","execution_stage":"vacant"}},{"type":"Feature","geometry":{"type":"Polygon","coordinates":[[[77.576173,28.235876],[77.575479,28.235878],[77.575477,28.235481],[77.576172,28.235479],[77.576173,28.235876]]]},"properties":{"objectid":223,"uniqueplotid":"PLNGINDUSTRIAL223","plotmap_id":"SECTOR-28_221_MEDICAL DEVICE PARK_IND","plotidentificationnumber":"221","plotno":"221","industrysector":"SECTOR-28","block":"MEDICAL DEVICE PARK","plotsize":"3000 SQMT","landuse_type":"INDUSTRIAL","landuse_subcategory":"INDUSTRIAL","investment":0,"employment":0,"landallotementstatus":"VACANT","landallotementtype":"VACANT","village_name":"Rabupura","khasra_no":"1160,1159,1163,1158,1162,1166","longitude":77.57582516000001,"latitude":28.235678710000002,"authority":"YEIDA","category":"industrial","execution_stage":"vacant"}},{"type":"Feature","geometry":{"type":"Polygon","coordinates":[[[77.576174,28.236273],[77.57548,28.236275],[77.575479,28.235878],[77.576173,28.235876],[77.576174,28.236273]]]},"properties":{"objectid":224,"uniqueplotid":"PLNGINDUSTRIAL224","plotmap_id":"SECTOR-28_220_MEDICAL DEVICE PARK_IND","plotidentificationnumber":"220","plotno":"220","industrysector":"SECTOR-28","block":"MEDICAL DEVICE PARK","plotsize":"3000 SQMT","landuse_type":"INDUSTRIAL","landuse_subcategory":"INDUSTRIAL","investment":0,"employment":0,"landallotementstatus":"VACANT","landallotementtype":"VACANT","village_name":"Rabupura","khasra_no":"1152,1157,1160,1159,1158","longitude":77.57582632,"latitude":28.236075590000002,"authority":"YEIDA","category":"industrial","execution_stage":"vacant"}},{"type":"Feature","geometry":{"type":"Polygon","coordinates":[[[77.579701,28.230855],[77.580354,28.230854],[77.580357,28.231981],[77.579704,28.231983],[77.579701,28.230855]]]},"properties":{"objectid":231,"uniqueplotid":"PLNGINDUSTRIAL231","plotmap_id":"SECTOR-28_E-6_Software Park_IND","plotidentificationnumber":"E-6","plotno":"E-6","industrysector":"SECTOR-28","block":"Software Park","plotsize":"8000 SQMT","landuse_type":"INDUSTRIAL","landuse_subcategory":"INDUSTRIAL","investment":0,"employment":0,"landallotementstatus":"VACANT","landallotementtype":"VACANT","village_name":"Rabupura","khasra_no":"1404,1405","longitude":77.5800835,"latitude":28.23151189,"authority":"YEIDA","category":"industrial","execution_stage":"vacant"}},{"type":"Feature","geometry":{"type":"Polygon","coordinates":[[[77.581296,28.232195],[77.582355,28.232193],[77.582359,28.233607],[77.575472,28.233623],[77.575468,28.232225],[77.581296,28.232195]]]},"properties":{"objectid":234,"uniqueplotid":"PLNGINDUSTRIAL234","plotmap_id":"SECTOR-28_FF-1_MEDICAL DEVICE PARK_IND","plotidentificationnumber":"FF-1","plotno":"FF-1","industrysector":"SECTOR-28","block":"MEDICAL DEVICE PARK","plotsize":"26 ACRE APPROX","landuse_type":"INDUSTRIAL","landuse_subcategory":"INDUSTRIAL","investment":0,"employment":0,"plotstatus":"Nonsaleble","landallotementstatus":"NONSALEBLE","landallotementtype":"NONSALEBLE","village_name":"Rabupura","khasra_no":"1209,1202,1201,1401,1195,1193,1176,1404,1199,1405,1194,1196,1191,1192,1178,1179,1177,1402,1200,1137,1197/1,1197/2,1198/1,1198/2,1210,1195/2388,1136","longitude":77.5790662,"latitude":28.232897910000002,"authority":"YEIDA","category":"industrial","execution_stage":"nonsaleble"}},{"type":"Feature","geometry":{"type":"Polygon","coordinates":[[[77.577745,28.23086],[77.577749,28.231987],[77.577097,28.231989],[77.577093,28.230861],[77.577745,28.23086]]]},"properties":{"objectid":235,"uniqueplotid":"PLNGINDUSTRIAL235","plotmap_id":"SECTOR-28_D-12_Data Center Park_IND","plotidentificationnumber":"D-12","plotno":"D-12","industrysector":"SECTOR-28","block":"Data Center Park","plotsize":"8000 SQMT","landuse_type":"INDUSTRIAL","landuse_subcategory":"INDUSTRIAL","investment":0,"employment":0,"landallotementstatus":"VACANT","landallotementtype":"VACANT","village_name":"Rabupura","khasra_no":"1195,1193,1412,1405,1413,1194,1190,1191,1192,1210","longitude":77.57743556999999,"latitude":28.23144916,"authority":"YEIDA","category":"industrial","execution_stage":"vacant"}},{"type":"Feature","geometry":{"type":"Polygon","coordinates":[[[77.578723,28.230857],[77.579049,28.230857],[77.579052,28.231984],[77.5784,28.231986],[77.578397,28.230858],[77.578723,28.230857]]]},"properties":{"objectid":237,"uniqueplotid":"PLNGINDUSTRIAL237","plotmap_id":"SECTOR-28_E-3_Software Park_IND","plotidentificationnumber":"E-3","plotno":"E-3","industrysector":"SECTOR-28","block":"Software Park","plotsize":"8000 SQMT","landuse_type":"INDUSTRIAL","landuse_subcategory":"INDUSTRIAL","investment":0,"employment":0,"landallotementstatus":"VACANT","landallotementtype":"VACANT","village_name":"Rabupura","khasra_no":"1195,1193,1412,1405,1413,1194,1190,1191,1192,1210","longitude":77.57875388,"latitude":28.231491650000002,"authority":"YEIDA","category":"industrial","execution_stage":"vacant"}},{"type":"Feature","geometry":{"type":"Polygon","coordinates":[[[77.579049,28.230857],[77.579701,28.230855],[77.579704,28.231983],[77.579052,28.231984],[77.579049,28.230857]]]},"properties":{"objectid":239,"uniqueplotid":"PLNGINDUSTRIAL239","plotmap_id":"SECTOR-28_E-4_Software Park_IND","plotidentificationnumber":"E-4","plotno":"E-4","industrysector":"SECTOR-28","block":"Software Park","plotsize":"8000 SQMT","landuse_type":"INDUSTRIAL","landuse_subcategory":"INDUSTRIAL","investment":0,"employment":0,"landallotementstatus":"VACANT","landallotementtype":"VACANT","village_name":"Rabupura","khasra_no":"1404,1405","longitude":77.57937637,"latitude":28.23141958,"authority":"YEIDA","category":"industrial","execution_stage":"vacant"}}]}
