{"type":"FeatureCollection","features":[{"type":"Feature","geometry":{"type":"Polygon","coordinates":[[[77.579697,28.229728],[77.580351,28.229726],[77.580354,28.230854],[77.579701,28.230855],[77.579697,28.229728]]]},"properties":{"objectid":103,"uniqueplotid":"PLNGINDUSTRIAL103","plotmap_id":"SECTOR-28_E-5_Software Park_IND","plotidentificationnumber":"E-5","plotno":"E-5","industrysector":"SECTOR-28","block":"Software Park","plotsize":"8000 SQMT","landuse_type":"INDUSTRIAL","landuse_subcategory":"INDUSTRIAL","investment":0,"employment":0,"landallotementstatus":"VACANT","landallotementtype":"VACANT","village_name":"Rabupura","khasra_no":"1411,1410,1405,1409","longitude":77.58001105,"latitude":28.23026562,"authority":"YEIDA","category":"industrial","execution_stage":"vacant"}},{"type":"Feature","geometry":{"type":"Polygon","coordinates":[[[77.577093,28.230861],[77.575464,28.230865],[77.575461,28.229737],[77.57709,28.229734],[77.577093,28.230861]]]},"properties":{"objectid":226,"uniqueplotid":"PLNGINDUSTRIAL226","plotmap_id":"SECTOR-28_D-10_Data Center Park_IND","plotidentificationnumber":"D-10","plotno":"D-10","industrysector":"SECTOR-28","block":"Data Center Park","plotsize":"5  ACRE","plotsize_at_the_time_of_allotme":"5  ACRE","landuse_type":"INDUSTRIAL","landuse_subcategory":"INDUSTRIAL","scheme_cod":"YEA/INDDC-PARK(2023)-03","investment":11000,"employment":300,"plotstatus":"Allotted","landallotementstatus":"SOLD","landallotementtype":"ALLOTTED","allotmentid":"YINDDC002","allotment_date":1661106600000,"rate_of_allotment":6670,"lease_deed":"Y","lease_deed_date":1735583400000,"village_name":"Rabupura","khasra_no":"1187,1186,1416,1189,1418,1414,1415,1190,1419,1210,1188","longitude":77.57628863,"latitude":28.2303072,"authority":"YEIDA","category":"industrial","execution_stage":"lease-recorded"}},{"type":"Feature","geometry":{"type":"Polygon","coordinates":[[[77.578394,28.229731],[77.578397,28.230858],[77.577745,28.23086],[77.577742,28.229732],[77.578394,28.229731]]]},"properties":{"objectid":230,"uniqueplotid":"PLNGINDUSTRIAL230","plotmap_id":"SECTOR-28_E-9_Software Park_IND","plotidentificationnumber":"E-9","plotno":"E-9","industrysector":"SECTOR-28","block":"Software Park","plotsize":"8000 SQMT","landuse_type":"INDUSTRIAL","landuse_subcategory":"INDUSTRIAL","investment":0,"employment":0,"landallotementstatus":"VACANT","landallotementtype":"VACANT","village_name":"Rabupura","khasra_no":"1411,1412,1405,1413,1414,1190,1210","longitude":77.57806946000001,"latitude":28.23029511,"authority":"YEIDA","category":"industrial","execution_stage":"vacant"}},{"type":"Feature","geometry":{"type":"Polygon","coordinates":[[[77.575453,28.227008],[77.57545,28.225934],[77.576174,28.22593],[77.576848,28.225948],[77.578102,28.22604],[77.578878,28.226133],[77.580191,28.226343],[77.581279,28.226486],[77.581288,28.229453],[77.577224,28.229463],[77.577222,28.2286],[77.575457,28.228604],[77.575453,28.227008]]]},"properties":{"objectid":232,"uniqueplotid":"PLNGINDUSTRIAL232","plotmap_id":"SECTOR-28_E-1_Software Park_IND","plotidentificationnumber":"E-1","plotno":"E-1","industrysector":"SECTOR-28","block":"Software Park","plotsize":"194787 SQMT","landuse_type":"INDUSTRIAL","landuse_subcategory":"INDUSTRIAL","investment":0,"employment":0,"landallotementstatus":"VACANT","landallotementtype":"VACANT","village_name":"Tirthali,Rabupura","khasra_no":"1475,1428,1407,1417,1406,1408,1405","longitude":77.5784057,"latitude":28.22768843,"authority":"YEIDA","category":"industrial","execution_stage":"vacant"}},{"type":"Feature","geometry":{"type":"Polygon","coordinates":[[[77.577742,28.229732],[77.577745,28.23086],[77.577093,28.230861],[77.57709,28.229734],[77.577742,28.229732]]]},"properties":{"objectid":236,"uniqueplotid":"PLNGINDUSTRIAL236","plotmap_id":"SECTOR-28_D-11_Data Center Park_IND","plotidentificationnumber":"D-11","plotno":"D-11","industrysector":"SECTOR-28","block":"Data Center Park","plotsize":"8000 SQMT","landuse_type":"INDUSTRIAL","landuse_subcategory":"INDUSTRIAL","investment":0,"employment":0,"landallotementstatus":"VACANT","landallotementtype":"VACANT","village_name":"Rabupura","khasra_no":"1411,1412,1405,1413,1414,1190,1210","longitude":77.57736308,"latitude":28.23020278,"authority":"YEIDA","category":"industrial","execution_stage":"vacant"}},{"type":"Feature","geometry":{"type":"Polygon","coordinates":[[[77.57872,28.22973],[77.579045,28.229729],[77.579049,28.230857],[77.578397,28.230858],[77.578394,28.229731],[77.57872,28.22973]]]},"properties":{"objectid":238,"uniqueplotid":"PLNGINDUSTRIAL238","plotmap_id":"SECTOR-28_E-8_Software Park_IND","plotidentificationnumber":"E-8","plotno":"E-8","industrysector":"SECTOR-28","block":"Software Park","plotsize":"8000 SQMT","landuse_type":"INDUSTRIAL","landuse_subcategory":"INDUSTRIAL","investment":0,"employment":0,"landallotementstatus":"VACANT","landallotementtype":"VACANT","village_name":"Rabupura","khasra_no":"1411,1412,1405,1413,1414,1190,1210","longitude":77.57868015999999,"latitude":28.23022335,"authority":"YEIDA","category":"industrial","execution_stage":"vacant"}},{"type":"Feature","geometry":{"type":"Polygon","coordinates":[[[77.579697,28.229728],[77.579701,28.230855],[77.579049,28.230857],[77.579045,28.229729],[77.579697,28.229728]]]},"properties":{"objectid":240,"uniqueplotid":"PLNGINDUSTRIAL240","plotmap_id":"SECTOR-28_E-7_Software Park_IND","plotidentificationnumber":"E-7","plotno":"E-7","industrysector":"SECTOR-28","block":"Software Park","plotsize":"8000 SQMT","landuse_type":"INDUSTRIAL","landuse_subcategory":"INDUSTRIAL","investment":0,"employment":0,"landallotementstatus":"VACANT","landallotementtype":"VACANT","village_name":"Rabupura","khasra_no":"1411,1410,1405,1409","longitude":77.57937305,"latitude":28.23029211,"authority":"YEIDA","category":"industrial","execution_stage":"vacant"}},{"type":"Feature","geometry":{"type":"Polygon","coordinates":[[[77.578735,28.217184],[77.577164,28.217187],[77.577163,28.216661],[77.578733,28.216657],[77.578735,28.217184]]]},"properties":{"objectid":912,"uniqueplotid":"PLNGINDUSTRIAL912","plotmap_id":"SECTOR-29_A72_APPAREL PARK_IND","plotidentificationnumber":"A72","plotno":"A72","industrysector":"SECTOR-29","block":"APPAREL PARK","plotsize":"9000 SQMT","plotsize_at_the_time_of_allotme":"9000 SQMT","plot_size_as_per_lease_plan":8999.44,"landuse_type":"INDUSTRIAL","landuse_subcategory":"INDUSTRIAL","scheme_cod":"IND09","investment":51,"employment":180,"plotstatus":"Allotted","landallotementstatus":"SOLD","landallotementtype":"ALLOTTED","allotmentid":"YIND091003","allotment_date":1633026600000,"rate_of_allotment":6332,"lease_deed":"Y","lease_deed_date":1692210600000,"possession":"Y","possession_date":1709663400000,"village_name":"Tirthali","khasra_no":"179,180,166,165,164","longitude":77.57794851,"latitude":28.21692209,"authority":"YEIDA","category":"industrial","execution_stage":"possession-recorded"}},{"type":"Feature","geometry":{"type":"Polygon","coordinates":[[[77.577166,28.217714],[77.575596,28.217718],[77.575603,28.216664],[77.577163,28.216661],[77.577166,28.217714]]]},"properties":{"objectid":913,"uniqueplotid":"PLNGINDUSTRIAL913","plotmap_id":"SECTOR-29_A76_APPAREL PARK_IND","plotidentificationnumber":"A76","plotno":"A76","industrysector":"SECTOR-29","block":"APPAREL PARK","plotsize":"18000 SQMT","landuse_type":"INDUSTRIAL","landuse_subcategory":"INDUSTRIAL","investment":0,"employment":0,"plotstatus":"Reserved","landallotementstatus":"RESERVED","landallotementtype":"RESERVED","village_name":"Tirthali","khasra_no":"178,179,180,176,181,183,166,184,165,182,185,175,177","longitude":77.57643008000001,"latitude":28.21719208,"authority":"YEIDA","category":"industrial","execution_stage":"reserved"}},{"type":"Feature","geometry":{"type":"Polygon","coordinates":[[[77.577046,28.218185],[77.576322,28.218187],[77.576321,28.217933],[77.577045,28.217931],[77.577046,28.218185]]]},"properties":{"objectid":914,"uniqueplotid":"PLNGINDUSTRIAL914","plotmap_id":"SECTOR-29_A59_APPAREL PARK_IND","plotidentificationnumber":"A59","plotno":"A59","industrysector":"SECTOR-29","block":"APPAREL PARK","plotsize":"2000 SQMT","plotsize_at_the_time_of_allotme":"2000 SQMT","plot_size_as_per_lease_plan":2010.71,"landuse_type":"INDUSTRIAL","landuse_subcategory":"INDUSTRIAL","scheme_cod":"INDOPEN","investment":16,"employment":56,"plotstatus":"Allotted","landallotementstatus":"SOLD","landallotementtype":"ALLOTTED","allotmentid":"AP/INDOPEN00017","allotment_date":1594319400000,"rate_of_allotment":6405,"lease_deed":"Y","lease_deed_date":1688581800000,"possession":"Y","possession_date":1693161000000,"village_name":"Tirthali","khasra_no":"175","longitude":77.57667792,"latitude":28.21805725,"authority":"YEIDA","category":"industrial","execution_stage":"possession-recorded"}},{"type":"Feature","geometry":{"type":"Polygon","coordinates":[[[77.576322,28.218187],[77.575598,28.218189],[77.575597,28.217935],[77.576321,28.217933],[77.576322,28.218187]]]},"properties":{"objectid":915,"uniqueplotid":"PLNGINDUSTRIAL915","plotmap_id":"SECTOR-29_A60_APPAREL PARK_IND","plotidentificationnumber":"A60","plotno":"A60","industrysector":"SECTOR-29","block":"APPAREL PARK","plotsize":"2000 SQMT","plotsize_at_the_time_of_allotme":"2000 SQMT","landuse_type":"INDUSTRIAL","landuse_subcategory":"INDUSTRIAL","scheme_cod":"INDOPEN","investment":16,"employment":56,"plotstatus":"Allotted","landallotementstatus":"SOLD","landallotementtype":"ALLOTTED","allotmentid":"AP/INDOPEN0008","allotment_date":1593714600000,"rate_of_allotment":6405,"lease_deed":"N","possession":"N","village_name":"Tirthali","khasra_no":"185,175","longitude":77.57597530000001,"latitude":28.21806643,"authority":"YEIDA","category":"industrial","execution_stage":"allotted"}},{"type":"Feature","geometry":{"type":"Polygon","coordinates":[[[77.577046,28.218439],[77.576323,28.218441],[77.576322,28.218187],[77.577046,28.218185],[77.577046,28.218439]]]},"properties":{"objectid":916,"uniqueplotid":"PLNGINDUSTRIAL916","plotmap_id":"SECTOR-29_A58_APPAREL PARK_IND","plotidentificationnumber":"A58","plotno":"A58","industrysector":"SECTOR-29","block":"APPAREL PARK","plotsize":"2000 SQMT","plotsize_at_the_time_of_allotme":"2000 SQMT","plot_size_as_per_lease_plan":2000.05,"landuse_type":"INDUSTRIAL","landuse_subcategory":"INDUSTRIAL","scheme_cod":"IND08","investment":13,"employment":44,"plotstatus":"Allotted","landallotementstatus":"SOLD","landallotementtype":"ALLOTTED","allotmentid":"YIND081009","allotment_date":1625509800000,"rate_of_allotment":7010,"lease_deed":"Y","lease_deed_date":1735583400000,"possession":"N","village_name":"Tirthali","khasra_no":"175","longitude":77.57668407999999,"latitude":28.21831313,"authority":"YEIDA","category":"industrial","execution_stage":"lease-recorded"}},{"type":"Feature","geometry":{"type":"Polygon","coordinates":[[[77.576323,28.218441],[77.575599,28.218443],[77.575598,28.218189],[77.576322,28.218187],[77.576323,28.218441]]]},"properties":{"objectid":917,"uniqueplotid":"PLNGINDUSTRIAL917","plotmap_id":"SECTOR-29_A61_APPAREL PARK_IND","plotidentificationnumber":"A61","plotno":"A61","industrysector":"SECTOR-29","block":"APPAREL PARK","plotsize":"2000 SQMT","plotsize_at_the_time_of_allotme":"2000 SQMT","landuse_type":"INDUSTRIAL","landuse_subcategory":"INDUSTRIAL","scheme_cod":"INDOPEN","investment":16,"employment":56,"plotstatus":"Allotted","landallotementstatus":"SOLD","landallotementtype":"ALLOTTED","allotmentid":"AP/INDOPEN00012","allotment_date":1593714600000,"rate_of_allotment":6405,"lease_deed":"N","possession":"N","village_name":"Tirthali","khasra_no":"185,175","longitude":77.57596026,"latitude":28.21831493,"authority":"YEIDA","category":"industrial","execution_stage":"allotted"}},{"type":"Feature","geometry":{"type":"Polygon","coordinates":[[[77.577047,28.218693],[77.576324,28.218695],[77.576323,28.218441],[77.577046,28.218439],[77.577047,28.218693]]]},"properties":{"objectid":918,"uniqueplotid":"PLNGINDUSTRIAL918","plotmap_id":"SECTOR-29_A57_APPAREL PARK_IND","plotidentificationnumber":"A57","plotno":"A57","industrysector":"SECTOR-29","block":"APPAREL PARK","plotsize":"2000 SQMT","plotsize_at_the_time_of_allotme":"2000 SQMT","plot_size_as_per_lease_plan":2000.05,"landuse_type":"INDUSTRIAL","landuse_subcategory":"INDUSTRIAL","scheme_cod":"IND08","investment":13,"employment":44,"plotstatus":"Allotted","landallotementstatus":"SOLD","landallotementtype":"ALLOTTED","allotmentid":"YIND081007","allotment_date":1625509800000,"rate_of_allotment":7010,"lease_deed":"Y","lease_deed_date":1682620200000,"possession":"Y","possession_date":1693161000000,"village_name":"Tirthali","khasra_no":"173,175","longitude":77.57668497,"latitude":28.21856717,"authority":"YEIDA","category":"industrial","execution_stage":"possession-recorded"}},{"type":"Feature","geometry":{"type":"Polygon","coordinates":[[[77.576324,28.218695],[77.5756,28.218697],[77.575599,28.218443],[77.576323,28.218441],[77.576324,28.218695]]]},"properties":{"objectid":919,"uniqueplotid":"PLNGINDUSTRIAL919","plotmap_id":"SECTOR-29_A62_APPAREL PARK_IND","plotidentificationnumber":"A62","plotno":"A62","industrysector":"SECTOR-29","block":"APPAREL PARK","plotsize":"2000 SQMT","plotsize_at_the_time_of_allotme":"2000 SQMT","plot_size_as_per_lease_plan":2000.05,"landuse_type":"INDUSTRIAL","landuse_subcategory":"INDUSTRIAL","scheme_cod":"INDOPEN","investment":16,"employment":56,"plotstatus":"Allotted","landallotementstatus":"SOLD","landallotementtype":"ALLOTTED","allotmentid":"AP/INDOPEN00046","allotment_date":1599157800000,"rate_of_allotment":6405,"lease_deed":"Y","lease_deed_date":1686335400000,"possession":"N","village_name":"Tirthali","khasra_no":"185,175","longitude":77.57596115,"latitude":28.21856897,"authority":"YEIDA","category":"industrial","execution_stage":"lease-recorded"}},{"type":"Feature","geometry":{"type":"Polygon","coordinates":[[[77.58003,28.218826],[77.579199,28.218826],[77.579195,28.217709],[77.580026,28.217707],[77.58003,28.218826]]]},"properties":{"objectid":921,"uniqueplotid":"PLNGINDUSTRIAL921","plotmap_id":"SECTOR-29_A68_APPAREL PARK_IND","plotidentificationnumber":"A68","plotno":"A68","industrysector":"SECTOR-29","block":"APPAREL PARK","plotsize":"10000 SQMT","plotsize_at_the_time_of_allotme":"10000 SQMT","landuse_type":"INDUSTRIAL","landuse_subcategory":"INDUSTRIAL","scheme_cod":"INDOPEN","investment":71,"employment":248,"plotstatus":"Allotted","landallotementstatus":"SOLD","landallotementtype":"ALLOTTED","allotmentid":"AP/INDOPEN00045","allotment_date":1599157800000,"rate_of_allotment":5670,"lease_deed":"Y","lease_deed_date":1682620200000,"possession":"Y","possession_date":1693161000000,"village_name":"Tirthali","khasra_no":"152,148,156,155,149","longitude":77.57960469,"latitude":28.2182559,"authority":"YEIDA","category":"industrial","execution_stage":"possession-recorded"}},{"type":"Feature","geometry":{"type":"Polygon","coordinates":[[[77.577048,28.218947],[77.576324,28.218949],[77.576324,28.218695],[77.577047,28.218693],[77.577048,28.218947]]]},"properties":{"objectid":923,"uniqueplotid":"PLNGINDUSTRIAL923","plotmap_id":"SECTOR-29_A56_APPAREL PARK_IND","plotidentificationnumber":"A56","plotno":"A56","industrysector":"SECTOR-29","block":"APPAREL PARK","plotsize":"2000 SQMT","plotsize_at_the_time_of_allotme":"2000 SQMT","plot_size_as_per_lease_plan":2000.05,"landuse_type":"INDUSTRIAL","landuse_subcategory":"INDUSTRIAL","scheme_cod":"IND08","investment":13,"employment":44,"plotstatus":"Allotted","landallotementstatus":"SOLD","landallotementtype":"ALLOTTED","allotmentid":"YIND081008","allotment_date":1625509800000,"rate_of_allotment":7010,"lease_deed":"Y","lease_deed_date":1731436200000,"possession":"N","village_name":"Tirthali","khasra_no":"173,185,175","longitude":77.57667083,"latitude":28.218815980000002,"authority":"YEIDA","category":"industrial","execution_stage":"lease-recorded"}},{"type":"Feature","geometry":{"type":"Polygon","coordinates":[[[77.576324,28.218949],[77.575601,28.218951],[77.5756,28.218697],[77.576324,28.218695],[77.576324,28.218949]]]},"properties":{"objectid":924,"uniqueplotid":"PLNGINDUSTRIAL924","plotmap_id":"SECTOR-29_A63_APPAREL PARK_IND","plotidentificationnumber":"A63","plotno":"A63","industrysector":"SECTOR-29","block":"APPAREL PARK","plotsize":"2000 SQMT","plotsize_at_the_time_of_allotme":"2000 SQMT","plot_size_as_per_lease_plan":2000.05,"landuse_type":"INDUSTRIAL","landuse_subcategory":"INDUSTRIAL","scheme_cod":"IND08","investment":13,"employment":44,"plotstatus":"Allotted","landallotementstatus":"SOLD","landallotementtype":"ALLOTTED","allotmentid":"YIND081006","allotment_date":1625509800000,"rate_of_allotment":7010,"lease_deed":"Y","lease_deed_date":1682620200000,"possession":"Y","possession_date":1693161000000,"village_name":"Tirthali","khasra_no":"185,175","longitude":77.57598099,"latitude":28.21882961,"authority":"YEIDA","category":"industrial","execution_stage":"possession-recorded"}},{"type":"Feature","geometry":{"type":"Polygon","coordinates":[[[77.578741,28.21907],[77.577293,28.219073],[77.577289,28.217931],[77.578737,28.217927],[77.578741,28.21907]]]},"properties":{"objectid":925,"uniqueplotid":"PLNGINDUSTRIAL925","plotmap_id":"SECTOR-29_A69 & A70_APPAREL PARK_IND","plotidentificationnumber":"A69 & A70","plotno":"A69 & A70","industrysector":"SECTOR-29","block":"APPAREL PARK","plotsize":"18000 SQMT","plotsize_at_the_time_of_allotme":"18000 SQMT","landuse_type":"INDUSTRIAL","landuse_subcategory":"INDUSTRIAL","scheme_cod":"IND09","investment":103,"employment":359,"plotstatus":"Allotted","landallotementstatus":"SOLD","landallotementtype":"ALLOTTED","allotmentid":"YIND091006","allotment_date":1633026600000,"rate_of_allotment":6332,"lease_deed":"N","possession":"N","village_name":"Tirthali","khasra_no":"174,173,166,152,148,153,175,154","longitude":77.57801134,"latitude":28.21848429,"authority":"YEIDA","category":"industrial","execution_stage":"allotted"}},{"type":"Feature","geometry":{"type":"Polygon","coordinates":[[[77.577049,28.219201],[77.576325,28.219203],[77.576324,28.218949],[77.577048,28.218947],[77.577049,28.219201]]]},"properties":{"objectid":927,"uniqueplotid":"PLNGINDUSTRIAL927","plotmap_id":"SECTOR-29_A55_APPAREL PARK_IND","plotidentificationnumber":"A55","plotno":"A55","industrysector":"SECTOR-29","block":"APPAREL PARK","plotsize":"2000 SQMT","plotsize_at_the_time_of_allotme":"2000 SQMT","landuse_type":"INDUSTRIAL","landuse_subcategory":"INDUSTRIAL","scheme_cod":"IND08","investment":13,"employment":44,"plotstatus":"Allotted","landallotementstatus":"SOLD","landallotementtype":"ALLOTTED","allotmentid":"YIND081010","allotment_date":1625509800000,"rate_of_allotment":7010,"lease_deed":"N","possession":"N","village_name":"Tirthali","khasra_no":"173,185","longitude":77.576685,"latitude":28.21907465,"authority":"YEIDA","category":"industrial","execution_stage":"allotted"}},{"type":"Feature","geometry":{"type":"Polygon","coordinates":[[[77.576325,28.219203],[77.575601,28.219205],[77.575601,28.218951],[77.576324,28.218949],[77.576325,28.219203]]]},"properties":{"objectid":928,"uniqueplotid":"PLNGINDUSTRIAL928","plotmap_id":"SECTOR-29_A64_APPAREL PARK_IND","plotidentificationnumber":"A64","plotno":"A64","industrysector":"SECTOR-29","block":"APPAREL PARK","plotsize":"2000 SQMT","plotsize_at_the_time_of_allotme":"2000 SQMT","plot_size_as_per_lease_plan":2000.05,"landuse_type":"INDUSTRIAL","landuse_subcategory":"INDUSTRIAL","scheme_cod":"IND09","investment":13,"employment":44,"plotstatus":"Allotted","landallotementstatus":"SOLD","landallotementtype":"ALLOTTED","allotmentid":"YIND091001","allotment_date":1632335400000,"rate_of_allotment":7010,"lease_deed":"Y","lease_deed_date":1682620200000,"possession":"Y","possession_date":1693161000000,"village_name":"Tirthali","khasra_no":"185","longitude":77.57596186,"latitude":28.21907669,"authority":"YEIDA","category":"industrial","execution_stage":"possession-recorded"}},{"type":"Feature","geometry":{"type":"Polygon","coordinates":[[[77.580417,28.219499],[77.580215,28.219499],[77.580214,28.219042],[77.580416,28.219041],[77.580417,28.219499]]]},"properties":{"objectid":932,"uniqueplotid":"PLNGINDUSTRIAL932","plotmap_id":"SECTOR-29_A48_APPAREL PARK_IND","plotidentificationnumber":"A48","plotno":"A48","industrysector":"SECTOR-29","block":"APPAREL PARK","plotsize":"1000 SQMT","plotsize_at_the_time_of_allotme":"1000 SQMT","plot_size_as_per_lease_plan":1003.8,"landuse_type":"INDUSTRIAL","landuse_subcategory":"INDUSTRIAL","scheme_cod":"INDOPEN","investment":8,"employment":28,"plotstatus":"Allotted","landallotementstatus":"SOLD","landallotementtype":"ALLOTTED","allotmentid":"AP/INDOPEN00030","allotment_date":1596565800000,"rate_of_allotment":6405,"lease_deed":"Y","lease_deed_date":1684434600000,"possession":"Y","possession_date":1716489000000,"village_name":"Tirthali","khasra_no":"144","longitude":77.58031562999999,"latitude":28.219270820000002,"authority":"YEIDA","category":"industrial","execution_stage":"possession-recorded"}},{"type":"Feature","geometry":{"type":"Polygon","coordinates":[[[77.580215,28.219499],[77.580014,28.2195],[77.580012,28.219042],[77.580214,28.219042],[77.580215,28.219499]]]},"properties":{"objectid":933,"uniqueplotid":"PLNGINDUSTRIAL933","plotmap_id":"SECTOR-29_A47_APPAREL PARK_IND","plotidentificationnumber":"A47","plotno":"A47","industrysector":"SECTOR-29","block":"APPAREL PARK","plotsize":"1000 SQMT","plotsize_at_the_time_of_allotme":"1000 SQMT","plot_size_as_per_lease_plan":1000,"landuse_type":"INDUSTRIAL","landuse_subcategory":"INDUSTRIAL","scheme_cod":"INDOPEN","investment":8,"employment":28,"plotstatus":"Allotted","landallotementstatus":"SOLD","landallotementtype":"ALLOTTED","allotmentid":"AP/INDOPEN00033","allotment_date":1599157800000,"rate_of_allotment":6405,"lease_deed":"Y","lease_deed_date":1681237800000,"possession":"Y","possession_date":1716489000000,"village_name":"Tirthali","khasra_no":"144,147","longitude":77.58011401,"latitude":28.21927135,"authority":"YEIDA","category":"industrial","execution_stage":"possession-recorded"}},{"type":"Feature","geometry":{"type":"Polygon","coordinates":[[[77.580014,28.2195],[77.579812,28.2195],[77.579811,28.219043],[77.580012,28.219042],[77.580014,28.2195]]]},"properties":{"objectid":934,"uniqueplotid":"PLNGINDUSTRIAL934","plotmap_id":"SECTOR-29_A46_APPAREL PARK_IND","plotidentificationnumber":"A46","plotno":"A46","industrysector":"SECTOR-29","block":"APPAREL PARK","plotsize":"1000 SQMT","plotsize_at_the_time_of_allotme":"1000 SQMT","plot_size_as_per_lease_plan":1000,"landuse_type":"INDUSTRIAL","landuse_subcategory":"INDUSTRIAL","scheme_cod":"IND08","investment":6,"employment":22,"plotstatus":"Allotted","landallotementstatus":"SOLD","landallotementtype":"ALLOTTED","allotmentid":"YIND081002","allotment_date":1625509800000,"rate_of_allotment":7010,"lease_deed":"Y","lease_deed_date":1681237800000,"possession":"Y","village_name":"Tirthali","khasra_no":"144,149,147","longitude":77.57991238999999,"latitude":28.21927188,"authority":"YEIDA","category":"industrial","execution_stage":"possession-recorded"}},{"type":"Feature","geometry":{"type":"Polygon","coordinates":[[[77.579812,28.2195],[77.57961,28.219501],[77.579609,28.219044],[77.579811,28.219043],[77.579812,28.2195]]]},"properties":{"objectid":935,"uniqueplotid":"PLNGINDUSTRIAL935","plotmap_id":"SECTOR-29_A45_APPAREL PARK_IND","plotidentificationnumber":"A45","plotno":"A45","industrysector":"SECTOR-29","block":"APPAREL PARK","plotsize":"1000 SQMT","plotsize_at_the_time_of_allotme":"1000 SQMT","plot_size_as_per_lease_plan":1000,"landuse_type":"INDUSTRIAL","landuse_subcategory":"INDUSTRIAL","scheme_cod":"IND08","investment":6,"employment":22,"plotstatus":"Allotted","landallotementstatus":"SOLD","landallotementtype":"ALLOTTED","allotmentid":"YIND081005","allotment_date":1625509800000,"rate_of_allotment":7010,"lease_deed":"Y","lease_deed_date":1680633000000,"possession":"Y","village_name":"Tirthali","khasra_no":"144,149,147","longitude":77.57971077,"latitude":28.219272410000002,"authority":"YEIDA","category":"industrial","execution_stage":"possession-recorded"}},{"type":"Feature","geometry":{"type":"Polygon","coordinates":[[[77.57961,28.219501],[77.579409,28.219501],[77.579407,28.219044],[77.579609,28.219044],[77.57961,28.219501]]]},"properties":{"objectid":936,"uniqueplotid":"PLNGINDUSTRIAL936","plotmap_id":"SECTOR-29_A44_APPAREL PARK_IND","plotidentificationnumber":"A44","plotno":"A44","industrysector":"SECTOR-29","block":"APPAREL PARK","plotsize":"1000 SQMT","plotsize_at_the_time_of_allotme":"1000 SQMT","plot_size_as_per_lease_plan":1003.8,"landuse_type":"INDUSTRIAL","landuse_subcategory":"INDUSTRIAL","scheme_cod":"INDOPEN","investment":8,"employment":28,"plotstatus":"Allotted","landallotementstatus":"SOLD","landallotementtype":"ALLOTTED","allotmentid":"AP/INDOPEN00038","allotment_date":1599157800000,"rate_of_allotment":6405,"lease_deed":"Y","lease_deed_date":1682620200000,"possession":"Y","possession_date":1693161000000,"village_name":"Tirthali","khasra_no":"148,144,145,149,147","longitude":77.57950914,"latitude":28.219272930000002,"authority":"YEIDA","category":"industrial","execution_stage":"possession-recorded"}},{"type":"Feature","geometry":{"type":"Polygon","coordinates":[[[77.579409,28.219501],[77.579201,28.2195],[77.5792,28.219045],[77.579407,28.219044],[77.579409,28.219501]]]},"properties":{"objectid":937,"uniqueplotid":"PLNGINDUSTRIAL937","plotmap_id":"SECTOR-29_A43_APPAREL PARK_IND","plotidentificationnumber":"A43","plotno":"A43","industrysector":"SECTOR-29","block":"APPAREL PARK","plotsize":"1000 SQMT","plotsize_at_the_time_of_allotme":"1000 SQMT","plot_size_as_per_lease_plan":1003.86,"landuse_type":"INDUSTRIAL","landuse_subcategory":"INDUSTRIAL","scheme_cod":"INDOPEN","investment":8,"employment":28,"plotstatus":"Allotted","landallotementstatus":"SOLD","landallotementtype":"ALLOTTED","allotmentid":"AP/INDOPEN00034","allotment_date":1598293800000,"rate_of_allotment":6405,"lease_deed":"Y","lease_deed_date":1682620200000,"possession":"Y","possession_date":1688495400000,"village_name":"Tirthali","khasra_no":"148,145,146,147","longitude":77.57931833,"latitude":28.21930339,"authority":"YEIDA","category":"industrial","execution_stage":"possession-recorded"}},{"type":"Feature","geometry":{"type":"Polygon","coordinates":[[[77.57705,28.219455],[77.576326,28.219457],[77.576325,28.219203],[77.577049,28.219201],[77.57705,28.219455]]]},"properties":{"objectid":938,"uniqueplotid":"PLNGINDUSTRIAL938","plotmap_id":"SECTOR-29_A54_APPAREL PARK_IND","plotidentificationnumber":"A54","plotno":"A54","industrysector":"SECTOR-29","block":"APPAREL PARK","plotsize":"2000 SQMT","plotsize_at_the_time_of_allotme":"2000 SQMT","plot_size_as_per_lease_plan":2000.05,"landuse_type":"INDUSTRIAL","landuse_subcategory":"INDUSTRIAL","scheme_cod":"INDOPEN","investment":16,"employment":56,"plotstatus":"Allotted","landallotementstatus":"SOLD","landallotementtype":"ALLOTTED","allotmentid":"AP/INDOPEN00021","allotment_date":1596565800000,"rate_of_allotment":6405,"lease_deed":"Y","lease_deed_date":1719772200000,"possession":"N","village_name":"Tirthali","khasra_no":"173,172,185","longitude":77.57668763,"latitude":28.219329300000002,"authority":"YEIDA","category":"industrial","execution_stage":"lease-recorded"}},{"type":"Feature","geometry":{"type":"Polygon","coordinates":[[[77.576326,28.219457],[77.575602,28.219459],[77.575601,28.219205],[77.576325,28.219203],[77.576326,28.219457]]]},"properties":{"objectid":939,"uniqueplotid":"PLNGINDUSTRIAL939","plotmap_id":"SECTOR-29_A65_APPAREL PARK_IND","plotidentificationnumber":"A65","plotno":"A65","industrysector":"SECTOR-29","block":"APPAREL PARK","plotsize":"2000 SQMT","plotsize_at_the_time_of_allotme":"2000 SQMT","plot_size_as_per_lease_plan":2000.05,"landuse_type":"INDUSTRIAL","landuse_subcategory":"INDUSTRIAL","scheme_cod":"IND09","investment":13,"employment":44,"plotstatus":"Allotted","landallotementstatus":"SOLD","landallotementtype":"ALLOTTED","allotmentid":"YIND091002","allotment_date":1632335400000,"rate_of_allotment":7010,"lease_deed":"Y","lease_deed_date":1717957800000,"possession":"Y","possession_date":1722364200000,"map_sanctioned_from_planning":"Y","village_name":"Tirthali","khasra_no":"173,172,185","longitude":77.57596381,"latitude":28.2193311,"authority":"YEIDA","category":"industrial","execution_stage":"construction-or-map-approval"}},{"type":"Feature","geometry":{"type":"Polygon","coordinates":[[[77.577051,28.219709],[77.576327,28.219711],[77.576326,28.219457],[77.57705,28.219455],[77.577051,28.219709]]]},"properties":{"objectid":942,"uniqueplotid":"PLNGINDUSTRIAL942","plotmap_id":"SECTOR-29_A53_APPAREL PARK_IND","plotidentificationnumber":"A53","plotno":"A53","industrysector":"SECTOR-29","block":"APPAREL PARK","plotsize":"2000 SQMT","plotsize_at_the_time_of_allotme":"2000 SQMT","plot_size_as_per_lease_plan":2000.05,"landuse_type":"INDUSTRIAL","landuse_subcategory":"INDUSTRIAL","scheme_cod":"INDOPEN","investment":16,"employment":56,"plotstatus":"Allotted","landallotementstatus":"SOLD","landallotementtype":"ALLOTTED","allotmentid":"AP/INDOPEN0004","allotment_date":1593714600000,"rate_of_allotment":6405,"lease_deed":"Y","lease_deed_date":1687113000000,"possession":"Y","possession_date":1693161000000,"village_name":"Tirthali","khasra_no":"173,172","longitude":77.57668852,"latitude":28.21958334,"authority":"YEIDA","category":"industrial","execution_stage":"possession-recorded"}},{"type":"Feature","geometry":{"type":"Polygon","coordinates":[[[77.576327,28.219711],[77.575603,28.219713],[77.575602,28.219459],[77.576326,28.219457],[77.576327,28.219711]]]},"properties":{"objectid":943,"uniqueplotid":"PLNGINDUSTRIAL943","plotmap_id":"SECTOR-29_A66_APPAREL PARK_IND","plotidentificationnumber":"A66","plotno":"A66","industrysector":"SECTOR-29","block":"APPAREL PARK","plotsize":"2000 SQMT","plotsize_at_the_time_of_allotme":"2000 SQMT","plot_size_as_per_lease_plan":2000.05,"landuse_type":"INDUSTRIAL","landuse_subcategory":"INDUSTRIAL","scheme_cod":"INDOPEN","investment":16,"employment":56,"plotstatus":"Allotted","landallotementstatus":"SOLD","landallotementtype":"ALLOTTED","allotmentid":"AP/INDOPEN00016","allotment_date":1594319400000,"rate_of_allotment":6405,"lease_deed":"Y","lease_deed_date":1683138600000,"possession":"Y","possession_date":1693161000000,"village_name":"Tirthali","khasra_no":"187,172,185","longitude":77.5759647,"latitude":28.21958514,"authority":"YEIDA","category":"industrial","execution_stage":"possession-recorded"}},{"type":"Feature","geometry":{"type":"Polygon","coordinates":[[[77.580418,28.219956],[77.580217,28.219957],[77.580215,28.219499],[77.580417,28.219499],[77.580418,28.219956]]]},"properties":{"objectid":949,"uniqueplotid":"PLNGINDUSTRIAL949","plotmap_id":"SECTOR-29_A37_APPAREL PARK_IND","plotidentificationnumber":"A37","plotno":"A37","industrysector":"SECTOR-29","block":"APPAREL PARK","plotsize":"1000 SQMT","plotsize_at_the_time_of_allotme":"1000 SQMT","plot_size_as_per_lease_plan":1003.8,"landuse_type":"INDUSTRIAL","landuse_subcategory":"INDUSTRIAL","scheme_cod":"INDOPEN","investment":8,"employment":28,"plotstatus":"Allotted","landallotementstatus":"SOLD","landallotementtype":"ALLOTTED","allotmentid":"AP/INDOPEN00035","allotment_date":1598293800000,"rate_of_allotment":6405,"lease_deed":"Y","lease_deed_date":1685644200000,"possession":"Y","village_name":"Tirthali","khasra_no":"144","longitude":77.58031706,"latitude":28.21972797,"authority":"YEIDA","category":"industrial","execution_stage":"possession-recorded"}},{"type":"Feature","geometry":{"type":"Polygon","coordinates":[[[77.580217,28.219957],[77.580015,28.219957],[77.580014,28.2195],[77.580215,28.219499],[77.580217,28.219957]]]},"properties":{"objectid":950,"uniqueplotid":"PLNGINDUSTRIAL950","plotmap_id":"SECTOR-29_A38_APPAREL PARK_IND","plotidentificationnumber":"A38","plotno":"A38","industrysector":"SECTOR-29","block":"APPAREL PARK","plotsize":"1000 SQMT","plotsize_at_the_time_of_allotme":"1000 SQMT","plot_size_as_per_lease_plan":1003.8,"landuse_type":"INDUSTRIAL","landuse_subcategory":"INDUSTRIAL","scheme_cod":"IND08","investment":6,"employment":22,"plotstatus":"Allotted","landallotementstatus":"SOLD","landallotementtype":"ALLOTTED","allotmentid":"YIND081004","allotment_date":1625509800000,"rate_of_allotment":7010,"lease_deed":"Y","lease_deed_date":1706725800000,"possession":"Y","possession_date":1713810600000,"village_name":"Tirthali","khasra_no":"144","longitude":77.58011543,"latitude":28.219728489999998,"authority":"YEIDA","category":"industrial","execution_stage":"possession-recorded"}},{"type":"Feature","geometry":{"type":"Polygon","coordinates":[[[77.580015,28.219957],[77.579814,28.219958],[77.579812,28.2195],[77.580014,28.2195],[77.580015,28.219957]]]},"properties":{"objectid":951,"uniqueplotid":"PLNGINDUSTRIAL951","plotmap_id":"SECTOR-29_A39_APPAREL PARK_IND","plotidentificationnumber":"A39","plotno":"A39","industrysector":"SECTOR-29","block":"APPAREL PARK","plotsize":"1000 SQMT","plotsize_at_the_time_of_allotme":"1000 SQMT","plot_size_as_per_lease_plan":1003.8,"landuse_type":"INDUSTRIAL","landuse_subcategory":"INDUSTRIAL","scheme_cod":"IND08","investment":6,"employment":22,"plotstatus":"Allotted","landallotementstatus":"SOLD","landallotementtype":"ALLOTTED","allotmentid":"YIND081003","allotment_date":1625509800000,"rate_of_allotment":7010,"lease_deed":"Y","lease_deed_date":1682620200000,"possession":"N","village_name":"Tirthali","khasra_no":"144","longitude":77.5799138,"latitude":28.21972901,"authority":"YEIDA","category":"industrial","execution_stage":"lease-recorded"}},{"type":"Feature","geometry":{"type":"Polygon","coordinates":[[[77.579814,28.219958],[77.579612,28.219958],[77.57961,28.219501],[77.579812,28.2195],[77.579814,28.219958]]]},"properties":{"objectid":952,"uniqueplotid":"PLNGINDUSTRIAL952","plotmap_id":"SECTOR-29_A40_APPAREL PARK_IND","plotidentificationnumber":"A40","plotno":"A40","industrysector":"SECTOR-29","block":"APPAREL PARK","plotsize":"1000 SQMT","plotsize_at_the_time_of_allotme":"1000 SQMT","landuse_type":"INDUSTRIAL","landuse_subcategory":"INDUSTRIAL","scheme_cod":"INDOPEN","investment":8,"employment":28,"plotstatus":"Allotted","landallotementstatus":"SOLD","landallotementtype":"ALLOTTED","allotmentid":"AP/INDOPEN00011","allotment_date":1593714600000,"rate_of_allotment":6405,"lease_deed":"Y","lease_deed_date":1685385000000,"possession":"Y","possession_date":1691087400000,"units_under_construction":"Y","village_name":"Tirthali","khasra_no":"144,145","longitude":77.57971218,"latitude":28.21972953,"authority":"YEIDA","category":"industrial","execution_stage":"construction-or-map-approval"}},{"type":"Feature","geometry":{"type":"Polygon","coordinates":[[[77.579612,28.219958],[77.57941,28.219959],[77.579409,28.219501],[77.57961,28.219501],[77.579612,28.219958]]]},"properties":{"objectid":953,"uniqueplotid":"PLNGINDUSTRIAL953","plotmap_id":"SECTOR-29_A41_APPAREL PARK_IND","plotidentificationnumber":"A41","plotno":"A41","industrysector":"SECTOR-29","block":"APPAREL PARK","plotsize":"1000 SQMT","plotsize_at_the_time_of_allotme":"1000 SQMT","plot_size_as_per_lease_plan":1003.8,"landuse_type":"INDUSTRIAL","landuse_subcategory":"INDUSTRIAL","scheme_cod":"INDOPEN","investment":8,"employment":28,"plotstatus":"Allotted","landallotementstatus":"SOLD","landallotementtype":"ALLOTTED","allotmentid":"AP/INDOPEN00010","allotment_date":1593714600000,"rate_of_allotment":6405,"lease_deed":"Y","lease_deed_date":1682620200000,"possession":"Y","possession_date":1721845800000,"map_sanctioned_from_planning":"Y","village_name":"Tirthali","khasra_no":"144,145,146","longitude":77.57951055,"latitude":28.21973005,"authority":"YEIDA","category":"industrial","execution_stage":"construction-or-map-approval"}},{"type":"Feature","geometry":{"type":"Polygon","coordinates":[[[77.57941,28.219959],[77.579203,28.219958],[77.579201,28.2195],[77.579409,28.219501],[77.57941,28.219959]]]},"properties":{"objectid":954,"uniqueplotid":"PLNGINDUSTRIAL954","plotmap_id":"SECTOR-29_A42_APPAREL PARK_IND","plotidentificationnumber":"A42","plotno":"A42","industrysector":"SECTOR-29","block":"APPAREL PARK","plotsize":"1000 SQMT","plotsize_at_the_time_of_allotme":"1000 SQMT","plot_size_as_per_lease_plan":1000,"landuse_type":"INDUSTRIAL","landuse_subcategory":"INDUSTRIAL","scheme_cod":"INDOPEN","investment":8,"employment":28,"plotstatus":"Allotted","landallotementstatus":"SOLD","landallotementtype":"ALLOTTED","allotmentid":"AP/INDOPEN0001","allotment_date":1592850600000,"rate_of_allotment":6405,"lease_deed":"Y","lease_deed_date":1735756200000,"possession":"N","village_name":"Tirthali","khasra_no":"145,146","longitude":77.57929807000001,"latitude":28.21971279,"authority":"YEIDA","category":"industrial","execution_stage":"lease-recorded"}},{"type":"Feature","geometry":{"type":"Polygon","coordinates":[[[77.577052,28.219964],[77.576328,28.219965],[77.576327,28.219711],[77.577051,28.219709],[77.577052,28.219964]]]},"properties":{"objectid":955,"uniqueplotid":"PLNGINDUSTRIAL955","plotmap_id":"SECTOR-29_A52_APPAREL PARK_IND","plotidentificationnumber":"A52","plotno":"A52","industrysector":"SECTOR-29","block":"APPAREL PARK","plotsize":"2000 SQMT","plotsize_at_the_time_of_allotme":"2000 SQMT","plot_size_as_per_lease_plan":2000.05,"landuse_type":"INDUSTRIAL","landuse_subcategory":"INDUSTRIAL","scheme_cod":"INDOPEN","investment":16,"employment":56,"plotstatus":"Allotted","landallotementstatus":"SOLD","landallotementtype":"ALLOTTED","allotmentid":"AP/INDOPEN00051","allotment_date":1599157800000,"rate_of_allotment":6405,"lease_deed":"Y","lease_deed_date":1698863400000,"possession":"Y","possession_date":1727893800000,"village_name":"Tirthali","khasra_no":"173,172","longitude":77.57666762,"latitude":28.2198298,"authority":"YEIDA","category":"industrial","execution_stage":"possession-recorded"}},{"type":"Feature","geometry":{"type":"Polygon","coordinates":[[[77.576328,28.219965],[77.575604,28.219967],[77.575603,28.219713],[77.576327,28.219711],[77.576328,28.219965]]]},"properties":{"objectid":956,"uniqueplotid":"PLNGINDUSTRIAL956","plotmap_id":"SECTOR-29_A67_APPAREL PARK_IND","plotidentificationnumber":"A67","plotno":"A67","industrysector":"SECTOR-29","block":"APPAREL PARK","plotsize":"2000 SQMT","plotsize_at_the_time_of_allotme":"2000 SQMT","landuse_type":"INDUSTRIAL","landuse_subcategory":"INDUSTRIAL","scheme_cod":"INDOPEN","investment":16,"employment":56,"plotstatus":"Allotted","landallotementstatus":"SOLD","landallotementtype":"ALLOTTED","allotmentid":"AP/INDOPEN00049","allotment_date":1599157800000,"rate_of_allotment":6405,"lease_deed":"N","possession":"N","village_name":"Tirthali","khasra_no":"187,172","longitude":77.57600468,"latitude":28.21985279,"authority":"YEIDA","category":"industrial","execution_stage":"allotted"}},{"type":"Feature","geometry":{"type":"Polygon","coordinates":[[[77.579657,28.220455],[77.579533,28.220455],[77.579532,28.220174],[77.579696,28.220173],[77.579697,28.220455],[77.579657,28.220455]]]},"properties":{"objectid":974,"uniqueplotid":"PLNGINDUSTRIAL974","plotmap_id":"SECTOR-29_A25_APPAREL PARK_IND","plotidentificationnumber":"A25","plotno":"A25","industrysector":"SECTOR-29","block":"APPAREL PARK","plotsize":"500 SQMT","plotsize_at_the_time_of_allotme":"500 SQMT","plot_size_as_per_lease_plan":500.6,"landuse_type":"INDUSTRIAL","landuse_subcategory":"INDUSTRIAL","scheme_cod":"INDOPEN","investment":4,"employment":14,"plotstatus":"Allotted","landallotementstatus":"SOLD","landallotementtype":"ALLOTTED","allotmentid":"AP/INDOPEN00014","allotment_date":1594319400000,"rate_of_allotment":6405,"lease_deed":"Y","lease_deed_date":1687285800000,"possession":"Y","possession_date":1707589800000,"map_sanctioned_from_planning":"Y","units_under_construction":"Y","village_name":"Tirthali","khasra_no":"131,142,145,146","longitude":77.57962223,"latitude":28.22031751,"authority":"YEIDA","category":"industrial","execution_stage":"construction-or-map-approval"}},{"type":"Feature","geometry":{"type":"Polygon","coordinates":[[[77.579533,28.220455],[77.579369,28.220456],[77.579368,28.220174],[77.579532,28.220174],[77.579533,28.220455]]]},"properties":{"objectid":975,"uniqueplotid":"PLNGINDUSTRIAL975","plotmap_id":"SECTOR-29_A24_APPAREL PARK_IND","plotidentificationnumber":"A24","plotno":"A24","industrysector":"SECTOR-29","block":"APPAREL PARK","plotsize":"500 SQMT","plotsize_at_the_time_of_allotme":"500 SQMT","plot_size_as_per_lease_plan":500.6,"landuse_type":"INDUSTRIAL","landuse_subcategory":"INDUSTRIAL","scheme_cod":"INDOPEN","investment":4,"employment":14,"plotstatus":"Allotted","landallotementstatus":"SOLD","landallotementtype":"ALLOTTED","allotmentid":"AP/INDOPEN0006","allotment_date":1593714600000,"rate_of_allotment":6405,"lease_deed":"Y","lease_deed_date":1682620200000,"possession":"Y","possession_date":1693161000000,"village_name":"Tirthali","khasra_no":"146","longitude":77.57945095000001,"latitude":28.220315690000003,"authority":"YEIDA","category":"industrial","execution_stage":"possession-recorded"}},{"type":"Feature","geometry":{"type":"Polygon","coordinates":[[[77.579369,28.220456],[77.579204,28.220456],[77.579203,28.220175],[77.579368,28.220174],[77.579369,28.220456]]]},"properties":{"objectid":976,"uniqueplotid":"PLNGINDUSTRIAL976","plotmap_id":"SECTOR-29_A23_APPAREL PARK_IND","plotidentificationnumber":"A23","plotno":"A23","industrysector":"SECTOR-29","block":"APPAREL PARK","plotsize":"500 SQMT","plotsize_at_the_time_of_allotme":"500 SQMT","plot_size_as_per_lease_plan":500.6,"landuse_type":"INDUSTRIAL","landuse_subcategory":"INDUSTRIAL","scheme_cod":"INDOPEN","investment":4,"employment":14,"plotstatus":"Allotted","landallotementstatus":"SOLD","landallotementtype":"ALLOTTED","allotmentid":"AP/INDOPEN0009","allotment_date":1593714600000,"rate_of_allotment":6405,"lease_deed":"Y","lease_deed_date":1682620200000,"possession":"N","village_name":"Tirthali","khasra_no":"146","longitude":77.579288,"latitude":28.22031837,"authority":"YEIDA","category":"industrial","execution_stage":"lease-recorded"}},{"type":"Feature","geometry":{"type":"Polygon","coordinates":[[[77.577325,28.220714],[77.575607,28.220719],[77.575605,28.220184],[77.577323,28.220179],[77.577325,28.220714]]]},"properties":{"objectid":978,"uniqueplotid":"PLNGINDUSTRIAL978","plotmap_id":"SECTOR-29_A4_APPAREL PARK_IND","plotidentificationnumber":"A4","plotno":"A4","industrysector":"SECTOR-29","block":"APPAREL PARK","plotsize":"10000 SQMT","plotsize_at_the_time_of_allotme":"10000 SQMT","plot_size_as_per_lease_plan":10008.9,"landuse_type":"INDUSTRIAL","landuse_subcategory":"INDUSTRIAL","scheme_cod":"IND09","investment":56,"employment":195,"plotstatus":"Allotted","landallotementstatus":"SOLD","landallotementtype":"ALLOTTED","allotmentid":"YIND091012","allotment_date":1633026600000,"rate_of_allotment":6204,"lease_deed":"Y","lease_deed_date":1695753000000,"possession":"N","village_name":"Tirthali","khasra_no":"187,188,169,173,168,189,172,171","longitude":77.57646473000001,"latitude":28.22044929,"authority":"YEIDA","category":"industrial","execution_stage":"lease-recorded"}},{"type":"Feature","geometry":{"type":"Polygon","coordinates":[[[77.578747,28.220939],[77.577326,28.220943],[77.577323,28.220179],[77.578745,28.220176],[77.578747,28.220939]]]},"properties":{"objectid":980,"uniqueplotid":"PLNGINDUSTRIAL980","plotmap_id":"SECTOR-29_A5_APPAREL PARK_IND","plotidentificationnumber":"A5","plotno":"A5","industrysector":"SECTOR-29","block":"APPAREL PARK","plotsize":"10000 SQMT","plotsize_at_the_time_of_allotme":"10000 SQMT","plot_size_as_per_lease_plan":10992.6,"landuse_type":"INDUSTRIAL","landuse_subcategory":"INDUSTRIAL","scheme_cod":"INDOPEN","investment":71,"employment":248,"plotstatus":"Allotted","landallotementstatus":"SOLD","landallotementtype":"ALLOTTED","allotmentid":"AP/INDOPEN00026","allotment_date":1596565800000,"rate_of_allotment":5670,"lease_deed":"Y","lease_deed_date":1727980200000,"possession":"N","village_name":"Tirthali","khasra_no":"166,168,167,146,129,197","longitude":77.57803494000001,"latitude":28.220559180000002,"authority":"YEIDA","category":"industrial","execution_stage":"lease-recorded"}},{"type":"Feature","geometry":{"type":"Polygon","coordinates":[[[77.580562,28.221471],[77.580111,28.221472],[77.580109,28.220454],[77.58056,28.220453],[77.580562,28.221471]]]},"properties":{"objectid":983,"uniqueplotid":"PLNGINDUSTRIAL983","plotmap_id":"SECTOR-29_A20_APPAREL PARK_IND","plotidentificationnumber":"A20","plotno":"A20","industrysector":"SECTOR-29","block":"APPAREL PARK","plotsize":"5000 SQMT","plotsize_at_the_time_of_allotme":"5000 SQMT","landuse_type":"INDUSTRIAL","landuse_subcategory":"INDUSTRIAL","scheme_cod":"IND09","investment":31,"employment":107,"plotstatus":"Allotted","landallotementstatus":"SOLD","landallotementtype":"ALLOTTED","allotmentid":"YIND091004","allotment_date":1633026600000,"rate_of_allotment":6802,"lease_deed":"N","possession":"N","village_name":"Tirthali","khasra_no":"131","longitude":77.58033519,"latitude":28.22096223,"authority":"YEIDA","category":"industrial","execution_stage":"allotted"}},{"type":"Feature","geometry":{"type":"Polygon","coordinates":[[[77.580111,28.221472],[77.579659,28.221473],[77.579657,28.220455],[77.580109,28.220454],[77.580111,28.221472]]]},"properties":{"objectid":984,"uniqueplotid":"PLNGINDUSTRIAL984","plotmap_id":"SECTOR-29_A21_APPAREL PARK_IND","plotidentificationnumber":"A21","plotno":"A21","industrysector":"SECTOR-29","block":"APPAREL PARK","plotsize":"5000 SQMT","plotsize_at_the_time_of_allotme":"5000 SQMT","landuse_type":"INDUSTRIAL","landuse_subcategory":"INDUSTRIAL","scheme_cod":"INDOPEN","investment":39,"employment":136,"plotstatus":"Allotted","landallotementstatus":"SOLD","landallotementtype":"ALLOTTED","allotmentid":"AP/INDOPEN00050","allotment_date":1599157800000,"rate_of_allotment":6216,"lease_deed":"N","possession":"N","village_name":"Tirthali","khasra_no":"131,142","longitude":77.57986282,"latitude":28.22091448,"authority":"YEIDA","category":"industrial","execution_stage":"allotted"}},{"type":"Feature","geometry":{"type":"Polygon","coordinates":[[[77.579659,28.221473],[77.579208,28.221474],[77.579204,28.220456],[77.579657,28.220455],[77.579659,28.221473]]]},"properties":{"objectid":985,"uniqueplotid":"PLNGINDUSTRIAL985","plotmap_id":"SECTOR-29_A22_APPAREL PARK_IND","plotidentificationnumber":"A22","plotno":"A22","industrysector":"SECTOR-29","block":"APPAREL PARK","plotsize":"5000 SQMT","plotsize_at_the_time_of_allotme":"5000 SQMT","landuse_type":"INDUSTRIAL","landuse_subcategory":"INDUSTRIAL","scheme_cod":"INDOPEN","investment":39,"employment":136,"plotstatus":"Allotted","landallotementstatus":"SOLD","landallotementtype":"ALLOTTED","allotmentid":"AP/INDOPEN00019","allotment_date":1596565800000,"rate_of_allotment":6216,"lease_deed":"N","possession":"N","village_name":"Tirthali","khasra_no":"131,130,142,146,129","longitude":77.57947038,"latitude":28.220887140000002,"authority":"YEIDA","category":"industrial","execution_stage":"allotted"}},{"type":"Feature","geometry":{"type":"Polygon","coordinates":[[[77.577329,28.221788],[77.57561,28.221793],[77.575607,28.220719],[77.577325,28.220714],[77.577329,28.221788]]]},"properties":{"objectid":989,"uniqueplotid":"PLNGINDUSTRIAL989","plotmap_id":"SECTOR-29_A3_APPAREL PARK_IND","plotidentificationnumber":"A3","plotno":"A3","industrysector":"SECTOR-29","block":"APPAREL PARK","plotsize":"20000 SQMT","plotsize_at_the_time_of_allotme":"20000 SQMT","plot_size_as_per_lease_plan":20051.5,"landuse_type":"INDUSTRIAL","landuse_subcategory":"INDUSTRIAL","scheme_cod":"IND09","investment":101,"employment":355,"plotstatus":"Allotted","landallotementstatus":"SOLD","landallotementtype":"ALLOTTED","allotmentid":"YIND091013","allotment_date":1633026600000,"rate_of_allotment":5632,"lease_deed":"Y","lease_deed_date":1681756200000,"possession":"Y","possession_date":1693161000000,"village_name":"Tirthali","khasra_no":"118,119,120,122,195,169,170,168,172,197","longitude":77.57646771,"latitude":28.22125377,"authority":"YEIDA","category":"industrial","execution_stage":"possession-recorded"}},{"type":"Feature","geometry":{"type":"Polygon","coordinates":[[[77.57875,28.222032],[77.57733,28.222036],[77.577326,28.220943],[77.578747,28.220939],[77.57875,28.222032]]]},"properties":{"objectid":991,"uniqueplotid":"PLNGINDUSTRIAL991","plotmap_id":"SECTOR-29_A6_APPAREL PARK_IND","plotidentificationnumber":"A6","plotno":"A6","industrysector":"SECTOR-29","block":"APPAREL PARK","plotsize":"16000 SQMT","plotsize_at_the_time_of_allotme":"16000 SQMT","plot_size_as_per_lease_plan":17577,"landuse_type":"INDUSTRIAL","landuse_subcategory":"INDUSTRIAL","scheme_cod":"INDOPEN","investment":106,"employment":369,"plotstatus":"Allotted","landallotementstatus":"SOLD","landallotementtype":"ALLOTTED","allotmentid":"AP/INDOPEN0003","allotment_date":1592850600000,"rate_of_allotment":5276.25,"lease_deed":"Y","lease_deed_date":1684434600000,"possession":"Y","possession_date":1693161000000,"units_under_construction":"Y","village_name":"Tirthali","khasra_no":"122,168,167,129,127,197","longitude":77.57803831,"latitude":28.22148763,"authority":"YEIDA","category":"industrial","execution_stage":"construction-or-map-approval"}},{"type":"Feature","geometry":{"type":"Polygon","coordinates":[[[77.577333,28.222862],[77.575615,28.222867],[77.57561,28.221793],[77.577329,28.221788],[77.577333,28.222862]]]},"properties":{"objectid":994,"uniqueplotid":"PLNGINDUSTRIAL994","plotmap_id":"SECTOR-29_A2_APPAREL PARK_IND","plotidentificationnumber":"A2","plotno":"A2","industrysector":"SECTOR-29","block":"APPAREL PARK","plotsize":"20000 SQMT","landuse_type":"INDUSTRIAL","landuse_subcategory":"INDUSTRIAL","investment":0,"employment":0,"plotstatus":"Reserved","landallotementstatus":"RESERVED","landallotementtype":"RESERVED","village_name":"Tirthali","khasra_no":"121,118,119,120,117,123,124,122,170,197","longitude":77.57647176,"latitude":28.22232749,"authority":"YEIDA","category":"industrial","execution_stage":"reserved"}},{"type":"Feature","geometry":{"type":"Polygon","coordinates":[[[77.578756,28.22334],[77.577335,28.223344],[77.57733,28.222036],[77.57875,28.222032],[77.578756,28.22334]]]},"properties":{"objectid":995,"uniqueplotid":"PLNGINDUSTRIAL995","plotmap_id":"SECTOR-29_A7_APPAREL PARK_IND","plotidentificationnumber":"A7","plotno":"A7","industrysector":"SECTOR-29","block":"APPAREL PARK","plotsize":"20000 SQMT","plotsize_at_the_time_of_allotme":"20000 SQMT","landuse_type":"INDUSTRIAL","landuse_subcategory":"INDUSTRIAL","investment":93,"employment":324,"plotstatus":"Allotted","landallotementstatus":"SOLD","landallotementtype":"ALLOTTED","allotmentid":"AP/INDOPEN000104","allotment_date":1621881000000,"rate_of_allotment":5145,"lease_deed":"N","possession":"N","village_name":"Tirthali","khasra_no":"125,121,126,123,124,122,114,113,129,127","longitude":77.57804262,"latitude":28.22268806,"authority":"YEIDA","category":"industrial","execution_stage":"allotted"}},{"type":"Feature","geometry":{"type":"Polygon","coordinates":[[[77.580253,28.22387],[77.579216,28.223873],[77.579213,28.222809],[77.58025,28.222807],[77.580253,28.22387]]]},"properties":{"objectid":998,"uniqueplotid":"PLNGINDUSTRIAL998","plotmap_id":"SECTOR-29_A10_APPAREL PARK_IND","plotidentificationnumber":"A10","plotno":"A10","industrysector":"SECTOR-29","block":"APPAREL PARK","plotsize":"12000 SQMT","plotsize_at_the_time_of_allotme":"12000 SQMT","landuse_type":"INDUSTRIAL","landuse_subcategory":"INDUSTRIAL","scheme_cod":"INDOPEN","investment":82,"employment":288,"plotstatus":"Allotted","landallotementstatus":"SOLD","landallotementtype":"ALLOTTED","allotmentid":"AP/INDOPEN00029","allotment_date":1596565800000,"rate_of_allotment":5495,"lease_deed":"Y","lease_deed_date":1674757800000,"possession":"Y","possession_date":1677522600000,"village_name":"Tirthali","khasra_no":"100,50,131,55,51,54,128,130,127","longitude":77.579733,"latitude":28.223339579999998,"authority":"YEIDA","category":"industrial","execution_stage":"possession-recorded"}},{"type":"Feature","geometry":{"type":"Polygon","coordinates":[[[77.577335,28.223344],[77.577343,28.224624],[77.576434,28.224587],[77.575631,28.224582],[77.575615,28.222867],[77.577333,28.222862],[77.577335,28.223344]]]},"properties":{"objectid":1000,"uniqueplotid":"PLNGINDUSTRIAL1000","plotmap_id":"SECTOR-29_A1_APPAREL PARK_IND","plotidentificationnumber":"A1","plotno":"A1","industrysector":"SECTOR-29","block":"APPAREL PARK","plotsize":"32000 SQMT","plotsize_at_the_time_of_allotme":"32000 SQMT","landuse_type":"INDUSTRIAL","landuse_subcategory":"INDUSTRIAL","scheme_cod":"INDOPEN","investment":192,"employment":671,"plotstatus":"Allotted","landallotementstatus":"SOLD","landallotementtype":"ALLOTTED","allotmentid":"AP/INDOPEN00054","allotment_date":1599589800000,"rate_of_allotment":4790.63,"lease_deed":"Y","lease_deed_date":1695148200000,"possession":"N","village_name":"Tirthali","khasra_no":"100,118,119,117,124,36,42,41,114,113,35","longitude":77.57633503000001,"latitude":28.2235298,"authority":"YEIDA","category":"industrial","execution_stage":"lease-recorded"}},{"type":"Feature","geometry":{"type":"Polygon","coordinates":[[[77.578756,28.22334],[77.578751,28.224754],[77.577343,28.224624],[77.577335,28.223344],[77.578756,28.22334]]]},"properties":{"objectid":1001,"uniqueplotid":"PLNGINDUSTRIAL1001","plotmap_id":"SECTOR-29_A8_APPAREL PARK_IND","plotidentificationnumber":"A8","plotno":"A8","industrysector":"SECTOR-29","block":"APPAREL PARK","plotsize":"20000 SQMT","plotsize_at_the_time_of_allotme":"20000 SQMT","plot_size_as_per_lease_plan":20849,"landuse_type":"INDUSTRIAL","landuse_subcategory":"INDUSTRIAL","scheme_cod":"INDOPEN","investment":129,"employment":450,"plotstatus":"Allotted","landallotementstatus":"SOLD","landallotementtype":"ALLOTTED","allotmentid":"AP/INDOPEN00052","allotment_date":1586370600000,"rate_of_allotment":5145,"lease_deed":"Y","lease_deed_date":1681929000000,"possession":"Y","possession_date":1693161000000,"village_name":"Tirthali","khasra_no":"100,126,43,50,42,113,127","longitude":77.5780464,"latitude":28.22409322,"authority":"YEIDA","category":"industrial","execution_stage":"possession-recorded"}},{"type":"Feature","geometry":{"type":"Polygon","coordinates":[[[77.579862,28.220454],[77.579697,28.220455],[77.579696,28.220173],[77.579861,28.220173],[77.579862,28.220454]]]},"properties":{"objectid":1004,"uniqueplotid":"PLNGINDUSTRIAL1004","plotmap_id":"SECTOR-29_A26_APPAREL PARK_IND","plotidentificationnumber":"A26","plotno":"A26","industrysector":"SECTOR-29","block":"APPAREL PARK","plotsize":"500 SQMT","plotsize_at_the_time_of_allotme":"500 SQMT","plot_size_as_per_lease_plan":500.6,"landuse_type":"INDUSTRIAL","landuse_subcategory":"INDUSTRIAL","scheme_cod":"INDOPEN","investment":4,"employment":14,"plotstatus":"Allotted","landallotementstatus":"SOLD","landallotementtype":"ALLOTTED","allotmentid":"AP/INDOPEN00024","allotment_date":1596565800000,"rate_of_allotment":6405,"lease_deed":"Y","lease_deed_date":1683052200000,"possession":"Y","possession_date":1710354600000,"village_name":"Tirthali","khasra_no":"131,142,145","longitude":77.57978089000001,"latitude":28.220317190000003,"authority":"YEIDA","category":"industrial","execution_stage":"possession-recorded"}},{"type":"Feature","geometry":{"type":"Polygon","coordinates":[[[77.580026,28.220454],[77.579862,28.220454],[77.579861,28.220173],[77.580025,28.220173],[77.580026,28.220454]]]},"properties":{"objectid":1005,"uniqueplotid":"PLNGINDUSTRIAL1005","plotmap_id":"SECTOR-29_A27_APPAREL PARK_IND","plotidentificationnumber":"A27","plotno":"A27","industrysector":"SECTOR-29","block":"APPAREL PARK","plotsize":"500 SQMT","plotsize_at_the_time_of_allotme":"500 SQMT","plot_size_as_per_lease_plan":500.6,"landuse_type":"INDUSTRIAL","landuse_subcategory":"INDUSTRIAL","scheme_cod":"INDOPEN","investment":4,"employment":14,"plotstatus":"Allotted","landallotementstatus":"SOLD","landallotementtype":"ALLOTTED","allotmentid":"AP/INDOPEN00015","allotment_date":1594319400000,"rate_of_allotment":6405,"lease_deed":"Y","lease_deed_date":1682015400000,"possession":"Y","possession_date":1691087400000,"village_name":"Tirthali","khasra_no":"131,142,144,145","longitude":77.57994321999999,"latitude":28.220313460000003,"authority":"YEIDA","category":"industrial","execution_stage":"possession-recorded"}},{"type":"Feature","geometry":{"type":"Polygon","coordinates":[[[77.580109,28.220454],[77.580026,28.220454],[77.580025,28.220173],[77.580189,28.220172],[77.58019,28.220454],[77.580109,28.220454]]]},"properties":{"objectid":1006,"uniqueplotid":"PLNGINDUSTRIAL1006","plotmap_id":"SECTOR-29_A28_APPAREL PARK_IND","plotidentificationnumber":"A28","plotno":"A28","industrysector":"SECTOR-29","block":"APPAREL PARK","plotsize":"500 SQMT","plotsize_at_the_time_of_allotme":"500 SQMT","landuse_type":"INDUSTRIAL","landuse_subcategory":"INDUSTRIAL","scheme_cod":"INDOPEN","investment":4,"employment":14,"plotstatus":"Allotted","landallotementstatus":"SOLD","landallotementtype":"ALLOTTED","allotmentid":"AP/INDOPEN00043","allotment_date":1599157800000,"rate_of_allotment":6405,"lease_deed":"Y","lease_deed_date":1677177000000,"possession":"Y","possession_date":1684089000000,"map_sanctioned_from_planning":"Y","units_under_construction":"Y","village_name":"Tirthali","khasra_no":"131,142,144","longitude":77.58012037,"latitude":28.220336470000003,"authority":"YEIDA","category":"industrial","execution_stage":"construction-or-map-approval"}},{"type":"Feature","geometry":{"type":"Polygon","coordinates":[[[77.580354,28.220453],[77.58019,28.220454],[77.580189,28.220172],[77.580353,28.220172],[77.580354,28.220453]]]},"properties":{"objectid":1007,"uniqueplotid":"PLNGINDUSTRIAL1007","plotmap_id":"SECTOR-29_A29_APPAREL PARK_IND","plotidentificationnumber":"A29","plotno":"A29","industrysector":"SECTOR-29","block":"APPAREL PARK","plotsize":"500 SQMT","plotsize_at_the_time_of_allotme":"500 SQMT","plot_size_as_per_lease_plan":500.6,"landuse_type":"INDUSTRIAL","landuse_subcategory":"INDUSTRIAL","scheme_cod":"IND08","investment":3,"employment":11,"plotstatus":"Allotted","landallotementstatus":"SOLD","landallotementtype":"ALLOTTED","allotmentid":"YIND081001","allotment_date":1625509800000,"rate_of_allotment":7010,"lease_deed":"Y","lease_deed_date":1682620200000,"possession":"Y","possession_date":1716316200000,"village_name":"Tirthali","khasra_no":"131,142,144","longitude":77.5802718,"latitude":28.22031265,"authority":"YEIDA","category":"industrial","execution_stage":"possession-recorded"}},{"type":"Feature","geometry":{"type":"Polygon","coordinates":[[[77.578736,28.21771],[77.577166,28.217714],[77.577164,28.217187],[77.578735,28.217184],[77.578736,28.21771]]]},"properties":{"objectid":1012,"uniqueplotid":"PLNGINDUSTRIAL1012","plotmap_id":"SECTOR-29_A71_APPAREL PARK_IND","plotidentificationnumber":"A71","plotno":"A71","industrysector":"SECTOR-29","block":"APPAREL PARK","plotsize":"9000 SQMT","plotsize_at_the_time_of_allotme":"9000 SQMT","plot_size_as_per_lease_plan":8999.44,"landuse_type":"INDUSTRIAL","landuse_subcategory":"INDUSTRIAL","scheme_cod":"IND09","investment":51,"employment":180,"plotstatus":"Allotted","landallotementstatus":"SOLD","landallotementtype":"ALLOTTED","allotmentid":"YIND091010","allotment_date":1633026600000,"rate_of_allotment":6332,"lease_deed":"Y","lease_deed_date":1715020200000,"possession":"N","village_name":"Tirthali","khasra_no":"178,179,176,166,153,165,175,177,154,164,162","longitude":77.57788516,"latitude":28.21742727,"authority":"YEIDA","category":"industrial","execution_stage":"lease-recorded"}}]}
