{"type":"FeatureCollection","features":[{"type":"Feature","geometry":{"type":"Polygon","coordinates":[[[77.579373,28.205531],[77.57809,28.205536],[77.578086,28.204814],[77.579369,28.204809],[77.579373,28.205531]]]},"properties":{"objectid":298,"uniqueplotid":"PLNGINDUSTRIAL298","plotmap_id":"SECTOR-29_H6_HANDICRAFT PARK_IND","plotidentificationnumber":"H6","plotno":"H6","industrysector":"SECTOR-29","block":"HANDICRAFT PARK","plotsize":"10000 SQMT","plotsize_at_the_time_of_allotme":"10000 SQMT","landuse_type":"INDUSTRIAL","landuse_subcategory":"INDUSTRIAL","scheme_cod":"INDPARK","investment":5,"employment":18,"plotstatus":"Allotted","landallotementstatus":"SOLD","landallotementtype":"ALLOTTED","allotmentid":"YINDNH0004","allotment_date":1601231400000,"rate_of_allotment":0,"lease_deed":"N","possession":"N","village_name":"Karoli Bangar","khasra_no":"349,351,429,427,428,425,350,423,422,352,416","longitude":77.57874561999999,"latitude":28.20518141,"authority":"YEIDA","category":"industrial","execution_stage":"allotted"}},{"type":"Feature","geometry":{"type":"Polygon","coordinates":[[[77.579804,28.206251],[77.579376,28.206252],[77.579373,28.205531],[77.580656,28.205526],[77.580659,28.206247],[77.579804,28.206251]]]},"properties":{"objectid":358,"uniqueplotid":"PLNGINDUSTRIAL358","plotmap_id":"SECTOR-29_H14_HANDICRAFT PARK_IND","plotidentificationnumber":"H14","plotno":"H14","industrysector":"SECTOR-29","block":"HANDICRAFT PARK","plotsize":"10000 SQMT","plotsize_at_the_time_of_allotme":"10000 SQMT","landuse_type":"INDUSTRIAL","landuse_subcategory":"INDUSTRIAL","scheme_cod":"INDPARK","investment":74,"employment":258,"plotstatus":"Allotted","landallotementstatus":"SOLD","landallotementtype":"ALLOTTED","allotmentid":"YINDNM0058","allotment_date":1602873000000,"rate_of_allotment":5902,"lease_deed":"N","possession":"N","village_name":"Karoli Bangar","khasra_no":"351,350,353,352,415","longitude":77.57996861999999,"latitude":28.20589856,"authority":"YEIDA","category":"industrial","execution_stage":"allotted"}},{"type":"Feature","geometry":{"type":"Polygon","coordinates":[[[77.578521,28.206256],[77.578094,28.206257],[77.57809,28.205536],[77.579373,28.205531],[77.579376,28.206252],[77.578521,28.206256]]]},"properties":{"objectid":359,"uniqueplotid":"PLNGINDUSTRIAL359","plotmap_id":"SECTOR-29_H7_HANDICRAFT PARK_IND","plotidentificationnumber":"H7","plotno":"H7","industrysector":"SECTOR-29","block":"HANDICRAFT PARK","plotsize":"10000 SQMT","landuse_type":"INDUSTRIAL","landuse_subcategory":"INDUSTRIAL","investment":0,"employment":0,"landallotementstatus":"VACANT","landallotementtype":"VACANT","village_name":"Karoli Bangar","khasra_no":"349,429,428,350,353","longitude":77.57879386,"latitude":28.20593384,"authority":"YEIDA","category":"industrial","execution_stage":"vacant"}},{"type":"Feature","geometry":{"type":"Polygon","coordinates":[[[77.577803,28.205723],[77.57612,28.205725],[77.576119,28.205167],[77.577801,28.205165],[77.577803,28.205723]]]},"properties":{"objectid":361,"uniqueplotid":"PLNGINDUSTRIAL361","plotmap_id":"SECTOR-29_H4_HANDICRAFT PARK_IND","plotidentificationnumber":"H4","plotno":"H4","industrysector":"SECTOR-29","block":"HANDICRAFT PARK","plotsize":"10000 SQMT","landuse_type":"INDUSTRIAL","landuse_subcategory":"INDUSTRIAL","investment":0,"employment":0,"landallotementstatus":"VACANT","landallotementtype":"VACANT","village_name":"Karoli Bangar","khasra_no":"348,430,429,427,341,432,437,431,433,347,338,339","longitude":77.57696098,"latitude":28.20544513,"authority":"YEIDA","category":"industrial","execution_stage":"vacant"}},{"type":"Feature","geometry":{"type":"Polygon","coordinates":[[[77.57612,28.206289],[77.575323,28.206294],[77.57491,28.20521],[77.574718,28.204619],[77.576118,28.204614],[77.57612,28.206289]]]},"properties":{"objectid":364,"uniqueplotid":"PLNGINDUSTRIAL364","plotmap_id":"SECTOR-29_H1_HANDICRAFT PARK_IND","plotidentificationnumber":"H1","plotno":"H1","industrysector":"SECTOR-29","block":"HANDICRAFT PARK","plotsize":"20000 SQMT","landuse_type":"INDUSTRIAL","landuse_subcategory":"INDUSTRIAL","investment":0,"employment":0,"landallotementstatus":"VACANT","landallotementtype":"VACANT","village_name":"Karoli Bangar","khasra_no":"342,340,335,337,341,432,437,338,339","longitude":77.57548776,"latitude":28.205394950000002,"authority":"YEIDA","category":"industrial","execution_stage":"vacant"}},{"type":"Feature","geometry":{"type":"Polygon","coordinates":[[[77.577691,28.207088],[77.575698,28.207091],[77.575323,28.206294],[77.577804,28.206291],[77.577807,28.207087],[77.577691,28.207088]]]},"properties":{"objectid":422,"uniqueplotid":"PLNGINDUSTRIAL422","plotmap_id":"SECTOR-29_H2_HANDICRAFT PARK_IND","plotidentificationnumber":"H2","plotno":"H2","industrysector":"SECTOR-29","block":"HANDICRAFT PARK","plotsize":"20000 SQMT","landuse_type":"INDUSTRIAL","landuse_subcategory":"INDUSTRIAL","investment":0,"employment":0,"landallotementstatus":"VACANT","landallotementtype":"VACANT","village_name":"Karoli Bangar","khasra_no":"342,349,345,350,340,341,347,343","longitude":77.57669027,"latitude":28.206684210000002,"authority":"YEIDA","category":"industrial","execution_stage":"vacant"}},{"type":"Feature","geometry":{"type":"Polygon","coordinates":[[[77.580237,28.207341],[77.579809,28.207342],[77.579804,28.206251],[77.580232,28.206249],[77.580237,28.207341]]]},"properties":{"objectid":445,"uniqueplotid":"PLNGINDUSTRIAL445","plotmap_id":"SECTOR-29_H12_HANDICRAFT PARK_IND","plotidentificationnumber":"H12","plotno":"H12","industrysector":"SECTOR-29","block":"HANDICRAFT PARK","plotsize":"5000 SQMT","plotsize_at_the_time_of_allotme":"5000 SQMT","landuse_type":"INDUSTRIAL","landuse_subcategory":"INDUSTRIAL","scheme_cod":"INDPARK","investment":40,"employment":142,"plotstatus":"Allotted","landallotementstatus":"SOLD","landallotementtype":"ALLOTTED","allotmentid":"YINDNM0055","allotment_date":1602873000000,"rate_of_allotment":6472,"lease_deed":"N","possession":"N","village_name":"Karoli Bangar","khasra_no":"353","longitude":77.58002057,"latitude":28.20679565,"authority":"YEIDA","category":"industrial","execution_stage":"allotted"}},{"type":"Feature","geometry":{"type":"Polygon","coordinates":[[[77.579809,28.207342],[77.579382,28.207344],[77.579376,28.206252],[77.579804,28.206251],[77.579809,28.207342]]]},"properties":{"objectid":446,"uniqueplotid":"PLNGINDUSTRIAL446","plotmap_id":"SECTOR-29_H11_HANDICRAFT PARK_IND","plotidentificationnumber":"H11","plotno":"H11","industrysector":"SECTOR-29","block":"HANDICRAFT PARK","plotsize":"5000 SQMT","plotsize_at_the_time_of_allotme":"5000 SQMT","landuse_type":"INDUSTRIAL","landuse_subcategory":"INDUSTRIAL","scheme_cod":"INDPARK","investment":40,"employment":142,"plotstatus":"Allotted","landallotementstatus":"SOLD","landallotementtype":"ALLOTTED","allotmentid":"YINDNM0054","allotment_date":1602873000000,"rate_of_allotment":6472,"lease_deed":"N","possession":"N","village_name":"Karoli Bangar","khasra_no":"354,353","longitude":77.57959033,"latitude":28.20679077,"authority":"YEIDA","category":"industrial","execution_stage":"allotted"}},{"type":"Feature","geometry":{"type":"Polygon","coordinates":[[[77.579382,28.207344],[77.578954,28.207345],[77.578949,28.206254],[77.579376,28.206252],[77.579382,28.207344]]]},"properties":{"objectid":447,"uniqueplotid":"PLNGINDUSTRIAL447","plotmap_id":"SECTOR-29_H10_HANDICRAFT PARK_IND","plotidentificationnumber":"H10","plotno":"H10","industrysector":"SECTOR-29","block":"HANDICRAFT PARK","plotsize":"5000 SQMT","plotsize_at_the_time_of_allotme":"5000 SQMT","landuse_type":"INDUSTRIAL","landuse_subcategory":"INDUSTRIAL","scheme_cod":"INDPARK","investment":5,"employment":18,"plotstatus":"Allotted","landallotementstatus":"SOLD","landallotementtype":"ALLOTTED","allotmentid":"YINDNH0002","allotment_date":1601231400000,"rate_of_allotment":0,"lease_deed":"N","possession":"N","village_name":"Karoli Bangar","khasra_no":"360,350,354,353,355","longitude":77.57916272,"latitude":28.20679247,"authority":"YEIDA","category":"industrial","execution_stage":"allotted"}},{"type":"Feature","geometry":{"type":"Polygon","coordinates":[[[77.578954,28.207345],[77.578527,28.207347],[77.578521,28.206256],[77.578949,28.206254],[77.578954,28.207345]]]},"properties":{"objectid":448,"uniqueplotid":"PLNGINDUSTRIAL448","plotmap_id":"SECTOR-29_H9_HANDICRAFT PARK_IND","plotidentificationnumber":"H9","plotno":"H9","industrysector":"SECTOR-29","block":"HANDICRAFT PARK","plotsize":"5000 SQMT","plotsize_at_the_time_of_allotme":"5000 SQMT","landuse_type":"INDUSTRIAL","landuse_subcategory":"INDUSTRIAL","scheme_cod":"INDPARK","investment":5,"employment":18,"plotstatus":"Allotted","landallotementstatus":"SOLD","landallotementtype":"ALLOTTED","allotmentid":"YINDNH0003","allotment_date":1601231400000,"rate_of_allotment":0,"lease_deed":"N","possession":"N","village_name":"Karoli Bangar","khasra_no":"350,354,353,344,355","longitude":77.57873767,"latitude":28.2068006,"authority":"YEIDA","category":"industrial","execution_stage":"allotted"}},{"type":"Feature","geometry":{"type":"Polygon","coordinates":[[[77.578527,28.207347],[77.578099,28.207349],[77.578094,28.206257],[77.578521,28.206256],[77.578527,28.207347]]]},"properties":{"objectid":449,"uniqueplotid":"PLNGINDUSTRIAL449","plotmap_id":"SECTOR-29_H8_HANDICRAFT PARK_IND","plotidentificationnumber":"H8","plotno":"H8","industrysector":"SECTOR-29","block":"HANDICRAFT PARK","plotsize":"5000 SQMT","plotsize_at_the_time_of_allotme":"5000 SQMT","landuse_type":"INDUSTRIAL","landuse_subcategory":"INDUSTRIAL","scheme_cod":"INDPARK","investment":40,"employment":142,"plotstatus":"Allotted","landallotementstatus":"SOLD","landallotementtype":"ALLOTTED","allotmentid":"YINDNH0001","allotment_date":1601231400000,"rate_of_allotment":6472,"lease_deed":"N","possession":"N","village_name":"Karoli Bangar","khasra_no":"350,354,344,355","longitude":77.578277,"latitude":28.206719160000002,"authority":"YEIDA","category":"industrial","execution_stage":"allotted"}},{"type":"Feature","geometry":{"type":"Polygon","coordinates":[[[77.579908,28.208651],[77.579816,28.208652],[77.57981,28.207559],[77.580238,28.207557],[77.580244,28.20865],[77.579908,28.208651]]]},"properties":{"objectid":562,"uniqueplotid":"PLNGINDUSTRIAL562","plotmap_id":"SECTOR-29_H20_HANDICRAFT PARK_IND","plotidentificationnumber":"H20","plotno":"H20","industrysector":"SECTOR-29","block":"HANDICRAFT PARK","plotsize":"5000 SQMT","landuse_type":"INDUSTRIAL","landuse_subcategory":"INDUSTRIAL","investment":0,"employment":0,"landallotementstatus":"VACANT","landallotementtype":"VACANT","village_name":"Karoli Bangar","khasra_no":"360,373,361,362,366,354,353,372","longitude":77.58005892,"latitude":28.208186650000002,"authority":"YEIDA","category":"industrial","execution_stage":"vacant"}},{"type":"Feature","geometry":{"type":"Polygon","coordinates":[[[77.579398,28.208653],[77.579388,28.208653],[77.579383,28.20756],[77.57981,28.207559],[77.579816,28.208652],[77.579398,28.208653]]]},"properties":{"objectid":563,"uniqueplotid":"PLNGINDUSTRIAL563","plotmap_id":"SECTOR-29_H19_HANDICRAFT PARK_IND","plotidentificationnumber":"H19","plotno":"H19","industrysector":"SECTOR-29","block":"HANDICRAFT PARK","plotsize":"5000 SQMT","landuse_type":"INDUSTRIAL","landuse_subcategory":"INDUSTRIAL","investment":0,"employment":0,"landallotementstatus":"VACANT","landallotementtype":"VACANT","village_name":"Karoli Bangar","khasra_no":"360,361,362,366,354,353,363,364,365","longitude":77.57962182,"latitude":28.20816857,"authority":"YEIDA","category":"industrial","execution_stage":"vacant"}},{"type":"Feature","geometry":{"type":"Polygon","coordinates":[[[77.579144,28.208654],[77.578961,28.208655],[77.578955,28.207562],[77.579383,28.20756],[77.579388,28.208653],[77.579144,28.208654]]]},"properties":{"objectid":564,"uniqueplotid":"PLNGINDUSTRIAL564","plotmap_id":"SECTOR-29_H18_HANDICRAFT PARK_IND","plotidentificationnumber":"H18","plotno":"H18","industrysector":"SECTOR-29","block":"HANDICRAFT PARK","plotsize":"5000 SQMT","landuse_type":"INDUSTRIAL","landuse_subcategory":"INDUSTRIAL","investment":0,"employment":0,"landallotementstatus":"VACANT","landallotementtype":"VACANT","village_name":"Karoli Bangar","khasra_no":"360,361,355","longitude":77.57916806,"latitude":28.20815529,"authority":"YEIDA","category":"industrial","execution_stage":"vacant"}},{"type":"Feature","geometry":{"type":"Polygon","coordinates":[[[77.578635,28.208656],[77.578533,28.208657],[77.578528,28.207564],[77.578955,28.207562],[77.578961,28.208655],[77.578635,28.208656]]]},"properties":{"objectid":565,"uniqueplotid":"PLNGINDUSTRIAL565","plotmap_id":"SECTOR-29_H17_HANDICRAFT PARK_IND","plotidentificationnumber":"H17","plotno":"H17","industrysector":"SECTOR-29","block":"HANDICRAFT PARK","plotsize":"5000 SQMT","landuse_type":"INDUSTRIAL","landuse_subcategory":"INDUSTRIAL","investment":0,"employment":0,"landallotementstatus":"VACANT","landallotementtype":"VACANT","village_name":"Karoli Bangar","khasra_no":"360,355","longitude":77.57878544,"latitude":28.20819264,"authority":"YEIDA","category":"industrial","execution_stage":"vacant"}},{"type":"Feature","geometry":{"type":"Polygon","coordinates":[[[77.57838,28.208657],[77.578105,28.208658],[77.5781,28.207565],[77.578528,28.207564],[77.578533,28.208657],[77.57838,28.208657]]]},"properties":{"objectid":567,"uniqueplotid":"PLNGINDUSTRIAL567","plotmap_id":"SECTOR-29_H16_HANDICRAFT PARK_IND","plotidentificationnumber":"H16","plotno":"H16","industrysector":"SECTOR-29","block":"HANDICRAFT PARK","plotsize":"5000 SQMT","landuse_type":"INDUSTRIAL","landuse_subcategory":"INDUSTRIAL","investment":0,"employment":0,"landallotementstatus":"VACANT","landallotementtype":"VACANT","village_name":"Karoli Bangar","khasra_no":"360,355","longitude":77.57836171,"latitude":28.208158870000002,"authority":"YEIDA","category":"industrial","execution_stage":"vacant"}},{"type":"Feature","geometry":{"type":"Polygon","coordinates":[[[77.580418,28.20901],[77.580164,28.209011],[77.580162,28.208651],[77.580417,28.20865],[77.580418,28.20901]]]},"properties":{"objectid":594,"uniqueplotid":"PLNGINDUSTRIAL594","plotmap_id":"SECTOR-29_H23_HANDICRAFT PARK_IND","plotidentificationnumber":"H23","plotno":"H23","industrysector":"SECTOR-29","block":"HANDICRAFT PARK","plotsize":"1000 SQMT","plotsize_at_the_time_of_allotme":"1000 SQMT","plot_size_as_per_lease_plan":1000,"landuse_type":"INDUSTRIAL","landuse_subcategory":"INDUSTRIAL","scheme_cod":"IND10","investment":6,"employment":22,"plotstatus":"Allotted","landallotementstatus":"SOLD","landallotementtype":"ALLOTTED","allotmentid":"YIND100005","allotment_date":1650565800000,"rate_of_allotment":7010,"lease_deed":"Y","lease_deed_date":1719513000000,"possession":"Y","possession_date":1727893800000,"village_name":"Karoli Bangar","khasra_no":"366","longitude":77.58028252000001,"latitude":28.20881606,"authority":"YEIDA","category":"industrial","execution_stage":"possession-recorded"}},{"type":"Feature","geometry":{"type":"Polygon","coordinates":[[[77.580164,28.209011],[77.579909,28.209012],[77.579908,28.208651],[77.580162,28.208651],[77.580164,28.209011]]]},"properties":{"objectid":595,"uniqueplotid":"PLNGINDUSTRIAL595","plotmap_id":"SECTOR-29_H24_HANDICRAFT PARK_IND","plotidentificationnumber":"H24","plotno":"H24","industrysector":"SECTOR-29","block":"HANDICRAFT PARK","plotsize":"1000 SQMT","plotsize_at_the_time_of_allotme":"1000 SQMT","landuse_type":"INDUSTRIAL","landuse_subcategory":"INDUSTRIAL","scheme_cod":"IND12","investment":105,"employment":45,"plot_total_employment":"40","plotstatus":"Allotted","landallotementstatus":"SOLD","landallotementtype":"ALLOTTED","allotmentid":"YIND120077","allotment_date":1701109800000,"rate_of_allotment":13542,"lease_deed":"N","village_name":"Karoli Bangar","khasra_no":"366,363,364,365","longitude":77.58003567,"latitude":28.2088314,"authority":"YEIDA","category":"industrial","execution_stage":"allotted"}},{"type":"Feature","geometry":{"type":"Polygon","coordinates":[[[77.579909,28.209012],[77.579655,28.209013],[77.579653,28.208652],[77.579908,28.208651],[77.579909,28.209012]]]},"properties":{"objectid":596,"uniqueplotid":"PLNGINDUSTRIAL596","plotmap_id":"SECTOR-29_H25_HANDICRAFT PARK_IND","plotidentificationnumber":"H25","plotno":"H25","industrysector":"SECTOR-29","block":"HANDICRAFT PARK","plotsize":"1000 SQMT","plotsize_at_the_time_of_allotme":"1000 SQMT","landuse_type":"INDUSTRIAL","landuse_subcategory":"INDUSTRIAL","scheme_cod":"IND12","investment":170,"employment":95,"plot_total_employment":"40","plotstatus":"Allotted","landallotementstatus":"SOLD","landallotementtype":"ALLOTTED","allotmentid":"YIND120076","allotment_date":1701109800000,"rate_of_allotment":13542,"lease_deed":"N","village_name":"Karoli Bangar","khasra_no":"366,363,364,365","longitude":77.57978699,"latitude":28.20881798,"authority":"YEIDA","category":"industrial","execution_stage":"allotted"}},{"type":"Feature","geometry":{"type":"Polygon","coordinates":[[[77.579655,28.209013],[77.5794,28.209014],[77.579398,28.208653],[77.579653,28.208652],[77.579655,28.209013]]]},"properties":{"objectid":597,"uniqueplotid":"PLNGINDUSTRIAL597","plotmap_id":"SECTOR-29_H26_HANDICRAFT PARK_IND","plotidentificationnumber":"H26","plotno":"H26","industrysector":"SECTOR-29","block":"HANDICRAFT PARK","plotsize":"1000 SQMT","plotsize_at_the_time_of_allotme":"1000 SQMT","plot_size_as_per_lease_plan":1000,"landuse_type":"INDUSTRIAL","landuse_subcategory":"INDUSTRIAL","scheme_cod":"IND12","investment":117,"employment":75,"plot_total_employment":"27","plotstatus":"Allotted","landallotementstatus":"SOLD","landallotementtype":"ALLOTTED","allotmentid":"YIND120069","allotment_date":1701109800000,"rate_of_allotment":13542,"lease_deed":"Y","lease_deed_date":1708972200000,"possession":"Y","possession_date":1713724200000,"village_name":"Karoli Bangar","khasra_no":"361,362,366,363,364,365","longitude":77.57950521,"latitude":28.20880338,"authority":"YEIDA","category":"industrial","execution_stage":"possession-recorded"}},{"type":"Feature","geometry":{"type":"Polygon","coordinates":[[[77.5794,28.209014],[77.579146,28.209015],[77.579144,28.208654],[77.579398,28.208653],[77.5794,28.209014]]]},"properties":{"objectid":599,"uniqueplotid":"PLNGINDUSTRIAL599","plotmap_id":"SECTOR-29_H27_HANDICRAFT PARK_IND","plotidentificationnumber":"H27","plotno":"H27","industrysector":"SECTOR-29","block":"HANDICRAFT PARK","plotsize":"1000 SQMT","plotsize_at_the_time_of_allotme":"1000 SQMT","plot_size_as_per_lease_plan":1000,"landuse_type":"INDUSTRIAL","landuse_subcategory":"INDUSTRIAL","scheme_cod":"IND12","investment":117,"employment":85,"plot_total_employment":"27","plotstatus":"Allotted","landallotementstatus":"SOLD","landallotementtype":"ALLOTTED","allotmentid":"YIND120071","allotment_date":1701109800000,"rate_of_allotment":13542,"lease_deed":"Y","lease_deed_date":1711477800000,"possession":"Y","possession_date":1713724200000,"village_name":"Karoli Bangar","khasra_no":"360,361,362,363","longitude":77.57927201,"latitude":28.20883435,"authority":"YEIDA","category":"industrial","execution_stage":"possession-recorded"}},{"type":"Feature","geometry":{"type":"Polygon","coordinates":[[[77.579146,28.209015],[77.578891,28.209016],[77.578889,28.208655],[77.579144,28.208654],[77.579146,28.209015]]]},"properties":{"objectid":600,"uniqueplotid":"PLNGINDUSTRIAL600","plotmap_id":"SECTOR-29_H28_HANDICRAFT PARK_IND","plotidentificationnumber":"H28","plotno":"H28","industrysector":"SECTOR-29","block":"HANDICRAFT PARK","plotsize":"1000 SQMT","plotsize_at_the_time_of_allotme":"1000 SQMT","landuse_type":"INDUSTRIAL","landuse_subcategory":"INDUSTRIAL","scheme_cod":"INDPARK","investment":8,"employment":29,"plotstatus":"Allotted","landallotementstatus":"SOLD","landallotementtype":"ALLOTTED","allotmentid":"YINDNH1050","allotment_date":1602786600000,"rate_of_allotment":6670,"lease_deed":"N","possession":"N","village_name":"Karoli Bangar","khasra_no":"360,361,362,363","longitude":77.57900805,"latitude":28.20882098,"authority":"YEIDA","category":"industrial","execution_stage":"allotted"}},{"type":"Feature","geometry":{"type":"Polygon","coordinates":[[[77.578891,28.209016],[77.578637,28.209017],[77.578635,28.208656],[77.578889,28.208655],[77.578891,28.209016]]]},"properties":{"objectid":601,"uniqueplotid":"PLNGINDUSTRIAL601","plotmap_id":"SECTOR-29_H29_HANDICRAFT PARK_IND","plotidentificationnumber":"H29","plotno":"H29","industrysector":"SECTOR-29","block":"HANDICRAFT PARK","plotsize":"1000 SQMT","plotsize_at_the_time_of_allotme":"1000 SQMT","landuse_type":"INDUSTRIAL","landuse_subcategory":"INDUSTRIAL","scheme_cod":"IND07","investment":6,"employment":22,"plotstatus":"Allotted","landallotementstatus":"SOLD","landallotementtype":"ALLOTTED","allotmentid":"YIND071030","allotment_date":1625164200000,"rate_of_allotment":7010,"lease_deed":"N","possession":"N","village_name":"Karoli Bangar","khasra_no":"360","longitude":77.5787629,"latitude":28.20883631,"authority":"YEIDA","category":"industrial","execution_stage":"allotted"}},{"type":"Feature","geometry":{"type":"Polygon","coordinates":[[[77.578637,28.209017],[77.578382,28.209018],[77.57838,28.208657],[77.578635,28.208656],[77.578637,28.209017]]]},"properties":{"objectid":602,"uniqueplotid":"PLNGINDUSTRIAL602","plotmap_id":"SECTOR-29_H30_HANDICRAFT PARK_IND","plotidentificationnumber":"H30","plotno":"H30","industrysector":"SECTOR-29","block":"HANDICRAFT PARK","plotsize":"1000 SQMT","plotsize_at_the_time_of_allotme":"1000 SQMT","landuse_type":"INDUSTRIAL","landuse_subcategory":"INDUSTRIAL","scheme_cod":"IND07","investment":6,"employment":22,"plotstatus":"Allotted","landallotementstatus":"SOLD","landallotementtype":"ALLOTTED","allotmentid":"YIND071023","allotment_date":1625077800000,"rate_of_allotment":7010,"lease_deed":"N","possession":"N","village_name":"Karoli Bangar","khasra_no":"360","longitude":77.57851252,"latitude":28.20882289,"authority":"YEIDA","category":"industrial","execution_stage":"allotted"}},{"type":"Feature","geometry":{"type":"Polygon","coordinates":[[[77.578382,28.209018],[77.578107,28.209019],[77.578105,28.208658],[77.57838,28.208657],[77.578382,28.209018]]]},"properties":{"objectid":604,"uniqueplotid":"PLNGINDUSTRIAL604","plotmap_id":"SECTOR-29_H31_HANDICRAFT PARK_IND","plotidentificationnumber":"H31","plotno":"H31","industrysector":"SECTOR-29","block":"HANDICRAFT PARK","plotsize":"1000 SQMT","plotsize_at_the_time_of_allotme":"1000 SQMT","landuse_type":"INDUSTRIAL","landuse_subcategory":"INDUSTRIAL","scheme_cod":"IND07","investment":6,"employment":22,"plotstatus":"Allotted","landallotementstatus":"SOLD","landallotementtype":"ALLOTTED","allotmentid":"YIND071022","allotment_date":1625164200000,"rate_of_allotment":7010,"lease_deed":"N","possession":"N","village_name":"Karoli Bangar","khasra_no":"360","longitude":77.57822055999999,"latitude":28.20880833,"authority":"YEIDA","category":"industrial","execution_stage":"allotted"}},{"type":"Feature","geometry":{"type":"Polygon","coordinates":[[[77.580421,28.209588],[77.580167,28.209589],[77.580165,28.209228],[77.580419,28.209227],[77.580421,28.209588]]]},"properties":{"objectid":641,"uniqueplotid":"PLNGINDUSTRIAL641","plotmap_id":"SECTOR-29_H40_HANDICRAFT PARK_IND","plotidentificationnumber":"H40","plotno":"H40","industrysector":"SECTOR-29","block":"HANDICRAFT PARK","plotsize":"1000 SQMT","plotsize_at_the_time_of_allotme":"1000 SQMT","landuse_type":"INDUSTRIAL","landuse_subcategory":"INDUSTRIAL","scheme_cod":"INDPARK","investment":8,"employment":29,"plotstatus":"Allotted","landallotementstatus":"SOLD","landallotementtype":"ALLOTTED","allotmentid":"YINDNH1052","allotment_date":1602786600000,"rate_of_allotment":6670,"lease_deed":"N","possession":"N","village_name":"Karoli Bangar","khasra_no":"367,368,363,364,365","longitude":77.58029307000001,"latitude":28.20940769,"authority":"YEIDA","category":"industrial","execution_stage":"allotted"}},{"type":"Feature","geometry":{"type":"Polygon","coordinates":[[[77.580167,28.209589],[77.579912,28.20959],[77.57991,28.209229],[77.580165,28.209228],[77.580167,28.209589]]]},"properties":{"objectid":643,"uniqueplotid":"PLNGINDUSTRIAL643","plotmap_id":"SECTOR-29_H39_HANDICRAFT PARK_IND","plotidentificationnumber":"H39","plotno":"H39","industrysector":"SECTOR-29","block":"HANDICRAFT PARK","plotsize":"1000 SQMT","plotsize_at_the_time_of_allotme":"1000 SQMT","landuse_type":"INDUSTRIAL","landuse_subcategory":"INDUSTRIAL","scheme_cod":"IND12","investment":199,"employment":90,"plot_total_employment":"40","plotstatus":"Allotted","landallotementstatus":"SOLD","landallotementtype":"ALLOTTED","allotmentid":"YIND120067","allotment_date":1701109800000,"rate_of_allotment":13542,"lease_deed":"N","village_name":"Karoli Bangar","khasra_no":"363","longitude":77.58003851,"latitude":28.20940867,"authority":"YEIDA","category":"industrial","execution_stage":"allotted"}},{"type":"Feature","geometry":{"type":"Polygon","coordinates":[[[77.579912,28.20959],[77.579658,28.209591],[77.579656,28.20923],[77.57991,28.209229],[77.579912,28.20959]]]},"properties":{"objectid":644,"uniqueplotid":"PLNGINDUSTRIAL644","plotmap_id":"SECTOR-29_H38_HANDICRAFT PARK_IND","plotidentificationnumber":"H38","plotno":"H38","industrysector":"SECTOR-29","block":"HANDICRAFT PARK","plotsize":"1000 SQMT","plotsize_at_the_time_of_allotme":"1000 SQMT","landuse_type":"INDUSTRIAL","landuse_subcategory":"INDUSTRIAL","scheme_cod":"IND12","investment":117,"employment":75,"plot_total_employment":"27","plotstatus":"Allotted","landallotementstatus":"SOLD","landallotementtype":"ALLOTTED","allotmentid":"YIND120079","allotment_date":1701109800000,"rate_of_allotment":13542,"lease_deed":"N","village_name":"Karoli Bangar","khasra_no":"363","longitude":77.57978396,"latitude":28.209409649999998,"authority":"YEIDA","category":"industrial","execution_stage":"allotted"}},{"type":"Feature","geometry":{"type":"Polygon","coordinates":[[[77.579658,28.209591],[77.579403,28.209592],[77.579401,28.209231],[77.579656,28.20923],[77.579658,28.209591]]]},"properties":{"objectid":645,"uniqueplotid":"PLNGINDUSTRIAL645","plotmap_id":"SECTOR-29_H37_HANDICRAFT PARK_IND","plotidentificationnumber":"H37","plotno":"H37","industrysector":"SECTOR-29","block":"HANDICRAFT PARK","plotsize":"1000 SQMT","plotsize_at_the_time_of_allotme":"1000 SQMT","plot_size_as_per_lease_plan":1000,"landuse_type":"INDUSTRIAL","landuse_subcategory":"INDUSTRIAL","scheme_cod":"INDPARK","investment":8,"employment":29,"plotstatus":"Allotted","landallotementstatus":"SOLD","landallotementtype":"ALLOTTED","allotmentid":"YINDNH1054","allotment_date":1602786600000,"rate_of_allotment":6670,"lease_deed":"Y","lease_deed_date":1714415400000,"possession":"N","village_name":"Karoli Bangar","khasra_no":"363","longitude":77.5795294,"latitude":28.209410629999997,"authority":"YEIDA","category":"industrial","execution_stage":"lease-recorded"}},{"type":"Feature","geometry":{"type":"Polygon","coordinates":[[[77.579403,28.209592],[77.579148,28.209593],[77.579147,28.209232],[77.579401,28.209231],[77.579403,28.209592]]]},"properties":{"objectid":648,"uniqueplotid":"PLNGINDUSTRIAL648","plotmap_id":"SECTOR-29_H36_HANDICRAFT PARK_IND","plotidentificationnumber":"H36","plotno":"H36","industrysector":"SECTOR-29","block":"HANDICRAFT PARK","plotsize":"1000 SQMT","plotsize_at_the_time_of_allotme":"1000 SQMT","plot_size_as_per_lease_plan":1000,"landuse_type":"INDUSTRIAL","landuse_subcategory":"INDUSTRIAL","scheme_cod":"IND12","investment":215,"employment":125,"plot_total_employment":"59","plotstatus":"Allotted","landallotementstatus":"SOLD","landallotementtype":"ALLOTTED","allotmentid":"YIND120080","allotment_date":1701109800000,"rate_of_allotment":13542,"lease_deed":"Y","lease_deed_date":1736361000000,"village_name":"Karoli Bangar","khasra_no":"363","longitude":77.57927485,"latitude":28.20941161,"authority":"YEIDA","category":"industrial","execution_stage":"lease-recorded"}},{"type":"Feature","geometry":{"type":"Polygon","coordinates":[[[77.579148,28.209593],[77.578894,28.209593],[77.578892,28.209233],[77.579147,28.209232],[77.579148,28.209593]]]},"properties":{"objectid":650,"uniqueplotid":"PLNGINDUSTRIAL650","plotmap_id":"SECTOR-29_H35_HANDICRAFT PARK_IND","plotidentificationnumber":"H35","plotno":"H35","industrysector":"SECTOR-29","block":"HANDICRAFT PARK","plotsize":"1000 SQMT","plotsize_at_the_time_of_allotme":"1000 SQMT","landuse_type":"INDUSTRIAL","landuse_subcategory":"INDUSTRIAL","scheme_cod":"INDPARK","investment":8,"employment":29,"plotstatus":"Allotted","landallotementstatus":"SOLD","landallotementtype":"ALLOTTED","allotmentid":"YINDNH1053","allotment_date":1602786600000,"rate_of_allotment":6670,"lease_deed":"N","possession":"N","village_name":"Karoli Bangar","khasra_no":"363","longitude":77.57902028999999,"latitude":28.20941259,"authority":"YEIDA","category":"industrial","execution_stage":"allotted"}},{"type":"Feature","geometry":{"type":"Polygon","coordinates":[[[77.578894,28.209593],[77.578639,28.209594],[77.578638,28.209234],[77.578892,28.209233],[77.578894,28.209593]]]},"properties":{"objectid":652,"uniqueplotid":"PLNGINDUSTRIAL652","plotmap_id":"SECTOR-29_H34_HANDICRAFT PARK_IND","plotidentificationnumber":"H34","plotno":"H34","industrysector":"SECTOR-29","block":"HANDICRAFT PARK","plotsize":"1000 SQMT","plotsize_at_the_time_of_allotme":"1000 SQMT","plot_size_as_per_lease_plan":1000,"landuse_type":"INDUSTRIAL","landuse_subcategory":"INDUSTRIAL","scheme_cod":"INDPARK","investment":8,"employment":29,"plot_total_employment":"45","projects_cost_in_lacs":189,"plotstatus":"Allotted","landallotementstatus":"SOLD","landallotementtype":"ALLOTTED","allotmentid":"YINDNH1056","allotment_date":1602786600000,"rate_of_allotment":6670,"lease_deed":"Y","lease_deed_date":1719513000000,"possession":"Y","possession_date":1724092200000,"village_name":"Karoli Bangar","khasra_no":"360,361,362,363","longitude":77.57876574,"latitude":28.20941358,"authority":"YEIDA","category":"industrial","execution_stage":"possession-recorded"}},{"type":"Feature","geometry":{"type":"Polygon","coordinates":[[[77.578639,28.209594],[77.578385,28.209595],[77.578383,28.209235],[77.578638,28.209234],[77.578639,28.209594]]]},"properties":{"objectid":653,"uniqueplotid":"PLNGINDUSTRIAL653","plotmap_id":"SECTOR-29_H33_HANDICRAFT PARK_IND","plotidentificationnumber":"H33","plotno":"H33","industrysector":"SECTOR-29","block":"HANDICRAFT PARK","plotsize":"1000 SQMT","plotsize_at_the_time_of_allotme":"1000 SQMT","plot_size_as_per_lease_plan":1000,"landuse_type":"INDUSTRIAL","landuse_subcategory":"INDUSTRIAL","scheme_cod":"INDPARK","investment":8,"employment":29,"plotstatus":"Allotted","landallotementstatus":"SOLD","landallotementtype":"ALLOTTED","allotmentid":"YINDNH1051","allotment_date":1602786600000,"rate_of_allotment":6670,"lease_deed":"Y","lease_deed_date":1719513000000,"possession":"Y","possession_date":1724178600000,"village_name":"Karoli Bangar","khasra_no":"360,361,362,363","longitude":77.57851118,"latitude":28.20941456,"authority":"YEIDA","category":"industrial","execution_stage":"possession-recorded"}},{"type":"Feature","geometry":{"type":"Polygon","coordinates":[[[77.578385,28.209595],[77.57811,28.209596],[77.578108,28.209236],[77.578383,28.209235],[77.578385,28.209595]]]},"properties":{"objectid":654,"uniqueplotid":"PLNGINDUSTRIAL654","plotmap_id":"SECTOR-29_H32_HANDICRAFT PARK_IND","plotidentificationnumber":"H32","plotno":"H32","industrysector":"SECTOR-29","block":"HANDICRAFT PARK","plotsize":"1000 SQMT","plotsize_at_the_time_of_allotme":"1000 SQMT","landuse_type":"INDUSTRIAL","landuse_subcategory":"INDUSTRIAL","scheme_cod":"INDPARK","investment":8,"employment":29,"plotstatus":"Allotted","landallotementstatus":"SOLD","landallotementtype":"ALLOTTED","allotmentid":"YINDNH1058","allotment_date":1602786600000,"rate_of_allotment":6670,"lease_deed":"N","possession":"N","village_name":"Karoli Bangar","khasra_no":"360,361,362,363","longitude":77.57824644,"latitude":28.209415569999997,"authority":"YEIDA","category":"industrial","execution_stage":"allotted"}},{"type":"Feature","geometry":{"type":"Polygon","coordinates":[[[77.580423,28.209948],[77.580168,28.209949],[77.580167,28.209589],[77.580421,28.209588],[77.580423,28.209948]]]},"properties":{"objectid":669,"uniqueplotid":"PLNGINDUSTRIAL669","plotmap_id":"SECTOR-29_H43_HANDICRAFT PARK_IND","plotidentificationnumber":"H43","plotno":"H43","industrysector":"SECTOR-29","block":"HANDICRAFT PARK","plotsize":"1000 SQMT","plotsize_at_the_time_of_allotme":"1000 SQMT","landuse_type":"INDUSTRIAL","landuse_subcategory":"INDUSTRIAL","scheme_cod":"INDPARK","investment":8,"employment":29,"plotstatus":"Allotted","landallotementstatus":"SOLD","landallotementtype":"ALLOTTED","allotmentid":"YINDNH1059","allotment_date":1602786600000,"rate_of_allotment":6670,"lease_deed":"N","possession":"N","village_name":"Karoli Bangar","khasra_no":"363","longitude":77.58029485,"latitude":28.20976848,"authority":"YEIDA","category":"industrial","execution_stage":"allotted"}},{"type":"Feature","geometry":{"type":"Polygon","coordinates":[[[77.580168,28.209949],[77.579914,28.20995],[77.579912,28.20959],[77.580167,28.209589],[77.580168,28.209949]]]},"properties":{"objectid":670,"uniqueplotid":"PLNGINDUSTRIAL670","plotmap_id":"SECTOR-29_H44_HANDICRAFT PARK_IND","plotidentificationnumber":"H44","plotno":"H44","industrysector":"SECTOR-29","block":"HANDICRAFT PARK","plotsize":"1000 SQMT","plotsize_at_the_time_of_allotme":"1000 SQMT","plot_size_as_per_lease_plan":1000,"landuse_type":"INDUSTRIAL","landuse_subcategory":"INDUSTRIAL","scheme_cod":"IND12","investment":101,"employment":55,"plot_total_employment":"28","plotstatus":"Allotted","landallotementstatus":"SOLD","landallotementtype":"ALLOTTED","allotmentid":"YIND120072","allotment_date":1701109800000,"rate_of_allotment":13542,"lease_deed":"Y","lease_deed_date":1711996200000,"village_name":"Karoli Bangar","khasra_no":"363","longitude":77.58004029,"latitude":28.20976946,"authority":"YEIDA","category":"industrial","execution_stage":"lease-recorded"}},{"type":"Feature","geometry":{"type":"Polygon","coordinates":[[[77.579914,28.20995],[77.579659,28.209951],[77.579658,28.209591],[77.579912,28.20959],[77.579914,28.20995]]]},"properties":{"objectid":671,"uniqueplotid":"PLNGINDUSTRIAL671","plotmap_id":"SECTOR-29_H45_HANDICRAFT PARK_IND","plotidentificationnumber":"H45","plotno":"H45","industrysector":"SECTOR-29","block":"HANDICRAFT PARK","plotsize":"1000 SQMT","plotsize_at_the_time_of_allotme":"1000 SQMT","plot_size_as_per_lease_plan":1000,"landuse_type":"INDUSTRIAL","landuse_subcategory":"INDUSTRIAL","scheme_cod":"INDPARK","investment":8,"employment":29,"plotstatus":"Allotted","landallotementstatus":"SOLD","landallotementtype":"ALLOTTED","allotmentid":"YINDNH1049","allotment_date":1602786600000,"rate_of_allotment":6670,"lease_deed":"Y","lease_deed_date":1714674600000,"possession":"Y","possession_date":1716229800000,"units_under_construction":"Y","village_name":"Karoli Bangar","khasra_no":"363","longitude":77.57978573,"latitude":28.20977044,"authority":"YEIDA","category":"industrial","execution_stage":"construction-or-map-approval"}},{"type":"Feature","geometry":{"type":"Polygon","coordinates":[[[77.579659,28.209951],[77.579405,28.209952],[77.579403,28.209592],[77.579658,28.209591],[77.579659,28.209951]]]},"properties":{"objectid":672,"uniqueplotid":"PLNGINDUSTRIAL672","plotmap_id":"SECTOR-29_H46_HANDICRAFT PARK_IND","plotidentificationnumber":"H46","plotno":"H46","industrysector":"SECTOR-29","block":"HANDICRAFT PARK","plotsize":"1000 SQMT","plotsize_at_the_time_of_allotme":"1000 SQMT","landuse_type":"INDUSTRIAL","landuse_subcategory":"INDUSTRIAL","scheme_cod":"IND12","investment":159,"employment":65,"plot_total_employment":"48","plotstatus":"Allotted","landallotementstatus":"SOLD","landallotementtype":"ALLOTTED","allotmentid":"YIND120068","allotment_date":1701109800000,"rate_of_allotment":13542,"lease_deed":"N","village_name":"Karoli Bangar","khasra_no":"363","longitude":77.57953117999999,"latitude":28.209771420000003,"authority":"YEIDA","category":"industrial","execution_stage":"allotted"}},{"type":"Feature","geometry":{"type":"Polygon","coordinates":[[[77.579405,28.209952],[77.57915,28.209953],[77.579148,28.209593],[77.579403,28.209592],[77.579405,28.209952]]]},"properties":{"objectid":673,"uniqueplotid":"PLNGINDUSTRIAL673","plotmap_id":"SECTOR-29_H47_HANDICRAFT PARK_IND","plotidentificationnumber":"H47","plotno":"H47","industrysector":"SECTOR-29","block":"HANDICRAFT PARK","plotsize":"1000 SQMT","plotsize_at_the_time_of_allotme":"1000 SQMT","plot_size_as_per_lease_plan":1000,"landuse_type":"INDUSTRIAL","landuse_subcategory":"INDUSTRIAL","scheme_cod":"INDPARK","investment":8,"employment":29,"plotstatus":"Allotted","landallotementstatus":"SOLD","landallotementtype":"ALLOTTED","allotmentid":"YINDNH1055","allotment_date":1602786600000,"rate_of_allotment":6670,"lease_deed":"Y","lease_deed_date":1708540200000,"possession":"Y","possession_date":1713724200000,"village_name":"Karoli Bangar","khasra_no":"363","longitude":77.57927662,"latitude":28.209772410000003,"authority":"YEIDA","category":"industrial","execution_stage":"possession-recorded"}},{"type":"Feature","geometry":{"type":"Polygon","coordinates":[[[77.57915,28.209953],[77.578896,28.209954],[77.578894,28.209593],[77.579148,28.209593],[77.57915,28.209953]]]},"properties":{"objectid":674,"uniqueplotid":"PLNGINDUSTRIAL674","plotmap_id":"SECTOR-29_H48_HANDICRAFT PARK_IND","plotidentificationnumber":"H48","plotno":"H48","industrysector":"SECTOR-29","block":"HANDICRAFT PARK","plotsize":"1000 SQMT","plotsize_at_the_time_of_allotme":"1000 SQMT","landuse_type":"INDUSTRIAL","landuse_subcategory":"INDUSTRIAL","scheme_cod":"IND12","investment":177,"employment":95,"plot_total_employment":"40","plotstatus":"Allotted","landallotementstatus":"SOLD","landallotementtype":"ALLOTTED","allotmentid":"YIND120074","allotment_date":1701109800000,"rate_of_allotment":13542,"lease_deed":"N","village_name":"Karoli Bangar","khasra_no":"363","longitude":77.57902206,"latitude":28.209773390000002,"authority":"YEIDA","category":"industrial","execution_stage":"allotted"}},{"type":"Feature","geometry":{"type":"Polygon","coordinates":[[[77.578896,28.209954],[77.578641,28.209955],[77.578639,28.209594],[77.578894,28.209593],[77.578896,28.209954]]]},"properties":{"objectid":675,"uniqueplotid":"PLNGINDUSTRIAL675","plotmap_id":"SECTOR-29_H49_HANDICRAFT PARK_IND","plotidentificationnumber":"H49","plotno":"H49","industrysector":"SECTOR-29","block":"HANDICRAFT PARK","plotsize":"1000 SQMT","plotsize_at_the_time_of_allotme":"1000 SQMT","plot_size_as_per_lease_plan":1000,"landuse_type":"INDUSTRIAL","landuse_subcategory":"INDUSTRIAL","scheme_cod":"IND12","investment":145,"employment":85,"plot_total_employment":"50","plotstatus":"Allotted","landallotementstatus":"SOLD","landallotementtype":"ALLOTTED","allotmentid":"YIND120073","allotment_date":1701109800000,"rate_of_allotment":13542,"lease_deed":"Y","lease_deed_date":1717093800000,"possession":"Y","possession_date":1731349800000,"village_name":"Karoli Bangar","khasra_no":"363","longitude":77.57876750999999,"latitude":28.20977437,"authority":"YEIDA","category":"industrial","execution_stage":"possession-recorded"}},{"type":"Feature","geometry":{"type":"Polygon","coordinates":[[[77.578641,28.209955],[77.578387,28.209956],[77.578385,28.209595],[77.578639,28.209594],[77.578641,28.209955]]]},"properties":{"objectid":676,"uniqueplotid":"PLNGINDUSTRIAL676","plotmap_id":"SECTOR-29_H50_HANDICRAFT PARK_IND","plotidentificationnumber":"H50","plotno":"H50","industrysector":"SECTOR-29","block":"HANDICRAFT PARK","plotsize":"1000 SQMT","plotsize_at_the_time_of_allotme":"1000 SQMT","landuse_type":"INDUSTRIAL","landuse_subcategory":"INDUSTRIAL","scheme_cod":"IND12","investment":130,"employment":65,"plot_total_employment":"45","plotstatus":"Allotted","landallotementstatus":"SOLD","landallotementtype":"ALLOTTED","allotmentid":"YIND120078","allotment_date":1701109800000,"rate_of_allotment":13542,"lease_deed":"N","village_name":"Karoli Bangar","khasra_no":"363","longitude":77.57851295,"latitude":28.20977535,"authority":"YEIDA","category":"industrial","execution_stage":"allotted"}},{"type":"Feature","geometry":{"type":"Polygon","coordinates":[[[77.578387,28.209956],[77.578112,28.209957],[77.57811,28.209596],[77.578385,28.209595],[77.578387,28.209956]]]},"properties":{"objectid":677,"uniqueplotid":"PLNGINDUSTRIAL677","plotmap_id":"SECTOR-29_H51_HANDICRAFT PARK_IND","plotidentificationnumber":"H51","plotno":"H51","industrysector":"SECTOR-29","block":"HANDICRAFT PARK","plotsize":"1000 SQMT","landuse_type":"INDUSTRIAL","landuse_subcategory":"INDUSTRIAL","investment":0,"employment":0,"landallotementstatus":"VACANT","landallotementtype":"VACANT","village_name":"Karoli Bangar","khasra_no":"360,361,362,363","longitude":77.57824821,"latitude":28.209776360000003,"authority":"YEIDA","category":"industrial","execution_stage":"vacant"}},{"type":"Feature","geometry":{"type":"Polygon","coordinates":[[[77.58036,28.210517],[77.580199,28.210518],[77.580198,28.210166],[77.580358,28.210165],[77.58036,28.210517]]]},"properties":{"objectid":703,"uniqueplotid":"PLNGINDUSTRIAL703","plotmap_id":"SECTOR-29_H65_HANDICRAFT PARK_IND","plotidentificationnumber":"H65","plotno":"H65","industrysector":"SECTOR-29","block":"HANDICRAFT PARK","plotsize":"595 SQMT","plotsize_at_the_time_of_allotme":"595 SQMT","landuse_type":"INDUSTRIAL","landuse_subcategory":"INDUSTRIAL","scheme_cod":"IND12","investment":72,"employment":45,"plot_total_employment":"12","plotstatus":"Allotted","landallotementstatus":"SOLD","landallotementtype":"ALLOTTED","allotmentid":"YIND120063","allotment_date":1701109800000,"rate_of_allotment":13542,"lease_deed":"N","village_name":"Karoli Bangar","khasra_no":"363","longitude":77.58027857,"latitude":28.21034131,"authority":"YEIDA","category":"industrial","execution_stage":"allotted"}},{"type":"Feature","geometry":{"type":"Polygon","coordinates":[[[77.580199,28.210518],[77.580039,28.210518],[77.580037,28.210166],[77.580198,28.210166],[77.580199,28.210518]]]},"properties":{"objectid":704,"uniqueplotid":"PLNGINDUSTRIAL704","plotmap_id":"SECTOR-29_H64_HANDICRAFT PARK_IND","plotidentificationnumber":"H64","plotno":"H64","industrysector":"SECTOR-29","block":"HANDICRAFT PARK","plotsize":"595 SQMT","plotsize_at_the_time_of_allotme":"595 SQMT","landuse_type":"INDUSTRIAL","landuse_subcategory":"INDUSTRIAL","scheme_cod":"INDPARK","investment":5,"employment":17,"plotstatus":"Allotted","landallotementstatus":"SOLD","landallotementtype":"ALLOTTED","allotmentid":"YINDNH1046","allotment_date":1602786600000,"rate_of_allotment":6670,"lease_deed":"N","possession":"N","village_name":"Karoli Bangar","khasra_no":"363","longitude":77.5801182,"latitude":28.21034193,"authority":"YEIDA","category":"industrial","execution_stage":"allotted"}},{"type":"Feature","geometry":{"type":"Polygon","coordinates":[[[77.580039,28.210518],[77.579879,28.210519],[77.579877,28.210167],[77.580037,28.210166],[77.580039,28.210518]]]},"properties":{"objectid":706,"uniqueplotid":"PLNGINDUSTRIAL706","plotmap_id":"SECTOR-29_H63_HANDICRAFT PARK_IND","plotidentificationnumber":"H63","plotno":"H63","industrysector":"SECTOR-29","block":"HANDICRAFT PARK","plotsize":"595 SQMT","plotsize_at_the_time_of_allotme":"595 SQMT","landuse_type":"INDUSTRIAL","landuse_subcategory":"INDUSTRIAL","scheme_cod":"INDPARK","investment":5,"employment":17,"plotstatus":"Allotted","landallotementstatus":"SOLD","landallotementtype":"ALLOTTED","allotmentid":"YINDNH1041","allotment_date":1602786600000,"rate_of_allotment":6670,"lease_deed":"N","possession":"N","village_name":"Karoli Bangar","khasra_no":"363","longitude":77.57995783,"latitude":28.21034255,"authority":"YEIDA","category":"industrial","execution_stage":"allotted"}},{"type":"Feature","geometry":{"type":"Polygon","coordinates":[[[77.579879,28.210519],[77.579718,28.210519],[77.579716,28.210168],[77.579877,28.210167],[77.579879,28.210519]]]},"properties":{"objectid":707,"uniqueplotid":"PLNGINDUSTRIAL707","plotmap_id":"SECTOR-29_H62_HANDICRAFT PARK_IND","plotidentificationnumber":"H62","plotno":"H62","industrysector":"SECTOR-29","block":"HANDICRAFT PARK","plotsize":"595 SQMT","plotsize_at_the_time_of_allotme":"595 SQMT","plot_size_as_per_lease_plan":614.25,"landuse_type":"INDUSTRIAL","landuse_subcategory":"INDUSTRIAL","scheme_cod":"INDPARK","investment":5,"employment":17,"plotstatus":"Allotted","landallotementstatus":"SOLD","landallotementtype":"ALLOTTED","allotmentid":"YINDNH1037","allotment_date":1602786600000,"rate_of_allotment":6670,"lease_deed":"Y","lease_deed_date":1717093800000,"possession":"Y","possession_date":1720377000000,"village_name":"Karoli Bangar","khasra_no":"363","longitude":77.57979746000001,"latitude":28.21034317,"authority":"YEIDA","category":"industrial","execution_stage":"possession-recorded"}},{"type":"Feature","geometry":{"type":"Polygon","coordinates":[[[77.579718,28.210519],[77.579558,28.21052],[77.579556,28.210168],[77.579716,28.210168],[77.579718,28.210519]]]},"properties":{"objectid":708,"uniqueplotid":"PLNGINDUSTRIAL708","plotmap_id":"SECTOR-29_H61_HANDICRAFT PARK_IND","plotidentificationnumber":"H61","plotno":"H61","industrysector":"SECTOR-29","block":"HANDICRAFT PARK","plotsize":"595 SQMT","plotsize_at_the_time_of_allotme":"595 SQMT","plot_size_as_per_lease_plan":614.25,"landuse_type":"INDUSTRIAL","landuse_subcategory":"INDUSTRIAL","scheme_cod":"INDPARK","investment":5,"employment":17,"plotstatus":"Allotted","landallotementstatus":"SOLD","landallotementtype":"ALLOTTED","allotmentid":"YINDNH1043","allotment_date":1602786600000,"rate_of_allotment":6670,"lease_deed":"Y","lease_deed_date":1711909800000,"possession":"Y","possession_date":1713205800000,"map_sanctioned_from_planning":"Y","units_under_construction":"Y","village_name":"Karoli Bangar","khasra_no":"363","longitude":77.57963709,"latitude":28.21034378,"authority":"YEIDA","category":"industrial","execution_stage":"construction-or-map-approval"}},{"type":"Feature","geometry":{"type":"Polygon","coordinates":[[[77.579558,28.21052],[77.579397,28.210521],[77.579396,28.210169],[77.579556,28.210168],[77.579558,28.21052]]]},"properties":{"objectid":709,"uniqueplotid":"PLNGINDUSTRIAL709","plotmap_id":"SECTOR-29_H60_HANDICRAFT PARK_IND","plotidentificationnumber":"H60","plotno":"H60","industrysector":"SECTOR-29","block":"HANDICRAFT PARK","plotsize":"595 SQMT","plotsize_at_the_time_of_allotme":"595 SQMT","plot_size_as_per_lease_plan":614.25,"landuse_type":"INDUSTRIAL","landuse_subcategory":"INDUSTRIAL","scheme_cod":"IND12","investment":3,"employment":35,"plot_total_employment":"35","plotstatus":"Allotted","landallotementstatus":"SOLD","landallotementtype":"ALLOTTED","allotmentid":"YIND120053","allotment_date":1701109800000,"rate_of_allotment":13542,"lease_deed":"Y","lease_deed_date":1709577000000,"village_name":"Karoli Bangar","khasra_no":"363","longitude":77.57947672,"latitude":28.2103444,"authority":"YEIDA","category":"industrial","execution_stage":"lease-recorded"}},{"type":"Feature","geometry":{"type":"Polygon","coordinates":[[[77.579397,28.210521],[77.579237,28.210521],[77.579235,28.210169],[77.579396,28.210169],[77.579397,28.210521]]]},"properties":{"objectid":710,"uniqueplotid":"PLNGINDUSTRIAL710","plotmap_id":"SECTOR-29_H59_HANDICRAFT PARK_IND","plotidentificationnumber":"H59","plotno":"H59","industrysector":"SECTOR-29","block":"HANDICRAFT PARK","plotsize":"595 SQMT","plotsize_at_the_time_of_allotme":"595 SQMT","plot_size_as_per_lease_plan":614.25,"landuse_type":"INDUSTRIAL","landuse_subcategory":"INDUSTRIAL","scheme_cod":"IND12","investment":67,"employment":35,"plot_total_employment":"28","plotstatus":"Allotted","landallotementstatus":"SOLD","landallotementtype":"ALLOTTED","allotmentid":"YIND120065","allotment_date":1701109800000,"rate_of_allotment":13542,"lease_deed":"Y","lease_deed_date":1716229800000,"possession":"Y","possession_date":1718044200000,"village_name":"Karoli Bangar","khasra_no":"363","longitude":77.57931635,"latitude":28.210345020000002,"authority":"YEIDA","category":"industrial","execution_stage":"possession-recorded"}},{"type":"Feature","geometry":{"type":"Polygon","coordinates":[[[77.579237,28.210521],[77.579077,28.210522],[77.579075,28.21017],[77.579235,28.210169],[77.579237,28.210521]]]},"properties":{"objectid":711,"uniqueplotid":"PLNGINDUSTRIAL711","plotmap_id":"SECTOR-29_H58_HANDICRAFT PARK_IND","plotidentificationnumber":"H58","plotno":"H58","industrysector":"SECTOR-29","block":"HANDICRAFT PARK","plotsize":"595 SQMT","plotsize_at_the_time_of_allotme":"595 SQMT","landuse_type":"INDUSTRIAL","landuse_subcategory":"INDUSTRIAL","scheme_cod":"IND12","investment":105,"employment":55,"plot_total_employment":"5","plotstatus":"Allotted","landallotementstatus":"SOLD","landallotementtype":"ALLOTTED","allotmentid":"YIND120052","allotment_date":1701109800000,"rate_of_allotment":13542,"lease_deed":"N","village_name":"Karoli Bangar","khasra_no":"363","longitude":77.57915597,"latitude":28.21034564,"authority":"YEIDA","category":"industrial","execution_stage":"allotted"}},{"type":"Feature","geometry":{"type":"Polygon","coordinates":[[[77.579077,28.210522],[77.578916,28.210522],[77.578915,28.210171],[77.579075,28.21017],[77.579077,28.210522]]]},"properties":{"objectid":712,"uniqueplotid":"PLNGINDUSTRIAL712","plotmap_id":"SECTOR-29_H57_HANDICRAFT PARK_IND","plotidentificationnumber":"H57","plotno":"H57","industrysector":"SECTOR-29","block":"HANDICRAFT PARK","plotsize":"595 SQMT","plotsize_at_the_time_of_allotme":"595 SQMT","landuse_type":"INDUSTRIAL","landuse_subcategory":"INDUSTRIAL","scheme_cod":"IND12","investment":48,"employment":25,"plot_total_employment":"15","plotstatus":"Allotted","landallotementstatus":"SOLD","landallotementtype":"ALLOTTED","allotmentid":"YIND120051","allotment_date":1701109800000,"rate_of_allotment":13542,"lease_deed":"N","village_name":"Karoli Bangar","khasra_no":"363","longitude":77.5789956,"latitude":28.21034626,"authority":"YEIDA","category":"industrial","execution_stage":"allotted"}},{"type":"Feature","geometry":{"type":"Polygon","coordinates":[[[77.578916,28.210522],[77.578756,28.210523],[77.578754,28.210171],[77.578915,28.210171],[77.578916,28.210522]]]},"properties":{"objectid":713,"uniqueplotid":"PLNGINDUSTRIAL713","plotmap_id":"SECTOR-29_H56_HANDICRAFT PARK_IND","plotidentificationnumber":"H56","plotno":"H56","industrysector":"SECTOR-29","block":"HANDICRAFT PARK","plotsize":"595 SQMT","plotsize_at_the_time_of_allotme":"595 SQMT","plot_size_as_per_lease_plan":614.25,"landuse_type":"INDUSTRIAL","landuse_subcategory":"INDUSTRIAL","scheme_cod":"IND12","investment":77,"employment":60,"plot_total_employment":"60","plotstatus":"Allotted","landallotementstatus":"SOLD","landallotementtype":"ALLOTTED","allotmentid":"YIND120050","allotment_date":1701109800000,"rate_of_allotment":13542,"lease_deed":"Y","lease_deed_date":1719513000000,"village_name":"Karoli Bangar","khasra_no":"363","longitude":77.57883523,"latitude":28.21034688,"authority":"YEIDA","category":"industrial","execution_stage":"lease-recorded"}},{"type":"Feature","geometry":{"type":"Polygon","coordinates":[[[77.578756,28.210523],[77.578596,28.210524],[77.578594,28.210172],[77.578754,28.210171],[77.578756,28.210523]]]},"properties":{"objectid":714,"uniqueplotid":"PLNGINDUSTRIAL714","plotmap_id":"SECTOR-29_H55_HANDICRAFT PARK_IND","plotidentificationnumber":"H55","plotno":"H55","industrysector":"SECTOR-29","block":"HANDICRAFT PARK","plotsize":"595 SQMT","plotsize_at_the_time_of_allotme":"595 SQMT","plot_size_as_per_lease_plan":614.25,"landuse_type":"INDUSTRIAL","landuse_subcategory":"INDUSTRIAL","scheme_cod":"IND12","investment":140,"employment":55,"plot_total_employment":"50","plotstatus":"Allotted","landallotementstatus":"SOLD","landallotementtype":"ALLOTTED","allotmentid":"YIND120060","allotment_date":1701109800000,"rate_of_allotment":13542,"lease_deed":"Y","lease_deed_date":1711996200000,"possession":"Y","possession_date":1713205800000,"map_sanctioned_from_planning":"Y","units_under_construction":"Y","village_name":"Karoli Bangar","khasra_no":"363","longitude":77.57867485999999,"latitude":28.21034749,"authority":"YEIDA","category":"industrial","execution_stage":"construction-or-map-approval"}},{"type":"Feature","geometry":{"type":"Polygon","coordinates":[[[77.578596,28.210524],[77.578435,28.210524],[77.578433,28.210173],[77.578594,28.210172],[77.578596,28.210524]]]},"properties":{"objectid":715,"uniqueplotid":"PLNGINDUSTRIAL715","plotmap_id":"SECTOR-29_H54_HANDICRAFT PARK_IND","plotidentificationnumber":"H54","plotno":"H54","industrysector":"SECTOR-29","block":"HANDICRAFT PARK","plotsize":"595 SQMT","plotsize_at_the_time_of_allotme":"595 SQMT","plot_size_as_per_lease_plan":614.25,"landuse_type":"INDUSTRIAL","landuse_subcategory":"INDUSTRIAL","scheme_cod":"IND12","investment":77,"employment":45,"plot_total_employment":"45","plotstatus":"Allotted","landallotementstatus":"SOLD","landallotementtype":"ALLOTTED","allotmentid":"YIND120064","allotment_date":1701109800000,"rate_of_allotment":13542,"lease_deed":"Y","lease_deed_date":1720549800000,"possession":"Y","possession_date":1725561000000,"village_name":"Karoli Bangar","khasra_no":"363","longitude":77.57851449,"latitude":28.21034811,"authority":"YEIDA","category":"industrial","execution_stage":"possession-recorded"}},{"type":"Feature","geometry":{"type":"Polygon","coordinates":[[[77.578435,28.210524],[77.578275,28.210525],[77.578273,28.210173],[77.578433,28.210173],[77.578435,28.210524]]]},"properties":{"objectid":716,"uniqueplotid":"PLNGINDUSTRIAL716","plotmap_id":"SECTOR-29_H53_HANDICRAFT PARK_IND","plotidentificationnumber":"H53","plotno":"H53","industrysector":"SECTOR-29","block":"HANDICRAFT PARK","plotsize":"595 SQMT","plotsize_at_the_time_of_allotme":"595 SQMT","landuse_type":"INDUSTRIAL","landuse_subcategory":"INDUSTRIAL","scheme_cod":"IND12","investment":77,"employment":45,"plot_total_employment":"45","plotstatus":"Allotted","landallotementstatus":"SOLD","landallotementtype":"ALLOTTED","allotmentid":"YIND120062","allotment_date":1701109800000,"rate_of_allotment":13542,"lease_deed":"N","village_name":"Karoli Bangar","khasra_no":"363","longitude":77.57835412,"latitude":28.21034873,"authority":"YEIDA","category":"industrial","execution_stage":"allotted"}},{"type":"Feature","geometry":{"type":"Polygon","coordinates":[[[77.578275,28.210525],[77.578114,28.210526],[77.578113,28.210174],[77.578273,28.210173],[77.578275,28.210525]]]},"properties":{"objectid":717,"uniqueplotid":"PLNGINDUSTRIAL717","plotmap_id":"SECTOR-29_H52_HANDICRAFT PARK_IND","plotidentificationnumber":"H52","plotno":"H52","industrysector":"SECTOR-29","block":"HANDICRAFT PARK","plotsize":"595 SQMT","plotsize_at_the_time_of_allotme":"595 SQMT","landuse_type":"INDUSTRIAL","landuse_subcategory":"INDUSTRIAL","scheme_cod":"INDPARK","investment":5,"employment":17,"plotstatus":"Allotted","landallotementstatus":"SOLD","landallotementtype":"ALLOTTED","allotmentid":"YINDNH1035","allotment_date":1602786600000,"rate_of_allotment":6670,"lease_deed":"N","possession":"N","village_name":"Karoli Bangar","khasra_no":"363","longitude":77.57819374,"latitude":28.21034934,"authority":"YEIDA","category":"industrial","execution_stage":"allotted"}},{"type":"Feature","geometry":{"type":"Polygon","coordinates":[[[77.580361,28.210869],[77.580201,28.210869],[77.580199,28.210518],[77.58036,28.210517],[77.580361,28.210869]]]},"properties":{"objectid":734,"uniqueplotid":"PLNGINDUSTRIAL734","plotmap_id":"SECTOR-29_H70_HANDICRAFT PARK_IND","plotidentificationnumber":"H70","plotno":"H70","industrysector":"SECTOR-29","block":"HANDICRAFT PARK","plotsize":"595 SQMT","plotsize_at_the_time_of_allotme":"595 SQMT","plot_size_as_per_lease_plan":614.25,"landuse_type":"INDUSTRIAL","landuse_subcategory":"INDUSTRIAL","scheme_cod":"IND12","investment":97,"employment":45,"plot_total_employment":"20","plotstatus":"Allotted","landallotementstatus":"SOLD","landallotementtype":"ALLOTTED","allotmentid":"YIND120055","allotment_date":1701109800000,"rate_of_allotment":13542,"lease_deed":"Y","lease_deed_date":1719513000000,"village_name":"Karoli Bangar","khasra_no":"363","longitude":77.58028031,"latitude":28.21069308,"authority":"YEIDA","category":"industrial","execution_stage":"lease-recorded"}},{"type":"Feature","geometry":{"type":"Polygon","coordinates":[[[77.580201,28.210869],[77.580041,28.21087],[77.580039,28.210518],[77.580199,28.210518],[77.580201,28.210869]]]},"properties":{"objectid":735,"uniqueplotid":"PLNGINDUSTRIAL735","plotmap_id":"SECTOR-29_H71_HANDICRAFT PARK_IND","plotidentificationnumber":"H71","plotno":"H71","industrysector":"SECTOR-29","block":"HANDICRAFT PARK","plotsize":"595 SQMT","plotsize_at_the_time_of_allotme":"595 SQMT","plot_size_as_per_lease_plan":614.25,"landuse_type":"INDUSTRIAL","landuse_subcategory":"INDUSTRIAL","scheme_cod":"INDPARK","investment":5,"employment":17,"plotstatus":"Allotted","landallotementstatus":"SOLD","landallotementtype":"ALLOTTED","allotmentid":"YINDNH1047","allotment_date":1602786600000,"rate_of_allotment":6670,"lease_deed":"Y","lease_deed_date":1723487400000,"possession":"N","village_name":"Karoli Bangar","khasra_no":"363","longitude":77.58011994,"latitude":28.2106937,"authority":"YEIDA","category":"industrial","execution_stage":"lease-recorded"}},{"type":"Feature","geometry":{"type":"Polygon","coordinates":[[[77.580041,28.21087],[77.57988,28.210871],[77.579879,28.210519],[77.580039,28.210518],[77.580041,28.21087]]]},"properties":{"objectid":736,"uniqueplotid":"PLNGINDUSTRIAL736","plotmap_id":"SECTOR-29_H72_HANDICRAFT PARK_IND","plotidentificationnumber":"H72","plotno":"H72","industrysector":"SECTOR-29","block":"HANDICRAFT PARK","plotsize":"595 SQMT","plotsize_at_the_time_of_allotme":"595 SQMT","plot_size_as_per_lease_plan":614.25,"landuse_type":"INDUSTRIAL","landuse_subcategory":"INDUSTRIAL","scheme_cod":"IND12","investment":140,"employment":54,"plot_total_employment":"54","plotstatus":"Allotted","landallotementstatus":"SOLD","landallotementtype":"ALLOTTED","allotmentid":"YIND120054","allotment_date":1701109800000,"rate_of_allotment":13542,"lease_deed":"Y","lease_deed_date":1719513000000,"village_name":"Karoli Bangar","khasra_no":"363","longitude":77.57995955999999,"latitude":28.210694319999998,"authority":"YEIDA","category":"industrial","execution_stage":"lease-recorded"}},{"type":"Feature","geometry":{"type":"Polygon","coordinates":[[[77.57988,28.210871],[77.57972,28.210871],[77.579718,28.210519],[77.579879,28.210519],[77.57988,28.210871]]]},"properties":{"objectid":737,"uniqueplotid":"PLNGINDUSTRIAL737","plotmap_id":"SECTOR-29_H73_HANDICRAFT PARK_IND","plotidentificationnumber":"H73","plotno":"H73","industrysector":"SECTOR-29","block":"HANDICRAFT PARK","plotsize":"595 SQMT","plotsize_at_the_time_of_allotme":"595 SQMT","plot_size_as_per_lease_plan":614.25,"landuse_type":"INDUSTRIAL","landuse_subcategory":"INDUSTRIAL","scheme_cod":"INDPARK","investment":5,"employment":17,"plotstatus":"Allotted","landallotementstatus":"SOLD","landallotementtype":"ALLOTTED","allotmentid":"YINDNH1039","allotment_date":1602786600000,"rate_of_allotment":6670,"lease_deed":"Y","lease_deed_date":1719513000000,"possession":"Y","possession_date":1723746600000,"village_name":"Karoli Bangar","khasra_no":"363","longitude":77.57979919,"latitude":28.21069494,"authority":"YEIDA","category":"industrial","execution_stage":"possession-recorded"}},{"type":"Feature","geometry":{"type":"Polygon","coordinates":[[[77.57972,28.210871],[77.579559,28.210872],[77.579558,28.21052],[77.579718,28.210519],[77.57972,28.210871]]]},"properties":{"objectid":738,"uniqueplotid":"PLNGINDUSTRIAL738","plotmap_id":"SECTOR-29_H74_HANDICRAFT PARK_IND","plotidentificationnumber":"H74","plotno":"H74","industrysector":"SECTOR-29","block":"HANDICRAFT PARK","plotsize":"595 SQMT","plotsize_at_the_time_of_allotme":"595 SQMT","plot_size_as_per_lease_plan":614.25,"landuse_type":"INDUSTRIAL","landuse_subcategory":"INDUSTRIAL","scheme_cod":"IND12","investment":117,"employment":75,"plot_total_employment":"24","plotstatus":"Allotted","landallotementstatus":"SOLD","landallotementtype":"ALLOTTED","allotmentid":"YIND120061","allotment_date":1701109800000,"rate_of_allotment":13542,"lease_deed":"Y","lease_deed_date":1724178600000,"village_name":"Karoli Bangar","khasra_no":"363","longitude":77.57963882,"latitude":28.210695559999998,"authority":"YEIDA","category":"industrial","execution_stage":"lease-recorded"}},{"type":"Feature","geometry":{"type":"Polygon","coordinates":[[[77.579559,28.210872],[77.579399,28.210872],[77.579397,28.210521],[77.579558,28.21052],[77.579559,28.210872]]]},"properties":{"objectid":739,"uniqueplotid":"PLNGINDUSTRIAL739","plotmap_id":"SECTOR-29_H75_HANDICRAFT PARK_IND","plotidentificationnumber":"H75","plotno":"H75","industrysector":"SECTOR-29","block":"HANDICRAFT PARK","plotsize":"595 SQMT","plotsize_at_the_time_of_allotme":"595 SQMT","plot_size_as_per_lease_plan":614.25,"landuse_type":"INDUSTRIAL","landuse_subcategory":"INDUSTRIAL","scheme_cod":"IND12","investment":118,"employment":57,"plot_total_employment":"57","plotstatus":"Allotted","landallotementstatus":"SOLD","landallotementtype":"ALLOTTED","allotmentid":"YIND120057","allotment_date":1701109800000,"rate_of_allotment":13542,"lease_deed":"Y","lease_deed_date":1710786600000,"village_name":"Karoli Bangar","khasra_no":"363","longitude":77.57947845000001,"latitude":28.21069617,"authority":"YEIDA","category":"industrial","execution_stage":"lease-recorded"}},{"type":"Feature","geometry":{"type":"Polygon","coordinates":[[[77.579399,28.210872],[77.579239,28.210873],[77.579237,28.210521],[77.579397,28.210521],[77.579399,28.210872]]]},"properties":{"objectid":740,"uniqueplotid":"PLNGINDUSTRIAL740","plotmap_id":"SECTOR-29_H76_HANDICRAFT PARK_IND","plotidentificationnumber":"H76","plotno":"H76","industrysector":"SECTOR-29","block":"HANDICRAFT PARK","plotsize":"595 SQMT","plotsize_at_the_time_of_allotme":"595 SQMT","plot_size_as_per_lease_plan":614.25,"landuse_type":"INDUSTRIAL","landuse_subcategory":"INDUSTRIAL","scheme_cod":"IND12","investment":55,"employment":50,"plot_total_employment":"50","plotstatus":"Allotted","landallotementstatus":"SOLD","landallotementtype":"ALLOTTED","allotmentid":"YIND120058","allotment_date":1701109800000,"rate_of_allotment":13542,"lease_deed":"Y","lease_deed_date":1730831400000,"village_name":"Karoli Bangar","khasra_no":"363","longitude":77.57931807,"latitude":28.21069679,"authority":"YEIDA","category":"industrial","execution_stage":"lease-recorded"}},{"type":"Feature","geometry":{"type":"Polygon","coordinates":[[[77.579239,28.210873],[77.579078,28.210874],[77.579077,28.210522],[77.579237,28.210521],[77.579239,28.210873]]]},"properties":{"objectid":741,"uniqueplotid":"PLNGINDUSTRIAL741","plotmap_id":"SECTOR-29_H77_HANDICRAFT PARK_IND","plotidentificationnumber":"H77","plotno":"H77","industrysector":"SECTOR-29","block":"HANDICRAFT PARK","plotsize":"595 SQMT","plotsize_at_the_time_of_allotme":"595 SQMT","plot_size_as_per_lease_plan":614.25,"landuse_type":"INDUSTRIAL","landuse_subcategory":"INDUSTRIAL","scheme_cod":"INDPARK","investment":5,"employment":17,"plotstatus":"Allotted","landallotementstatus":"SOLD","landallotementtype":"ALLOTTED","allotmentid":"YINDNH1044","allotment_date":1602786600000,"rate_of_allotment":6670,"lease_deed":"Y","lease_deed_date":1736361000000,"possession":"N","village_name":"Karoli Bangar","khasra_no":"363","longitude":77.5791577,"latitude":28.210697409999998,"authority":"YEIDA","category":"industrial","execution_stage":"lease-recorded"}},{"type":"Feature","geometry":{"type":"Polygon","coordinates":[[[77.579078,28.210874],[77.578918,28.210874],[77.578916,28.210522],[77.579077,28.210522],[77.579078,28.210874]]]},"properties":{"objectid":742,"uniqueplotid":"PLNGINDUSTRIAL742","plotmap_id":"SECTOR-29_H78_HANDICRAFT PARK_IND","plotidentificationnumber":"H78","plotno":"H78","industrysector":"SECTOR-29","block":"HANDICRAFT PARK","plotsize":"595 SQMT","plotsize_at_the_time_of_allotme":"595 SQMT","plot_size_as_per_lease_plan":614.25,"landuse_type":"INDUSTRIAL","landuse_subcategory":"INDUSTRIAL","scheme_cod":"IND12","investment":114,"employment":64,"plot_total_employment":"24","plotstatus":"Allotted","landallotementstatus":"SOLD","landallotementtype":"ALLOTTED","allotmentid":"YIND120059","allotment_date":1701109800000,"rate_of_allotment":13542,"lease_deed":"Y","lease_deed_date":1708885800000,"village_name":"Karoli Bangar","khasra_no":"363","longitude":77.57899733,"latitude":28.21069803,"authority":"YEIDA","category":"industrial","execution_stage":"lease-recorded"}},{"type":"Feature","geometry":{"type":"Polygon","coordinates":[[[77.578918,28.210874],[77.578758,28.210875],[77.578756,28.210523],[77.578916,28.210522],[77.578918,28.210874]]]},"properties":{"objectid":743,"uniqueplotid":"PLNGINDUSTRIAL743","plotmap_id":"SECTOR-29_H79_HANDICRAFT PARK_IND","plotidentificationnumber":"H79","plotno":"H79","industrysector":"SECTOR-29","block":"HANDICRAFT PARK","plotsize":"595 SQMT","plotsize_at_the_time_of_allotme":"595 SQMT","plot_size_as_per_lease_plan":614.25,"landuse_type":"INDUSTRIAL","landuse_subcategory":"INDUSTRIAL","scheme_cod":"INDPARK","investment":5,"employment":17,"plot_total_employment":"30","plotstatus":"Allotted","landallotementstatus":"SOLD","landallotementtype":"ALLOTTED","allotmentid":"YINDNH1045","allotment_date":1602786600000,"rate_of_allotment":6670,"lease_deed":"Y","lease_deed_date":1747938600000,"possession":"N","village_name":"Karoli Bangar","khasra_no":"363","longitude":77.57883696,"latitude":28.21069865,"authority":"YEIDA","category":"industrial","execution_stage":"lease-recorded"}},{"type":"Feature","geometry":{"type":"Polygon","coordinates":[[[77.578758,28.210875],[77.578597,28.210875],[77.578596,28.210524],[77.578756,28.210523],[77.578758,28.210875]]]},"properties":{"objectid":744,"uniqueplotid":"PLNGINDUSTRIAL744","plotmap_id":"SECTOR-29_H80_HANDICRAFT PARK_IND","plotidentificationnumber":"H80","plotno":"H80","industrysector":"SECTOR-29","block":"HANDICRAFT PARK","plotsize":"595 SQMT","plotsize_at_the_time_of_allotme":"595 SQMT","plot_size_as_per_lease_plan":614.25,"landuse_type":"INDUSTRIAL","landuse_subcategory":"INDUSTRIAL","scheme_cod":"INDPARK","investment":5,"employment":17,"plotstatus":"Allotted","landallotementstatus":"SOLD","landallotementtype":"ALLOTTED","allotmentid":"YINDNH1042","allotment_date":1602786600000,"rate_of_allotment":6670,"lease_deed":"Y","lease_deed_date":1719167400000,"possession":"N","village_name":"Karoli Bangar","khasra_no":"363","longitude":77.57867659,"latitude":28.21069927,"authority":"YEIDA","category":"industrial","execution_stage":"lease-recorded"}},{"type":"Feature","geometry":{"type":"Polygon","coordinates":[[[77.578597,28.210875],[77.578437,28.210876],[77.578435,28.210524],[77.578596,28.210524],[77.578597,28.210875]]]},"properties":{"objectid":745,"uniqueplotid":"PLNGINDUSTRIAL745","plotmap_id":"SECTOR-29_H81_HANDICRAFT PARK_IND","plotidentificationnumber":"H81","plotno":"H81","industrysector":"SECTOR-29","block":"HANDICRAFT PARK","plotsize":"595 SQMT","plotsize_at_the_time_of_allotme":"595 SQMT","plot_size_as_per_lease_plan":614.25,"landuse_type":"INDUSTRIAL","landuse_subcategory":"INDUSTRIAL","scheme_cod":"INDPARK","investment":5,"employment":17,"plotstatus":"Allotted","landallotementstatus":"SOLD","landallotementtype":"ALLOTTED","allotmentid":"YINDNH1040","allotment_date":1602786600000,"rate_of_allotment":6670,"lease_deed":"Y","lease_deed_date":1719945000000,"possession":"Y","possession_date":1727116200000,"village_name":"Karoli Bangar","khasra_no":"363","longitude":77.57851621,"latitude":28.21069988,"authority":"YEIDA","category":"industrial","execution_stage":"possession-recorded"}},{"type":"Feature","geometry":{"type":"Polygon","coordinates":[[[77.578437,28.210876],[77.578277,28.210877],[77.578275,28.210525],[77.578435,28.210524],[77.578437,28.210876]]]},"properties":{"objectid":746,"uniqueplotid":"PLNGINDUSTRIAL746","plotmap_id":"SECTOR-29_H82_HANDICRAFT PARK_IND","plotidentificationnumber":"H82","plotno":"H82","industrysector":"SECTOR-29","block":"HANDICRAFT PARK","plotsize":"595 SQMT","plotsize_at_the_time_of_allotme":"595 SQMT","plot_size_as_per_lease_plan":614.25,"landuse_type":"INDUSTRIAL","landuse_subcategory":"INDUSTRIAL","scheme_cod":"IND12","investment":105,"employment":65,"plot_total_employment":"35","plotstatus":"Allotted","landallotementstatus":"SOLD","landallotementtype":"ALLOTTED","allotmentid":"YIND120066","allotment_date":1701109800000,"rate_of_allotment":13542,"lease_deed":"Y","lease_deed_date":1719513000000,"possession":"Y","village_name":"Karoli Bangar","khasra_no":"363","longitude":77.57835584,"latitude":28.210700499999998,"authority":"YEIDA","category":"industrial","execution_stage":"possession-recorded"}},{"type":"Feature","geometry":{"type":"Polygon","coordinates":[[[77.578277,28.210877],[77.578116,28.210877],[77.578114,28.210526],[77.578275,28.210525],[77.578277,28.210877]]]},"properties":{"objectid":747,"uniqueplotid":"PLNGINDUSTRIAL747","plotmap_id":"SECTOR-29_H83_HANDICRAFT PARK_IND","plotidentificationnumber":"H83","plotno":"H83","industrysector":"SECTOR-29","block":"HANDICRAFT PARK","plotsize":"595 SQMT","plotsize_at_the_time_of_allotme":"595 SQMT","landuse_type":"INDUSTRIAL","landuse_subcategory":"INDUSTRIAL","scheme_cod":"INDPARK","investment":5,"employment":17,"plotstatus":"Allotted","landallotementstatus":"SOLD","landallotementtype":"ALLOTTED","allotmentid":"YINDNH1048","allotment_date":1602786600000,"rate_of_allotment":6670,"lease_deed":"N","possession":"N","village_name":"Karoli Bangar","khasra_no":"363","longitude":77.57819547000001,"latitude":28.21070112,"authority":"YEIDA","category":"industrial","execution_stage":"allotted"}},{"type":"Feature","geometry":{"type":"Polygon","coordinates":[[[77.580324,28.211548],[77.579962,28.211549],[77.579959,28.211088],[77.580318,28.211086],[77.580324,28.211548]]]},"properties":{"objectid":786,"uniqueplotid":"PLNGINDUSTRIAL786","plotmap_id":"SECTOR-29_H87_HANDICRAFT PARK_IND","plotidentificationnumber":"H87","plotno":"H87","industrysector":"SECTOR-29","block":"HANDICRAFT PARK","plotsize":"1800 SQMT","plotsize_at_the_time_of_allotme":"1800 SQMT","plot_size_as_per_lease_plan":1821.15,"landuse_type":"INDUSTRIAL","landuse_subcategory":"INDUSTRIAL","scheme_cod":"IND07","investment":11,"employment":40,"plotstatus":"Allotted","landallotementstatus":"SOLD","landallotementtype":"ALLOTTED","allotmentid":"YIND071039","allotment_date":1625164200000,"rate_of_allotment":7010,"lease_deed":"Y","lease_deed_date":1723401000000,"possession":"N","village_name":"Tirthali,Karoli Bangar","khasra_no":"362,357,363,363","longitude":77.58014098,"latitude":28.211317440000002,"authority":"YEIDA","category":"industrial","execution_stage":"lease-recorded"}},{"type":"Feature","geometry":{"type":"Polygon","coordinates":[[[77.579962,28.211549],[77.579601,28.211551],[77.579599,28.211088],[77.579959,28.211088],[77.579962,28.211549]]]},"properties":{"objectid":787,"uniqueplotid":"PLNGINDUSTRIAL787","plotmap_id":"SECTOR-29_H86_HANDICRAFT PARK_IND","plotidentificationnumber":"H86","plotno":"H86","industrysector":"SECTOR-29","block":"HANDICRAFT PARK","plotsize":"1800 SQMT","plotsize_at_the_time_of_allotme":"1800 SQMT","landuse_type":"INDUSTRIAL","landuse_subcategory":"INDUSTRIAL","scheme_cod":"IND07","investment":11,"employment":40,"plotstatus":"Allotted","landallotementstatus":"SOLD","landallotementtype":"ALLOTTED","allotmentid":"YIND071037","allotment_date":1625077800000,"rate_of_allotment":7010,"lease_deed":"N","possession":"N","village_name":"Tirthali,Karoli Bangar","khasra_no":"362,357,363,363","longitude":77.57978014,"latitude":28.21131879,"authority":"YEIDA","category":"industrial","execution_stage":"allotted"}},{"type":"Feature","geometry":{"type":"Polygon","coordinates":[[[77.579601,28.211551],[77.57924,28.211552],[77.579237,28.21109],[77.579599,28.211088],[77.579601,28.211551]]]},"properties":{"objectid":788,"uniqueplotid":"PLNGINDUSTRIAL788","plotmap_id":"SECTOR-29_H85_HANDICRAFT PARK_IND","plotidentificationnumber":"H85","plotno":"H85","industrysector":"SECTOR-29","block":"HANDICRAFT PARK","plotsize":"1800 SQMT","plotsize_at_the_time_of_allotme":"1800 SQMT","landuse_type":"INDUSTRIAL","landuse_subcategory":"INDUSTRIAL","scheme_cod":"IND07","investment":11,"employment":40,"plotstatus":"Allotted","landallotementstatus":"SOLD","landallotementtype":"ALLOTTED","allotmentid":"YIND071034","allotment_date":1625077800000,"rate_of_allotment":7010,"lease_deed":"N","possession":"N","village_name":"Tirthali,Karoli Bangar","khasra_no":"362,357,356,363,363","longitude":77.57941879,"latitude":28.211319720000002,"authority":"YEIDA","category":"industrial","execution_stage":"allotted"}},{"type":"Feature","geometry":{"type":"Polygon","coordinates":[[[77.57924,28.211552],[77.578878,28.211554],[77.578876,28.211091],[77.579237,28.21109],[77.57924,28.211552]]]},"properties":{"objectid":789,"uniqueplotid":"PLNGINDUSTRIAL789","plotmap_id":"SECTOR-29_H84_HANDICRAFT PARK_IND","plotidentificationnumber":"H84","plotno":"H84","industrysector":"SECTOR-29","block":"HANDICRAFT PARK","plotsize":"1800 SQMT","plotsize_at_the_time_of_allotme":"1800 SQMT","landuse_type":"INDUSTRIAL","landuse_subcategory":"INDUSTRIAL","scheme_cod":"IND07","investment":11,"employment":40,"plotstatus":"Allotted","landallotementstatus":"SOLD","landallotementtype":"ALLOTTED","allotmentid":"YIND071036","allotment_date":1625077800000,"rate_of_allotment":7010,"lease_deed":"N","possession":"N","village_name":"Tirthali,Karoli Bangar","khasra_no":"357,356,363","longitude":77.57906009,"latitude":28.21132482,"authority":"YEIDA","category":"industrial","execution_stage":"allotted"}},{"type":"Feature","geometry":{"type":"Polygon","coordinates":[[[77.580326,28.212011],[77.579965,28.212012],[77.579962,28.211549],[77.580324,28.211548],[77.580326,28.212011]]]},"properties":{"objectid":829,"uniqueplotid":"PLNGINDUSTRIAL829","plotmap_id":"SECTOR-29_H90_HANDICRAFT PARK_IND","plotidentificationnumber":"H90","plotno":"H90","industrysector":"SECTOR-29","block":"HANDICRAFT PARK","plotsize":"1800 SQMT","plotsize_at_the_time_of_allotme":"1800 SQMT","plot_size_as_per_lease_plan":1821.15,"landuse_type":"INDUSTRIAL","landuse_subcategory":"INDUSTRIAL","scheme_cod":"IND07","investment":11,"employment":40,"plotstatus":"Allotted","landallotementstatus":"SOLD","landallotementtype":"ALLOTTED","allotmentid":"YIND071035","allotment_date":1625077800000,"rate_of_allotment":7010,"lease_deed":"Y","lease_deed_date":1724869800000,"possession":"N","village_name":"Tirthali","khasra_no":"351,363,346,349,368","longitude":77.58015315,"latitude":28.21179119,"authority":"YEIDA","category":"industrial","execution_stage":"lease-recorded"}},{"type":"Feature","geometry":{"type":"Polygon","coordinates":[[[77.579965,28.212012],[77.579603,28.212014],[77.579601,28.211551],[77.579962,28.211549],[77.579965,28.212012]]]},"properties":{"objectid":830,"uniqueplotid":"PLNGINDUSTRIAL830","plotmap_id":"SECTOR-29_H91_HANDICRAFT PARK_IND","plotidentificationnumber":"H91","plotno":"H91","industrysector":"SECTOR-29","block":"HANDICRAFT PARK","plotsize":"1800 SQMT","plotsize_at_the_time_of_allotme":"1800 SQMT","plot_size_as_per_lease_plan":1821.15,"landuse_type":"INDUSTRIAL","landuse_subcategory":"INDUSTRIAL","scheme_cod":"IND07","investment":11,"employment":40,"plotstatus":"Allotted","landallotementstatus":"SOLD","landallotementtype":"ALLOTTED","allotmentid":"YIND071041","allotment_date":1625077800000,"rate_of_allotment":7010,"lease_deed":"Y","lease_deed_date":1719513000000,"possession":"Y","possession_date":1725820200000,"village_name":"Tirthali","khasra_no":"351,363,368","longitude":77.57979657,"latitude":28.2117988,"authority":"YEIDA","category":"industrial","execution_stage":"possession-recorded"}},{"type":"Feature","geometry":{"type":"Polygon","coordinates":[[[77.579603,28.212014],[77.579242,28.212015],[77.57924,28.211552],[77.579601,28.211551],[77.579603,28.212014]]]},"properties":{"objectid":831,"uniqueplotid":"PLNGINDUSTRIAL831","plotmap_id":"SECTOR-29_H92_HANDICRAFT PARK_IND","plotidentificationnumber":"H92","plotno":"H92","industrysector":"SECTOR-29","block":"HANDICRAFT PARK","plotsize":"1800 SQMT","plotsize_at_the_time_of_allotme":"1800 SQMT","landuse_type":"INDUSTRIAL","landuse_subcategory":"INDUSTRIAL","scheme_cod":"IND07","investment":11,"employment":40,"plotstatus":"Allotted","landallotementstatus":"SOLD","landallotementtype":"ALLOTTED","allotmentid":"YIND071043","allotment_date":1625077800000,"rate_of_allotment":7010,"lease_deed":"N","possession":"N","village_name":"Tirthali","khasra_no":"362,357,353,356,363,354","longitude":77.57943595,"latitude":28.21180128,"authority":"YEIDA","category":"industrial","execution_stage":"allotted"}},{"type":"Feature","geometry":{"type":"Polygon","coordinates":[[[77.579242,28.212015],[77.57888,28.212016],[77.578878,28.211554],[77.57924,28.211552],[77.579242,28.212015]]]},"properties":{"objectid":832,"uniqueplotid":"PLNGINDUSTRIAL832","plotmap_id":"SECTOR-29_H93_HANDICRAFT PARK_IND","plotidentificationnumber":"H93","plotno":"H93","industrysector":"SECTOR-29","block":"HANDICRAFT PARK","plotsize":"1800 SQMT","plotsize_at_the_time_of_allotme":"1800 SQMT","landuse_type":"INDUSTRIAL","landuse_subcategory":"INDUSTRIAL","scheme_cod":"INDPARK","investment":15,"employment":53,"plotstatus":"Allotted","landallotementstatus":"SOLD","landallotementtype":"ALLOTTED","allotmentid":"YINDNH1064","allotment_date":1602786600000,"rate_of_allotment":6670,"lease_deed":"N","possession":"N","village_name":"Tirthali,Karoli Bangar","khasra_no":"353,356,354,363","longitude":77.57906521999999,"latitude":28.21179094,"authority":"YEIDA","category":"industrial","execution_stage":"allotted"}},{"type":"Feature","geometry":{"type":"Polygon","coordinates":[[[77.578727,28.215061],[77.578195,28.215064],[77.578192,28.214212],[77.578732,28.21421],[77.578727,28.215061]]]},"properties":{"objectid":898,"uniqueplotid":"PLNGINDUSTRIAL898","plotmap_id":"SECTOR-29_A90_APPAREL PARK_IND","plotidentificationnumber":"A90","plotno":"A90","industrysector":"SECTOR-29","block":"APPAREL PARK","plotsize":"5000 SQMT","plotsize_at_the_time_of_allotme":"5000 SQMT","plot_size_as_per_lease_plan":5008.5,"landuse_type":"INDUSTRIAL","landuse_subcategory":"INDUSTRIAL","scheme_cod":"IND09","investment":31,"employment":107,"plotstatus":"Allotted","landallotementstatus":"SOLD","landallotementtype":"ALLOTTED","allotmentid":"YIND091005","allotment_date":1633026600000,"rate_of_allotment":6802,"lease_deed":"Y","lease_deed_date":1682620200000,"possession":"Y","possession_date":1693161000000,"village_name":"Tirthali","khasra_no":"272,267,268,163,164","longitude":77.57845946,"latitude":28.21463284,"authority":"YEIDA","category":"industrial","execution_stage":"possession-recorded"}},{"type":"Feature","geometry":{"type":"Polygon","coordinates":[[[77.578195,28.215064],[77.577655,28.215065],[77.577652,28.214213],[77.578192,28.214212],[77.578195,28.215064]]]},"properties":{"objectid":899,"uniqueplotid":"PLNGINDUSTRIAL899","plotmap_id":"SECTOR-29_A89_APPAREL PARK_IND","plotidentificationnumber":"A89","plotno":"A89","industrysector":"SECTOR-29","block":"APPAREL PARK","plotsize":"5000 SQMT","landuse_type":"INDUSTRIAL","landuse_subcategory":"INDUSTRIAL","investment":0,"employment":0,"landallotementstatus":"VACANT","landallotementtype":"VACANT","village_name":"Tirthali","khasra_no":"272,267,268,271,164","longitude":77.57794057,"latitude":28.214665,"authority":"YEIDA","category":"industrial","execution_stage":"vacant"}},{"type":"Feature","geometry":{"type":"Polygon","coordinates":[[[77.577655,28.215065],[77.577115,28.215067],[77.577113,28.214214],[77.577652,28.214213],[77.577655,28.215065]]]},"properties":{"objectid":900,"uniqueplotid":"PLNGINDUSTRIAL900","plotmap_id":"SECTOR-29_A88_APPAREL PARK_IND","plotidentificationnumber":"A88","plotno":"A88","industrysector":"SECTOR-29","block":"APPAREL PARK","plotsize":"5000 SQMT","landuse_type":"INDUSTRIAL","landuse_subcategory":"INDUSTRIAL","investment":0,"employment":0,"landallotementstatus":"VACANT","landallotementtype":"VACANT","village_name":"Tirthali","khasra_no":"270,268,273,276,271","longitude":77.57741951999999,"latitude":28.21469561,"authority":"YEIDA","category":"industrial","execution_stage":"vacant"}},{"type":"Feature","geometry":{"type":"Polygon","coordinates":[[[77.577115,28.215067],[77.576576,28.215068],[77.576573,28.214216],[77.577113,28.214214],[77.577115,28.215067]]]},"properties":{"objectid":901,"uniqueplotid":"PLNGINDUSTRIAL901","plotmap_id":"SECTOR-29_A87_APPAREL PARK_IND","plotidentificationnumber":"A87","plotno":"A87","industrysector":"SECTOR-29","block":"APPAREL PARK","plotsize":"5000 SQMT","landuse_type":"INDUSTRIAL","landuse_subcategory":"INDUSTRIAL","investment":0,"employment":0,"landallotementstatus":"VACANT","landallotementtype":"VACANT","village_name":"Tirthali","khasra_no":"270,268,273,276","longitude":77.57684981,"latitude":28.21464988,"authority":"YEIDA","category":"industrial","execution_stage":"vacant"}},{"type":"Feature","geometry":{"type":"Polygon","coordinates":[[[77.57625,28.215069],[77.575924,28.21507],[77.575921,28.214217],[77.576247,28.214216],[77.57625,28.215069]]]},"properties":{"objectid":902,"uniqueplotid":"PLNGINDUSTRIAL902","plotmap_id":"SECTOR-29_A85_APPAREL PARK_IND","plotidentificationnumber":"A85","plotno":"A85","industrysector":"SECTOR-29","block":"APPAREL PARK","plotsize":"3000 SQMT","plotsize_at_the_time_of_allotme":"3000 SQMT","plot_size_as_per_lease_plan":3024,"landuse_type":"INDUSTRIAL","landuse_subcategory":"INDUSTRIAL","scheme_cod":"IND08","investment":19,"employment":66,"plotstatus":"Allotted","landallotementstatus":"SOLD","landallotementtype":"ALLOTTED","allotmentid":"YIND081012","allotment_date":1625509800000,"rate_of_allotment":7010,"lease_deed":"Y","lease_deed_date":1693765800000,"possession":"Y","possession_date":1716316200000,"village_name":"Tirthali","khasra_no":"264,269,277,265,261,273,276,260,266","longitude":77.57610283,"latitude":28.21468764,"authority":"YEIDA","category":"industrial","execution_stage":"possession-recorded"}},{"type":"Feature","geometry":{"type":"Polygon","coordinates":[[[77.575924,28.21507],[77.575598,28.215071],[77.575595,28.214218],[77.575921,28.214217],[77.575924,28.21507]]]},"properties":{"objectid":903,"uniqueplotid":"PLNGINDUSTRIAL903","plotmap_id":"SECTOR-29_A84_APPAREL PARK_IND","plotidentificationnumber":"A84","plotno":"A84","industrysector":"SECTOR-29","block":"APPAREL PARK","plotsize":"3000 SQMT","plotsize_at_the_time_of_allotme":"3000 SQMT","plot_size_as_per_lease_plan":3024,"landuse_type":"INDUSTRIAL","landuse_subcategory":"INDUSTRIAL","scheme_cod":"IND08","investment":19,"employment":66,"plotstatus":"Allotted","landallotementstatus":"SOLD","landallotementtype":"ALLOTTED","allotmentid":"YIND081013","allotment_date":1625509800000,"rate_of_allotment":7010,"lease_deed":"Y","lease_deed_date":1682620200000,"possession":"Y","possession_date":1693161000000,"village_name":"Tirthali","khasra_no":"264,261,260","longitude":77.57574828999999,"latitude":28.21461409,"authority":"YEIDA","category":"industrial","execution_stage":"possession-recorded"}},{"type":"Feature","geometry":{"type":"Polygon","coordinates":[[[77.57873,28.215913],[77.578198,28.215916],[77.578195,28.215064],[77.578727,28.215061],[77.57873,28.215913]]]},"properties":{"objectid":904,"uniqueplotid":"PLNGINDUSTRIAL904","plotmap_id":"SECTOR-29_A77_APPAREL PARK_IND","plotidentificationnumber":"A77","plotno":"A77","industrysector":"SECTOR-29","block":"APPAREL PARK","plotsize":"5000 SQMT","plotsize_at_the_time_of_allotme":"5000 SQMT","plot_size_as_per_lease_plan":5008.5,"landuse_type":"INDUSTRIAL","landuse_subcategory":"INDUSTRIAL","scheme_cod":"INDOPEN","investment":39,"employment":136,"plotstatus":"Allotted","landallotementstatus":"SOLD","landallotementtype":"ALLOTTED","allotmentid":"AP/INDOPEN00023","allotment_date":1596565800000,"rate_of_allotment":6216,"lease_deed":"Y","lease_deed_date":1682620200000,"possession":"Y","village_name":"Tirthali","khasra_no":"163,164","longitude":77.57844655,"latitude":28.215463229999997,"authority":"YEIDA","category":"industrial","execution_stage":"possession-recorded"}},{"type":"Feature","geometry":{"type":"Polygon","coordinates":[[[77.578198,28.215916],[77.577658,28.215918],[77.577655,28.215065],[77.578195,28.215064],[77.578198,28.215916]]]},"properties":{"objectid":905,"uniqueplotid":"PLNGINDUSTRIAL905","plotmap_id":"SECTOR-29_A78_APPAREL PARK_IND","plotidentificationnumber":"A78","plotno":"A78","industrysector":"SECTOR-29","block":"APPAREL PARK","plotsize":"5000 SQMT","landuse_type":"INDUSTRIAL","landuse_subcategory":"INDUSTRIAL","investment":0,"employment":0,"landallotementstatus":"VACANT","landallotementtype":"VACANT","village_name":"Tirthali","khasra_no":"267,165,268,164","longitude":77.57792729,"latitude":28.215492259999998,"authority":"YEIDA","category":"industrial","execution_stage":"vacant"}},{"type":"Feature","geometry":{"type":"Polygon","coordinates":[[[77.577658,28.215918],[77.577118,28.215919],[77.577115,28.215067],[77.577655,28.215065],[77.577658,28.215918]]]},"properties":{"objectid":906,"uniqueplotid":"PLNGINDUSTRIAL906","plotmap_id":"SECTOR-29_A79_APPAREL PARK_IND","plotidentificationnumber":"A79","plotno":"A79","industrysector":"SECTOR-29","block":"APPAREL PARK","plotsize":"5000 SQMT","plotsize_at_the_time_of_allotme":"5000 SQMT","landuse_type":"INDUSTRIAL","landuse_subcategory":"INDUSTRIAL","scheme_cod":"IND09","investment":31,"employment":107,"plotstatus":"Allotted","landallotementstatus":"SOLD","landallotementtype":"ALLOTTED","allotmentid":"YIND091008","allotment_date":1633026600000,"rate_of_allotment":6802,"lease_deed":"N","possession":"N","village_name":"Tirthali","khasra_no":"267,165,268,164","longitude":77.57738502,"latitude":28.21548963,"authority":"YEIDA","category":"industrial","execution_stage":"allotted"}},{"type":"Feature","geometry":{"type":"Polygon","coordinates":[[[77.577118,28.215919],[77.576579,28.21592],[77.576576,28.215068],[77.577115,28.215067],[77.577118,28.215919]]]},"properties":{"objectid":907,"uniqueplotid":"PLNGINDUSTRIAL907","plotmap_id":"SECTOR-29_A80_APPAREL PARK_IND","plotidentificationnumber":"A80","plotno":"A80","industrysector":"SECTOR-29","block":"APPAREL PARK","plotsize":"5000 SQMT","plotsize_at_the_time_of_allotme":"5000 SQMT","landuse_type":"INDUSTRIAL","landuse_subcategory":"INDUSTRIAL","scheme_cod":"IND09","investment":31,"employment":107,"plotstatus":"Allotted","landallotementstatus":"SOLD","landallotementtype":"ALLOTTED","allotmentid":"YIND091007","allotment_date":1633026600000,"rate_of_allotment":6802,"lease_deed":"N","possession":"N","village_name":"Tirthali","khasra_no":"267,166,251,165,182,268,260,266","longitude":77.57683869,"latitude":28.215480489999997,"authority":"YEIDA","category":"industrial","execution_stage":"allotted"}},{"type":"Feature","geometry":{"type":"Polygon","coordinates":[[[77.576579,28.21592],[77.576253,28.215921],[77.57625,28.215069],[77.576576,28.215068],[77.576579,28.21592]]]},"properties":{"objectid":908,"uniqueplotid":"PLNGINDUSTRIAL908","plotmap_id":"SECTOR-29_A81_APPAREL PARK_IND","plotidentificationnumber":"A81","plotno":"A81","industrysector":"SECTOR-29","block":"APPAREL PARK","plotsize":"3000 SQMT","plotsize_at_the_time_of_allotme":"3000 SQMT","landuse_type":"INDUSTRIAL","landuse_subcategory":"INDUSTRIAL","scheme_cod":"IND08","investment":19,"employment":66,"plotstatus":"Allotted","landallotementstatus":"SOLD","landallotementtype":"ALLOTTED","allotmentid":"YIND081014","allotment_date":1625509800000,"rate_of_allotment":7010,"lease_deed":"N","possession":"N","village_name":"Tirthali","khasra_no":"251,182,268,260,266","longitude":77.57640453,"latitude":28.215469459999998,"authority":"YEIDA","category":"industrial","execution_stage":"allotted"}},{"type":"Feature","geometry":{"type":"Polygon","coordinates":[[[77.576253,28.215921],[77.575927,28.215922],[77.575924,28.21507],[77.57625,28.215069],[77.576253,28.215921]]]},"properties":{"objectid":909,"uniqueplotid":"PLNGINDUSTRIAL909","plotmap_id":"SECTOR-29_A82_APPAREL PARK_IND","plotidentificationnumber":"A82","plotno":"A82","industrysector":"SECTOR-29","block":"APPAREL PARK","plotsize":"3000 SQMT","plotsize_at_the_time_of_allotme":"3000 SQMT","plot_size_as_per_lease_plan":3024,"landuse_type":"INDUSTRIAL","landuse_subcategory":"INDUSTRIAL","scheme_cod":"IND08","investment":19,"employment":66,"plotstatus":"Allotted","landallotementstatus":"SOLD","landallotementtype":"ALLOTTED","allotmentid":"YIND081011","allotment_date":1625509800000,"rate_of_allotment":7010,"lease_deed":"Y","lease_deed_date":1695925800000,"possession":"N","village_name":"Tirthali","khasra_no":"251,182,260","longitude":77.57608590999999,"latitude":28.21548905,"authority":"YEIDA","category":"industrial","execution_stage":"lease-recorded"}},{"type":"Feature","geometry":{"type":"Polygon","coordinates":[[[77.575927,28.215922],[77.575601,28.215923],[77.575598,28.215071],[77.575924,28.21507],[77.575927,28.215922]]]},"properties":{"objectid":910,"uniqueplotid":"PLNGINDUSTRIAL910","plotmap_id":"SECTOR-29_A83_APPAREL PARK_IND","plotidentificationnumber":"A83","plotno":"A83","industrysector":"SECTOR-29","block":"APPAREL PARK","plotsize":"3000 SQMT","plotsize_at_the_time_of_allotme":"3000 SQMT","plot_size_as_per_lease_plan":3024,"landuse_type":"INDUSTRIAL","landuse_subcategory":"INDUSTRIAL","scheme_cod":"INDOPEN","investment":24,"employment":84,"plotstatus":"Allotted","landallotementstatus":"SOLD","landallotementtype":"ALLOTTED","allotmentid":"AP/INDOPEN00053","allotment_date":1599589800000,"rate_of_allotment":6405,"lease_deed":"Y","lease_deed_date":1702578600000,"possession":"Y","village_name":"Tirthali","khasra_no":"259,261,260","longitude":77.57575477,"latitude":28.215476159999998,"authority":"YEIDA","category":"industrial","execution_stage":"possession-recorded"}},{"type":"Feature","geometry":{"type":"Polygon","coordinates":[[[77.577163,28.216661],[77.575603,28.216664],[77.575602,28.216139],[77.577161,28.216134],[77.577163,28.216661]]]},"properties":{"objectid":911,"uniqueplotid":"PLNGINDUSTRIAL911","plotmap_id":"SECTOR-29_A74_APPAREL PARK_IND","plotidentificationnumber":"A74","plotno":"A74","industrysector":"SECTOR-29","block":"APPAREL PARK","plotsize":"9000 SQMT","plotsize_at_the_time_of_allotme":"9000 SQMT","plot_size_as_per_lease_plan":8999.44,"landuse_type":"INDUSTRIAL","landuse_subcategory":"INDUSTRIAL","scheme_cod":"IND09","investment":51,"employment":180,"plotstatus":"Allotted","landallotementstatus":"SOLD","landallotementtype":"ALLOTTED","allotmentid":"YIND091011","allotment_date":1633026600000,"rate_of_allotment":6332,"lease_deed":"Y","lease_deed_date":1729535400000,"possession":"N","village_name":"Tirthali","khasra_no":"180,166,165,182","longitude":77.57640785000001,"latitude":28.21640784,"authority":"YEIDA","category":"industrial","execution_stage":"lease-recorded"}},{"type":"Feature","geometry":{"type":"Polygon","coordinates":[[[77.578733,28.216657],[77.577163,28.216661],[77.577161,28.216134],[77.578731,28.21613],[77.578733,28.216657]]]},"properties":{"objectid":1013,"uniqueplotid":"PLNGINDUSTRIAL1013","plotmap_id":"SECTOR-29_A73_APPAREL PARK_IND","plotidentificationnumber":"A73","plotno":"A73","industrysector":"SECTOR-29","block":"APPAREL PARK","plotsize":"9000 SQMT","plotsize_at_the_time_of_allotme":"9000 SQMT","plot_size_as_per_lease_plan":8999.44,"landuse_type":"INDUSTRIAL","landuse_subcategory":"INDUSTRIAL","scheme_cod":"IND09","investment":51,"employment":180,"plotstatus":"Allotted","landallotementstatus":"SOLD","landallotementtype":"ALLOTTED","allotmentid":"YIND091009","allotment_date":1633026600000,"rate_of_allotment":6332,"lease_deed":"Y","lease_deed_date":1721327400000,"possession":"N","village_name":"Tirthali","khasra_no":"165,164","longitude":77.57787699,"latitude":28.21637203,"authority":"YEIDA","category":"industrial","execution_stage":"lease-recorded"}},{"type":"Feature","geometry":{"type":"Polygon","coordinates":[[[77.576576,28.215068],[77.57625,28.215069],[77.576247,28.214216],[77.576573,28.214216],[77.576576,28.215068]]]},"properties":{"objectid":1014,"uniqueplotid":"PLNGINDUSTRIAL1014","plotmap_id":"SECTOR-29_A86_APPAREL PARK_IND","plotidentificationnumber":"A86","plotno":"A86","industrysector":"SECTOR-29","block":"APPAREL PARK","plotsize":"3000 SQMT","plotsize_at_the_time_of_allotme":"3000 SQMT","landuse_type":"INDUSTRIAL","landuse_subcategory":"INDUSTRIAL","scheme_cod":"INDPARK","investment":25,"employment":88,"plotstatus":"Allotted","landallotementstatus":"SOLD","landallotementtype":"ALLOTTED","allotmentid":"YINDNA1056","allotment_date":1602786600000,"rate_of_allotment":6670,"lease_deed":"N","possession":"N","village_name":"Tirthali","khasra_no":"269,277,270,265,268,273,276,260,266","longitude":77.57642302000001,"latitude":28.21467214,"authority":"YEIDA","category":"industrial","execution_stage":"allotted"}},{"type":"Feature","geometry":{"type":"Polygon","coordinates":[[[77.577803,28.205723],[77.577804,28.206291],[77.57612,28.206289],[77.57612,28.205725],[77.577803,28.205723]]]},"properties":{"objectid":1130,"uniqueplotid":"PLNGINDUSTRIAL1130","plotmap_id":"SECTOR-29_H3_HANDICRAFT PARK_IND","plotidentificationnumber":"H3","plotno":"H3","industrysector":"SECTOR-29","block":"HANDICRAFT PARK","plotsize":"10000 SQMT","landuse_type":"INDUSTRIAL","landuse_subcategory":"INDUSTRIAL","investment":0,"employment":0,"landallotementstatus":"VACANT","landallotementtype":"VACANT","village_name":"Karoli Bangar","khasra_no":"342,349,348,429,345,350,340,346,341,431,347,339","longitude":77.5771079,"latitude":28.20605426,"authority":"YEIDA","category":"industrial","execution_stage":"vacant"}},{"type":"Feature","geometry":{"type":"Polygon","coordinates":[[[77.577801,28.205165],[77.576119,28.205167],[77.576118,28.204614],[77.5778,28.204606],[77.577801,28.205165]]]},"properties":{"objectid":1131,"uniqueplotid":"PLNGINDUSTRIAL1131","plotmap_id":"SECTOR-29_H5_HANDICRAFT PARK_IND","plotidentificationnumber":"H5","plotno":"H5","industrysector":"SECTOR-29","block":"HANDICRAFT PARK","plotsize":"10000 SQMT","landuse_type":"INDUSTRIAL","landuse_subcategory":"INDUSTRIAL","investment":0,"employment":0,"landallotementstatus":"VACANT","landallotementtype":"VACANT","village_name":"Karoli Bangar","khasra_no":"430,436,424,426,427,337,432,336,437,431,438,434,433,435","longitude":77.5770306,"latitude":28.20491013,"last_edited_date":1765273090000,"authority":"YEIDA","category":"industrial","execution_stage":"vacant"}},{"type":"Feature","geometry":{"type":"Polygon","coordinates":[[[77.579373,28.205531],[77.579373,28.205165],[77.579678,28.205165],[77.579678,28.205526],[77.579373,28.205531]]]},"properties":{"objectid":5503,"uniqueplotid":"129202515132430","industrysector":"SECTOR-29","block":"Handicraft Park","landuse_subcategory":"INDUSTRIAL","village_name":"Karoli Bangar","longitude":77.579526,"latitude":28.205348,"last_edited_date":1765273406000,"authority":"YEIDA","category":"industrial","execution_stage":"unknown"}}]}
